{"type":"FeatureCollection","features":[{"type":"Feature","id":"01001","properties":{"name":"Autauga","fips":"01001"},"geometry":{"type":"Polygon","coordinates":[[[-86.4968,32.3444],[-86.7179,32.4028],[-86.8149,32.3408],[-86.8906,32.503],[-86.9176,32.6642],[-86.7134,32.6617],[-86.7142,32.7057],[-86.4131,32.7074],[-86.4112,32.4099],[-86.4968,32.3444]]]}},{"type":"Feature","id":"01003","properties":{"name":"Baldwin","fips":"01003"},"geometry":{"type":"Polygon","coordinates":[[[-87.5989,30.9975],[-87.5941,30.9763],[-87.6014,30.9363],[-87.6222,30.8975],[-87.6349,30.8659],[-87.6241,30.8457],[-87.5326,30.7435],[-87.5029,30.7224],[-87.4975,30.7201],[-87.4812,30.7165],[-87.4494,30.6989],[-87.4071,30.6718],[-87.397,30.6536],[-87.3942,30.6417],[-87.3945,30.6252],[-87.4499,30.5147],[-87.4498,30.5144],[-87.4483,30.5131],[-87.4306,30.4911],[-87.4192,30.4102],[-87.4275,30.4084],[-87.4407,30.3915],[-87.4514,30.3672],[-87.451,30.3463],[-87.4501,30.3111],[-87.4524,30.3002],[-87.5183,30.2804],[-87.5445,30.2757],[-87.5581,30.2744],[-87.5814,30.2693],[-87.6569,30.2497],[-87.7355,30.2407],[-87.8006,30.2294],[-87.8385,30.2272],[-87.9261,30.2304],[-87.9623,30.2295],[-88.0,30.2258],[-88.0146,30.2224],[-88.0284,30.2211],[-88.0293,30.2227],[-88.024,30.2304],[-87.9668,30.2356],[-87.949,30.2566],[-87.936,30.2615],[-87.9182,30.2533],[-87.9138,30.2478],[-87.9005,30.2415],[-87.8932,30.2392],[-87.8793,30.2386],[-87.8601,30.2403],[-87.8177,30.2543],[-87.8021,30.2531],[-87.7878,30.2542],[-87.7666,30.2624],[-87.7553,30.2773],[-87.7555,30.2912],[-87.7728,30.3117],[-87.7967,30.3242],[-87.8093,30.3327],[-87.8299,30.3538],[-87.8372,30.3693],[-87.8451,30.3774],[-87.8538,30.3785],[-87.865,30.3834],[-87.9063,30.4094],[-87.9089,30.4142],[-87.9141,30.4461],[-87.92,30.4706],[-87.9242,30.4761],[-87.9319,30.4811],[-87.9334,30.4874],[-87.9111,30.5258],[-87.9053,30.5376],[-87.9017,30.5509],[-87.9042,30.566],[-87.9079,30.5731],[-87.9114,30.5763],[-87.915,30.5859],[-87.9125,30.6158],[-87.9193,30.6361],[-87.9311,30.6527],[-87.9367,30.6574],[-87.956,30.6589],[-87.9812,30.6751],[-88.0084,30.685],[-88.0263,30.7534],[-87.9445,30.827],[-87.9813,30.8869],[-87.9412,31.0482],[-87.9729,31.1627],[-87.9437,31.1613],[-87.9466,31.1929],[-87.9136,31.1874],[-87.7652,31.2973],[-87.6159,31.2445],[-87.6154,30.9974],[-87.5989,30.9975]]]}},{"type":"Feature","id":"01005","properties":{"name":"Barbour","fips":"01005"},"geometry":{"type":"Polygon","coordinates":[[[-85.056,32.0631],[-85.0502,32.0242],[-85.0622,31.9919],[-85.0723,31.9648],[-85.0821,31.9447],[-85.1066,31.9152],[-85.1329,31.8883],[-85.1418,31.8399],[-85.1413,31.7832],[-85.1387,31.7804],[-85.1307,31.7723],[-85.1252,31.7671],[-85.1245,31.7631],[-85.2161,31.7024],[-85.416,31.7067],[-85.4164,31.6195],[-85.7483,31.618],[-85.6662,31.7729],[-85.6577,31.8803],[-85.5873,31.9974],[-85.4285,32.015],[-85.4102,32.1467],[-85.2577,32.1483],[-85.1851,32.0617],[-85.056,32.0631]]]}},{"type":"Feature","id":"01007","properties":{"name":"Bibb","fips":"01007"},"geometry":{"type":"Polygon","coordinates":[[[-87.4212,32.8745],[-87.4201,32.9026],[-87.4219,33.0034],[-87.3185,33.0062],[-87.2819,33.1331],[-87.1993,33.1307],[-87.1992,33.1966],[-87.0657,33.2469],[-87.0268,33.2465],[-87.0256,33.1658],[-86.8812,33.0499],[-86.8761,32.8363],[-87.0192,32.837],[-87.3192,32.8315],[-87.3195,32.8751],[-87.4212,32.8745]]]}},{"type":"Feature","id":"01009","properties":{"name":"Blount","fips":"01009"},"geometry":{"type":"Polygon","coordinates":[[[-86.5778,33.7653],[-86.7591,33.8406],[-86.9537,33.8153],[-86.9543,33.8449],[-86.963,33.8449],[-86.9634,33.8582],[-86.9244,33.9092],[-86.7939,33.9521],[-86.6854,34.0591],[-86.6921,34.0927],[-86.5996,34.1199],[-86.5149,34.2544],[-86.453,34.2593],[-86.3035,34.0991],[-86.3327,33.9861],[-86.3702,33.9398],[-86.3256,33.9401],[-86.3775,33.8617],[-86.5775,33.802],[-86.5778,33.7653]]]}},{"type":"Feature","id":"01011","properties":{"name":"Bullock","fips":"01011"},"geometry":{"type":"Polygon","coordinates":[[[-85.4102,32.1467],[-85.4285,32.015],[-85.5873,31.9974],[-85.6577,31.8803],[-85.791,31.8804],[-85.79,31.9673],[-85.8843,31.9673],[-85.8937,32.0474],[-85.9969,32.051],[-85.9992,32.2505],[-85.9193,32.2744],[-85.8562,32.232],[-85.4335,32.2346],[-85.4274,32.1466],[-85.4102,32.1467]]]}},{"type":"Feature","id":"01013","properties":{"name":"Butler","fips":"01013"},"geometry":{"type":"Polygon","coordinates":[[[-86.7016,31.5239],[-86.8394,31.5252],[-86.9068,31.6327],[-86.9059,31.753],[-86.9069,31.8306],[-86.9089,31.9617],[-86.8576,31.9622],[-86.4482,31.9646],[-86.4486,31.6556],[-86.4995,31.6552],[-86.4992,31.5253],[-86.6902,31.5237],[-86.7016,31.5239]]]}},{"type":"Feature","id":"01015","properties":{"name":"Calhoun","fips":"01015"},"geometry":{"type":"Polygon","coordinates":[[[-86.1456,33.6791],[-86.044,33.7636],[-86.067,33.8392],[-86.0664,33.8411],[-86.0653,33.8422],[-86.0491,33.8416],[-86.0488,33.8527],[-86.0213,33.8515],[-86.0215,33.8661],[-85.9952,33.8649],[-85.995,33.8796],[-85.9864,33.8792],[-85.9865,33.8937],[-85.9692,33.8929],[-85.9692,33.9146],[-85.739,33.9685],[-85.5294,33.956],[-85.5301,33.9414],[-85.5325,33.8892],[-85.638,33.7733],[-85.6386,33.6484],[-85.7961,33.5562],[-85.7946,33.5856],[-85.9949,33.5865],[-86.0507,33.6746],[-86.1456,33.6791]]]}},{"type":"Feature","id":"01017","properties":{"name":"Chambers","fips":"01017"},"geometry":{"type":"Polygon","coordinates":[[[-85.1841,32.8705],[-85.1234,32.7722],[-85.132,32.7642],[-85.1368,32.7465],[-85.285,32.7307],[-85.5932,32.7285],[-85.5932,33.1073],[-85.2324,33.1081],[-85.2233,33.0626],[-85.2219,33.0555],[-85.1841,32.8705]]]}},{"type":"Feature","id":"01019","properties":{"name":"Cherokee","fips":"01019"},"geometry":{"type":"Polygon","coordinates":[[[-85.5121,34.5183],[-85.5084,34.5012],[-85.5025,34.4745],[-85.5023,34.474],[-85.4623,34.2864],[-85.4587,34.2694],[-85.4581,34.2657],[-85.4554,34.2529],[-85.4551,34.2507],[-85.4217,34.0808],[-85.3988,33.9641],[-85.5301,33.9414],[-85.5294,33.956],[-85.739,33.9685],[-85.8436,34.2],[-85.6366,34.3666],[-85.577,34.4835],[-85.5137,34.5241],[-85.5121,34.5183]]]}},{"type":"Feature","id":"01021","properties":{"name":"Chilton","fips":"01021"},"geometry":{"type":"Polygon","coordinates":[[[-86.5173,33.0206],[-86.516,32.9294],[-86.457,32.8139],[-86.375,32.7536],[-86.4133,32.7506],[-86.4131,32.7074],[-86.7142,32.7057],[-86.7134,32.6617],[-86.9176,32.6642],[-87.0177,32.6633],[-87.0178,32.7295],[-87.0192,32.837],[-86.8761,32.8363],[-86.8812,33.0499],[-86.8816,33.0719],[-86.61,33.07],[-86.5173,33.0206]]]}},{"type":"Feature","id":"01023","properties":{"name":"Choctaw","fips":"01023"},"geometry":{"type":"Polygon","coordinates":[[[-88.4386,32.1728],[-88.4317,32.2277],[-88.4215,32.3087],[-87.9307,32.3106],[-88.0191,32.2852],[-88.0071,32.1853],[-88.0706,32.0617],[-88.0735,31.9902],[-88.1214,31.9503],[-88.1804,31.8145],[-88.0883,31.6993],[-88.4644,31.698],[-88.4711,31.8509],[-88.4712,31.8514],[-88.47,31.8938],[-88.4689,31.9303],[-88.4687,31.9332],[-88.455,32.0397],[-88.455,32.0406],[-88.4387,32.1721],[-88.4386,32.1728]]]}},{"type":"Feature","id":"01025","properties":{"name":"Clarke","fips":"01025"},"geometry":{"type":"Polygon","coordinates":[[[-87.9442,31.9899],[-87.6678,31.9914],[-87.6675,31.9585],[-87.6201,31.8271],[-87.5009,31.8293],[-87.5161,31.6978],[-87.5668,31.6971],[-87.5654,31.5536],[-87.6031,31.4096],[-87.6656,31.4232],[-87.7848,31.3247],[-87.7652,31.2973],[-87.9136,31.1874],[-87.9466,31.1929],[-87.9596,31.3162],[-87.9081,31.323],[-87.9061,31.4918],[-88.0722,31.5945],[-88.0787,31.6696],[-88.0806,31.6778],[-88.0869,31.6862],[-88.0883,31.6993],[-88.1804,31.8145],[-88.1214,31.9503],[-88.0735,31.9902],[-87.9442,31.9899]]]}},{"type":"Feature","id":"01027","properties":{"name":"Clay","fips":"01027"},"geometry":{"type":"Polygon","coordinates":[[[-85.8519,33.4987],[-85.8878,33.4694],[-85.7827,33.4693],[-85.7654,33.4986],[-85.6435,33.4959],[-85.6537,33.1066],[-85.9747,33.1053],[-86.0092,33.0903],[-86.1744,33.1044],[-86.1728,33.1957],[-86.1206,33.1945],[-86.1182,33.2963],[-85.9803,33.2942],[-85.9765,33.3819],[-85.9238,33.3962],[-85.9049,33.4987],[-85.8519,33.4987]]]}},{"type":"Feature","id":"01029","properties":{"name":"Cleburne","fips":"01029"},"geometry":{"type":"Polygon","coordinates":[[[-85.338,33.6531],[-85.3225,33.5742],[-85.315,33.5359],[-85.3141,33.5302],[-85.314,33.5298],[-85.3044,33.4829],[-85.6435,33.4959],[-85.7654,33.4986],[-85.7827,33.4693],[-85.8878,33.4694],[-85.8519,33.4987],[-85.7969,33.5418],[-85.7961,33.5562],[-85.6386,33.6484],[-85.638,33.7733],[-85.5325,33.8892],[-85.5301,33.9414],[-85.3988,33.9641],[-85.3867,33.9017],[-85.3618,33.774],[-85.3605,33.768],[-85.338,33.6531]]]}},{"type":"Feature","id":"01031","properties":{"name":"Coffee","fips":"01031"},"geometry":{"type":"Polygon","coordinates":[[[-85.7914,31.1963],[-86.1935,31.1922],[-86.1964,31.4254],[-86.194,31.4401],[-86.1948,31.5299],[-86.144,31.5377],[-86.1459,31.6177],[-85.7891,31.618],[-85.7914,31.1963]]]}},{"type":"Feature","id":"01033","properties":{"name":"Colbert","fips":"01033"},"geometry":{"type":"Polygon","coordinates":[[[-88.14,34.5817],[-88.1392,34.5878],[-88.1387,34.5892],[-88.1184,34.7243],[-88.0979,34.8922],[-87.9732,34.8826],[-87.8358,34.7412],[-87.5244,34.8324],[-87.4265,34.8],[-87.4165,34.7675],[-87.5297,34.5671],[-88.14,34.5817]]]}},{"type":"Feature","id":"01035","properties":{"name":"Conecuh","fips":"01035"},"geometry":{"type":"Polygon","coordinates":[[[-86.7016,31.5239],[-86.6672,31.3694],[-86.7003,31.1922],[-86.7725,31.2022],[-86.764,31.2613],[-87.4275,31.2604],[-87.1666,31.5196],[-87.1351,31.6424],[-87.0523,31.7168],[-86.9059,31.753],[-86.9068,31.6327],[-86.8394,31.5252],[-86.7016,31.5239]]]}},{"type":"Feature","id":"01037","properties":{"name":"Coosa","fips":"01037"},"geometry":{"type":"Polygon","coordinates":[[[-86.3368,32.7675],[-86.3368,32.7538],[-86.375,32.7536],[-86.457,32.8139],[-86.516,32.9294],[-86.5173,33.0206],[-86.491,33.1029],[-86.2263,33.1041],[-86.1744,33.1044],[-86.0092,33.0903],[-86.0072,32.755],[-86.3195,32.7537],[-86.3368,32.7675]]]}},{"type":"Feature","id":"01039","properties":{"name":"Covington","fips":"01039"},"geometry":{"type":"Polygon","coordinates":[[[-86.3886,30.9942],[-86.3886,30.9942],[-86.3919,30.9942],[-86.4049,30.994],[-86.4547,30.9938],[-86.4583,30.994],[-86.5128,30.9937],[-86.5199,30.9932],[-86.5634,30.9952],[-86.5676,30.9951],[-86.6647,30.9945],[-86.6784,30.9945],[-86.6883,30.995],[-86.7003,31.1922],[-86.6672,31.3694],[-86.7016,31.5239],[-86.6902,31.5237],[-86.4992,31.5253],[-86.3999,31.5271],[-86.3985,31.4513],[-86.2802,31.5285],[-86.277,31.4556],[-86.194,31.4401],[-86.1964,31.4254],[-86.1935,31.1922],[-86.1872,30.994],[-86.2892,30.9938],[-86.3046,30.994],[-86.3649,30.9945],[-86.3693,30.9945],[-86.3745,30.9945],[-86.3886,30.9942]]]}},{"type":"Feature","id":"01041","properties":{"name":"Crenshaw","fips":"01041"},"geometry":{"type":"Polygon","coordinates":[[[-86.194,31.4401],[-86.277,31.4556],[-86.2802,31.5285],[-86.3985,31.4513],[-86.3999,31.5271],[-86.4992,31.5253],[-86.4995,31.6552],[-86.4486,31.6556],[-86.4482,31.9646],[-86.4063,32.0507],[-86.3036,32.0517],[-86.3022,31.9651],[-86.1914,31.9665],[-86.1994,31.7904],[-86.1483,31.791],[-86.1459,31.6177],[-86.144,31.5377],[-86.1948,31.5299],[-86.194,31.4401]]]}},{"type":"Feature","id":"01043","properties":{"name":"Cullman","fips":"01043"},"geometry":{"type":"Polygon","coordinates":[[[-87.1099,34.2993],[-87.1101,34.3138],[-87.0923,34.3123],[-86.5819,34.3047],[-86.453,34.2593],[-86.5149,34.2544],[-86.5996,34.1199],[-86.6921,34.0927],[-86.6854,34.0591],[-86.7939,33.9521],[-86.9244,33.9092],[-86.9634,33.8582],[-87.0918,33.8901],[-87.151,33.9932],[-87.112,33.9924],[-87.1099,34.2993]]]}},{"type":"Feature","id":"01045","properties":{"name":"Dale","fips":"01045"},"geometry":{"type":"Polygon","coordinates":[[[-85.4164,31.6195],[-85.4174,31.315],[-85.4859,31.2461],[-85.66,31.2709],[-85.7109,31.1952],[-85.7914,31.1963],[-85.7891,31.618],[-85.7499,31.6179],[-85.7483,31.618],[-85.4164,31.6195]]]}},{"type":"Feature","id":"01047","properties":{"name":"Dallas","fips":"01047"},"geometry":{"type":"Polygon","coordinates":[[[-86.907,32.048],[-87.1781,32.0475],[-87.2629,32.147],[-87.4722,32.2649],[-87.4731,32.3076],[-87.4217,32.3081],[-87.4232,32.483],[-87.1165,32.4877],[-87.0178,32.7295],[-87.0177,32.6633],[-86.9176,32.6642],[-86.8906,32.503],[-86.8149,32.3408],[-86.8644,32.2749],[-86.8103,32.2247],[-86.9083,32.225],[-86.907,32.048]]]}},{"type":"Feature","id":"01049","properties":{"name":"DeKalb","fips":"01049"},"geometry":{"type":"Polygon","coordinates":[[[-85.5137,34.5242],[-85.5137,34.5241],[-85.577,34.4835],[-85.6366,34.3666],[-85.8436,34.2],[-86.1061,34.2008],[-86.1104,34.4278],[-86.0577,34.476],[-86.0038,34.48],[-85.7855,34.6246],[-85.5831,34.8604],[-85.5525,34.7083],[-85.5525,34.7081],[-85.5413,34.6568],[-85.5413,34.6567],[-85.5344,34.6238],[-85.5271,34.5887],[-85.5139,34.5252],[-85.5137,34.5242]]]}},{"type":"Feature","id":"01051","properties":{"name":"Elmore","fips":"01051"},"geometry":{"type":"Polygon","coordinates":[[[-86.3368,32.7675],[-86.3195,32.7537],[-86.0072,32.755],[-85.8799,32.7545],[-85.8861,32.4931],[-85.8944,32.4476],[-86.023,32.42],[-86.1923,32.4361],[-86.2371,32.495],[-86.4112,32.4099],[-86.4131,32.7074],[-86.4133,32.7506],[-86.375,32.7536],[-86.3368,32.7538],[-86.3368,32.7675]]]}},{"type":"Feature","id":"01053","properties":{"name":"Escambia","fips":"01053"},"geometry":{"type":"Polygon","coordinates":[[[-87.1631,30.9991],[-87.255,30.9983],[-87.2556,30.9982],[-87.257,30.9982],[-87.258,30.9983],[-87.2597,30.9982],[-87.2605,30.9982],[-87.2656,30.9983],[-87.2889,30.9983],[-87.291,30.9984],[-87.3016,30.9984],[-87.304,30.9982],[-87.3122,30.9984],[-87.334,30.9983],[-87.3557,30.9982],[-87.364,30.9982],[-87.3678,30.9983],[-87.4258,30.9981],[-87.4323,30.9982],[-87.4498,30.9983],[-87.4557,30.9983],[-87.4587,30.9984],[-87.4616,30.9982],[-87.4618,30.9982],[-87.4668,30.9982],[-87.4669,30.9982],[-87.4787,30.9982],[-87.4797,30.9982],[-87.4802,30.9982],[-87.5485,30.9979],[-87.5713,30.9979],[-87.5989,30.9975],[-87.5989,30.9975],[-87.6154,30.9974],[-87.6159,31.2445],[-87.4275,31.2604],[-86.764,31.2613],[-86.7725,31.2022],[-86.7003,31.1922],[-86.6883,30.995],[-86.7254,30.9969],[-86.7273,30.9969],[-86.7284,30.9967],[-86.7857,30.997],[-86.7859,30.997],[-86.8305,30.9974],[-86.8319,30.9974],[-86.873,30.9976],[-86.8881,30.9976],[-87.0271,30.9993],[-87.0364,30.9993],[-87.04,30.9996],[-87.0537,30.9991],[-87.0641,30.9992],[-87.0686,30.9991],[-87.1626,30.9991],[-87.1631,30.9991]]]}},{"type":"Feature","id":"01055","properties":{"name":"Etowah","fips":"01055"},"geometry":{"type":"Polygon","coordinates":[[[-85.8436,34.2],[-85.739,33.9685],[-85.9692,33.9146],[-85.9692,33.8929],[-85.9865,33.8937],[-85.9864,33.8792],[-85.995,33.8796],[-85.9952,33.8649],[-86.0215,33.8661],[-86.0213,33.8515],[-86.0488,33.8527],[-86.0491,33.8416],[-86.0653,33.8422],[-86.1992,33.9889],[-86.3256,33.9401],[-86.3702,33.9398],[-86.3327,33.9861],[-86.3035,34.0991],[-86.2061,34.1726],[-86.1061,34.2008],[-85.8436,34.2]]]}},{"type":"Feature","id":"01057","properties":{"name":"Fayette","fips":"01057"},"geometry":{"type":"Polygon","coordinates":[[[-87.9518,33.9199],[-87.6359,33.9153],[-87.636,33.872],[-87.5316,33.8676],[-87.5283,33.692],[-87.4238,33.6891],[-87.4237,33.6021],[-87.6317,33.6098],[-87.6667,33.5217],[-87.8407,33.5248],[-87.8586,33.5253],[-87.9465,33.5241],[-87.9518,33.9199]]]}},{"type":"Feature","id":"01059","properties":{"name":"Franklin","fips":"01059"},"geometry":{"type":"Polygon","coordinates":[[[-88.1553,34.4631],[-88.14,34.5817],[-87.5297,34.5671],[-87.5297,34.3046],[-87.6347,34.307],[-88.1736,34.3211],[-88.1659,34.3809],[-88.1656,34.3831],[-88.1553,34.4631]]]}},{"type":"Feature","id":"01061","properties":{"name":"Geneva","fips":"01061"},"geometry":{"type":"Polygon","coordinates":[[[-85.498,30.9969],[-85.4983,30.9969],[-86.035,30.9933],[-86.0525,30.9932],[-86.0562,30.9931],[-86.1629,30.9937],[-86.169,30.9937],[-86.1752,30.9938],[-86.1802,30.994],[-86.1872,30.994],[-86.1935,31.1922],[-85.7914,31.1963],[-85.7109,31.1952],[-85.4858,31.1999],[-85.4883,30.997],[-85.498,30.9969]]]}},{"type":"Feature","id":"01063","properties":{"name":"Greene","fips":"01063"},"geometry":{"type":"Polygon","coordinates":[[[-88.027,33.0636],[-87.8375,33.1536],[-87.838,33.1369],[-87.8322,33.0173],[-87.7157,33.0068],[-87.8705,32.7624],[-87.8285,32.7689],[-87.796,32.7156],[-87.8134,32.6339],[-87.7368,32.5892],[-87.8126,32.5246],[-87.8234,32.5204],[-87.8223,32.5437],[-87.8451,32.5467],[-87.8534,32.5321],[-87.8979,32.6],[-87.8409,32.605],[-87.9287,32.6323],[-88.0573,32.5934],[-88.1096,32.771],[-88.0793,32.7729],[-88.2073,32.9248],[-88.1719,32.9959],[-88.027,33.0636]]]}},{"type":"Feature","id":"01065","properties":{"name":"Hale","fips":"01065"},"geometry":{"type":"Polygon","coordinates":[[[-87.4212,32.8745],[-87.4722,32.8306],[-87.4739,32.6559],[-87.5252,32.6557],[-87.5245,32.482],[-87.7287,32.4809],[-87.8126,32.5246],[-87.7368,32.5892],[-87.8134,32.6339],[-87.796,32.7156],[-87.8285,32.7689],[-87.8705,32.7624],[-87.7157,33.0068],[-87.4219,33.0034],[-87.4201,32.9026],[-87.4212,32.8745]]]}},{"type":"Feature","id":"01067","properties":{"name":"Henry","fips":"01067"},"geometry":{"type":"Polygon","coordinates":[[[-85.0469,31.5175],[-85.0681,31.4276],[-85.0877,31.3087],[-85.1791,31.3077],[-85.4174,31.315],[-85.4164,31.6195],[-85.416,31.7067],[-85.2161,31.7024],[-85.1245,31.7631],[-85.1189,31.7327],[-85.1222,31.7228],[-85.1265,31.7168],[-85.1255,31.695],[-85.087,31.641],[-85.0652,31.6244],[-85.0595,31.6217],[-85.0575,31.6186],[-85.0413,31.541],[-85.0469,31.5175]]]}},{"type":"Feature","id":"01069","properties":{"name":"Houston","fips":"01069"},"geometry":{"type":"Polygon","coordinates":[[[-85.0024,31.0007],[-85.0241,31.0007],[-85.0275,31.0007],[-85.0301,31.0007],[-85.0312,31.0006],[-85.0521,31.0006],[-85.0548,31.0006],[-85.0575,31.0006],[-85.1458,31.0007],[-85.1521,31.0009],[-85.1522,31.0008],[-85.1545,31.0008],[-85.4883,30.997],[-85.4858,31.1999],[-85.7109,31.1952],[-85.66,31.2709],[-85.4859,31.2461],[-85.4174,31.315],[-85.1791,31.3077],[-85.0877,31.3087],[-85.1016,31.2834],[-85.1119,31.2584],[-85.1075,31.1865],[-85.1002,31.1655],[-85.0921,31.1603],[-85.0836,31.1596],[-85.0766,31.1569],[-85.0356,31.1082],[-85.0297,31.0962],[-85.0221,31.0755],[-84.9994,31.0138],[-85.0024,31.0007]]]}},{"type":"Feature","id":"01071","properties":{"name":"Jackson","fips":"01071"},"geometry":{"type":"Polygon","coordinates":[[[-85.8639,34.9884],[-85.8287,34.9882],[-85.8244,34.9881],[-85.6052,34.9847],[-85.5952,34.9243],[-85.5952,34.9242],[-85.5831,34.8604],[-85.7855,34.6246],[-86.0038,34.48],[-86.0577,34.476],[-86.1398,34.5333],[-86.1485,34.5991],[-86.1675,34.5993],[-86.1729,34.5993],[-86.1741,34.5993],[-86.1753,34.5994],[-86.1786,34.5994],[-86.1791,34.5994],[-86.183,34.5994],[-86.183,34.5994],[-86.1998,34.5996],[-86.2181,34.5998],[-86.219,34.5998],[-86.219,34.5998],[-86.2212,34.5999],[-86.2242,34.5999],[-86.2338,34.6],[-86.2351,34.6],[-86.237,34.6],[-86.2456,34.6001],[-86.2457,34.6001],[-86.25,34.6001],[-86.2524,34.6001],[-86.2541,34.6001],[-86.2578,34.6001],[-86.2661,34.6001],[-86.2691,34.6001],[-86.2758,34.6],[-86.2781,34.6],[-86.2795,34.6],[-86.2846,34.6],[-86.3005,34.5999],[-86.3056,34.5999],[-86.3117,34.5998],[-86.316,34.5998],[-86.316,34.5998],[-86.3171,34.5998],[-86.3183,34.5998],[-86.3183,34.5998],[-86.327,34.5997],[-86.3269,34.5996],[-86.3269,34.5994],[-86.359,34.6326],[-86.3113,34.9911],[-85.8639,34.9884]]]}},{"type":"Feature","id":"01073","properties":{"name":"Jefferson","fips":"01073"},"geometry":{"type":"Polygon","coordinates":[[[-87.0236,33.2464],[-87.0268,33.2465],[-87.0657,33.2469],[-87.0658,33.2759],[-87.0746,33.276],[-87.0746,33.2797],[-87.0875,33.2797],[-87.0875,33.2907],[-87.1268,33.2908],[-87.1271,33.306],[-87.162,33.3066],[-87.1622,33.321],[-87.1796,33.3211],[-87.1798,33.328],[-87.18,33.343],[-87.1948,33.3431],[-87.3308,33.4915],[-87.2669,33.5129],[-87.1858,33.5559],[-87.1794,33.6138],[-87.0578,33.6564],[-87.006,33.7872],[-86.9537,33.8153],[-86.7591,33.8406],[-86.5778,33.7653],[-86.5428,33.7652],[-86.5168,33.5459],[-86.6045,33.4671],[-86.6744,33.4665],[-86.8306,33.332],[-87.0236,33.2464]]]}},{"type":"Feature","id":"01075","properties":{"name":"Lamar","fips":"01075"},"geometry":{"type":"Polygon","coordinates":[[[-88.2484,33.7449],[-88.2265,33.9116],[-88.2265,33.9117],[-88.2264,33.9129],[-88.2072,34.0583],[-87.9869,34.0521],[-87.9518,33.9199],[-87.9465,33.5241],[-88.2746,33.534],[-88.27,33.5708],[-88.2695,33.5729],[-88.2691,33.5769],[-88.2682,33.585],[-88.2671,33.592],[-88.267,33.5942],[-88.2563,33.6821],[-88.2561,33.6829],[-88.2546,33.6958],[-88.2544,33.6988],[-88.2484,33.7449]]]}},{"type":"Feature","id":"01077","properties":{"name":"Lauderdale","fips":"01077"},"geometry":{"type":"Polygon","coordinates":[[[-88.1825,35.0077],[-87.9849,35.0063],[-87.878,35.0055],[-87.8777,35.0055],[-87.8726,35.0056],[-87.8535,35.0055],[-87.8534,35.0056],[-87.8519,35.0057],[-87.7736,35.0049],[-87.7676,35.0048],[-87.7589,35.0047],[-87.7095,35.0041],[-87.7023,35.0039],[-87.7005,35.004],[-87.6968,35.0039],[-87.6714,35.0035],[-87.6641,35.0035],[-87.606,35.0033],[-87.4286,35.0028],[-87.4215,35.0027],[-87.4174,35.0027],[-87.3913,35.0024],[-87.3811,35.0021],[-87.3593,35.0018],[-87.3493,35.0017],[-87.2992,35.0009],[-87.27,35.0004],[-87.2305,34.9995],[-87.2241,34.9993],[-87.2167,34.9991],[-87.2108,34.999],[-87.2149,34.816],[-87.2607,34.7586],[-87.4265,34.8],[-87.5244,34.8324],[-87.8358,34.7412],[-87.9732,34.8826],[-88.0979,34.8922],[-88.125,34.9022],[-88.2001,34.9956],[-88.1825,35.0077]]]}},{"type":"Feature","id":"01079","properties":{"name":"Lawrence","fips":"01079"},"geometry":{"type":"Polygon","coordinates":[[[-87.1051,34.686],[-87.1059,34.5876],[-87.1101,34.3138],[-87.1099,34.2993],[-87.5297,34.3046],[-87.5297,34.5671],[-87.4165,34.7675],[-87.4265,34.8],[-87.2607,34.7586],[-87.1051,34.686]]]}},{"type":"Feature","id":"01081","properties":{"name":"Lee","fips":"01081"},"geometry":{"type":"Polygon","coordinates":[[[-85.0803,32.6036],[-85.0799,32.6029],[-85.0696,32.5839],[-85.0446,32.5595],[-85.0225,32.5429],[-85.0071,32.5239],[-85.0013,32.513],[-85.0011,32.5105],[-85.001,32.5102],[-85.0593,32.4729],[-85.3338,32.4686],[-85.3301,32.4108],[-85.434,32.4098],[-85.4386,32.4971],[-85.4893,32.4969],[-85.6959,32.5959],[-85.6968,32.6974],[-85.5932,32.7285],[-85.285,32.7307],[-85.1368,32.7465],[-85.1371,32.7452],[-85.1147,32.6856],[-85.1048,32.6425],[-85.0825,32.607],[-85.0803,32.6036]]]}},{"type":"Feature","id":"01083","properties":{"name":"Limestone","fips":"01083"},"geometry":{"type":"Polygon","coordinates":[[[-86.8363,34.9918],[-86.8207,34.9918],[-86.7836,34.9919],[-86.7836,34.9919],[-86.7901,34.5508],[-86.9429,34.5981],[-87.1051,34.686],[-87.2607,34.7586],[-87.2149,34.816],[-87.2108,34.999],[-87.0112,34.9952],[-87.0,34.9951],[-86.9744,34.9945],[-86.9726,34.9946],[-86.9702,34.9945],[-86.9671,34.9944],[-86.8621,34.992],[-86.8498,34.9919],[-86.8465,34.9919],[-86.8364,34.9918],[-86.8363,34.9918]]]}},{"type":"Feature","id":"01085","properties":{"name":"Lowndes","fips":"01085"},"geometry":{"type":"Polygon","coordinates":[[[-86.8576,31.9622],[-86.8566,32.0484],[-86.907,32.048],[-86.9083,32.225],[-86.8103,32.2247],[-86.8644,32.2749],[-86.8149,32.3408],[-86.7179,32.4028],[-86.4968,32.3444],[-86.4088,32.2409],[-86.4063,32.0507],[-86.4482,31.9646],[-86.8576,31.9622]]]}},{"type":"Feature","id":"01087","properties":{"name":"Macon","fips":"01087"},"geometry":{"type":"Polygon","coordinates":[[[-85.8861,32.4931],[-85.7972,32.4942],[-85.7986,32.5811],[-85.6959,32.5959],[-85.4893,32.4969],[-85.4386,32.4971],[-85.434,32.4098],[-85.4335,32.2346],[-85.8562,32.232],[-85.9193,32.2744],[-86.023,32.42],[-85.8944,32.4476],[-85.8861,32.4931]]]}},{"type":"Feature","id":"01089","properties":{"name":"Madison","fips":"01089"},"geometry":{"type":"Polygon","coordinates":[[[-86.7836,34.9919],[-86.6776,34.9921],[-86.6767,34.9921],[-86.6744,34.992],[-86.6709,34.992],[-86.6596,34.9918],[-86.6412,34.9917],[-86.6,34.9912],[-86.589,34.9912],[-86.5712,34.991],[-86.5559,34.991],[-86.5285,34.9907],[-86.4678,34.9907],[-86.4339,34.9911],[-86.3972,34.9917],[-86.3188,34.9911],[-86.3113,34.9911],[-86.359,34.6326],[-86.3269,34.5994],[-86.3382,34.5101],[-86.4239,34.4796],[-86.5334,34.5028],[-86.5502,34.546],[-86.6894,34.5864],[-86.7901,34.5508],[-86.7836,34.9919]]]}},{"type":"Feature","id":"01091","properties":{"name":"Marengo","fips":"01091"},"geometry":{"type":"Polygon","coordinates":[[[-87.6678,31.9914],[-87.9442,31.9899],[-88.0735,31.9902],[-88.0706,32.0617],[-88.0071,32.1853],[-88.0191,32.2852],[-87.9307,32.3106],[-88.0463,32.3771],[-88.0316,32.4336],[-87.8534,32.5321],[-87.8451,32.5467],[-87.8223,32.5437],[-87.8234,32.5204],[-87.8126,32.5246],[-87.7287,32.4809],[-87.5245,32.482],[-87.5243,32.3073],[-87.4731,32.3076],[-87.4722,32.2649],[-87.5234,32.2548],[-87.5219,32.1328],[-87.624,32.1323],[-87.6228,32.0055],[-87.6678,31.9914]]]}},{"type":"Feature","id":"01093","properties":{"name":"Marion","fips":"01093"},"geometry":{"type":"Polygon","coordinates":[[[-88.2036,34.0865],[-88.1769,34.2939],[-88.1759,34.3022],[-88.1736,34.3211],[-87.6347,34.307],[-87.6361,34.0022],[-87.6359,33.9153],[-87.9518,33.9199],[-87.9869,34.0521],[-88.2072,34.0583],[-88.2036,34.0865]]]}},{"type":"Feature","id":"01095","properties":{"name":"Marshall","fips":"01095"},"geometry":{"type":"Polygon","coordinates":[[[-86.5502,34.546],[-86.5334,34.5028],[-86.4239,34.4796],[-86.3382,34.5101],[-86.3269,34.5994],[-86.3269,34.5996],[-86.327,34.5997],[-86.3183,34.5998],[-86.3183,34.5998],[-86.3171,34.5998],[-86.316,34.5998],[-86.316,34.5998],[-86.3117,34.5998],[-86.3056,34.5999],[-86.3005,34.5999],[-86.2846,34.6],[-86.2795,34.6],[-86.2781,34.6],[-86.2758,34.6],[-86.2691,34.6001],[-86.2661,34.6001],[-86.2578,34.6001],[-86.2541,34.6001],[-86.2524,34.6001],[-86.25,34.6001],[-86.2457,34.6001],[-86.2456,34.6001],[-86.237,34.6],[-86.2351,34.6],[-86.2338,34.6],[-86.2242,34.5999],[-86.2212,34.5999],[-86.219,34.5998],[-86.219,34.5998],[-86.2181,34.5998],[-86.1998,34.5996],[-86.183,34.5994],[-86.183,34.5994],[-86.1791,34.5994],[-86.1786,34.5994],[-86.1753,34.5994],[-86.1741,34.5993],[-86.1729,34.5993],[-86.1675,34.5993],[-86.1485,34.5991],[-86.1398,34.5333],[-86.0577,34.476],[-86.1104,34.4278],[-86.1061,34.2008],[-86.2061,34.1726],[-86.3035,34.0991],[-86.453,34.2593],[-86.5819,34.3047],[-86.5502,34.546]]]}},{"type":"Feature","id":"01097","properties":{"name":"Mobile","fips":"01097"},"geometry":{"type":"MultiPolygon","coordinates":[[[[-88.1247,30.2836],[-88.0868,30.2599],[-88.0749,30.2491],[-88.0759,30.2461],[-88.0788,30.245],[-88.1094,30.2421],[-88.1202,30.2461],[-88.1371,30.2492],[-88.1666,30.2493],[-88.2085,30.2448],[-88.2806,30.2303],[-88.3048,30.228],[-88.3133,30.23],[-88.31,30.2332],[-88.2997,30.2318],[-88.2808,30.2338],[-88.2584,30.2396],[-88.2246,30.2456],[-88.1733,30.2524],[-88.1583,30.2524],[-88.1411,30.255],[-88.1306,30.2621],[-88.1247,30.2735],[-88.1247,30.2836]]],[[[-88.0084,30.685],[-88.0124,30.6832],[-88.0221,30.6739],[-88.0267,30.6615],[-88.0346,30.6537],[-88.0443,30.6526],[-88.062,30.6449],[-88.0596,30.6191],[-88.054,30.6125],[-88.0649,30.5883],[-88.0749,30.5789],[-88.0855,30.5633],[-88.0816,30.5463],[-88.0828,30.5287],[-88.0907,30.5236],[-88.1009,30.5098],[-88.1038,30.5009],[-88.103,30.493],[-88.0969,30.4711],[-88.1006,30.4612],[-88.1064,30.4527],[-88.1041,30.4273],[-88.1073,30.3772],[-88.1154,30.3566],[-88.1246,30.3416],[-88.1281,30.3385],[-88.1362,30.3207],[-88.1558,30.3272],[-88.172,30.3247],[-88.1915,30.317],[-88.1957,30.3212],[-88.1984,30.3388],[-88.1964,30.3436],[-88.1885,30.3451],[-88.1885,30.3481],[-88.2001,30.3624],[-88.2045,30.3621],[-88.2607,30.3824],[-88.2826,30.3829],[-88.2906,30.3707],[-88.3116,30.3689],[-88.3165,30.37],[-88.3196,30.3803],[-88.3323,30.3884],[-88.3413,30.3895],[-88.364,30.388],[-88.3747,30.3856],[-88.395,30.3694],[-88.4023,30.5109],[-88.4035,30.5331],[-88.4039,30.5434],[-88.404,30.5451],[-88.4075,30.6227],[-88.4075,30.6317],[-88.4081,30.637],[-88.4096,30.6687],[-88.4113,30.7063],[-88.4116,30.713],[-88.4122,30.7304],[-88.4123,30.7318],[-88.4125,30.7356],[-88.4256,30.9983],[-88.4257,31.0002],[-88.4258,31.0011],[-88.432,31.1143],[-88.3298,31.1438],[-88.0226,31.1443],[-87.9729,31.1627],[-87.9412,31.0482],[-87.9813,30.8869],[-87.9445,30.827],[-88.0263,30.7534],[-88.0084,30.685]]]]}},{"type":"Feature","id":"01099","properties":{"name":"Monroe","fips":"01099"},"geometry":{"type":"Polygon","coordinates":[[[-86.9059,31.753],[-87.0523,31.7168],[-87.1351,31.6424],[-87.1666,31.5196],[-87.4275,31.2604],[-87.6159,31.2445],[-87.7652,31.2973],[-87.7848,31.3247],[-87.6656,31.4232],[-87.6031,31.4096],[-87.5654,31.5536],[-87.5668,31.6971],[-87.5161,31.6978],[-87.5009,31.8293],[-86.9069,31.8306],[-86.9059,31.753]]]}},{"type":"Feature","id":"01101","properties":{"name":"Montgomery","fips":"01101"},"geometry":{"type":"Polygon","coordinates":[[[-86.4112,32.4099],[-86.2371,32.495],[-86.1923,32.4361],[-86.023,32.42],[-85.9193,32.2744],[-85.9992,32.2505],[-85.9969,32.051],[-85.9956,31.9676],[-86.1914,31.9665],[-86.3022,31.9651],[-86.3036,32.0517],[-86.4063,32.0507],[-86.4088,32.2409],[-86.4968,32.3444],[-86.4112,32.4099]]]}},{"type":"Feature","id":"01103","properties":{"name":"Morgan","fips":"01103"},"geometry":{"type":"Polygon","coordinates":[[[-87.1101,34.3138],[-87.1059,34.5876],[-87.1051,34.686],[-86.9429,34.5981],[-86.7901,34.5508],[-86.6894,34.5864],[-86.5502,34.546],[-86.5819,34.3047],[-87.0923,34.3123],[-87.1101,34.3138]]]}},{"type":"Feature","id":"01105","properties":{"name":"Perry","fips":"01105"},"geometry":{"type":"Polygon","coordinates":[[[-87.5245,32.482],[-87.5252,32.6557],[-87.4739,32.6559],[-87.4722,32.8306],[-87.4212,32.8745],[-87.3195,32.8751],[-87.3192,32.8315],[-87.0192,32.837],[-87.0178,32.7295],[-87.1165,32.4877],[-87.4232,32.483],[-87.4217,32.3081],[-87.4731,32.3076],[-87.5243,32.3073],[-87.5245,32.482]]]}},{"type":"Feature","id":"01107","properties":{"name":"Pickens","fips":"01107"},"geometry":{"type":"Polygon","coordinates":[[[-88.2911,33.3991],[-88.2774,33.5124],[-88.2768,33.5165],[-88.2746,33.534],[-87.9465,33.5241],[-87.8586,33.5253],[-87.8407,33.5248],[-87.8375,33.1536],[-88.027,33.0636],[-88.1719,32.9959],[-88.3404,32.9912],[-88.3045,33.2883],[-88.2911,33.3991]]]}},{"type":"Feature","id":"01109","properties":{"name":"Pike","fips":"01109"},"geometry":{"type":"Polygon","coordinates":[[[-85.7483,31.618],[-85.7499,31.6179],[-85.7891,31.618],[-86.1459,31.6177],[-86.1483,31.791],[-86.1994,31.7904],[-86.1914,31.9665],[-85.9956,31.9676],[-85.9969,32.051],[-85.8937,32.0474],[-85.8843,31.9673],[-85.79,31.9673],[-85.791,31.8804],[-85.6577,31.8803],[-85.6662,31.7729],[-85.7483,31.618]]]}},{"type":"Feature","id":"01111","properties":{"name":"Randolph","fips":"01111"},"geometry":{"type":"Polygon","coordinates":[[[-85.6435,33.4959],[-85.3044,33.4829],[-85.2939,33.4281],[-85.2365,33.1296],[-85.2324,33.1081],[-85.5932,33.1073],[-85.6537,33.1066],[-85.6435,33.4959]]]}},{"type":"Feature","id":"01113","properties":{"name":"Russell","fips":"01113"},"geometry":{"type":"Polygon","coordinates":[[[-84.9873,32.3816],[-84.9874,32.3812],[-85.0081,32.3367],[-85.0071,32.3284],[-85.0019,32.322],[-84.9387,32.3007],[-84.9166,32.2812],[-84.9091,32.2635],[-84.9216,32.2333],[-84.9236,32.2315],[-84.9648,32.195],[-84.9959,32.1849],[-85.0479,32.142],[-85.056,32.0631],[-85.1851,32.0617],[-85.2577,32.1483],[-85.4102,32.1467],[-85.4274,32.1466],[-85.4335,32.2346],[-85.434,32.4098],[-85.3301,32.4108],[-85.3338,32.4686],[-85.0593,32.4729],[-85.001,32.5102],[-85.0008,32.5065],[-84.9982,32.4698],[-84.9838,32.4456],[-84.9794,32.4122],[-84.9873,32.3816]]]}},{"type":"Feature","id":"01117","properties":{"name":"Shelby","fips":"01117"},"geometry":{"type":"Polygon","coordinates":[[[-87.0236,33.2464],[-86.8306,33.332],[-86.6744,33.4665],[-86.6045,33.4671],[-86.5168,33.5459],[-86.4819,33.5025],[-86.3782,33.5024],[-86.3787,33.391],[-86.3573,33.2969],[-86.5031,33.1791],[-86.491,33.1029],[-86.5173,33.0206],[-86.61,33.07],[-86.8816,33.0719],[-86.8812,33.0499],[-87.0256,33.1658],[-87.0268,33.2465],[-87.0236,33.2464]]]}},{"type":"Feature","id":"01115","properties":{"name":"St. Clair","fips":"01115"},"geometry":{"type":"Polygon","coordinates":[[[-86.0653,33.8422],[-86.0664,33.8411],[-86.067,33.8392],[-86.044,33.7636],[-86.1456,33.6791],[-86.2353,33.4945],[-86.282,33.5099],[-86.3787,33.391],[-86.3782,33.5024],[-86.4819,33.5025],[-86.5168,33.5459],[-86.5428,33.7652],[-86.5778,33.7653],[-86.5775,33.802],[-86.3775,33.8617],[-86.3256,33.9401],[-86.1992,33.9889],[-86.0653,33.8422]]]}},{"type":"Feature","id":"01119","properties":{"name":"Sumter","fips":"01119"},"geometry":{"type":"Polygon","coordinates":[[[-88.4038,32.4498],[-88.4038,32.4499],[-88.3887,32.5781],[-88.383,32.6267],[-88.383,32.627],[-88.3477,32.9291],[-88.3404,32.9912],[-88.1719,32.9959],[-88.2073,32.9248],[-88.0793,32.7729],[-88.1096,32.771],[-88.0573,32.5934],[-87.9287,32.6323],[-87.8409,32.605],[-87.8979,32.6],[-87.8534,32.5321],[-88.0316,32.4336],[-88.0463,32.3771],[-87.9307,32.3106],[-88.4215,32.3087],[-88.4038,32.4498]]]}},{"type":"Feature","id":"01121","properties":{"name":"Talladega","fips":"01121"},"geometry":{"type":"Polygon","coordinates":[[[-86.1744,33.1044],[-86.2263,33.1041],[-86.491,33.1029],[-86.5031,33.1791],[-86.3573,33.2969],[-86.3787,33.391],[-86.282,33.5099],[-86.2353,33.4945],[-86.1456,33.6791],[-86.0507,33.6746],[-85.9949,33.5865],[-85.7946,33.5856],[-85.7961,33.5562],[-85.7969,33.5418],[-85.8519,33.4987],[-85.9049,33.4987],[-85.9238,33.3962],[-85.9765,33.3819],[-85.9803,33.2942],[-86.1182,33.2963],[-86.1206,33.1945],[-86.1728,33.1957],[-86.1744,33.1044]]]}},{"type":"Feature","id":"01123","properties":{"name":"Tallapoosa","fips":"01123"},"geometry":{"type":"Polygon","coordinates":[[[-85.8861,32.4931],[-85.8799,32.7545],[-86.0072,32.755],[-86.0092,33.0903],[-85.9747,33.1053],[-85.6537,33.1066],[-85.5932,33.1073],[-85.5932,32.7285],[-85.6968,32.6974],[-85.6959,32.5959],[-85.7986,32.5811],[-85.7972,32.4942],[-85.8861,32.4931]]]}},{"type":"Feature","id":"01125","properties":{"name":"Tuscaloosa","fips":"01125"},"geometry":{"type":"Polygon","coordinates":[[[-87.2669,33.5129],[-87.3308,33.4915],[-87.1948,33.3431],[-87.18,33.343],[-87.1798,33.328],[-87.1796,33.3211],[-87.1622,33.321],[-87.162,33.3066],[-87.1271,33.306],[-87.1268,33.2908],[-87.0875,33.2907],[-87.0875,33.2797],[-87.0746,33.2797],[-87.0746,33.276],[-87.0658,33.2759],[-87.0657,33.2469],[-87.1992,33.1966],[-87.1993,33.1307],[-87.2819,33.1331],[-87.3185,33.0062],[-87.4219,33.0034],[-87.7157,33.0068],[-87.8322,33.0173],[-87.838,33.1369],[-87.8375,33.1536],[-87.8407,33.5248],[-87.6667,33.5217],[-87.6317,33.6098],[-87.4237,33.6021],[-87.3185,33.5874],[-87.2669,33.5129]]]}},{"type":"Feature","id":"01127","properties":{"name":"Walker","fips":"01127"},"geometry":{"type":"Polygon","coordinates":[[[-87.4237,33.6021],[-87.4238,33.6891],[-87.5283,33.692],[-87.5316,33.8676],[-87.636,33.872],[-87.6359,33.9153],[-87.6361,34.0022],[-87.151,33.9932],[-87.0918,33.8901],[-86.9634,33.8582],[-86.963,33.8449],[-86.9543,33.8449],[-86.9537,33.8153],[-87.006,33.7872],[-87.0578,33.6564],[-87.1794,33.6138],[-87.1858,33.5559],[-87.2669,33.5129],[-87.3185,33.5874],[-87.4237,33.6021]]]}},{"type":"Feature","id":"01129","properties":{"name":"Washington","fips":"01129"},"geometry":{"type":"Polygon","coordinates":[[[-88.432,31.1143],[-88.4381,31.2301],[-88.4382,31.2313],[-88.4452,31.3559],[-88.4452,31.356],[-88.4487,31.4209],[-88.4487,31.4213],[-88.4494,31.4358],[-88.4595,31.6217],[-88.4597,31.624],[-88.4644,31.6979],[-88.4644,31.698],[-88.0883,31.6993],[-88.0869,31.6862],[-88.0806,31.6778],[-88.0787,31.6696],[-88.0722,31.5945],[-87.9061,31.4918],[-87.9081,31.323],[-87.9596,31.3162],[-87.9466,31.1929],[-87.9437,31.1613],[-87.9729,31.1627],[-88.0226,31.1443],[-88.3298,31.1438],[-88.432,31.1143]]]}},{"type":"Feature","id":"01131","properties":{"name":"Wilcox","fips":"01131"},"geometry":{"type":"Polygon","coordinates":[[[-87.5009,31.8293],[-87.6201,31.8271],[-87.6675,31.9585],[-87.6678,31.9914],[-87.6228,32.0055],[-87.624,32.1323],[-87.5219,32.1328],[-87.5234,32.2548],[-87.4722,32.2649],[-87.2629,32.147],[-87.1781,32.0475],[-86.907,32.048],[-86.8566,32.0484],[-86.8576,31.9622],[-86.9089,31.9617],[-86.9069,31.8306],[-87.5009,31.8293]]]}},{"type":"Feature","id":"01133","properties":{"name":"Winston","fips":"01133"},"geometry":{"type":"Polygon","coordinates":[[[-87.6347,34.307],[-87.5297,34.3046],[-87.1099,34.2993],[-87.112,33.9924],[-87.151,33.9932],[-87.6361,34.0022],[-87.6347,34.307]]]}}]}