{"type":"FeatureCollection","features":[{"type":"Feature","id":"05001","properties":{"name":"Arkansas","fips":"05001"},"geometry":{"type":"Polygon","coordinates":[[[-91.0563,34.3366],[-91.0606,34.2168],[-91.1179,34.1191],[-91.1943,34.0709],[-91.1327,33.9552],[-91.3476,33.9549],[-91.4217,34.0145],[-91.4312,34.0204],[-91.4371,34.0347],[-91.4346,34.0527],[-91.4359,34.0684],[-91.4456,34.0801],[-91.5402,34.2246],[-91.7118,34.2339],[-91.7052,34.4827],[-91.678,34.4819],[-91.5955,34.4805],[-91.5944,34.568],[-91.3778,34.5635],[-91.2092,34.4832],[-91.1078,34.3534],[-91.0563,34.3366]]]}},{"type":"Feature","id":"05003","properties":{"name":"Ashley","fips":"05003"},"geometry":{"type":"Polygon","coordinates":[[[-91.4604,33.0062],[-91.5595,33.0068],[-91.5723,33.0069],[-91.5796,33.0065],[-91.5798,33.0065],[-91.609,33.0066],[-91.6176,33.0067],[-91.6267,33.0066],[-91.95,33.0075],[-91.952,33.0074],[-92.0691,33.0082],[-92.1096,33.0341],[-92.1375,33.163],[-92.1285,33.2088],[-91.9773,33.302],[-91.9902,33.3982],[-91.4574,33.389],[-91.4604,33.0062]]]}},{"type":"Feature","id":"05005","properties":{"name":"Baxter","fips":"05005"},"geometry":{"type":"Polygon","coordinates":[[[-92.1503,36.4986],[-92.1592,36.2613],[-92.157,36.2612],[-92.1954,36.1328],[-92.1976,36.0593],[-92.305,36.0611],[-92.3072,35.974],[-92.4143,35.9759],[-92.4125,36.0272],[-92.4115,36.0628],[-92.4119,36.1621],[-92.4693,36.2509],[-92.543,36.2693],[-92.5931,36.3583],[-92.5332,36.3866],[-92.5291,36.4977],[-92.3184,36.4977],[-92.3094,36.4979],[-92.2164,36.4984],[-92.2141,36.4984],[-92.2114,36.4984],[-92.1994,36.4984],[-92.1503,36.4986]]]}},{"type":"Feature","id":"05007","properties":{"name":"Benton","fips":"05007"},"geometry":{"type":"Polygon","coordinates":[[[-94.5522,36.1022],[-94.5612,36.1521],[-94.5628,36.1617],[-94.5628,36.1619],[-94.5657,36.1784],[-94.5666,36.1838],[-94.5713,36.2109],[-94.5718,36.2137],[-94.5744,36.23],[-94.5749,36.2327],[-94.5751,36.2337],[-94.576,36.2401],[-94.5779,36.2495],[-94.5779,36.2501],[-94.5862,36.3],[-94.5934,36.3457],[-94.5997,36.3876],[-94.602,36.4021],[-94.6026,36.4053],[-94.6054,36.4219],[-94.6116,36.4615],[-94.6138,36.4762],[-94.6153,36.485],[-94.6179,36.4994],[-94.5593,36.4995],[-94.5195,36.4992],[-94.1115,36.4986],[-94.1107,36.4986],[-94.1003,36.4987],[-94.0986,36.4987],[-94.0771,36.4987],[-93.9639,36.4987],[-93.9592,36.4987],[-93.9218,36.4987],[-93.9061,36.4987],[-93.8668,36.4988],[-93.8617,36.3393],[-93.8156,36.3066],[-93.8878,36.235],[-93.9733,36.2039],[-94.3336,36.2147],[-94.3911,36.0994],[-94.5522,36.1022]]]}},{"type":"Feature","id":"05009","properties":{"name":"Boone","fips":"05009"},"geometry":{"type":"Polygon","coordinates":[[[-93.2961,36.4984],[-93.089,36.4982],[-93.0876,36.4982],[-93.0695,36.4982],[-93.0685,36.4982],[-93.0137,36.4981],[-92.8943,36.4979],[-92.894,36.4978],[-92.854,36.498],[-92.885,36.4909],[-92.8907,36.1141],[-92.9447,36.1151],[-92.9483,36.1155],[-93.3001,36.1213],[-93.3008,36.125],[-93.2961,36.4984]]]}},{"type":"Feature","id":"05011","properties":{"name":"Bradley","fips":"05011"},"geometry":{"type":"Polygon","coordinates":[[[-91.9758,33.7044],[-91.9761,33.5297],[-92.0079,33.5294],[-91.9902,33.3982],[-91.9773,33.302],[-92.1285,33.2088],[-92.1375,33.163],[-92.2241,33.2518],[-92.3504,33.2989],[-92.3745,33.3787],[-92.3111,33.4998],[-92.3308,33.7078],[-91.9758,33.7044]]]}},{"type":"Feature","id":"05013","properties":{"name":"Calhoun","fips":"05013"},"geometry":{"type":"Polygon","coordinates":[[[-92.3504,33.2989],[-92.4454,33.2749],[-92.5672,33.3672],[-92.6532,33.434],[-92.7051,33.4312],[-92.7767,33.5376],[-92.7175,33.5524],[-92.7357,33.6243],[-92.6479,33.6638],[-92.585,33.7365],[-92.5831,33.8022],[-92.3342,33.7951],[-92.3308,33.7078],[-92.3111,33.4998],[-92.3745,33.3787],[-92.3504,33.2989]]]}},{"type":"Feature","id":"05015","properties":{"name":"Carroll","fips":"05015"},"geometry":{"type":"Polygon","coordinates":[[[-93.8668,36.4988],[-93.728,36.499],[-93.7276,36.4991],[-93.7189,36.4992],[-93.71,36.4992],[-93.7002,36.4991],[-93.5843,36.4989],[-93.5843,36.4989],[-93.5145,36.4989],[-93.5074,36.4989],[-93.427,36.4986],[-93.3961,36.4987],[-93.3947,36.4985],[-93.3153,36.4984],[-93.3153,36.4984],[-93.2961,36.4984],[-93.3008,36.125],[-93.3001,36.1213],[-93.4795,36.1251],[-93.5511,36.1263],[-93.62,36.2012],[-93.6577,36.3031],[-93.8156,36.3066],[-93.8617,36.3393],[-93.8668,36.4988]]]}},{"type":"Feature","id":"05017","properties":{"name":"Chicot","fips":"05017"},"geometry":{"type":"Polygon","coordinates":[[[-91.2157,33.5294],[-91.1251,33.4728],[-91.1185,33.4491],[-91.1319,33.4301],[-91.1844,33.4196],[-91.1412,33.2984],[-91.1106,33.2459],[-91.086,33.2216],[-91.0876,33.1452],[-91.1257,33.0383],[-91.1577,33.0112],[-91.1661,33.0041],[-91.265,33.0051],[-91.2844,33.005],[-91.312,33.0053],[-91.3225,33.0053],[-91.325,33.0054],[-91.3264,33.0054],[-91.3298,33.0054],[-91.333,33.0055],[-91.376,33.0058],[-91.4255,33.006],[-91.4358,33.0061],[-91.4604,33.0062],[-91.4574,33.389],[-91.4534,33.5637],[-91.3495,33.5636],[-91.3508,33.5195],[-91.2458,33.5171],[-91.2446,33.5614],[-91.2283,33.5599],[-91.2323,33.5528],[-91.2157,33.5294]]]}},{"type":"Feature","id":"05019","properties":{"name":"Clark","fips":"05019"},"geometry":{"type":"Polygon","coordinates":[[[-93.3734,33.9571],[-93.4342,34.0497],[-93.4786,34.3409],[-93.44,34.34],[-93.4395,34.3402],[-93.4332,34.3399],[-93.4081,34.3395],[-93.3568,34.2803],[-93.1983,34.2773],[-93.1994,34.2481],[-93.035,34.2367],[-93.042,34.1599],[-92.8863,34.1559],[-92.8931,33.9833],[-92.9612,33.9748],[-92.8931,33.9028],[-92.8935,33.8099],[-93.1043,33.777],[-93.2906,33.8451],[-93.3734,33.9571]]]}},{"type":"Feature","id":"05021","properties":{"name":"Clay","fips":"05021"},"geometry":{"type":"Polygon","coordinates":[[[-90.5762,36.4984],[-90.5761,36.4984],[-90.5002,36.4984],[-90.495,36.4984],[-90.4946,36.4984],[-90.3399,36.4982],[-90.2289,36.4978],[-90.2207,36.4979],[-90.2207,36.4979],[-90.2173,36.4978],[-90.1939,36.4978],[-90.1525,36.498],[-90.1544,36.4968],[-90.1564,36.4877],[-90.134,36.4379],[-90.0729,36.393],[-90.0645,36.3821],[-90.064,36.303],[-90.0763,36.2807],[-90.0837,36.2723],[-90.1149,36.2656],[-90.1987,36.2014],[-90.321,36.2006],[-90.3198,36.2591],[-90.8066,36.2669],[-90.7518,36.28],[-90.7486,36.4128],[-90.7844,36.4985],[-90.7825,36.4985],[-90.7657,36.4985],[-90.7112,36.4983],[-90.693,36.4985],[-90.6532,36.4985],[-90.6485,36.4984],[-90.6126,36.4986],[-90.6055,36.4985],[-90.5943,36.4985],[-90.5853,36.4985],[-90.5762,36.4984]]]}},{"type":"Feature","id":"05023","properties":{"name":"Cleburne","fips":"05023"},"geometry":{"type":"Polygon","coordinates":[[[-91.8372,35.7049],[-91.7898,35.7117],[-91.794,35.5341],[-91.7959,35.4556],[-91.8501,35.4364],[-91.852,35.3583],[-92.1115,35.3627],[-92.2528,35.3637],[-92.2405,35.7122],[-91.8372,35.7049]]]}},{"type":"Feature","id":"05025","properties":{"name":"Cleveland","fips":"05025"},"geometry":{"type":"Polygon","coordinates":[[[-91.9538,34.0641],[-91.9764,33.9773],[-91.976,33.7918],[-91.9758,33.7044],[-92.3308,33.7078],[-92.3342,33.7951],[-92.4008,33.9136],[-92.4756,33.9727],[-92.4717,34.0571],[-92.3368,34.0596],[-92.2334,34.0623],[-91.9538,34.0641]]]}},{"type":"Feature","id":"05027","properties":{"name":"Columbia","fips":"05027"},"geometry":{"type":"Polygon","coordinates":[[[-93.2386,33.018],[-93.3082,33.0182],[-93.3084,33.0182],[-93.3404,33.0183],[-93.3771,33.0182],[-93.467,33.0186],[-93.4895,33.0184],[-93.4905,33.0184],[-93.4818,33.26],[-93.442,33.2582],[-93.3656,33.4445],[-93.1164,33.4529],[-93.119,33.3803],[-92.9785,33.3773],[-92.9887,33.0173],[-93.0707,33.0178],[-93.0732,33.0179],[-93.0814,33.0179],[-93.101,33.0178],[-93.1014,33.0177],[-93.1544,33.0179],[-93.1974,33.018],[-93.2386,33.018]]]}},{"type":"Feature","id":"05029","properties":{"name":"Conway","fips":"05029"},"geometry":{"type":"Polygon","coordinates":[[[-93.0405,35.0769],[-92.8961,35.1707],[-92.855,35.1728],[-92.8506,35.4629],[-92.4793,35.4554],[-92.4815,35.3684],[-92.4843,35.2807],[-92.5547,35.1133],[-92.7163,35.0717],[-93.0405,35.0769]]]}},{"type":"Feature","id":"05031","properties":{"name":"Craighead","fips":"05031"},"geometry":{"type":"Polygon","coordinates":[[[-90.2889,35.9964],[-90.2867,35.6999],[-91.037,35.7084],[-91.0325,35.8851],[-90.8728,35.8809],[-90.8521,35.9681],[-90.3874,35.9647],[-90.3687,35.9958],[-90.3426,35.9959],[-90.3394,35.996],[-90.2924,35.9964],[-90.2889,35.9964]]]}},{"type":"Feature","id":"05033","properties":{"name":"Crawford","fips":"05033"},"geometry":{"type":"Polygon","coordinates":[[[-94.4318,35.3977],[-94.4633,35.5827],[-94.4641,35.5873],[-94.4645,35.5889],[-94.4653,35.594],[-94.4726,35.6386],[-94.4876,35.7261],[-94.4882,35.7292],[-94.4929,35.7592],[-94.1249,35.7504],[-93.9629,35.7609],[-93.9108,35.7598],[-93.9842,35.6608],[-94.0737,35.6625],[-94.0762,35.5755],[-94.023,35.5742],[-94.0749,35.4454],[-94.2238,35.3537],[-94.3212,35.3575],[-94.4035,35.45],[-94.4318,35.3977]]]}},{"type":"Feature","id":"05035","properties":{"name":"Crittenden","fips":"05035"},"geometry":{"type":"Polygon","coordinates":[[[-90.0743,35.2183],[-90.0734,35.211],[-90.0646,35.1406],[-90.0654,35.1377],[-90.0834,35.1217],[-90.0906,35.1183],[-90.1006,35.1167],[-90.1094,35.1189],[-90.1428,35.1351],[-90.1601,35.1288],[-90.1746,35.1167],[-90.1939,35.0616],[-90.2956,35.0401],[-90.3099,35.0097],[-90.3093,34.9957],[-90.254,34.955],[-90.2445,34.9376],[-90.2501,34.9073],[-90.2939,34.8606],[-90.3074,34.8462],[-90.408,34.8328],[-90.4085,34.9041],[-90.4004,35.1482],[-90.503,35.1442],[-90.5024,35.4417],[-90.5001,35.4418],[-90.2869,35.4386],[-90.1524,35.4368],[-90.169,35.4219],[-90.1793,35.3852],[-90.1783,35.3821],[-90.1662,35.3747],[-90.1436,35.3747],[-90.1355,35.3767],[-90.0936,35.3933],[-90.0896,35.3798],[-90.0867,35.3699],[-90.1149,35.3039],[-90.1534,35.3026],[-90.1589,35.3006],[-90.1638,35.2961],[-90.1689,35.282],[-90.1666,35.2746],[-90.1589,35.2626],[-90.1521,35.256],[-90.1404,35.2523],[-90.1165,35.2558],[-90.1051,35.2543],[-90.0979,35.25],[-90.0774,35.2255],[-90.0743,35.2183]]]}},{"type":"Feature","id":"05037","properties":{"name":"Cross","fips":"05037"},"geometry":{"type":"Polygon","coordinates":[[[-91.0398,35.3543],[-91.0392,35.4447],[-90.5024,35.4417],[-90.503,35.1442],[-91.0427,35.1482],[-91.0398,35.3543]]]}},{"type":"Feature","id":"05039","properties":{"name":"Dallas","fips":"05039"},"geometry":{"type":"Polygon","coordinates":[[[-92.3368,34.0596],[-92.4717,34.0571],[-92.4756,33.9727],[-92.4008,33.9136],[-92.3342,33.7951],[-92.5831,33.8022],[-92.8935,33.8099],[-92.8931,33.9028],[-92.9612,33.9748],[-92.8931,33.9833],[-92.8863,34.1559],[-92.814,34.1517],[-92.6784,34.1496],[-92.4937,34.1442],[-92.3368,34.0596]]]}},{"type":"Feature","id":"05041","properties":{"name":"Desha","fips":"05041"},"geometry":{"type":"Polygon","coordinates":[[[-91.2241,33.5674],[-91.2283,33.5599],[-91.2446,33.5614],[-91.2458,33.5171],[-91.3508,33.5195],[-91.3495,33.5636],[-91.4534,33.5637],[-91.4503,33.7804],[-91.5576,33.7834],[-91.5487,33.9768],[-91.4217,34.0145],[-91.3476,33.9549],[-91.1327,33.9552],[-91.1943,34.0709],[-91.1179,34.1191],[-90.9552,34.1188],[-90.9331,34.1245],[-90.932,34.12],[-90.9288,34.1076],[-90.9121,34.0955],[-90.8884,34.0874],[-90.8792,34.0655],[-90.8874,34.0325],[-90.9647,34.008],[-91.0189,34.0032],[-91.0891,33.9727],[-91.0882,33.9601],[-91.0368,33.9147],[-91.0675,33.8404],[-91.1399,33.7771],[-91.1447,33.7501],[-91.1361,33.7286],[-91.1268,33.7078],[-91.1279,33.6958],[-91.1328,33.6881],[-91.14,33.6837],[-91.1482,33.6793],[-91.1761,33.6843],[-91.186,33.6793],[-91.1887,33.6695],[-91.1931,33.6569],[-91.1865,33.6459],[-91.1575,33.6262],[-91.1304,33.606],[-91.134,33.5945],[-91.1521,33.5827],[-91.2241,33.5674]]]}},{"type":"Feature","id":"05043","properties":{"name":"Drew","fips":"05043"},"geometry":{"type":"Polygon","coordinates":[[[-91.9758,33.7044],[-91.976,33.7918],[-91.6637,33.7922],[-91.5576,33.7834],[-91.4503,33.7804],[-91.4534,33.5637],[-91.4574,33.389],[-91.9902,33.3982],[-92.0079,33.5294],[-91.9761,33.5297],[-91.9758,33.7044]]]}},{"type":"Feature","id":"05045","properties":{"name":"Faulkner","fips":"05045"},"geometry":{"type":"Polygon","coordinates":[[[-92.1197,35.0665],[-92.1213,35.0122],[-92.2275,35.0145],[-92.2299,34.9276],[-92.5443,34.9533],[-92.5936,35.0118],[-92.5547,35.1133],[-92.4843,35.2807],[-92.4815,35.3684],[-92.2528,35.3637],[-92.1115,35.3627],[-92.1197,35.0665]]]}},{"type":"Feature","id":"05047","properties":{"name":"Franklin","fips":"05047"},"geometry":{"type":"Polygon","coordinates":[[[-93.9108,35.7598],[-93.9106,35.7742],[-93.696,35.7686],[-93.7101,35.3752],[-93.8068,35.43],[-93.8101,35.3131],[-93.9171,35.319],[-93.9202,35.2294],[-94.0285,35.2138],[-94.0828,35.2159],[-94.0749,35.4454],[-94.023,35.5742],[-94.0762,35.5755],[-94.0737,35.6625],[-93.9842,35.6608],[-93.9108,35.7598]]]}},{"type":"Feature","id":"05049","properties":{"name":"Fulton","fips":"05049"},"geometry":{"type":"Polygon","coordinates":[[[-92.1204,36.4989],[-92.1203,36.4989],[-92.0984,36.4988],[-92.0749,36.4988],[-92.0572,36.4987],[-92.0558,36.4987],[-92.0288,36.4986],[-92.0194,36.4985],[-91.9888,36.4985],[-91.9858,36.4984],[-91.866,36.4988],[-91.8644,36.4988],[-91.806,36.499],[-91.802,36.499],[-91.7995,36.499],[-91.7847,36.4991],[-91.7661,36.4991],[-91.7267,36.4992],[-91.6876,36.4994],[-91.686,36.4994],[-91.6723,36.4995],[-91.6426,36.4993],[-91.6314,36.4992],[-91.6013,36.4993],[-91.5962,36.4992],[-91.5492,36.4992],[-91.5394,36.4991],[-91.5369,36.4992],[-91.5298,36.499],[-91.45,36.4975],[-91.4544,36.3355],[-91.5659,36.3374],[-91.5661,36.2499],[-91.6914,36.2533],[-92.157,36.2612],[-92.1592,36.2613],[-92.1503,36.4986],[-92.1377,36.4987],[-92.1204,36.4989]]]}},{"type":"Feature","id":"05051","properties":{"name":"Garland","fips":"05051"},"geometry":{"type":"Polygon","coordinates":[[[-93.3943,34.7434],[-93.3945,34.7724],[-93.2878,34.7732],[-93.2699,34.772],[-93.0752,34.7719],[-92.9693,34.7723],[-92.9799,34.6372],[-92.8755,34.6351],[-92.808,34.5904],[-92.7932,34.5036],[-92.9151,34.5061],[-92.9481,34.3893],[-93.4072,34.3969],[-93.3943,34.7434]]]}},{"type":"Feature","id":"05053","properties":{"name":"Grant","fips":"05053"},"geometry":{"type":"Polygon","coordinates":[[[-92.2458,34.4935],[-92.208,34.4928],[-92.2129,34.2304],[-92.2334,34.0623],[-92.3368,34.0596],[-92.4937,34.1442],[-92.6784,34.1496],[-92.6687,34.4142],[-92.5894,34.4556],[-92.4047,34.4519],[-92.4036,34.4958],[-92.2458,34.4935]]]}},{"type":"Feature","id":"05055","properties":{"name":"Greene","fips":"05055"},"geometry":{"type":"Polygon","coordinates":[[[-90.1987,36.2014],[-90.2204,36.1848],[-90.3192,36.09],[-90.3644,36.0136],[-90.3687,35.9958],[-90.3874,35.9647],[-90.8521,35.9681],[-90.8208,36.0798],[-90.7474,36.1491],[-90.8098,36.1496],[-90.8066,36.2669],[-90.3198,36.2591],[-90.321,36.2006],[-90.1987,36.2014]]]}},{"type":"Feature","id":"05057","properties":{"name":"Hempstead","fips":"05057"},"geometry":{"type":"Polygon","coordinates":[[[-93.9573,33.7509],[-93.8315,33.7477],[-93.8231,34.0089],[-93.5288,33.9432],[-93.4567,33.9568],[-93.4831,33.4761],[-93.7229,33.482],[-93.7727,33.4985],[-93.7736,33.5047],[-93.7803,33.5196],[-93.7788,33.5247],[-93.7924,33.5359],[-93.7927,33.542],[-93.7927,33.5471],[-93.7983,33.5421],[-93.8077,33.5452],[-93.8038,33.5494],[-93.7983,33.5525],[-93.8142,33.5647],[-93.8277,33.5716],[-93.8233,33.5805],[-93.8176,33.5862],[-93.8125,33.6034],[-93.8161,33.6108],[-93.8222,33.6135],[-93.8259,33.6099],[-93.9656,33.6697],[-93.9573,33.7509]]]}},{"type":"Feature","id":"05059","properties":{"name":"Hot Spring","fips":"05059"},"geometry":{"type":"Polygon","coordinates":[[[-92.7932,34.5036],[-92.6853,34.4731],[-92.6687,34.4142],[-92.6784,34.1496],[-92.814,34.1517],[-92.8863,34.1559],[-93.042,34.1599],[-93.035,34.2367],[-93.1994,34.2481],[-93.1983,34.2773],[-93.3568,34.2803],[-93.4081,34.3395],[-93.4072,34.3969],[-92.9481,34.3893],[-92.9151,34.5061],[-92.7932,34.5036]]]}},{"type":"Feature","id":"05061","properties":{"name":"Howard","fips":"05061"},"geometry":{"type":"Polygon","coordinates":[[[-93.9354,34.3501],[-93.9258,34.1865],[-93.8207,34.1838],[-93.8231,34.0089],[-93.8315,33.7477],[-93.9573,33.7509],[-93.9588,33.751],[-93.9647,33.7962],[-94.0701,33.927],[-94.0901,34.1871],[-94.2437,34.1925],[-94.2547,34.3555],[-93.9354,34.3501]]]}},{"type":"Feature","id":"05063","properties":{"name":"Independence","fips":"05063"},"geometry":{"type":"Polygon","coordinates":[[[-91.794,35.5341],[-91.7898,35.7117],[-91.8372,35.7049],[-91.871,35.8106],[-91.8494,35.8674],[-91.7533,35.9429],[-91.7106,35.9418],[-91.4632,35.9368],[-91.4647,35.8925],[-91.3572,35.8906],[-91.1986,35.89],[-91.2324,35.8127],[-91.3483,35.7191],[-91.3696,35.5264],[-91.5819,35.5304],[-91.794,35.5341]]]}},{"type":"Feature","id":"05065","properties":{"name":"Izard","fips":"05065"},"geometry":{"type":"Polygon","coordinates":[[[-91.8494,35.8674],[-91.953,35.9316],[-92.1086,35.9313],[-92.0636,36.0244],[-92.1954,36.1328],[-92.157,36.2612],[-91.6914,36.2533],[-91.6823,36.0005],[-91.7106,35.9418],[-91.7533,35.9429],[-91.8494,35.8674]]]}},{"type":"Feature","id":"05067","properties":{"name":"Jackson","fips":"05067"},"geometry":{"type":"Polygon","coordinates":[[[-91.5819,35.5304],[-91.3696,35.5264],[-91.3483,35.7191],[-91.2324,35.8127],[-91.1986,35.89],[-91.1691,35.8898],[-91.0325,35.8851],[-91.037,35.7084],[-91.0392,35.4447],[-91.0398,35.3543],[-91.2516,35.3576],[-91.2529,35.4458],[-91.3473,35.4391],[-91.5847,35.4423],[-91.5819,35.5304]]]}},{"type":"Feature","id":"05069","properties":{"name":"Jefferson","fips":"05069"},"geometry":{"type":"Polygon","coordinates":[[[-92.03,34.4894],[-91.7052,34.4827],[-91.7118,34.2339],[-91.5402,34.2246],[-91.4456,34.0801],[-91.7273,34.1741],[-91.745,34.094],[-91.9536,34.0934],[-91.9538,34.0641],[-92.2334,34.0623],[-92.2129,34.2304],[-92.208,34.4928],[-92.03,34.4894]]]}},{"type":"Feature","id":"05071","properties":{"name":"Johnson","fips":"05071"},"geometry":{"type":"Polygon","coordinates":[[[-93.7101,35.3752],[-93.696,35.7686],[-93.5192,35.7635],[-93.5196,35.7344],[-93.1645,35.7288],[-93.1678,35.5977],[-93.2212,35.5989],[-93.2236,35.4686],[-93.2959,35.4699],[-93.299,35.3274],[-93.4179,35.3268],[-93.4304,35.4237],[-93.7101,35.3752]]]}},{"type":"Feature","id":"05073","properties":{"name":"Lafayette","fips":"05073"},"geometry":{"type":"Polygon","coordinates":[[[-93.4905,33.0184],[-93.4909,33.0184],[-93.521,33.0186],[-93.521,33.0186],[-93.5249,33.0186],[-93.5315,33.0186],[-93.8049,33.0193],[-93.8604,33.0926],[-93.8501,33.1453],[-93.7341,33.1556],[-93.7502,33.1839],[-93.6655,33.327],[-93.7333,33.4209],[-93.7229,33.482],[-93.4831,33.4761],[-93.484,33.4472],[-93.3656,33.4445],[-93.442,33.2582],[-93.4818,33.26],[-93.4905,33.0184]]]}},{"type":"Feature","id":"05075","properties":{"name":"Lawrence","fips":"05075"},"geometry":{"type":"Polygon","coordinates":[[[-91.3572,35.8906],[-91.3498,36.231],[-91.2589,36.2579],[-91.0827,36.1509],[-90.8098,36.1496],[-90.7474,36.1491],[-90.8208,36.0798],[-90.8521,35.9681],[-90.8728,35.8809],[-91.0325,35.8851],[-91.1691,35.8898],[-91.1986,35.89],[-91.3572,35.8906]]]}},{"type":"Feature","id":"05077","properties":{"name":"Lee","fips":"05077"},"geometry":{"type":"Polygon","coordinates":[[[-90.408,34.8328],[-90.4149,34.8318],[-90.4239,34.8346],[-90.4364,34.8551],[-90.4615,34.8567],[-90.474,34.8526],[-90.4781,34.8325],[-90.4673,34.7825],[-90.4798,34.7692],[-90.4948,34.7675],[-90.5013,34.7699],[-90.5198,34.7825],[-90.5373,34.7842],[-90.5499,34.7633],[-90.5549,34.7275],[-90.5332,34.7074],[-90.5098,34.6899],[-90.509,34.6791],[-90.5215,34.6632],[-90.539,34.6591],[-90.5499,34.6624],[-90.564,34.6657],[-90.5765,34.6574],[-90.5758,34.6417],[-90.5832,34.6414],[-91.0519,34.6457],[-91.0495,34.7342],[-91.1025,34.7349],[-91.1,34.8671],[-91.0992,34.9118],[-90.4085,34.9041],[-90.408,34.8328]]]}},{"type":"Feature","id":"05079","properties":{"name":"Lincoln","fips":"05079"},"geometry":{"type":"Polygon","coordinates":[[[-91.4456,34.0801],[-91.4359,34.0684],[-91.4346,34.0527],[-91.4371,34.0347],[-91.4312,34.0204],[-91.4217,34.0145],[-91.5487,33.9768],[-91.5576,33.7834],[-91.6637,33.7922],[-91.976,33.7918],[-91.9764,33.9773],[-91.9538,34.0641],[-91.9536,34.0934],[-91.745,34.094],[-91.7273,34.1741],[-91.4456,34.0801]]]}},{"type":"Feature","id":"05081","properties":{"name":"Little River","fips":"05081"},"geometry":{"type":"Polygon","coordinates":[[[-94.0435,33.5523],[-94.0668,33.5689],[-94.0852,33.5755],[-94.1818,33.5932],[-94.2527,33.5861],[-94.2578,33.5825],[-94.3559,33.5432],[-94.4093,33.5683],[-94.4643,33.5988],[-94.471,33.6059],[-94.4784,33.6208],[-94.4859,33.6379],[-94.4856,33.6533],[-94.4855,33.6634],[-94.4845,33.6879],[-94.4846,33.6916],[-94.4838,33.7113],[-94.4839,33.7167],[-94.4829,33.7506],[-94.4829,33.7508],[-94.4828,33.7536],[-94.4827,33.7563],[-94.4818,33.789],[-94.4815,33.7957],[-94.4814,33.8026],[-94.4814,33.8029],[-94.4806,33.8302],[-94.48,33.8513],[-94.479,33.8812],[-94.4788,33.8815],[-94.4774,33.9378],[-94.4773,33.9409],[-94.2374,33.8021],[-94.0408,33.782],[-93.9588,33.751],[-93.9573,33.7509],[-93.9656,33.6697],[-93.8259,33.6099],[-93.9515,33.5493],[-94.0435,33.5523]]]}},{"type":"Feature","id":"05083","properties":{"name":"Logan","fips":"05083"},"geometry":{"type":"Polygon","coordinates":[[[-93.7049,35.0197],[-94.0743,35.0266],[-94.1406,35.0997],[-94.1393,35.1434],[-94.0312,35.1409],[-94.0285,35.2138],[-93.9202,35.2294],[-93.9171,35.319],[-93.8101,35.3131],[-93.8068,35.43],[-93.7101,35.3752],[-93.4304,35.4237],[-93.4179,35.3268],[-93.299,35.3274],[-93.2942,35.3253],[-93.2828,35.3183],[-93.2783,35.3174],[-93.28,35.2126],[-93.457,35.2158],[-93.5298,35.1454],[-93.7067,35.1349],[-93.7049,35.0197]]]}},{"type":"Feature","id":"05085","properties":{"name":"Lonoke","fips":"05085"},"geometry":{"type":"Polygon","coordinates":[[[-92.1213,35.0122],[-92.1197,35.0665],[-92.0131,35.0763],[-91.8789,35.0246],[-91.8025,35.0304],[-91.8037,34.9215],[-91.6937,34.9196],[-91.7008,34.672],[-91.6385,34.6261],[-91.678,34.4819],[-91.7052,34.4827],[-92.03,34.4894],[-92.0295,34.6214],[-92.1133,34.623],[-92.0787,34.73],[-92.0708,35.0118],[-92.1213,35.0122]]]}},{"type":"Feature","id":"05087","properties":{"name":"Madison","fips":"05087"},"geometry":{"type":"Polygon","coordinates":[[[-93.9629,35.7609],[-93.9442,36.0911],[-93.8878,36.235],[-93.8156,36.3066],[-93.6577,36.3031],[-93.62,36.2012],[-93.5511,36.1263],[-93.4795,36.1251],[-93.4507,35.9675],[-93.5236,35.8816],[-93.5192,35.7635],[-93.696,35.7686],[-93.9106,35.7742],[-93.9108,35.7598],[-93.9629,35.7609]]]}},{"type":"Feature","id":"05089","properties":{"name":"Marion","fips":"05089"},"geometry":{"type":"Polygon","coordinates":[[[-92.854,36.498],[-92.8389,36.498],[-92.8386,36.4981],[-92.7723,36.4978],[-92.7723,36.4978],[-92.5291,36.4977],[-92.5332,36.3866],[-92.5931,36.3583],[-92.543,36.2693],[-92.4693,36.2509],[-92.4119,36.1621],[-92.4115,36.0628],[-92.8378,36.0701],[-92.8907,36.1141],[-92.885,36.4909],[-92.854,36.498]]]}},{"type":"Feature","id":"05091","properties":{"name":"Miller","fips":"05091"},"geometry":{"type":"Polygon","coordinates":[[[-94.043,33.0795],[-94.0429,33.0927],[-94.043,33.1339],[-94.0431,33.1382],[-94.0432,33.1435],[-94.0429,33.1998],[-94.0429,33.2027],[-94.0429,33.2152],[-94.0427,33.2418],[-94.043,33.2501],[-94.043,33.2609],[-94.043,33.2712],[-94.043,33.2712],[-94.0431,33.3305],[-94.0431,33.3474],[-94.0431,33.3521],[-94.0431,33.3588],[-94.0429,33.3712],[-94.0431,33.3777],[-94.0429,33.4202],[-94.043,33.431],[-94.043,33.4358],[-94.0432,33.4703],[-94.0433,33.491],[-94.043,33.493],[-94.0434,33.5423],[-94.0434,33.5514],[-94.0435,33.5523],[-93.9515,33.5493],[-93.8259,33.6099],[-93.8222,33.6135],[-93.8161,33.6108],[-93.8125,33.6034],[-93.8176,33.5862],[-93.8233,33.5805],[-93.8277,33.5716],[-93.8142,33.5647],[-93.7983,33.5525],[-93.8038,33.5494],[-93.8077,33.5452],[-93.7983,33.5421],[-93.7927,33.5471],[-93.7927,33.542],[-93.7924,33.5359],[-93.7788,33.5247],[-93.7803,33.5196],[-93.7736,33.5047],[-93.7727,33.4985],[-93.7229,33.482],[-93.7333,33.4209],[-93.6655,33.327],[-93.7502,33.1839],[-93.7341,33.1556],[-93.8501,33.1453],[-93.8604,33.0926],[-93.8049,33.0193],[-93.8146,33.0194],[-94.0245,33.0192],[-94.028,33.0191],[-94.0358,33.0191],[-94.0414,33.0192],[-94.043,33.0192],[-94.043,33.0795]]]}},{"type":"Feature","id":"05093","properties":{"name":"Mississippi","fips":"05093"},"geometry":{"type":"Polygon","coordinates":[[[-89.9336,35.5333],[-89.9573,35.5287],[-90.0173,35.556],[-90.0286,35.5552],[-90.0329,35.5534],[-90.0397,35.548],[-90.035,35.4807],[-90.034,35.4688],[-90.0477,35.4593],[-90.0591,35.4579],[-90.0678,35.4662],[-90.0722,35.4708],[-90.0744,35.4725],[-90.1077,35.4769],[-90.1524,35.4368],[-90.2869,35.4386],[-90.287,35.4399],[-90.2867,35.6999],[-90.2889,35.9964],[-90.2888,35.9964],[-90.1588,35.9974],[-90.1273,35.9976],[-90.1264,35.9976],[-89.9726,35.999],[-89.9653,35.9988],[-89.9611,35.9991],[-89.9599,35.999],[-89.9594,35.999],[-89.9594,35.999],[-89.9012,35.9994],[-89.8965,35.9994],[-89.8756,35.9996],[-89.8751,35.9996],[-89.8746,35.9996],[-89.869,35.9996],[-89.7703,36.0005],[-89.77,36.0005],[-89.7376,36.0006],[-89.7376,36.0005],[-89.7331,36.0006],[-89.72,35.9746],[-89.6869,35.9477],[-89.6879,35.9054],[-89.6881,35.8969],[-89.7149,35.9062],[-89.7336,35.9047],[-89.756,35.8968],[-89.7657,35.8913],[-89.7717,35.8797],[-89.7736,35.8717],[-89.7725,35.8651],[-89.7694,35.8616],[-89.7494,35.853],[-89.7295,35.8476],[-89.7093,35.8389],[-89.7029,35.8342],[-89.701,35.8282],[-89.7039,35.8203],[-89.8212,35.7567],[-89.8656,35.7466],[-89.889,35.7506],[-89.9055,35.7591],[-89.91,35.7594],[-89.9503,35.7385],[-89.9563,35.7334],[-89.9589,35.7238],[-89.9558,35.6906],[-89.9374,35.6657],[-89.9227,35.6553],[-89.9061,35.6511],[-89.8905,35.6524],[-89.8849,35.6551],[-89.9098,35.5379],[-89.9336,35.5333]]]}},{"type":"Feature","id":"05095","properties":{"name":"Monroe","fips":"05095"},"geometry":{"type":"Polygon","coordinates":[[[-91.0563,34.3366],[-91.1078,34.3534],[-91.2092,34.4832],[-91.3778,34.5635],[-91.4478,34.6092],[-91.447,34.6675],[-91.3748,34.666],[-91.3686,34.9127],[-91.2948,34.9125],[-91.2931,34.9851],[-91.1498,35.0025],[-91.1525,34.9118],[-91.1,34.8671],[-91.1025,34.7349],[-91.0495,34.7342],[-91.0519,34.6457],[-91.0548,34.4709],[-91.0005,34.4694],[-91.0027,34.3364],[-91.0563,34.3366]]]}},{"type":"Feature","id":"05097","properties":{"name":"Montgomery","fips":"05097"},"geometry":{"type":"Polygon","coordinates":[[[-93.7103,34.7453],[-93.3943,34.7434],[-93.4072,34.3969],[-93.4081,34.3395],[-93.4332,34.3399],[-93.4395,34.3402],[-93.44,34.34],[-93.4786,34.3409],[-93.9354,34.3501],[-93.9305,34.6656],[-93.8702,34.7127],[-93.7103,34.7453]]]}},{"type":"Feature","id":"05099","properties":{"name":"Nevada","fips":"05099"},"geometry":{"type":"Polygon","coordinates":[[[-93.3656,33.4445],[-93.484,33.4472],[-93.4831,33.4761],[-93.4567,33.9568],[-93.3734,33.9571],[-93.2906,33.8451],[-93.1043,33.777],[-93.1164,33.4529],[-93.3656,33.4445]]]}},{"type":"Feature","id":"05101","properties":{"name":"Newton","fips":"05101"},"geometry":{"type":"Polygon","coordinates":[[[-92.9447,36.1151],[-92.9513,35.7247],[-93.1645,35.7288],[-93.5196,35.7344],[-93.5192,35.7635],[-93.5236,35.8816],[-93.4507,35.9675],[-93.4795,36.1251],[-93.3001,36.1213],[-92.9483,36.1155],[-92.9447,36.1151]]]}},{"type":"Feature","id":"05103","properties":{"name":"Ouachita","fips":"05103"},"geometry":{"type":"Polygon","coordinates":[[[-92.5672,33.3672],[-92.6602,33.3556],[-92.9785,33.3773],[-93.119,33.3803],[-93.1164,33.4529],[-93.1043,33.777],[-92.8935,33.8099],[-92.5831,33.8022],[-92.585,33.7365],[-92.6479,33.6638],[-92.7357,33.6243],[-92.7175,33.5524],[-92.7767,33.5376],[-92.7051,33.4312],[-92.6532,33.434],[-92.5672,33.3672]]]}},{"type":"Feature","id":"05105","properties":{"name":"Perry","fips":"05105"},"geometry":{"type":"Polygon","coordinates":[[[-92.5443,34.9533],[-92.7536,34.9112],[-92.7398,34.8535],[-93.0739,34.8581],[-93.0752,34.7719],[-93.2699,34.772],[-93.2878,34.7732],[-93.2883,34.861],[-93.1815,34.9764],[-93.0405,35.0769],[-92.7163,35.0717],[-92.5547,35.1133],[-92.5936,35.0118],[-92.5443,34.9533]]]}},{"type":"Feature","id":"05107","properties":{"name":"Phillips","fips":"05107"},"geometry":{"type":"Polygon","coordinates":[[[-90.5758,34.6417],[-90.5701,34.5248],[-90.5658,34.4354],[-90.5753,34.4152],[-90.6139,34.3907],[-90.6585,34.3757],[-90.7641,34.3634],[-90.8564,34.2389],[-90.8688,34.2282],[-90.8947,34.23],[-90.9115,34.2231],[-90.9132,34.2104],[-90.8959,34.1919],[-90.8809,34.1803],[-90.8803,34.1694],[-90.893,34.1555],[-90.9184,34.1544],[-90.9346,34.1301],[-90.9331,34.1245],[-90.9552,34.1188],[-91.1179,34.1191],[-91.0606,34.2168],[-91.0563,34.3366],[-91.0027,34.3364],[-91.0005,34.4694],[-91.0548,34.4709],[-91.0519,34.6457],[-90.5832,34.6414],[-90.5758,34.6417]]]}},{"type":"Feature","id":"05109","properties":{"name":"Pike","fips":"05109"},"geometry":{"type":"Polygon","coordinates":[[[-93.9354,34.3501],[-93.4786,34.3409],[-93.4342,34.0497],[-93.3734,33.9571],[-93.4567,33.9568],[-93.5288,33.9432],[-93.8231,34.0089],[-93.8207,34.1838],[-93.9258,34.1865],[-93.9354,34.3501]]]}},{"type":"Feature","id":"05111","properties":{"name":"Poinsett","fips":"05111"},"geometry":{"type":"Polygon","coordinates":[[[-91.037,35.7084],[-90.2867,35.6999],[-90.287,35.4399],[-90.2869,35.4386],[-90.5001,35.4418],[-90.5024,35.4417],[-91.0392,35.4447],[-91.037,35.7084]]]}},{"type":"Feature","id":"05113","properties":{"name":"Polk","fips":"05113"},"geometry":{"type":"Polygon","coordinates":[[[-94.4658,34.3521],[-94.4654,34.3595],[-94.4642,34.4027],[-94.4638,34.4145],[-94.4637,34.4196],[-94.4611,34.5075],[-94.4601,34.5453],[-94.4601,34.5479],[-94.4575,34.6349],[-94.4575,34.643],[-94.4546,34.729],[-94.3177,34.6974],[-94.0182,34.6925],[-93.9305,34.6656],[-93.9354,34.3501],[-94.2547,34.3555],[-94.2437,34.1925],[-94.4703,34.1899],[-94.4658,34.3521]]]}},{"type":"Feature","id":"05115","properties":{"name":"Pope","fips":"05115"},"geometry":{"type":"Polygon","coordinates":[[[-92.8961,35.1707],[-93.0847,35.1274],[-93.1561,35.2353],[-93.2783,35.3174],[-93.2828,35.3183],[-93.2942,35.3253],[-93.299,35.3274],[-93.2959,35.4699],[-93.2236,35.4686],[-93.2212,35.5989],[-93.1678,35.5977],[-93.1645,35.7288],[-92.9513,35.7247],[-92.8098,35.7224],[-92.8134,35.549],[-92.8506,35.4629],[-92.855,35.1728],[-92.8961,35.1707]]]}},{"type":"Feature","id":"05117","properties":{"name":"Prairie","fips":"05117"},"geometry":{"type":"Polygon","coordinates":[[[-91.4651,35.0895],[-91.3638,35.0519],[-91.3686,34.9127],[-91.3748,34.666],[-91.447,34.6675],[-91.4478,34.6092],[-91.3778,34.5635],[-91.5944,34.568],[-91.5955,34.4805],[-91.678,34.4819],[-91.6385,34.6261],[-91.7008,34.672],[-91.6937,34.9196],[-91.8037,34.9215],[-91.8025,35.0304],[-91.6955,35.0623],[-91.5851,35.0252],[-91.584,35.0916],[-91.4651,35.0895]]]}},{"type":"Feature","id":"05119","properties":{"name":"Pulaski","fips":"05119"},"geometry":{"type":"Polygon","coordinates":[[[-92.2458,34.4935],[-92.2442,34.5809],[-92.3487,34.5823],[-92.3468,34.6256],[-92.4451,34.6269],[-92.4433,34.672],[-92.552,34.6894],[-92.5499,34.7617],[-92.6543,34.7645],[-92.6512,34.8517],[-92.7398,34.8535],[-92.7536,34.9112],[-92.5443,34.9533],[-92.2299,34.9276],[-92.2275,35.0145],[-92.1213,35.0122],[-92.0708,35.0118],[-92.0787,34.73],[-92.1133,34.623],[-92.0295,34.6214],[-92.03,34.4894],[-92.208,34.4928],[-92.2458,34.4935]]]}},{"type":"Feature","id":"05121","properties":{"name":"Randolph","fips":"05121"},"geometry":{"type":"Polygon","coordinates":[[[-91.4071,36.4971],[-91.4051,36.4972],[-91.4049,36.4971],[-91.2274,36.4976],[-91.2186,36.4976],[-91.2174,36.4975],[-91.1265,36.4977],[-91.0963,36.4979],[-91.0959,36.4979],[-91.018,36.4981],[-91.0086,36.4983],[-90.9631,36.4984],[-90.9606,36.4984],[-90.8792,36.4984],[-90.8769,36.4984],[-90.8766,36.4983],[-90.8738,36.4981],[-90.8504,36.4985],[-90.7844,36.4985],[-90.7486,36.4128],[-90.7518,36.28],[-90.8066,36.2669],[-90.8098,36.1496],[-91.0827,36.1509],[-91.2589,36.2579],[-91.3087,36.4204],[-91.4071,36.4971]]]}},{"type":"Feature","id":"05125","properties":{"name":"Saline","fips":"05125"},"geometry":{"type":"Polygon","coordinates":[[[-92.2458,34.4935],[-92.4036,34.4958],[-92.4047,34.4519],[-92.5894,34.4556],[-92.6687,34.4142],[-92.6853,34.4731],[-92.7932,34.5036],[-92.808,34.5904],[-92.8755,34.6351],[-92.9799,34.6372],[-92.9693,34.7723],[-93.0752,34.7719],[-93.0739,34.8581],[-92.7398,34.8535],[-92.6512,34.8517],[-92.6543,34.7645],[-92.5499,34.7617],[-92.552,34.6894],[-92.4433,34.672],[-92.4451,34.6269],[-92.3468,34.6256],[-92.3487,34.5823],[-92.2442,34.5809],[-92.2458,34.4935]]]}},{"type":"Feature","id":"05127","properties":{"name":"Scott","fips":"05127"},"geometry":{"type":"Polygon","coordinates":[[[-94.4493,34.8959],[-94.4479,34.9339],[-94.2305,34.9685],[-94.2229,35.0791],[-94.1406,35.0997],[-94.0743,35.0266],[-93.7049,35.0197],[-93.7103,34.7453],[-93.8702,34.7127],[-93.9305,34.6656],[-94.0182,34.6925],[-94.3177,34.6974],[-94.4546,34.729],[-94.4502,34.8554],[-94.4501,34.8587],[-94.4501,34.8613],[-94.4496,34.8753],[-94.4491,34.8906],[-94.4491,34.8942],[-94.4493,34.8959]]]}},{"type":"Feature","id":"05129","properties":{"name":"Searcy","fips":"05129"},"geometry":{"type":"Polygon","coordinates":[[[-92.4143,35.9759],[-92.4167,35.7886],[-92.6298,35.7908],[-92.6312,35.7184],[-92.8098,35.7224],[-92.9513,35.7247],[-92.9447,36.1151],[-92.8907,36.1141],[-92.8378,36.0701],[-92.4115,36.0628],[-92.4125,36.0272],[-92.4143,35.9759]]]}},{"type":"Feature","id":"05131","properties":{"name":"Sebastian","fips":"05131"},"geometry":{"type":"Polygon","coordinates":[[[-94.4337,35.3865],[-94.4339,35.3874],[-94.4312,35.3943],[-94.4318,35.3977],[-94.4035,35.45],[-94.3212,35.3575],[-94.2238,35.3537],[-94.0749,35.4454],[-94.0828,35.2159],[-94.0285,35.2138],[-94.0312,35.1409],[-94.1393,35.1434],[-94.1406,35.0997],[-94.2229,35.0791],[-94.2305,34.9685],[-94.4479,34.9339],[-94.4412,35.1197],[-94.4408,35.1288],[-94.4395,35.169],[-94.4395,35.1718],[-94.4391,35.1936],[-94.4391,35.1973],[-94.4385,35.2086],[-94.4382,35.211],[-94.4378,35.2393],[-94.4376,35.2422],[-94.4358,35.2713],[-94.4357,35.2743],[-94.4353,35.2759],[-94.4353,35.2875],[-94.4352,35.2915],[-94.4341,35.3065],[-94.4318,35.3629],[-94.4327,35.3808],[-94.4337,35.3865]]]}},{"type":"Feature","id":"05133","properties":{"name":"Sevier","fips":"05133"},"geometry":{"type":"Polygon","coordinates":[[[-94.4773,33.9409],[-94.477,33.9538],[-94.477,33.9574],[-94.4749,34.0197],[-94.4749,34.0218],[-94.4749,34.0219],[-94.4703,34.1899],[-94.2437,34.1925],[-94.0901,34.1871],[-94.0701,33.927],[-93.9647,33.7962],[-93.9588,33.751],[-94.0408,33.782],[-94.2374,33.8021],[-94.4773,33.9409]]]}},{"type":"Feature","id":"05135","properties":{"name":"Sharp","fips":"05135"},"geometry":{"type":"Polygon","coordinates":[[[-91.4071,36.4971],[-91.3087,36.4204],[-91.2589,36.2579],[-91.3498,36.231],[-91.3572,35.8906],[-91.4647,35.8925],[-91.4632,35.9368],[-91.7106,35.9418],[-91.6823,36.0005],[-91.6914,36.2533],[-91.5661,36.2499],[-91.5659,36.3374],[-91.4544,36.3355],[-91.45,36.4975],[-91.4463,36.4975],[-91.4365,36.4974],[-91.4333,36.4973],[-91.4073,36.4971],[-91.4071,36.4971]]]}},{"type":"Feature","id":"05123","properties":{"name":"St. Francis","fips":"05123"},"geometry":{"type":"Polygon","coordinates":[[[-90.4085,34.9041],[-91.0992,34.9118],[-91.1,34.8671],[-91.1525,34.9118],[-91.1498,35.0025],[-91.0454,35.001],[-91.0427,35.1482],[-90.503,35.1442],[-90.4004,35.1482],[-90.4085,34.9041]]]}},{"type":"Feature","id":"05137","properties":{"name":"Stone","fips":"05137"},"geometry":{"type":"Polygon","coordinates":[[[-92.1954,36.1328],[-92.0636,36.0244],[-92.1086,35.9313],[-91.953,35.9316],[-91.8494,35.8674],[-91.871,35.8106],[-91.8372,35.7049],[-92.2405,35.7122],[-92.4184,35.716],[-92.4167,35.7886],[-92.4143,35.9759],[-92.3072,35.974],[-92.305,36.0611],[-92.1976,36.0593],[-92.1954,36.1328]]]}},{"type":"Feature","id":"05139","properties":{"name":"Union","fips":"05139"},"geometry":{"type":"Polygon","coordinates":[[[-92.7247,33.0143],[-92.725,33.0144],[-92.7332,33.0143],[-92.8308,33.0157],[-92.8441,33.016],[-92.8443,33.0161],[-92.8542,33.0161],[-92.8675,33.0161],[-92.9466,33.0168],[-92.9711,33.0172],[-92.9887,33.0173],[-92.9785,33.3773],[-92.6602,33.3556],[-92.5672,33.3672],[-92.4454,33.2749],[-92.3504,33.2989],[-92.2241,33.2518],[-92.1375,33.163],[-92.1096,33.0341],[-92.0691,33.0082],[-92.2228,33.0091],[-92.2927,33.0101],[-92.3359,33.0103],[-92.3629,33.0106],[-92.3703,33.0107],[-92.4698,33.012],[-92.5014,33.0122],[-92.5038,33.0122],[-92.7113,33.0143],[-92.7159,33.0144],[-92.7236,33.0143],[-92.7247,33.0143]]]}},{"type":"Feature","id":"05141","properties":{"name":"Van Buren","fips":"05141"},"geometry":{"type":"Polygon","coordinates":[[[-92.8506,35.4629],[-92.8134,35.549],[-92.8098,35.7224],[-92.6312,35.7184],[-92.6298,35.7908],[-92.4167,35.7886],[-92.4184,35.716],[-92.2405,35.7122],[-92.2528,35.3637],[-92.4815,35.3684],[-92.4793,35.4554],[-92.8506,35.4629]]]}},{"type":"Feature","id":"05143","properties":{"name":"Washington","fips":"05143"},"geometry":{"type":"Polygon","coordinates":[[[-93.9629,35.7609],[-94.1249,35.7504],[-94.4929,35.7592],[-94.4934,35.7619],[-94.4945,35.7683],[-94.499,35.7935],[-94.4996,35.7969],[-94.5005,35.8026],[-94.5008,35.8038],[-94.5012,35.8064],[-94.503,35.8172],[-94.5044,35.8264],[-94.5056,35.8336],[-94.5076,35.8459],[-94.5227,35.9342],[-94.5227,35.9348],[-94.5226,35.9349],[-94.5229,35.9361],[-94.5243,35.944],[-94.5246,35.9457],[-94.5282,35.9657],[-94.5283,35.9661],[-94.5321,35.9879],[-94.5336,35.9968],[-94.5349,36.0027],[-94.5357,36.0078],[-94.5477,36.0773],[-94.5479,36.0783],[-94.5522,36.1022],[-94.3911,36.0994],[-94.3336,36.2147],[-93.9733,36.2039],[-93.8878,36.235],[-93.9442,36.0911],[-93.9629,35.7609]]]}},{"type":"Feature","id":"05145","properties":{"name":"White","fips":"05145"},"geometry":{"type":"Polygon","coordinates":[[[-91.4651,35.0895],[-91.584,35.0916],[-91.5851,35.0252],[-91.6955,35.0623],[-91.8025,35.0304],[-91.8789,35.0246],[-92.0131,35.0763],[-92.1197,35.0665],[-92.1115,35.3627],[-91.852,35.3583],[-91.8501,35.4364],[-91.7959,35.4556],[-91.794,35.5341],[-91.5819,35.5304],[-91.5847,35.4423],[-91.3473,35.4391],[-91.4382,35.3694],[-91.3904,35.2516],[-91.371,35.263],[-91.4651,35.0895]]]}},{"type":"Feature","id":"05147","properties":{"name":"Woodruff","fips":"05147"},"geometry":{"type":"Polygon","coordinates":[[[-91.3686,34.9127],[-91.3638,35.0519],[-91.4651,35.0895],[-91.371,35.263],[-91.3904,35.2516],[-91.4382,35.3694],[-91.3473,35.4391],[-91.2529,35.4458],[-91.2516,35.3576],[-91.0398,35.3543],[-91.0427,35.1482],[-91.0454,35.001],[-91.1498,35.0025],[-91.2931,34.9851],[-91.2948,34.9125],[-91.3686,34.9127]]]}},{"type":"Feature","id":"05149","properties":{"name":"Yell","fips":"05149"},"geometry":{"type":"Polygon","coordinates":[[[-92.8961,35.1707],[-93.0405,35.0769],[-93.1815,34.9764],[-93.2883,34.861],[-93.2878,34.7732],[-93.3945,34.7724],[-93.3943,34.7434],[-93.7103,34.7453],[-93.7049,35.0197],[-93.7067,35.1349],[-93.5298,35.1454],[-93.457,35.2158],[-93.28,35.2126],[-93.2783,35.3174],[-93.1561,35.2353],[-93.0847,35.1274],[-92.8961,35.1707]]]}}]}