{"type":"FeatureCollection","features":[{"type":"Feature","id":"04001","properties":{"name":"Apache","fips":"04001"},"geometry":{"type":"Polygon","coordinates":[[[-109.046,36.0023],[-109.046,35.9259],[-109.0461,35.9259],[-109.0461,35.8887],[-109.046,35.8798],[-109.0463,35.6165],[-109.0463,35.6143],[-109.0465,35.5464],[-109.0465,35.5463],[-109.0461,35.1747],[-109.0459,34.9597],[-109.0462,34.5793],[-109.0462,34.5226],[-109.0462,34.5224],[-109.0466,33.7782],[-109.3481,33.7775],[-109.4954,33.6527],[-109.7998,33.4883],[-109.8918,33.5678],[-109.8918,33.7778],[-109.8593,33.7777],[-109.8494,34.1259],[-109.8482,34.4734],[-109.8652,34.5597],[-109.8446,34.8226],[-109.8438,35.5179],[-109.8269,35.6625],[-110.0007,35.6627],[-110.0007,35.8443],[-109.9992,36.6959],[-110.0007,36.998],[-109.3812,36.9991],[-109.378,36.9991],[-109.2701,36.9993],[-109.2682,36.9992],[-109.2634,36.9993],[-109.2469,36.9993],[-109.2338,36.9993],[-109.1812,36.9993],[-109.0452,36.9991],[-109.0452,36.9695],[-109.0453,36.9689],[-109.0454,36.875],[-109.0454,36.8746],[-109.046,36.0023]]]}},{"type":"Feature","id":"04003","properties":{"name":"Cochise","fips":"04003"},"geometry":{"type":"Polygon","coordinates":[[[-109.0479,32.4264],[-109.0483,32.0891],[-109.0483,32.0841],[-109.0487,32.0282],[-109.0486,32.0137],[-109.0486,31.8708],[-109.0488,31.8614],[-109.0488,31.8108],[-109.0492,31.7966],[-109.0498,31.4995],[-109.0498,31.4995],[-109.05,31.3325],[-109.4269,31.334],[-110.4602,31.3331],[-110.4517,31.7313],[-110.4515,32.4274],[-109.2278,32.4245],[-109.114,32.4262],[-109.0479,32.4264]]]}},{"type":"Feature","id":"04005","properties":{"name":"Coconino","fips":"04005"},"geometry":{"type":"Polygon","coordinates":[[[-112.5386,37.0007],[-112.5345,37.0007],[-112.3689,37.0011],[-112.3577,37.001],[-111.4128,37.0015],[-111.4059,37.0015],[-111.4055,37.0015],[-111.1899,37.001],[-110.7507,37.0032],[-110.7507,36.4099],[-110.7507,35.8149],[-110.7507,35.5],[-110.7507,34.2633],[-110.7881,34.3091],[-110.8481,34.2672],[-111.0967,34.3964],[-111.1471,34.3752],[-111.2509,34.4533],[-111.3972,34.4261],[-111.4273,34.3861],[-111.4231,34.4372],[-111.5503,34.4191],[-111.472,34.4623],[-111.5024,34.4981],[-111.5551,34.4722],[-111.5521,34.8025],[-111.7779,34.8033],[-111.7778,34.9813],[-111.8092,34.9762],[-112.3345,34.973],[-112.3357,35.1483],[-112.4423,35.1494],[-112.4408,35.2605],[-112.4727,35.2383],[-112.5774,35.2434],[-112.6948,35.3116],[-112.7548,35.3063],[-112.9534,35.3561],[-112.9759,35.3929],[-113.1481,35.4786],[-113.1745,35.5064],[-113.3013,35.5311],[-113.3204,35.5306],[-113.3296,35.5281],[-113.3342,35.528],[-113.3339,35.8007],[-113.3105,35.8644],[-113.3171,35.9614],[-113.3542,36.0404],[-113.32,36.0968],[-113.2311,36.0895],[-113.1992,36.1514],[-113.1371,36.1664],[-113.009,36.239],[-112.7924,36.285],[-112.724,36.346],[-112.6816,36.3417],[-112.6297,36.3923],[-112.6451,36.4573],[-112.6219,36.485],[-112.6603,36.5396],[-112.5386,37.0007]]]}},{"type":"Feature","id":"04007","properties":{"name":"Gila","fips":"04007"},"geometry":{"type":"Polygon","coordinates":[[[-111.0399,33.4661],[-111.1534,33.6776],[-111.2221,33.6024],[-111.2628,33.6232],[-111.3894,33.7767],[-111.3723,33.8239],[-111.4509,33.9199],[-111.4333,33.9833],[-111.4948,33.9998],[-111.4779,34.1511],[-111.7207,34.1617],[-111.6595,34.3864],[-111.5551,34.4722],[-111.5024,34.4981],[-111.472,34.4623],[-111.5503,34.4191],[-111.4231,34.4372],[-111.4273,34.3861],[-111.3972,34.4261],[-111.2509,34.4533],[-111.1471,34.3752],[-111.0967,34.3964],[-110.8481,34.2672],[-110.7881,34.3091],[-110.7507,34.2633],[-110.7507,34.0],[-110.0007,34.0],[-110.0006,33.5769],[-110.0006,33.4659],[-110.3409,33.4271],[-110.4415,33.3817],[-110.4572,33.2953],[-110.4015,33.1966],[-110.449,33.1945],[-110.526,33.1592],[-110.678,33.1112],[-110.7808,32.9837],[-110.9467,33.2501],[-110.9747,33.3421],[-111.0399,33.4661]]]}},{"type":"Feature","id":"04009","properties":{"name":"Graham","fips":"04009"},"geometry":{"type":"Polygon","coordinates":[[[-110.449,33.1945],[-110.4015,33.1966],[-110.4572,33.2953],[-110.4415,33.3817],[-110.3409,33.4271],[-110.0006,33.4659],[-110.0006,33.5769],[-109.8918,33.5678],[-109.7998,33.4883],[-109.4954,33.6527],[-109.4957,33.0784],[-109.2138,32.6807],[-109.2261,32.5291],[-109.114,32.4262],[-109.2278,32.4245],[-110.4515,32.4274],[-110.4512,32.5044],[-110.4512,32.5138],[-110.4492,32.5138],[-110.449,33.1945]]]}},{"type":"Feature","id":"04011","properties":{"name":"Greenlee","fips":"04011"},"geometry":{"type":"Polygon","coordinates":[[[-109.0471,32.7776],[-109.0476,32.6934],[-109.0476,32.69],[-109.0477,32.6863],[-109.0477,32.6814],[-109.0479,32.4264],[-109.114,32.4262],[-109.2261,32.5291],[-109.2138,32.6807],[-109.4957,33.0784],[-109.4954,33.6527],[-109.3481,33.7775],[-109.0466,33.7782],[-109.0469,33.3727],[-109.047,33.3693],[-109.0469,33.3656],[-109.0468,33.3653],[-109.0472,33.209],[-109.0471,33.138],[-109.0471,33.1376],[-109.047,33.0929],[-109.0469,33.0919],[-109.0475,33.0694],[-109.0475,33.0684],[-109.0471,32.7776],[-109.0471,32.7776]]]}},{"type":"Feature","id":"04012","properties":{"name":"La Paz","fips":"04012"},"geometry":{"type":"Polygon","coordinates":[[[-114.6271,33.4336],[-114.6229,33.4566],[-114.5945,33.4951],[-114.5589,33.5318],[-114.5357,33.5688],[-114.536,33.5692],[-114.5403,33.5806],[-114.5406,33.5914],[-114.5303,33.6792],[-114.524,33.6859],[-114.5191,33.6885],[-114.4965,33.6969],[-114.4942,33.7079],[-114.5043,33.7564],[-114.5234,33.8061],[-114.5255,33.8386],[-114.5184,33.9175],[-114.4999,33.9618],[-114.4636,33.9934],[-114.4383,34.0226],[-114.4349,34.0378],[-114.4354,34.0797],[-114.4334,34.0884],[-114.4205,34.1035],[-114.4117,34.11],[-114.4014,34.1117],[-114.3906,34.1101],[-114.3665,34.1186],[-114.3216,34.1381],[-114.3126,34.1445],[-114.2442,34.1796],[-114.2259,34.2018],[-114.1645,34.2517],[-114.1333,34.2585],[-114.1315,34.2604],[-114.1383,34.3032],[-114.0311,34.2598],[-113.6031,34.231],[-113.5395,34.3064],[-113.3705,34.292],[-113.3335,34.3179],[-113.3333,34.001],[-113.3338,33.9992],[-113.3338,33.9117],[-113.3333,33.5657],[-113.3339,33.3774],[-113.958,33.3776],[-113.958,33.4647],[-114.2678,33.4636],[-114.2687,33.0298],[-114.5169,33.0269],[-114.5236,33.031],[-114.5717,33.0366],[-114.5783,33.0354],[-114.5848,33.0282],[-114.5898,33.0262],[-114.6063,33.0257],[-114.6239,33.0287],[-114.6751,33.0475],[-114.7078,33.0911],[-114.7062,33.1053],[-114.6968,33.1312],[-114.6871,33.1422],[-114.6794,33.1595],[-114.6754,33.1855],[-114.6721,33.2585],[-114.7001,33.341],[-114.7212,33.3969],[-114.6653,33.4154],[-114.6271,33.4336]]]}},{"type":"Feature","id":"04013","properties":{"name":"Maricopa","fips":"04013"},"geometry":{"type":"Polygon","coordinates":[[[-111.5806,33.4659],[-111.583,33.2054],[-111.686,33.2046],[-111.8931,33.2048],[-112.0835,33.2046],[-112.1918,33.265],[-112.2033,33.3105],[-112.2037,32.5068],[-113.3339,32.5049],[-113.3332,33.2272],[-113.3339,33.3774],[-113.3333,33.5657],[-113.3338,33.9117],[-113.3338,33.9992],[-112.744,33.9999],[-112.3419,33.899],[-112.276,33.8823],[-112.2644,33.8991],[-112.2605,33.9036],[-112.2567,33.9055],[-112.1648,34.0482],[-111.862,34.0151],[-111.7253,33.9998],[-111.4948,33.9998],[-111.4333,33.9833],[-111.4509,33.9199],[-111.3723,33.8239],[-111.3894,33.7767],[-111.2628,33.6232],[-111.2221,33.6024],[-111.1534,33.6776],[-111.0399,33.4661],[-111.2507,33.4649],[-111.2698,33.4655],[-111.5806,33.4659]]]}},{"type":"Feature","id":"04015","properties":{"name":"Mohave","fips":"04015"},"geometry":{"type":"Polygon","coordinates":[[[-114.0506,37.0004],[-113.9659,37.0],[-113.9659,37.0],[-112.9665,37.0002],[-112.8994,37.0003],[-112.6098,37.0008],[-112.559,37.0007],[-112.5451,37.0007],[-112.5404,37.0007],[-112.5386,37.0007],[-112.6603,36.5396],[-112.6219,36.485],[-112.6451,36.4573],[-112.6297,36.3923],[-112.6816,36.3417],[-112.724,36.346],[-112.7924,36.285],[-113.009,36.239],[-113.1371,36.1664],[-113.1992,36.1514],[-113.2311,36.0895],[-113.32,36.0968],[-113.3542,36.0404],[-113.3171,35.9614],[-113.3105,35.8644],[-113.3339,35.8007],[-113.3342,35.528],[-113.3327,35.0001],[-113.3335,34.3179],[-113.3705,34.292],[-113.5395,34.3064],[-113.6031,34.231],[-114.0311,34.2598],[-114.1383,34.3032],[-114.1769,34.3493],[-114.1995,34.3614],[-114.2643,34.4013],[-114.3396,34.4514],[-114.4525,34.6535],[-114.4656,34.6923],[-114.5527,34.7669],[-114.6331,34.87],[-114.6352,34.875],[-114.6367,34.8891],[-114.6309,34.9073],[-114.629,34.9861],[-114.6292,34.9919],[-114.633,35.0021],[-114.6335,35.0156],[-114.6355,35.0283],[-114.622,35.0947],[-114.5991,35.121],[-114.5843,35.125],[-114.5785,35.1287],[-114.5727,35.1387],[-114.5696,35.1631],[-114.5692,35.1835],[-114.5959,35.3252],[-114.6043,35.3536],[-114.6271,35.4095],[-114.652,35.4292],[-114.6621,35.4442],[-114.6776,35.4897],[-114.6767,35.4991],[-114.675,35.5106],[-114.6711,35.5206],[-114.6538,35.5995],[-114.6534,35.6108],[-114.6575,35.6183],[-114.6767,35.641],[-114.6894,35.6514],[-114.7003,35.7004],[-114.7077,35.8119],[-114.7056,35.8489],[-114.7042,35.852],[-114.7061,35.8787],[-114.7313,35.9452],[-114.7436,35.9837],[-114.7556,36.0872],[-114.7449,36.0987],[-114.7362,36.1044],[-114.6317,36.1423],[-114.572,36.1516],[-114.5133,36.1512],[-114.3814,36.1417],[-114.3658,36.1337],[-114.3288,36.1055],[-114.3109,36.0838],[-114.3072,36.0765],[-114.3036,36.0665],[-114.2927,36.0511],[-114.2631,36.0259],[-114.2527,36.0202],[-114.2388,36.0146],[-114.2333,36.0143],[-114.2137,36.0156],[-114.1541,36.0239],[-114.1488,36.0273],[-114.1382,36.0413],[-114.1258,36.0775],[-114.1202,36.1022],[-114.063,36.1869],[-114.0603,36.1894],[-114.0468,36.1941],[-114.0471,36.2506],[-114.0485,36.2896],[-114.0464,36.3719],[-114.0465,36.4734],[-114.0506,36.6563],[-114.0506,36.8002],[-114.0506,36.8431],[-114.0506,37.0004]]]}},{"type":"Feature","id":"04017","properties":{"name":"Navajo","fips":"04017"},"geometry":{"type":"Polygon","coordinates":[[[-110.0007,35.6627],[-109.8269,35.6625],[-109.8438,35.5179],[-109.8446,34.8226],[-109.8652,34.5597],[-109.8482,34.4734],[-109.8494,34.1259],[-109.8593,33.7777],[-109.8918,33.7778],[-109.8918,33.5678],[-110.0006,33.5769],[-110.0007,34.0],[-110.7507,34.0],[-110.7507,34.2633],[-110.7507,35.5],[-110.7507,35.8149],[-110.7507,36.4099],[-110.7507,37.0032],[-110.4953,37.0039],[-110.3311,36.9982],[-110.0007,36.998],[-109.9992,36.6959],[-110.0007,35.8443],[-110.0007,35.6627]]]}},{"type":"Feature","id":"04019","properties":{"name":"Pima","fips":"04019"},"geometry":{"type":"Polygon","coordinates":[[[-111.7925,32.5068],[-111.2706,32.5014],[-110.9256,32.5114],[-110.8449,32.5112],[-110.8449,32.5138],[-110.7854,32.5135],[-110.4512,32.5138],[-110.4512,32.5044],[-110.4515,32.4274],[-110.4517,31.7313],[-111.1583,31.726],[-111.1642,31.726],[-111.164,31.6187],[-111.1637,31.5218],[-111.3666,31.5213],[-111.3666,31.4259],[-111.5795,31.4941],[-112.2461,31.7042],[-112.8671,31.8955],[-113.126,31.9728],[-113.3338,32.0385],[-113.3339,32.5049],[-112.2037,32.5068],[-111.7925,32.5068]]]}},{"type":"Feature","id":"04021","properties":{"name":"Pinal","fips":"04021"},"geometry":{"type":"Polygon","coordinates":[[[-111.2706,32.5014],[-111.7925,32.5068],[-112.2037,32.5068],[-112.2033,33.3105],[-112.1918,33.265],[-112.0835,33.2046],[-111.8931,33.2048],[-111.686,33.2046],[-111.583,33.2054],[-111.5806,33.4659],[-111.2698,33.4655],[-111.2507,33.4649],[-111.0399,33.4661],[-110.9747,33.3421],[-110.9467,33.2501],[-110.7808,32.9837],[-110.678,33.1112],[-110.526,33.1592],[-110.449,33.1945],[-110.4492,32.5138],[-110.4512,32.5138],[-110.7854,32.5135],[-110.8449,32.5138],[-110.8449,32.5112],[-110.9256,32.5114],[-111.2706,32.5014]]]}},{"type":"Feature","id":"04023","properties":{"name":"Santa Cruz","fips":"04023"},"geometry":{"type":"Polygon","coordinates":[[[-111.164,31.6187],[-111.1642,31.726],[-111.1583,31.726],[-110.4517,31.7313],[-110.4602,31.3331],[-110.761,31.3328],[-110.9768,31.3326],[-111.0981,31.3398],[-111.3666,31.4259],[-111.3666,31.5213],[-111.1637,31.5218],[-111.164,31.6187]]]}},{"type":"Feature","id":"04025","properties":{"name":"Yavapai","fips":"04025"},"geometry":{"type":"Polygon","coordinates":[[[-111.862,34.0151],[-112.1648,34.0482],[-112.2567,33.9055],[-112.2605,33.9036],[-112.2644,33.8991],[-112.276,33.8823],[-112.3419,33.899],[-112.744,33.9999],[-113.3338,33.9992],[-113.3333,34.001],[-113.3335,34.3179],[-113.3327,35.0001],[-113.3342,35.528],[-113.3296,35.5281],[-113.3204,35.5306],[-113.3013,35.5311],[-113.1745,35.5064],[-113.1481,35.4786],[-112.9759,35.3929],[-112.9534,35.3561],[-112.7548,35.3063],[-112.6948,35.3116],[-112.5774,35.2434],[-112.4727,35.2383],[-112.4408,35.2605],[-112.4423,35.1494],[-112.3357,35.1483],[-112.3345,34.973],[-111.8092,34.9762],[-111.7778,34.9813],[-111.7779,34.8033],[-111.5521,34.8025],[-111.5551,34.4722],[-111.6595,34.3864],[-111.7207,34.1617],[-111.4779,34.1511],[-111.4948,33.9998],[-111.7253,33.9998],[-111.862,34.0151]]]}},{"type":"Feature","id":"04027","properties":{"name":"Yuma","fips":"04027"},"geometry":{"type":"Polygon","coordinates":[[[-114.7196,32.7188],[-114.6786,32.7366],[-114.6771,32.7362],[-114.6588,32.7338],[-114.6583,32.7338],[-114.6156,32.7284],[-114.6157,32.7294],[-114.4968,32.8221],[-114.4963,32.8223],[-114.4657,32.8792],[-114.4657,32.8794],[-114.4629,32.9058],[-114.4686,32.9716],[-114.5113,33.0235],[-114.5169,33.0269],[-114.2687,33.0298],[-114.2678,33.4636],[-113.958,33.4647],[-113.958,33.3776],[-113.3339,33.3774],[-113.3332,33.2272],[-113.3339,32.5049],[-113.3338,32.0385],[-113.4932,32.0889],[-114.2508,32.3239],[-114.8136,32.4943],[-114.8094,32.6171],[-114.8074,32.6213],[-114.7993,32.6251],[-114.7819,32.6251],[-114.7531,32.6583],[-114.748,32.6642],[-114.7196,32.7188]]]}}]}