{"type":"FeatureCollection","features":[{"type":"Feature","geometry":{"type":"Polygon","coordinates":[[[-112.1146,33.6999],[-112.1132,33.6686],[-112.0998,33.6692],[-112.0998,33.5169],[-112.0475,33.5165],[-112.0476,33.4947],[-112.013,33.4952],[-112.0129,33.4657],[-112.0046,33.4687],[-111.9785,33.4657],[-111.9825,33.4511],[-111.961,33.451],[-111.9546,33.4445],[-111.9519,33.4486],[-111.9415,33.4474],[-111.9393,33.4646],[-111.9394,33.4583],[-111.9263,33.4585],[-111.9265,33.4512],[-111.9158,33.4476],[-111.9158,33.4513],[-111.9093,33.4513],[-111.9096,33.4368],[-111.892,33.4368],[-111.8911,33.4405],[-111.8562,33.4367],[-111.8563,33.4429],[-111.861,33.444],[-111.8545,33.444],[-111.8481,33.455],[-111.8363,33.4551],[-111.8355,33.4625],[-111.8268,33.4626],[-111.8268,33.4664],[-111.7873,33.4664],[-111.7873,33.4809],[-111.7789,33.4809],[-111.7791,33.472],[-111.7752,33.472],[-111.7703,33.4788],[-111.7757,33.482],[-111.7394,33.4821],[-111.7271,33.4867],[-111.7148,33.4997],[-111.684,33.4999],[-111.6839,33.4808],[-111.6721,33.4694],[-111.6589,33.4816],[-111.6634,33.4877],[-111.6511,33.4888],[-111.6499,33.4952],[-111.6038,33.4958],[-111.6004,33.4861],[-111.6031,33.4672],[-111.5806,33.4658],[-111.0399,33.4661],[-111.1534,33.6776],[-111.207,33.6369],[-111.2075,33.6206],[-111.2237,33.6029],[-111.2495,33.6243],[-111.2628,33.6232],[-111.2872,33.652],[-111.2872,33.6586],[-111.2995,33.6638],[-111.3149,33.6814],[-111.3314,33.6883],[-111.3383,33.7027],[-111.3364,33.7204],[-111.3548,33.7332],[-111.3563,33.7388],[-111.3721,33.7452],[-111.373,33.7493],[-111.3868,33.75],[-111.3822,33.761],[-111.3871,33.7632],[-111.3894,33.7767],[-111.3785,33.7937],[-111.3883,33.8054],[-111.3842,33.8165],[-111.372,33.8182],[-111.3723,33.8239],[-111.3925,33.8359],[-111.3959,33.8446],[-111.3872,33.8625],[-111.3963,33.8686],[-111.396,33.8769],[-111.4128,33.8859],[-111.4137,33.8987],[-111.4052,33.9194],[-111.4259,33.9261],[-111.4375,33.9162],[-111.4517,33.921],[-111.452,33.9338],[-111.4471,33.9349],[-111.4523,33.9488],[-111.448,33.9578],[-111.4526,33.9659],[-111.4331,33.9844],[-111.4428,33.9914],[-111.4418,33.9981],[-111.4544,34.0047],[-111.4917,33.9998],[-111.7263,34.0],[-111.9962,34.0299],[-111.9957,33.9009],[-112.0308,33.9011],[-112.0307,33.8439],[-112.0305,33.8281],[-112.0218,33.8263],[-112.0216,33.7991],[-111.9955,33.772],[-111.9954,33.7477],[-112.0257,33.6994],[-112.0307,33.7041],[-112.0352,33.7004],[-112.0342,33.7055],[-112.0429,33.7078],[-112.048,33.7048],[-112.0482,33.6939],[-112.0567,33.6933],[-112.0657,33.702],[-112.0671,33.6984],[-112.1146,33.6999]]]},"properties":{"name":"CD1","district_number":1,"fips":"04-01"}},{"type":"Feature","geometry":{"type":"Polygon","coordinates":[[[-114.0424,35.7251],[-114.0239,35.7146],[-113.985,35.7081],[-113.9713,35.6839],[-113.9199,35.6207],[-113.913,35.6373],[-113.8994,35.6289],[-113.869,35.6322],[-113.8517,35.6233],[-113.8504,35.618],[-113.8686,35.6133],[-113.8755,35.6055],[-113.8728,35.589],[-113.8456,35.5972],[-113.8311,35.6069],[-113.8298,35.6696],[-113.7843,35.6546],[-113.6204,35.4945],[-113.3545,35.4944],[-113.3341,35.5084],[-113.3333,34.0],[-112.744,33.9999],[-112.2762,33.8825],[-112.2752,33.8934],[-112.2589,33.905],[-112.243,33.9054],[-112.2429,33.9155],[-112.2351,33.9164],[-112.2316,33.936],[-112.2414,33.9405],[-112.2358,33.9473],[-112.2403,33.9566],[-112.2292,33.9542],[-112.215,33.9671],[-112.1968,33.9739],[-112.1927,33.9919],[-112.1805,34.0036],[-112.1829,34.0125],[-112.1716,34.0178],[-112.1655,34.0126],[-112.1611,34.0177],[-112.1647,34.0363],[-112.1536,34.0409],[-112.1616,34.0423],[-112.1648,34.0482],[-111.7263,34.0],[-111.4917,33.9998],[-111.4544,34.0047],[-111.4418,33.9981],[-111.4428,33.9914],[-111.4331,33.9844],[-111.4526,33.9659],[-111.448,33.9578],[-111.4523,33.9488],[-111.4471,33.9349],[-111.452,33.9338],[-111.4517,33.921],[-111.4375,33.9162],[-111.4259,33.9261],[-111.4052,33.9194],[-111.4137,33.8987],[-111.4128,33.8859],[-111.396,33.8769],[-111.3963,33.8686],[-111.3872,33.8625],[-111.3959,33.8446],[-111.3925,33.8359],[-111.3723,33.8239],[-111.372,33.8182],[-111.3842,33.8165],[-111.3883,33.8054],[-111.3785,33.7937],[-111.3894,33.7767],[-111.3871,33.7632],[-111.3822,33.761],[-111.3868,33.75],[-111.373,33.7493],[-111.3364,33.7204],[-111.3383,33.7027],[-111.3314,33.6883],[-111.3149,33.6814],[-111.2995,33.6638],[-111.2872,33.6586],[-111.2872,33.652],[-111.2628,33.6232],[-111.2495,33.6243],[-111.2221,33.6024],[-111.2075,33.6206],[-111.2087,33.6351],[-111.1534,33.6776],[-111.0399,33.4661],[-111.4768,33.4659],[-111.4768,33.3934],[-111.4898,33.3934],[-111.4941,33.3861],[-111.4768,33.3825],[-111.4769,33.3654],[-111.4085,33.3088],[-111.4595,33.3071],[-111.4595,33.2927],[-111.5187,33.2927],[-111.5115,33.2637],[-111.5288,33.2637],[-111.5288,33.2491],[-111.5052,33.2492],[-111.506,33.2312],[-111.4878,33.1912],[-111.4742,33.1771],[-111.4661,33.1535],[-111.4741,33.1484],[-111.4744,33.1604],[-111.4877,33.162],[-111.4918,33.1474],[-111.4741,33.1477],[-111.4739,33.1332],[-111.4912,33.1328],[-111.4861,33.1184],[-111.686,33.1177],[-111.6859,33.2046],[-111.8929,33.2033],[-111.8936,33.2911],[-112.1338,33.2903],[-112.2153,33.3701],[-112.22,33.3701],[-112.2349,33.389],[-112.249,33.3826],[-112.3087,33.381],[-112.3062,33.2469],[-112.2021,33.2469],[-112.203,32.9928],[-112.1992,32.9928],[-112.197,32.9784],[-112.1647,32.9783],[-112.1581,32.9712],[-112.1345,32.971],[-112.1326,32.9855],[-112.048,32.9856],[-112.0493,32.8793],[-112.0665,32.8793],[-112.0665,32.8504],[-112.0319,32.8502],[-112.032,32.8793],[-111.9805,32.8794],[-111.9803,32.8647],[-111.9468,32.8647],[-111.9469,32.8794],[-111.9099,32.8794],[-111.912,32.8721],[-111.8776,32.8722],[-111.8776,32.8795],[-111.8606,32.8794],[-111.8607,32.8946],[-111.8559,32.8902],[-111.8434,32.8901],[-111.8482,32.8945],[-111.8089,32.8898],[-111.809,32.9122],[-111.8046,32.9122],[-111.8047,32.9085],[-111.7573,32.9088],[-111.7573,32.9015],[-111.74,32.8992],[-111.74,32.8941],[-111.6536,32.8943],[-111.6541,32.8504],[-111.6454,32.8504],[-111.6453,32.8651],[-111.6366,32.865],[-111.6367,32.8541],[-111.6193,32.8577],[-111.628,32.865],[-111.6278,32.8797],[-111.5932,32.8797],[-111.5933,32.8723],[-111.6106,32.8724],[-111.6107,32.8603],[-111.602,32.865],[-111.6021,32.8504],[-111.5975,32.854],[-111.5761,32.8521],[-111.5751,32.843],[-111.5676,32.8431],[-111.5677,32.8358],[-111.5153,32.8359],[-111.5153,32.8214],[-111.5111,32.8212],[-111.5153,32.8199],[-111.5112,32.8163],[-111.5112,32.8105],[-111.5153,32.8105],[-111.5115,32.7793],[-111.5152,32.7778],[-111.4984,32.7779],[-111.4983,32.7923],[-111.4939,32.7924],[-111.4939,32.7997],[-111.4983,32.7997],[-111.4924,32.8142],[-111.4924,32.8215],[-111.4982,32.8214],[-111.498,32.8504],[-111.4538,32.8506],[-111.3615,32.8497],[-111.3616,32.7629],[-111.2596,32.7626],[-111.2598,32.787],[-111.2486,32.7872],[-111.2244,32.782],[-111.2091,32.7871],[-111.1707,32.7864],[-111.161,32.7735],[-111.1507,32.7691],[-111.1342,32.7739],[-111.0767,32.7692],[-111.0469,32.7732],[-110.4485,32.7712],[-110.4494,32.9874],[-110.4361,32.9813],[-110.4174,32.9813],[-110.3951,33.0066],[-110.3132,32.9977],[-110.2815,32.9888],[-110.2304,32.9895],[-110.1909,32.9717],[-110.1367,32.9584],[-110.093,32.8956],[-110.0548,32.8751],[-110.0554,33.3045],[-110.0447,33.2903],[-110.0426,33.2739],[-110.0196,33.2649],[-110.0158,33.252],[-110.0224,33.2455],[-110.0006,33.2357],[-109.9914,33.2495],[-109.9823,33.249],[-109.9526,33.2316],[-109.9431,33.1998],[-109.9514,33.1907],[-109.9273,33.1765],[-109.9259,33.1702],[-109.8929,33.16],[-109.8939,33.1461],[-109.8879,33.1444],[-109.8811,33.154],[-109.8736,33.1544],[-109.8732,33.1596],[-109.8496,33.1619],[-109.833,33.1579],[-109.8333,33.1353],[-109.8239,33.1304],[-109.8175,33.1188],[-109.8067,33.1179],[-109.8085,33.122],[-109.799,33.1249],[-109.7906,33.1175],[-109.7702,33.1259],[-109.767,33.123],[-109.7751,33.1003],[-109.7659,33.0926],[-109.7595,33.0704],[-109.7474,33.0711],[-109.7403,33.0778],[-109.7333,33.0708],[-109.7394,33.0557],[-109.7311,33.0556],[-109.7249,33.0465],[-109.7163,33.048],[-109.714,33.0403],[-109.7013,33.0442],[-109.6791,33.022],[-109.6657,33.0149],[-109.6463,33.0189],[-109.6435,33.0153],[-109.6203,33.0282],[-109.5948,33.0159],[-109.5602,33.0517],[-109.5211,33.0514],[-109.5159,33.048],[-109.5182,33.0362],[-109.5148,33.0346],[-109.4957,33.0784],[-109.4954,33.6527],[-109.49,33.659],[-109.4902,33.6551],[-109.4817,33.6549],[-109.4863,33.6614],[-109.4797,33.6646],[-109.4836,33.6867],[-109.4751,33.6904],[-109.4727,33.6968],[-109.462,33.6927],[-109.4459,33.7084],[-109.4482,33.7113],[-109.4215,33.7119],[-109.4139,33.7079],[-109.41,33.7157],[-109.4055,33.7104],[-109.401,33.7177],[-109.3959,33.7129],[-109.3786,33.7246],[-109.3689,33.7224],[-109.3611,33.728],[-109.3529,33.7249],[-109.3647,33.74],[-109.3486,33.7781],[-109.0467,33.7774],[-109.0452,36.999],[-110.4697,36.9977],[-110.4903,37.0036],[-110.6257,37.0037],[-112.8295,37.0005],[-112.8274,36.832],[-112.6004,36.8319],[-112.5966,36.8287],[-112.6015,36.8175],[-112.5973,36.8092],[-112.6065,36.8076],[-112.6038,36.7996],[-112.6106,36.8021],[-112.6084,36.798],[-112.6147,36.7977],[-112.6139,36.7867],[-112.6197,36.7827],[-112.6166,36.7749],[-112.6122,36.7759],[-112.6209,36.7697],[-112.6203,36.7637],[-112.6098,36.7555],[-112.6117,36.752],[-112.6169,36.7549],[-112.6121,36.7429],[-112.6183,36.7411],[-112.6122,36.7369],[-112.6221,36.7372],[-112.6154,36.7268],[-112.6209,36.7303],[-112.6228,36.7234],[-112.6166,36.7215],[-112.628,36.7167],[-112.6238,36.7112],[-112.6312,36.7054],[-112.627,36.7012],[-112.6287,36.6918],[-112.6387,36.6745],[-112.6258,36.6476],[-112.6291,36.6376],[-112.6227,36.6268],[-112.6234,36.6151],[-112.6186,36.6135],[-112.6236,36.6001],[-112.6209,36.5956],[-112.6294,36.5895],[-112.6261,36.5817],[-112.6355,36.5759],[-112.6328,36.5703],[-112.6442,36.5711],[-112.6416,36.5657],[-112.6564,36.5539],[-112.6501,36.5512],[-112.6517,36.5446],[-112.6601,36.5434],[-112.6558,36.5374],[-112.6589,36.529],[-112.6531,36.5284],[-112.6561,36.5146],[-112.6516,36.5091],[-112.6464,36.5101],[-112.6481,36.5034],[-112.6417,36.502],[-112.6458,36.4969],[-112.6406,36.4983],[-112.6353,36.492],[-112.6406,36.4885],[-112.6357,36.4841],[-112.6218,36.4849],[-112.6261,36.4793],[-112.6228,36.475],[-112.6323,36.4701],[-112.629,36.4653],[-112.6434,36.4611],[-112.6406,36.4491],[-112.6476,36.4469],[-112.637,36.4441],[-112.64,36.4393],[-112.6468,36.4394],[-112.64,36.4343],[-112.6387,36.4251],[-112.6289,36.4274],[-112.6241,36.41],[-112.6316,36.4012],[-112.6295,36.3916],[-112.647,36.3839],[-112.6566,36.3572],[-112.6807,36.3417],[-112.6929,36.3552],[-112.7226,36.3469],[-112.7265,36.342],[-112.7201,36.3252],[-112.7229,36.32],[-112.7318,36.3178],[-112.7558,36.3243],[-112.7661,36.3057],[-112.7875,36.3008],[-112.7938,36.2844],[-112.8245,36.2883],[-112.8437,36.2767],[-112.8692,36.2823],[-112.8907,36.2591],[-112.9029,36.2538],[-112.9234,36.2577],[-112.9359,36.2426],[-112.9812,36.2318],[-113.0063,36.2388],[-113.0176,36.2372],[-113.0383,36.2266],[-113.0528,36.2094],[-113.0955,36.1936],[-113.128,36.1695],[-113.1371,36.1664],[-113.1492,36.1737],[-113.1629,36.1717],[-113.2013,36.1496],[-113.2053,36.1332],[-113.2017,36.119],[-113.2158,36.1076],[-113.2249,36.0911],[-113.2463,36.0933],[-113.2572,36.0885],[-113.2792,36.0973],[-113.3006,36.0957],[-113.3103,36.1],[-113.32,36.0968],[-113.3308,36.0683],[-113.3473,36.0552],[-113.3542,36.0404],[-113.3484,36.0131],[-113.3401,36.0033],[-113.3398,35.9852],[-113.3218,35.9759],[-113.3173,35.9686],[-113.3174,35.9608],[-113.3287,35.9501],[-113.3255,35.9347],[-113.3348,35.9139],[-113.3228,35.8987],[-113.3101,35.892],[-113.3104,35.8632],[-113.3269,35.8407],[-113.3258,35.8298],[-113.3333,35.8217],[-113.3295,35.813],[-113.3379,35.7927],[-113.3869,35.7533],[-113.4355,35.7526],[-113.4692,35.7649],[-113.5142,35.7675],[-113.5434,35.7956],[-113.5631,35.8043],[-113.5696,35.8216],[-113.6059,35.8495],[-113.6159,35.846],[-113.6318,35.8196],[-113.6474,35.8239],[-113.6562,35.8363],[-113.6559,35.8484],[-113.6688,35.8658],[-113.6811,35.8749],[-113.708,35.8796],[-113.7134,35.8854],[-113.7167,35.9074],[-113.7138,35.9279],[-113.7221,35.9392],[-113.7397,35.9406],[-113.7377,35.9561],[-113.7496,35.9686],[-113.7692,35.9727],[-113.7797,35.9912],[-113.7847,36.0113],[-113.7824,36.0253],[-113.7956,36.0292],[-113.8106,36.0484],[-113.8439,36.0495],[-113.8768,36.0574],[-113.8912,36.0676],[-113.8952,36.0889],[-113.9035,36.0928],[-113.9048,35.8199],[-113.9331,35.8056],[-113.9405,35.807],[-113.9297,35.7972],[-113.9289,35.7891],[-113.9391,35.7721],[-113.9531,35.7675],[-113.9607,35.7693],[-113.9588,35.7739],[-113.9634,35.7777],[-113.9791,35.7757],[-113.9956,35.7644],[-113.9957,35.7547],[-114.0018,35.7486],[-114.0424,35.7251]]]},"properties":{"name":"CD2","district_number":2,"fips":"04-02"}},{"type":"Feature","geometry":{"type":"Polygon","coordinates":[[[-112.3128,33.4932],[-112.2724,33.4938],[-112.2724,33.4647],[-112.2382,33.4653],[-112.2384,33.4518],[-112.2212,33.4518],[-112.221,33.4371],[-112.2724,33.4356],[-112.2725,33.3813],[-112.2424,33.3838],[-112.2349,33.389],[-112.22,33.3701],[-112.2153,33.3701],[-112.1479,33.3046],[-112.0836,33.3051],[-112.0836,33.3197],[-112.0318,33.3197],[-112.0318,33.3233],[-112.0145,33.3268],[-112.0179,33.3386],[-111.9972,33.3415],[-111.9952,33.3552],[-111.9787,33.3642],[-111.957,33.3564],[-111.9633,33.378],[-111.9782,33.3782],[-111.9785,33.4346],[-111.9829,33.458],[-111.9784,33.4569],[-111.9785,33.4657],[-112.0046,33.4687],[-112.0129,33.4657],[-112.013,33.4952],[-112.0476,33.4947],[-112.0475,33.5165],[-112.0998,33.5169],[-112.0996,33.5314],[-112.1343,33.5312],[-112.1386,33.5385],[-112.2031,33.5383],[-112.2032,33.5093],[-112.2725,33.5082],[-112.2725,33.5228],[-112.2944,33.5221],[-112.2987,33.5151],[-112.3065,33.5148],[-112.3128,33.4932]]]},"properties":{"name":"CD3","district_number":3,"fips":"04-03"}},{"type":"Feature","geometry":{"type":"Polygon","coordinates":[[[-112.1458,33.3047],[-112.1338,33.2903],[-111.8928,33.2922],[-111.8244,33.2826],[-111.8242,33.3389],[-111.8331,33.3388],[-111.833,33.3613],[-111.8418,33.3613],[-111.8411,33.3788],[-111.7273,33.3792],[-111.728,33.3858],[-111.7212,33.3858],[-111.7182,33.3793],[-111.6879,33.3794],[-111.6847,33.394],[-111.6675,33.3934],[-111.6675,33.4079],[-111.6501,33.4079],[-111.6501,33.4152],[-111.637,33.4151],[-111.6362,33.4272],[-111.6751,33.4571],[-111.6839,33.4726],[-111.684,33.4999],[-111.7148,33.4997],[-111.7271,33.4867],[-111.7406,33.4818],[-111.7757,33.482],[-111.7703,33.4788],[-111.7752,33.472],[-111.7791,33.472],[-111.7789,33.4809],[-111.7873,33.4809],[-111.7873,33.4664],[-111.8268,33.4664],[-111.8268,33.4626],[-111.8355,33.4625],[-111.8363,33.4551],[-111.8481,33.455],[-111.8545,33.444],[-111.861,33.444],[-111.8563,33.4429],[-111.8562,33.4367],[-111.8911,33.4405],[-111.892,33.4368],[-111.9096,33.4368],[-111.9093,33.4513],[-111.9158,33.4513],[-111.9158,33.4476],[-111.9265,33.4512],[-111.9263,33.4585],[-111.9394,33.4583],[-111.9393,33.4646],[-111.9415,33.4474],[-111.9519,33.4486],[-111.9542,33.4445],[-111.961,33.451],[-111.9814,33.4511],[-111.9782,33.3782],[-111.9633,33.378],[-111.957,33.3564],[-111.9787,33.3642],[-111.9952,33.3552],[-111.9972,33.3415],[-112.0179,33.3386],[-112.0145,33.3268],[-112.0318,33.3233],[-112.0318,33.3197],[-112.0836,33.3197],[-112.0836,33.3051],[-112.1458,33.3047]]]},"properties":{"name":"CD4","district_number":4,"fips":"04-04"}},{"type":"Feature","geometry":{"type":"Polygon","coordinates":[[[-111.8936,33.2914],[-111.8929,33.2033],[-111.6859,33.2046],[-111.686,33.1177],[-111.4861,33.1184],[-111.4912,33.1328],[-111.4739,33.1332],[-111.4741,33.1477],[-111.4918,33.1474],[-111.4877,33.162],[-111.4744,33.1604],[-111.4741,33.1484],[-111.4661,33.1535],[-111.4742,33.1771],[-111.4878,33.1912],[-111.506,33.2312],[-111.5052,33.2492],[-111.5288,33.2491],[-111.5288,33.2637],[-111.5115,33.2637],[-111.5187,33.2927],[-111.4595,33.2927],[-111.4595,33.3071],[-111.4085,33.3088],[-111.4769,33.3654],[-111.4768,33.3825],[-111.4941,33.3861],[-111.4898,33.3934],[-111.4768,33.3934],[-111.4768,33.4659],[-111.6031,33.4672],[-111.6004,33.4861],[-111.6038,33.4958],[-111.6499,33.4952],[-111.6511,33.4888],[-111.6634,33.4877],[-111.6589,33.4816],[-111.6721,33.4694],[-111.6812,33.4811],[-111.6839,33.4726],[-111.6715,33.4527],[-111.6377,33.4299],[-111.637,33.4151],[-111.6501,33.4152],[-111.6501,33.4079],[-111.6675,33.4079],[-111.6675,33.3934],[-111.6847,33.394],[-111.6881,33.3794],[-111.7182,33.3793],[-111.7212,33.3858],[-111.728,33.3858],[-111.7273,33.3792],[-111.8411,33.3788],[-111.8418,33.3613],[-111.833,33.3613],[-111.8331,33.3388],[-111.8242,33.3389],[-111.8244,33.2826],[-111.8936,33.2914]]]},"properties":{"name":"CD5","district_number":5,"fips":"04-05"}},{"type":"Feature","geometry":{"type":"Polygon","coordinates":[[[-111.8777,32.875],[-111.8434,32.8721],[-111.8433,32.8502],[-111.826,32.8501],[-111.8259,32.8279],[-111.7574,32.8279],[-111.7573,32.7993],[-111.7399,32.7994],[-111.7406,32.7631],[-111.7228,32.7629],[-111.7229,32.741],[-111.6947,32.7193],[-111.7143,32.7191],[-111.7146,32.69],[-111.6889,32.6899],[-111.689,32.6754],[-111.672,32.6754],[-111.672,32.6461],[-111.4996,32.6466],[-111.4995,32.6176],[-111.4655,32.6148],[-111.4657,32.5013],[-111.3425,32.4992],[-111.3385,32.4946],[-111.3385,32.4716],[-111.3132,32.4511],[-111.3043,32.4511],[-111.304,32.392],[-111.2502,32.3952],[-111.244,32.402],[-111.234,32.4025],[-111.2338,32.3658],[-111.1824,32.37],[-111.1825,32.3808],[-111.1739,32.3809],[-111.174,32.3881],[-111.1654,32.3882],[-111.1693,32.3809],[-111.1444,32.381],[-111.1389,32.3783],[-111.1379,32.3665],[-111.1485,32.3628],[-111.1485,32.352],[-111.1399,32.352],[-111.1313,32.3305],[-111.1226,32.3304],[-111.1225,32.3159],[-111.1116,32.3153],[-111.1036,32.3086],[-111.0545,32.3086],[-111.0546,32.3123],[-111.0435,32.3157],[-110.9918,32.2928],[-110.9782,32.2942],[-110.9781,32.2828],[-110.9611,32.2815],[-110.961,32.2648],[-110.9267,32.2649],[-110.9268,32.236],[-110.9097,32.2362],[-110.9096,32.2216],[-110.8295,32.221],[-110.8254,32.2063],[-110.8103,32.1918],[-110.9093,32.1952],[-110.9095,32.1343],[-110.884,32.1344],[-110.8761,32.1415],[-110.858,32.1416],[-110.8589,31.9631],[-110.8737,31.9576],[-110.9105,31.9576],[-110.9106,31.9429],[-110.9326,31.943],[-110.9329,31.9504],[-110.9444,31.9503],[-110.9484,31.9211],[-110.959,31.9215],[-110.9637,31.8956],[-110.9688,31.8994],[-110.9974,31.8996],[-111.0117,31.8907],[-111.0181,31.8814],[-111.0181,31.8531],[-111.0091,31.8528],[-111.0502,31.7698],[-111.0396,31.7582],[-111.058,31.7262],[-110.8558,31.7267],[-110.8558,31.7317],[-110.4523,31.7312],[-110.4522,31.6139],[-110.4608,31.6139],[-110.4599,31.3999],[-110.4452,31.4103],[-110.4363,31.4248],[-110.3989,31.3768],[-110.3655,31.3766],[-110.3627,31.3801],[-110.342,31.3685],[-110.3292,31.3725],[-110.3183,31.3655],[-110.3004,31.3625],[-110.2872,31.3526],[-110.2892,31.3607],[-110.2845,31.3677],[-110.245,31.3544],[-110.2391,31.3478],[-110.2072,31.3512],[-110.2071,31.3799],[-110.2249,31.3841],[-110.2396,31.3986],[-110.2407,31.4091],[-110.1223,31.4091],[-110.1223,31.3945],[-110.1065,31.3944],[-110.1111,31.38],[-110.0375,31.3799],[-110.0376,31.4234],[-110.0035,31.4237],[-110.0035,31.4685],[-110.0532,31.4686],[-110.0534,31.5531],[-109.8519,31.5532],[-109.8519,31.5571],[-109.8245,31.5187],[-109.8224,31.4582],[-109.8265,31.4424],[-109.8171,31.4365],[-109.6302,31.437],[-109.6301,31.452],[-109.647,31.4521],[-109.6465,31.4661],[-109.5029,31.4654],[-109.503,31.4587],[-109.4823,31.4547],[-109.4798,31.4515],[-109.4873,31.4468],[-109.4893,31.4377],[-109.4897,31.4298],[-109.4853,31.4281],[-109.4923,31.418],[-109.4786,31.4173],[-109.4669,31.4016],[-109.4644,31.3858],[-109.4696,31.3751],[-109.4789,31.3708],[-109.4775,31.3532],[-109.4827,31.3503],[-109.4838,31.338],[-109.4945,31.334],[-109.05,31.3323],[-109.0467,33.7774],[-109.3486,33.7781],[-109.3647,33.74],[-109.3529,33.7249],[-109.3611,33.728],[-109.3689,33.7224],[-109.3786,33.7246],[-109.3959,33.7129],[-109.401,33.7177],[-109.4055,33.7104],[-109.41,33.7157],[-109.4139,33.7079],[-109.4215,33.7119],[-109.4482,33.7113],[-109.4459,33.7084],[-109.462,33.6927],[-109.4727,33.6968],[-109.4751,33.6904],[-109.4836,33.6867],[-109.4797,33.6646],[-109.4863,33.6614],[-109.4817,33.6549],[-109.4902,33.6551],[-109.49,33.659],[-109.4954,33.6527],[-109.4957,33.0784],[-109.5148,33.0346],[-109.5182,33.0362],[-109.5159,33.048],[-109.5211,33.0514],[-109.5602,33.0517],[-109.5948,33.0159],[-109.6203,33.0282],[-109.6435,33.0153],[-109.6463,33.0189],[-109.6657,33.0149],[-109.6791,33.022],[-109.7013,33.0442],[-109.714,33.0403],[-109.7163,33.048],[-109.7249,33.0465],[-109.7311,33.0556],[-109.7394,33.0557],[-109.7333,33.0708],[-109.7403,33.0778],[-109.7474,33.0711],[-109.7595,33.0704],[-109.7659,33.0926],[-109.7751,33.1003],[-109.767,33.123],[-109.7702,33.1259],[-109.7906,33.1175],[-109.799,33.1249],[-109.8085,33.122],[-109.8067,33.1179],[-109.8175,33.1188],[-109.8239,33.1304],[-109.8333,33.1353],[-109.833,33.1579],[-109.8496,33.1619],[-109.8732,33.1596],[-109.8736,33.1544],[-109.8811,33.154],[-109.8879,33.1444],[-109.8939,33.1461],[-109.8929,33.16],[-109.9259,33.1702],[-109.9273,33.1765],[-109.9514,33.1907],[-109.9431,33.1998],[-109.9526,33.2316],[-109.9823,33.249],[-109.9914,33.2495],[-110.0006,33.2357],[-110.0224,33.2455],[-110.0158,33.252],[-110.0196,33.2649],[-110.0426,33.2739],[-110.0447,33.2903],[-110.0554,33.3045],[-110.0548,32.8751],[-110.093,32.8956],[-110.1367,32.9584],[-110.1909,32.9717],[-110.2304,32.9895],[-110.2815,32.9888],[-110.3132,32.9977],[-110.3951,33.0066],[-110.4174,32.9813],[-110.4361,32.9813],[-110.4494,32.9874],[-110.4485,32.7712],[-111.0469,32.7732],[-111.0767,32.7692],[-111.1342,32.7739],[-111.1507,32.7691],[-111.161,32.7735],[-111.1707,32.7864],[-111.2091,32.7871],[-111.2244,32.782],[-111.2486,32.7872],[-111.2598,32.787],[-111.2596,32.7626],[-111.3616,32.7629],[-111.3615,32.8497],[-111.498,32.8504],[-111.4982,32.8214],[-111.4924,32.8215],[-111.4924,32.8142],[-111.4983,32.7997],[-111.4939,32.7997],[-111.4939,32.7924],[-111.4983,32.7923],[-111.4984,32.7779],[-111.5152,32.7778],[-111.5115,32.7793],[-111.5153,32.8105],[-111.5112,32.8105],[-111.5112,32.8163],[-111.5153,32.8199],[-111.5111,32.8212],[-111.5153,32.8214],[-111.5153,32.8359],[-111.5677,32.8358],[-111.5676,32.8431],[-111.5751,32.843],[-111.5761,32.8521],[-111.5975,32.854],[-111.6021,32.8504],[-111.602,32.865],[-111.6107,32.8603],[-111.6106,32.8724],[-111.5933,32.8723],[-111.5932,32.8797],[-111.6278,32.8797],[-111.628,32.865],[-111.6193,32.8577],[-111.6367,32.8541],[-111.6366,32.865],[-111.6453,32.8651],[-111.6454,32.8504],[-111.6541,32.8504],[-111.6536,32.8943],[-111.74,32.8941],[-111.74,32.8992],[-111.7573,32.9015],[-111.7573,32.9088],[-111.8047,32.9085],[-111.809,32.9122],[-111.8089,32.8898],[-111.8482,32.8945],[-111.8434,32.8901],[-111.8559,32.8902],[-111.8607,32.8946],[-111.8606,32.8794],[-111.8776,32.8795],[-111.8777,32.875]]]},"properties":{"name":"CD6","district_number":6,"fips":"04-06"}},{"type":"Feature","geometry":{"type":"Polygon","coordinates":[[[-114.8163,32.5078],[-114.8135,32.494],[-114.0869,32.2735],[-112.238,31.7014],[-111.075,31.3323],[-109.487,31.3341],[-109.4803,31.3455],[-109.4827,31.3503],[-109.4775,31.3532],[-109.4789,31.3708],[-109.4696,31.3751],[-109.4644,31.3858],[-109.4669,31.4016],[-109.4786,31.4173],[-109.4923,31.418],[-109.4853,31.4281],[-109.4897,31.4299],[-109.4877,31.446],[-109.4801,31.4527],[-109.503,31.4587],[-109.5029,31.4654],[-109.6465,31.4661],[-109.647,31.4521],[-109.6301,31.452],[-109.6302,31.437],[-109.8171,31.4365],[-109.8265,31.4424],[-109.8224,31.4582],[-109.8245,31.5187],[-109.8519,31.5571],[-109.8519,31.5532],[-110.0534,31.5531],[-110.0532,31.4686],[-110.0035,31.4685],[-110.0035,31.4237],[-110.0376,31.4234],[-110.0375,31.3799],[-110.1111,31.38],[-110.1065,31.3944],[-110.1223,31.3945],[-110.1223,31.4091],[-110.2407,31.4091],[-110.2396,31.3986],[-110.2249,31.3841],[-110.2071,31.3799],[-110.2072,31.3512],[-110.2391,31.3478],[-110.245,31.3544],[-110.2845,31.3677],[-110.2892,31.3607],[-110.2872,31.3526],[-110.3004,31.3625],[-110.3183,31.3655],[-110.3292,31.3725],[-110.342,31.3685],[-110.3627,31.3801],[-110.3655,31.3766],[-110.4032,31.3786],[-110.4178,31.4058],[-110.4296,31.4144],[-110.4291,31.4189],[-110.4337,31.4174],[-110.4363,31.4248],[-110.4452,31.4103],[-110.4599,31.3999],[-110.4608,31.6139],[-110.4522,31.6139],[-110.4523,31.7312],[-110.8558,31.7317],[-110.8558,31.7267],[-111.058,31.7262],[-111.0396,31.7582],[-111.0502,31.7698],[-111.0091,31.8528],[-111.0181,31.8531],[-111.0181,31.8814],[-111.0117,31.8907],[-110.9974,31.8996],[-110.9688,31.8994],[-110.9637,31.8956],[-110.959,31.9215],[-110.9484,31.9211],[-110.9444,31.9503],[-110.9329,31.9504],[-110.9326,31.943],[-110.9106,31.9429],[-110.9105,31.9576],[-110.8737,31.9576],[-110.8589,31.9631],[-110.858,32.1416],[-110.8761,32.1415],[-110.884,32.1344],[-110.9095,32.1343],[-110.9093,32.1952],[-110.8103,32.1918],[-110.8254,32.2063],[-110.8295,32.221],[-110.9096,32.2216],[-110.9097,32.2362],[-110.9268,32.236],[-110.9267,32.2649],[-110.961,32.2648],[-110.9611,32.2815],[-110.9781,32.2828],[-110.9782,32.2942],[-110.9918,32.2928],[-111.0435,32.3157],[-111.0546,32.3123],[-111.0545,32.3086],[-111.1036,32.3086],[-111.1116,32.3153],[-111.1225,32.3159],[-111.1226,32.3304],[-111.1313,32.3305],[-111.1399,32.352],[-111.1485,32.352],[-111.1485,32.3628],[-111.1379,32.3665],[-111.1389,32.3783],[-111.1444,32.381],[-111.1693,32.3809],[-111.1654,32.3882],[-111.174,32.3881],[-111.1739,32.3809],[-111.1825,32.3808],[-111.1824,32.37],[-111.2338,32.3658],[-111.234,32.4025],[-111.244,32.402],[-111.2502,32.3952],[-111.304,32.392],[-111.3043,32.4511],[-111.3132,32.4511],[-111.3385,32.4716],[-111.3385,32.4946],[-111.3425,32.4992],[-111.4657,32.5013],[-111.4655,32.6148],[-111.4995,32.6176],[-111.4996,32.6466],[-111.672,32.6461],[-111.672,32.6754],[-111.689,32.6754],[-111.6889,32.6899],[-111.7146,32.69],[-111.7143,32.7191],[-111.6947,32.7193],[-111.7229,32.741],[-111.7228,32.7629],[-111.7406,32.7631],[-111.7399,32.7994],[-111.7573,32.7993],[-111.7574,32.8279],[-111.8259,32.8279],[-111.826,32.8501],[-111.8433,32.8502],[-111.8434,32.8721],[-111.912,32.8721],[-111.9099,32.8794],[-111.9469,32.8794],[-111.9468,32.8647],[-111.9803,32.8647],[-111.9805,32.8794],[-112.032,32.8793],[-112.0319,32.8502],[-112.0665,32.8504],[-112.0665,32.8793],[-112.0493,32.8793],[-112.048,32.9856],[-112.1326,32.9855],[-112.1345,32.971],[-112.1565,32.971],[-112.1647,32.9783],[-112.197,32.9784],[-112.1992,32.9928],[-112.203,32.9928],[-112.2021,33.2469],[-112.3062,33.2469],[-112.3087,33.381],[-112.2725,33.3813],[-112.2724,33.4356],[-112.221,33.4371],[-112.2212,33.4518],[-112.2384,33.4518],[-112.2382,33.4653],[-112.2724,33.4647],[-112.2724,33.4938],[-112.3423,33.4933],[-112.358,33.4861],[-112.3553,33.4789],[-112.3409,33.4788],[-112.3411,33.4499],[-112.3539,33.4498],[-112.3498,33.4426],[-112.3539,33.4426],[-112.3562,33.4317],[-112.3499,33.4289],[-112.3579,33.4247],[-112.3573,33.392],[-112.3662,33.3918],[-112.3662,33.3883],[-112.362,33.3875],[-112.3619,33.3772],[-112.3449,33.377],[-112.3396,33.3718],[-112.3407,33.3627],[-112.3579,33.3628],[-112.3579,33.1887],[-112.4612,33.1888],[-112.461,33.2179],[-112.496,33.2179],[-112.4959,33.131],[-112.634,33.1309],[-112.634,33.1159],[-112.8283,33.1165],[-112.8284,33.2035],[-113.0266,33.2044],[-113.0898,33.1481],[-113.0922,33.1412],[-113.0996,33.1391],[-113.1447,33.0979],[-113.1959,33.0879],[-113.3338,33.0235],[-113.3337,32.7679],[-113.6169,32.767],[-113.7205,32.7276],[-113.7473,32.7257],[-113.7471,32.6943],[-113.8154,32.694],[-113.8154,32.6792],[-113.8844,32.6791],[-113.884,32.6649],[-113.9703,32.6644],[-113.9701,32.6498],[-114.0221,32.6497],[-114.022,32.6424],[-114.039,32.6423],[-114.0389,32.6348],[-114.0906,32.6347],[-114.0905,32.6273],[-114.1161,32.6268],[-114.1162,32.6198],[-114.358,32.6198],[-114.3582,32.6269],[-114.5422,32.6264],[-114.5422,32.6191],[-114.5465,32.6191],[-114.5463,32.5972],[-114.5545,32.597],[-114.5544,32.5818],[-114.5632,32.5819],[-114.5629,32.553],[-114.632,32.5528],[-114.6327,32.6258],[-114.6842,32.6256],[-114.6846,32.6838],[-114.6675,32.6838],[-114.6674,32.6693],[-114.6409,32.6695],[-114.6361,32.6785],[-114.6386,32.684],[-114.5988,32.6801],[-114.5989,32.6921],[-114.6094,32.7005],[-114.6143,32.7258],[-114.6075,32.7169],[-114.599,32.717],[-114.5991,32.721],[-114.5896,32.7246],[-114.5503,32.7208],[-114.5307,32.7389],[-114.5266,32.7603],[-114.5269,32.7571],[-114.5391,32.7569],[-114.5392,32.7498],[-114.5644,32.7496],[-114.5645,32.7423],[-114.5817,32.7423],[-114.5818,32.7349],[-114.6151,32.7345],[-114.6174,32.7283],[-114.6882,32.7375],[-114.7016,32.7456],[-114.7298,32.7047],[-114.7486,32.663],[-114.7645,32.6498],[-114.7638,32.6434],[-114.7806,32.6321],[-114.7827,32.6243],[-114.7998,32.6253],[-114.8084,32.6194],[-114.8078,32.6032],[-114.7994,32.5926],[-114.804,32.582],[-114.8016,32.5764],[-114.8129,32.5688],[-114.8139,32.5622],[-114.8065,32.5592],[-114.7928,32.5695],[-114.7914,32.5565],[-114.8055,32.5467],[-114.802,32.5363],[-114.8132,32.5248],[-114.8025,32.5121],[-114.8163,32.5078]]]},"properties":{"name":"CD7","district_number":7,"fips":"04-07"}},{"type":"Feature","geometry":{"type":"Polygon","coordinates":[[[-112.4603,33.6384],[-112.3077,33.6388],[-112.31,33.6307],[-112.3075,33.6235],[-112.3032,33.6234],[-112.3046,33.6068],[-112.2987,33.6052],[-112.2987,33.58],[-112.3031,33.5755],[-112.3002,33.5655],[-112.3072,33.5654],[-112.3068,33.5507],[-112.2203,33.5524],[-112.2205,33.5379],[-112.1386,33.5385],[-112.1343,33.5312],[-112.0996,33.5314],[-112.0998,33.6692],[-112.1132,33.6686],[-112.1146,33.6999],[-112.0671,33.6984],[-112.0657,33.702],[-112.0567,33.6933],[-112.0482,33.6939],[-112.048,33.7048],[-112.0429,33.7078],[-112.0342,33.7055],[-112.0352,33.7004],[-112.0307,33.7041],[-112.0257,33.6994],[-111.9954,33.7477],[-111.9955,33.772],[-112.0216,33.7991],[-112.0218,33.8263],[-112.0305,33.8281],[-112.0307,33.8439],[-112.0308,33.9011],[-111.9957,33.9009],[-111.9962,34.0299],[-112.1648,34.0482],[-112.1616,34.0423],[-112.1536,34.0409],[-112.1647,34.0363],[-112.1611,34.0177],[-112.1655,34.0126],[-112.1716,34.0178],[-112.1829,34.0125],[-112.1805,34.0036],[-112.1927,33.9919],[-112.1968,33.9739],[-112.215,33.9671],[-112.2292,33.9542],[-112.2403,33.9566],[-112.2358,33.9473],[-112.2414,33.9405],[-112.2316,33.936],[-112.2351,33.9164],[-112.2429,33.9155],[-112.243,33.9054],[-112.2589,33.905],[-112.2752,33.8934],[-112.2762,33.8825],[-112.4279,33.9207],[-112.4297,33.829],[-112.4471,33.8322],[-112.4471,33.7821],[-112.3948,33.7821],[-112.3946,33.753],[-112.3602,33.7531],[-112.3602,33.7385],[-112.3513,33.7385],[-112.3513,33.7313],[-112.3427,33.7313],[-112.3426,33.7207],[-112.3058,33.7249],[-112.3055,33.7176],[-112.3209,33.6989],[-112.3759,33.6956],[-112.3911,33.6916],[-112.404,33.6805],[-112.4105,33.6856],[-112.4227,33.6776],[-112.4362,33.6592],[-112.4513,33.6533],[-112.4603,33.6384]]]},"properties":{"name":"CD8","district_number":8,"fips":"04-08"}},{"type":"Feature","geometry":{"type":"Polygon","coordinates":[[[-114.7545,36.0862],[-114.7353,36.0566],[-114.7425,36.0457],[-114.7413,36.038],[-114.7334,36.0379],[-114.7221,36.029],[-114.743,36.0084],[-114.7405,35.9755],[-114.7076,35.928],[-114.7081,35.9099],[-114.6616,35.8712],[-114.7059,35.8505],[-114.6953,35.8311],[-114.712,35.8055],[-114.6993,35.7905],[-114.701,35.7697],[-114.6943,35.7566],[-114.7056,35.7083],[-114.6806,35.684],[-114.6902,35.6652],[-114.6895,35.6514],[-114.6535,35.6097],[-114.6592,35.5875],[-114.6757,35.58],[-114.6644,35.5684],[-114.6568,35.535],[-114.6646,35.5215],[-114.6757,35.5156],[-114.6786,35.4976],[-114.6732,35.4748],[-114.6657,35.4669],[-114.6629,35.4464],[-114.6521,35.4301],[-114.6268,35.4096],[-114.6046,35.3552],[-114.5956,35.3265],[-114.5967,35.2946],[-114.5866,35.2624],[-114.5795,35.2089],[-114.5721,35.2008],[-114.5693,35.1834],[-114.5726,35.1396],[-114.5783,35.1288],[-114.5978,35.1217],[-114.6284,35.1189],[-114.6468,35.1019],[-114.6131,35.0831],[-114.6029,35.0686],[-114.6067,35.0589],[-114.629,35.0425],[-114.6375,35.0271],[-114.6291,34.9861],[-114.6352,34.9651],[-114.6298,34.9387],[-114.6352,34.875],[-114.6239,34.8597],[-114.5868,34.8357],[-114.571,34.7943],[-114.5527,34.7669],[-114.5166,34.7367],[-114.492,34.7257],[-114.4875,34.7166],[-114.4705,34.7114],[-114.4652,34.6912],[-114.4505,34.6668],[-114.458,34.6571],[-114.4415,34.6425],[-114.4387,34.6215],[-114.4242,34.6105],[-114.4253,34.6008],[-114.4368,34.5961],[-114.4052,34.5696],[-114.3808,34.5297],[-114.3781,34.5073],[-114.3867,34.4579],[-114.3737,34.4469],[-114.3354,34.45],[-114.3261,34.4373],[-114.2948,34.4214],[-114.2887,34.4066],[-114.2643,34.4013],[-114.2261,34.3659],[-114.1995,34.3614],[-114.1769,34.3493],[-114.1572,34.3179],[-114.1383,34.3032],[-114.1367,34.2744],[-114.1312,34.2627],[-114.1355,34.2579],[-114.1646,34.2597],[-114.1661,34.25],[-114.1746,34.2473],[-114.1781,34.24],[-114.2252,34.2036],[-114.2297,34.1869],[-114.257,34.1728],[-114.2873,34.1705],[-114.3208,34.1386],[-114.353,34.1331],[-114.3665,34.1186],[-114.3906,34.1101],[-114.4117,34.11],[-114.4342,34.0874],[-114.4393,34.0579],[-114.4349,34.0378],[-114.4383,34.0226],[-114.4502,34.0126],[-114.4659,34.011],[-114.4673,34.0052],[-114.4592,34.0],[-114.4593,33.9947],[-114.4679,33.9929],[-114.4999,33.9618],[-114.5227,33.955],[-114.5357,33.9336],[-114.535,33.9257],[-114.5184,33.9175],[-114.5079,33.9038],[-114.5137,33.898],[-114.5259,33.901],[-114.5228,33.8926],[-114.5043,33.8769],[-114.503,33.868],[-114.5147,33.8586],[-114.5299,33.8576],[-114.52,33.8254],[-114.528,33.815],[-114.5049,33.7605],[-114.5123,33.7342],[-114.4966,33.7192],[-114.4942,33.7079],[-114.4965,33.6969],[-114.524,33.6859],[-114.5315,33.6751],[-114.5303,33.6668],[-114.5141,33.6602],[-114.5332,33.6517],[-114.5238,33.6347],[-114.5312,33.6239],[-114.5218,33.6125],[-114.5406,33.5914],[-114.5368,33.571],[-114.5242,33.5531],[-114.5589,33.5318],[-114.561,33.5167],[-114.5695,33.5092],[-114.5924,33.4987],[-114.6229,33.4566],[-114.6296,33.4281],[-114.6433,33.4167],[-114.6567,33.4128],[-114.6737,33.4192],[-114.6879,33.4179],[-114.7018,33.4084],[-114.7253,33.405],[-114.7073,33.3825],[-114.698,33.3524],[-114.7079,33.3233],[-114.7312,33.3024],[-114.7217,33.287],[-114.6805,33.2736],[-114.6721,33.2585],[-114.6895,33.2464],[-114.6736,33.2231],[-114.6787,33.2034],[-114.6754,33.1855],[-114.6799,33.1591],[-114.7037,33.1138],[-114.7065,33.0882],[-114.689,33.084],[-114.687,33.071],[-114.6743,33.0572],[-114.6737,33.0419],[-114.6623,33.0327],[-114.646,33.0489],[-114.6188,33.0272],[-114.5898,33.0262],[-114.5752,33.0365],[-114.5201,33.03],[-114.5029,33.0112],[-114.4929,32.9718],[-114.4728,32.9747],[-114.4674,32.9654],[-114.4692,32.9525],[-114.4809,32.9363],[-114.4766,32.9236],[-114.4629,32.9079],[-114.469,32.8452],[-114.4941,32.8233],[-114.5103,32.8165],[-114.5296,32.7955],[-114.5324,32.7769],[-114.5262,32.7527],[-114.5348,32.7325],[-114.5555,32.7197],[-114.5896,32.7246],[-114.5991,32.721],[-114.599,32.717],[-114.6075,32.7169],[-114.6143,32.7258],[-114.6094,32.7005],[-114.5989,32.6921],[-114.5988,32.6801],[-114.6386,32.684],[-114.6361,32.6785],[-114.6409,32.6695],[-114.6674,32.6693],[-114.6675,32.6838],[-114.6846,32.6838],[-114.6842,32.6256],[-114.6327,32.6258],[-114.632,32.5528],[-114.5629,32.553],[-114.5632,32.5819],[-114.5544,32.5818],[-114.5545,32.597],[-114.5463,32.5972],[-114.5465,32.6191],[-114.5422,32.6191],[-114.5422,32.6264],[-114.3582,32.6269],[-114.358,32.6198],[-114.1162,32.6198],[-114.1161,32.6268],[-114.0905,32.6273],[-114.0906,32.6347],[-114.0389,32.6348],[-114.039,32.6423],[-114.022,32.6424],[-114.0221,32.6497],[-113.9701,32.6498],[-113.9703,32.6644],[-113.884,32.6649],[-113.8844,32.6791],[-113.8154,32.6792],[-113.8154,32.694],[-113.7471,32.6943],[-113.7473,32.7257],[-113.7205,32.7276],[-113.6169,32.767],[-113.3337,32.7679],[-113.3338,33.0235],[-113.1959,33.0879],[-113.1447,33.0979],[-113.0996,33.1391],[-113.0922,33.1412],[-113.0898,33.1481],[-113.0266,33.2044],[-112.8284,33.2035],[-112.8283,33.1165],[-112.634,33.1159],[-112.634,33.1309],[-112.4959,33.131],[-112.496,33.2179],[-112.461,33.2179],[-112.4612,33.1888],[-112.3579,33.1887],[-112.3579,33.3628],[-112.3407,33.3627],[-112.3396,33.3718],[-112.3449,33.377],[-112.3619,33.3772],[-112.362,33.3875],[-112.3662,33.3883],[-112.3662,33.3918],[-112.3573,33.392],[-112.3579,33.4247],[-112.3499,33.4289],[-112.3562,33.4317],[-112.3539,33.4426],[-112.3498,33.4426],[-112.3539,33.4498],[-112.3411,33.4499],[-112.3409,33.4788],[-112.3553,33.4789],[-112.358,33.4861],[-112.3428,33.4932],[-112.3128,33.4931],[-112.3065,33.5148],[-112.2987,33.5151],[-112.2944,33.5221],[-112.2725,33.5228],[-112.2725,33.5082],[-112.2032,33.5093],[-112.2031,33.5383],[-112.2205,33.5379],[-112.2203,33.5524],[-112.3068,33.5507],[-112.3072,33.5654],[-112.3002,33.5655],[-112.3031,33.5755],[-112.2987,33.58],[-112.2987,33.6052],[-112.3046,33.6068],[-112.3032,33.6234],[-112.3075,33.6235],[-112.31,33.6307],[-112.3077,33.6388],[-112.4603,33.6384],[-112.4513,33.6533],[-112.4362,33.6592],[-112.4227,33.6776],[-112.4105,33.6856],[-112.404,33.6805],[-112.3911,33.6916],[-112.3759,33.6956],[-112.3209,33.6989],[-112.3055,33.7176],[-112.3058,33.7249],[-112.3426,33.7207],[-112.3427,33.7313],[-112.3513,33.7313],[-112.3513,33.7385],[-112.3602,33.7385],[-112.3602,33.7531],[-112.3946,33.753],[-112.3948,33.7821],[-112.4471,33.7821],[-112.4471,33.8322],[-112.4297,33.829],[-112.4279,33.9207],[-112.744,33.9999],[-113.3333,34.0],[-113.3341,35.5084],[-113.3545,35.4944],[-113.6204,35.4945],[-113.7843,35.6546],[-113.8298,35.6696],[-113.8311,35.6069],[-113.8456,35.5972],[-113.8728,35.589],[-113.8755,35.6055],[-113.8686,35.6133],[-113.8504,35.618],[-113.8517,35.6233],[-113.869,35.6322],[-113.8994,35.6289],[-113.913,35.6373],[-113.9199,35.6207],[-113.9713,35.6839],[-113.985,35.7081],[-114.0239,35.7146],[-114.0429,35.7247],[-114.0018,35.7486],[-113.9957,35.7547],[-113.9956,35.7644],[-113.9791,35.7757],[-113.9634,35.7777],[-113.9588,35.7739],[-113.9607,35.7693],[-113.9531,35.7675],[-113.9391,35.7721],[-113.9289,35.7891],[-113.9297,35.7972],[-113.9405,35.807],[-113.9331,35.8056],[-113.9048,35.8199],[-113.9035,36.0928],[-113.8952,36.0889],[-113.8912,36.0676],[-113.8768,36.0574],[-113.8439,36.0495],[-113.8106,36.0484],[-113.7956,36.0292],[-113.7824,36.0253],[-113.7847,36.0113],[-113.7797,35.9912],[-113.7692,35.9727],[-113.7496,35.9686],[-113.7377,35.9561],[-113.7397,35.9406],[-113.7221,35.9392],[-113.7138,35.9279],[-113.7167,35.9074],[-113.7134,35.8854],[-113.708,35.8796],[-113.6811,35.8749],[-113.6688,35.8658],[-113.6559,35.8484],[-113.6562,35.8363],[-113.6474,35.8239],[-113.6318,35.8196],[-113.6159,35.846],[-113.6059,35.8495],[-113.5696,35.8216],[-113.5631,35.8043],[-113.5434,35.7956],[-113.5142,35.7675],[-113.4692,35.7649],[-113.4209,35.751],[-113.3839,35.7546],[-113.3687,35.7713],[-113.3379,35.7927],[-113.3295,35.813],[-113.3333,35.8217],[-113.3258,35.8298],[-113.3269,35.8407],[-113.3104,35.8632],[-113.3101,35.892],[-113.3228,35.8987],[-113.3348,35.9139],[-113.3255,35.9347],[-113.3287,35.9501],[-113.3174,35.9608],[-113.3173,35.9686],[-113.3218,35.9759],[-113.3398,35.9852],[-113.3401,36.0033],[-113.3484,36.0131],[-113.3542,36.0404],[-113.3473,36.0552],[-113.3308,36.0683],[-113.32,36.0968],[-113.3103,36.1],[-113.3006,36.0957],[-113.2792,36.0973],[-113.2572,36.0885],[-113.2463,36.0933],[-113.2249,36.0911],[-113.2158,36.1076],[-113.2017,36.119],[-113.2053,36.1332],[-113.2013,36.1496],[-113.1629,36.1717],[-113.1492,36.1737],[-113.1371,36.1664],[-113.128,36.1695],[-113.0955,36.1936],[-113.0528,36.2094],[-113.0383,36.2266],[-113.0176,36.2372],[-113.0063,36.2388],[-112.9812,36.2318],[-112.9359,36.2426],[-112.9234,36.2577],[-112.9029,36.2538],[-112.8907,36.2591],[-112.8692,36.2823],[-112.8437,36.2767],[-112.8245,36.2883],[-112.7938,36.2844],[-112.7875,36.3008],[-112.7661,36.3057],[-112.7558,36.3243],[-112.7318,36.3178],[-112.7229,36.32],[-112.7201,36.3252],[-112.7265,36.342],[-112.7226,36.3469],[-112.6975,36.3554],[-112.6893,36.3538],[-112.6816,36.3417],[-112.6684,36.3466],[-112.6532,36.3617],[-112.647,36.3839],[-112.6295,36.3916],[-112.6316,36.4012],[-112.6242,36.4146],[-112.6308,36.4234],[-112.6291,36.4277],[-112.6387,36.4251],[-112.64,36.4343],[-112.6446,36.4344],[-112.6423,36.4374],[-112.6469,36.4404],[-112.6401,36.4392],[-112.637,36.4441],[-112.6476,36.4469],[-112.6406,36.4491],[-112.6434,36.4611],[-112.629,36.4653],[-112.6323,36.4701],[-112.6228,36.475],[-112.6261,36.4793],[-112.6218,36.4849],[-112.6357,36.4841],[-112.6406,36.4885],[-112.6353,36.492],[-112.6406,36.4983],[-112.6458,36.4969],[-112.6417,36.502],[-112.6481,36.5034],[-112.6464,36.5101],[-112.6516,36.5091],[-112.6561,36.5146],[-112.6531,36.5284],[-112.6589,36.529],[-112.6558,36.5374],[-112.6601,36.5434],[-112.6517,36.5446],[-112.6501,36.5512],[-112.6564,36.5539],[-112.6416,36.5657],[-112.6442,36.5711],[-112.6328,36.5703],[-112.6355,36.5759],[-112.6261,36.5817],[-112.6294,36.5895],[-112.6209,36.5956],[-112.6236,36.6001],[-112.6186,36.6135],[-112.6234,36.6151],[-112.6227,36.6268],[-112.6291,36.6376],[-112.6258,36.6476],[-112.6387,36.6745],[-112.6287,36.6918],[-112.627,36.7012],[-112.6312,36.7054],[-112.6238,36.7112],[-112.628,36.7167],[-112.6166,36.7215],[-112.6228,36.7234],[-112.6209,36.7303],[-112.6154,36.7268],[-112.6221,36.7372],[-112.6122,36.7369],[-112.6183,36.7411],[-112.6121,36.7429],[-112.6169,36.7549],[-112.6117,36.752],[-112.6098,36.7555],[-112.6203,36.7637],[-112.6209,36.7697],[-112.6122,36.7759],[-112.6166,36.7749],[-112.6197,36.7827],[-112.6139,36.7867],[-112.6147,36.7977],[-112.6084,36.798],[-112.6106,36.8021],[-112.6038,36.7996],[-112.6065,36.8076],[-112.5973,36.8092],[-112.6015,36.8175],[-112.5969,36.8295],[-112.8274,36.832],[-112.8295,37.0005],[-114.0506,37.0002],[-114.0499,36.7095],[-114.0428,36.4482],[-114.0439,36.1934],[-114.0587,36.1878],[-114.0668,36.1791],[-114.097,36.1208],[-114.1209,36.1108],[-114.121,36.1039],[-114.112,36.0949],[-114.1334,36.0617],[-114.1371,36.0385],[-114.1514,36.0231],[-114.1747,36.0267],[-114.2119,36.0148],[-114.2439,36.0153],[-114.2644,36.0279],[-114.2709,36.0455],[-114.3136,36.059],[-114.3044,36.074],[-114.3069,36.0825],[-114.3258,36.1039],[-114.359,36.1278],[-114.3702,36.1426],[-114.4056,36.147],[-114.4153,36.1451],[-114.445,36.1253],[-114.4626,36.1396],[-114.4838,36.1297],[-114.5047,36.1272],[-114.5092,36.1332],[-114.5002,36.1432],[-114.5112,36.1506],[-114.5311,36.1476],[-114.5392,36.1518],[-114.5711,36.1511],[-114.6155,36.1297],[-114.6305,36.1422],[-114.6643,36.1163],[-114.6818,36.1092],[-114.6937,36.1125],[-114.7349,36.1044],[-114.7545,36.0862]]]},"properties":{"name":"CD9","district_number":9,"fips":"04-09"}}],"source":"U.S. Census Bureau TIGERweb, 120th Congressional Districts (January 1, 2026 vintage)"}