{"type":"FeatureCollection","features":[{"type":"Feature","geometry":{"type":"Polygon","coordinates":[[[-113.3343,34.5649],[-113.3333,34.0],[-112.7752,33.9999],[-112.7742,34.0048],[-112.7894,34.0121],[-112.7981,34.0056],[-112.8114,34.0072],[-112.8166,34.027],[-112.8173,34.0308],[-112.8043,34.0217],[-112.811,34.0292],[-112.8178,34.0579],[-112.7893,34.0579],[-112.7893,34.0326],[-112.7924,34.0339],[-112.7945,34.0256],[-112.7894,34.0179],[-112.7946,34.0151],[-112.787,34.0144],[-112.785,34.0109],[-112.772,34.0107],[-112.772,34.0072],[-112.7626,34.0071],[-112.7624,34.0036],[-112.7544,34.0028],[-112.7545,34.0107],[-112.7632,34.0143],[-112.7632,34.0215],[-112.7588,34.0215],[-112.7587,34.0251],[-112.7458,34.0252],[-112.7458,34.0212],[-112.7429,34.0211],[-112.748,34.018],[-112.7432,34.0144],[-112.7458,34.0143],[-112.7458,33.9999],[-112.7343,33.9975],[-112.7255,33.9998],[-112.7239,33.9971],[-112.727,33.9959],[-112.7178,33.9934],[-112.7198,33.9965],[-112.7156,33.998],[-112.7171,33.9998],[-112.7115,33.9998],[-112.7109,33.996],[-112.7153,33.9959],[-112.7152,33.9927],[-112.2762,33.8825],[-112.2776,33.8904],[-112.2752,33.8934],[-112.2589,33.905],[-112.243,33.9054],[-112.2407,33.9083],[-112.2429,33.9155],[-112.2351,33.9164],[-112.2316,33.936],[-112.2414,33.9405],[-112.2358,33.9473],[-112.2403,33.9505],[-112.2403,33.9566],[-112.2292,33.9542],[-112.2146,33.9636],[-112.215,33.9671],[-112.1968,33.9739],[-112.1927,33.9919],[-112.1805,34.0036],[-112.1829,34.0125],[-112.1716,34.0178],[-112.1655,34.0126],[-112.1611,34.0177],[-112.1647,34.0363],[-112.1536,34.0409],[-112.1584,34.0438],[-112.1616,34.0423],[-112.1648,34.0482],[-111.7263,34.0],[-111.4953,33.9998],[-111.4998,34.0086],[-111.4953,34.0141],[-111.497,34.0288],[-111.4926,34.0377],[-111.4857,34.0357],[-111.4829,34.0401],[-111.472,34.0415],[-111.468,34.0477],[-111.4719,34.058],[-111.4621,34.0593],[-111.4607,34.0625],[-111.4638,34.0724],[-111.4754,34.0804],[-111.4812,34.0925],[-111.4854,34.0949],[-111.4708,34.1116],[-111.4743,34.1185],[-111.4812,34.1213],[-111.4788,34.1299],[-111.4928,34.1324],[-111.477,34.1509],[-111.712,34.1511],[-111.7207,34.1616],[-111.7056,34.1758],[-111.7046,34.1823],[-111.6945,34.182],[-111.6942,34.1872],[-111.6975,34.1902],[-111.7099,34.1874],[-111.7069,34.1914],[-111.712,34.1971],[-111.708,34.1997],[-111.6959,34.1932],[-111.6902,34.2],[-111.6956,34.2108],[-111.7055,34.214],[-111.7043,34.2275],[-111.6981,34.23],[-111.7008,34.2394],[-111.6939,34.2431],[-111.6981,34.2453],[-111.6969,34.2498],[-111.6903,34.2561],[-111.6901,34.2602],[-111.6816,34.2616],[-111.6761,34.2691],[-111.6801,34.2709],[-111.6852,34.282],[-111.665,34.2865],[-111.6656,34.2972],[-111.6739,34.2948],[-111.6764,34.2894],[-111.6847,34.2982],[-111.6736,34.3077],[-111.6677,34.3083],[-111.669,34.3105],[-111.6633,34.318],[-111.6645,34.3421],[-111.6674,34.3479],[-111.6569,34.3677],[-111.6596,34.3863],[-111.6474,34.3931],[-111.6302,34.3934],[-111.6303,34.3975],[-111.6114,34.4054],[-111.601,34.4193],[-111.5929,34.4191],[-111.5913,34.4221],[-111.5767,34.4206],[-111.5729,34.4233],[-111.5718,34.4298],[-111.5634,34.432],[-111.5542,34.4394],[-111.5521,34.8025],[-111.7783,34.8033],[-111.78,34.8181],[-111.7603,34.8181],[-111.7581,34.8473],[-111.7608,34.8599],[-111.7566,34.8653],[-111.7429,34.8653],[-111.7432,34.8853],[-111.7777,34.8849],[-111.7776,34.981],[-111.8091,34.9811],[-111.809,34.9763],[-112.3345,34.973],[-112.3358,35.1482],[-112.4423,35.1492],[-112.4424,35.2592],[-112.4657,35.2475],[-112.4729,35.2382],[-112.4996,35.2427],[-112.5418,35.2364],[-112.5774,35.2434],[-112.604,35.2692],[-112.6206,35.2748],[-112.6192,35.2907],[-112.6314,35.3002],[-112.6444,35.2998],[-112.659,35.2918],[-112.6764,35.3067],[-112.6936,35.3115],[-112.7351,35.305],[-112.7549,35.3062],[-112.7643,35.3137],[-112.7851,35.3158],[-112.8075,35.3261],[-112.8898,35.3436],[-112.9532,35.3529],[-112.9632,35.3794],[-112.9744,35.3912],[-113.0845,35.4519],[-113.147,35.4785],[-113.1547,35.4939],[-113.1689,35.504],[-113.1977,35.5108],[-113.2187,35.5091],[-113.2484,35.5219],[-113.2569,35.5285],[-113.2673,35.531],[-113.3342,35.5282],[-113.3343,34.5649]]]},"properties":{"name":"LD1","district_number":1,"fips":"04001"}},{"type":"Feature","geometry":{"type":"Polygon","coordinates":[[[-112.1533,33.6778],[-112.1511,33.6728],[-112.1512,33.6107],[-112.0996,33.6111],[-112.0997,33.6023],[-112.0974,33.6037],[-112.0957,33.6002],[-112.0826,33.6039],[-112.0709,33.6005],[-112.0651,33.6076],[-112.0602,33.6076],[-112.0431,33.598],[-112.0305,33.5967],[-112.0305,33.605],[-112.0226,33.6114],[-112.0232,33.6165],[-112.0263,33.617],[-112.0245,33.6266],[-112.0069,33.6263],[-112.0031,33.6406],[-111.9962,33.6407],[-111.9963,33.6552],[-112.0003,33.6552],[-111.9999,33.6635],[-112.0102,33.6729],[-112.0137,33.6729],[-112.0137,33.6697],[-112.0308,33.6696],[-112.0306,33.6921],[-112.0037,33.7344],[-112.0127,33.7402],[-112.015,33.7569],[-112.0258,33.7625],[-112.0475,33.7629],[-112.0616,33.7707],[-112.1291,33.7691],[-112.113,33.6923],[-112.1174,33.6886],[-112.1218,33.6893],[-112.1242,33.6941],[-112.1533,33.6778]]]},"properties":{"name":"LD2","district_number":2,"fips":"04002"}},{"type":"Feature","geometry":{"type":"Polygon","coordinates":[[[-112.1718,33.8566],[-112.148,33.8573],[-112.1479,33.8501],[-112.1436,33.8459],[-112.1446,33.8275],[-112.1375,33.8087],[-112.1291,33.7691],[-112.0616,33.7707],[-112.0475,33.7629],[-112.0276,33.7629],[-112.015,33.7569],[-112.0127,33.7402],[-112.0037,33.7344],[-112.0306,33.6921],[-112.0308,33.6696],[-112.0014,33.6721],[-112.0049,33.6743],[-112.005,33.6912],[-111.9983,33.6987],[-111.9256,33.6987],[-111.9256,33.6581],[-111.8961,33.6498],[-111.8908,33.6417],[-111.8905,33.6297],[-111.8816,33.6285],[-111.8711,33.6168],[-111.8741,33.6153],[-111.8742,33.568],[-111.7989,33.5679],[-111.7982,33.5724],[-111.7872,33.5715],[-111.7847,33.5816],[-111.7775,33.5784],[-111.7766,33.5751],[-111.7701,33.5752],[-111.7701,33.5679],[-111.7088,33.5679],[-111.7093,33.5641],[-111.6399,33.5741],[-111.6433,33.5504],[-111.6711,33.5428],[-111.6751,33.5193],[-111.6838,33.5163],[-111.6839,33.4953],[-111.6038,33.4958],[-111.6004,33.4861],[-111.6031,33.4672],[-111.0399,33.4661],[-111.1534,33.6776],[-111.1695,33.6675],[-111.1735,33.6601],[-111.1806,33.6598],[-111.207,33.6369],[-111.2094,33.6335],[-111.2075,33.6206],[-111.2237,33.6029],[-111.2319,33.6095],[-111.2315,33.6132],[-111.2495,33.6243],[-111.2557,33.6211],[-111.2628,33.6232],[-111.2872,33.652],[-111.2872,33.6586],[-111.2995,33.6638],[-111.3149,33.6814],[-111.3314,33.6883],[-111.3383,33.7027],[-111.3375,33.7212],[-111.3548,33.7332],[-111.3563,33.7388],[-111.3721,33.7452],[-111.373,33.7493],[-111.3811,33.7477],[-111.3868,33.75],[-111.3822,33.761],[-111.3871,33.7632],[-111.3894,33.7708],[-111.3867,33.7734],[-111.3894,33.7767],[-111.3812,33.7852],[-111.3828,33.7881],[-111.3785,33.7937],[-111.3883,33.8054],[-111.3842,33.8165],[-111.372,33.8182],[-111.3723,33.8239],[-111.3836,33.8336],[-111.3925,33.8359],[-111.3901,33.8377],[-111.3955,33.8409],[-111.3959,33.8446],[-111.3872,33.8625],[-111.3963,33.8686],[-111.396,33.8769],[-111.4057,33.8795],[-111.4055,33.8821],[-111.4128,33.8859],[-111.4137,33.8987],[-111.408,33.9053],[-111.4052,33.9194],[-111.4259,33.9261],[-111.4375,33.9162],[-111.4517,33.921],[-111.4493,33.9297],[-111.452,33.9338],[-111.4471,33.9349],[-111.4472,33.9411],[-111.4523,33.9488],[-111.448,33.9578],[-111.4532,33.9654],[-111.4481,33.9733],[-111.4331,33.9844],[-111.4428,33.9914],[-111.4418,33.9981],[-111.4544,34.0047],[-111.4584,34.0022],[-111.4665,34.0059],[-111.4707,34.0028],[-111.4724,34.0047],[-111.4917,33.9998],[-111.7263,34.0],[-112.1456,34.0462],[-112.1452,34.0253],[-112.1349,34.009],[-112.1336,33.9878],[-112.1268,33.9685],[-112.1365,33.9534],[-112.1478,33.9008],[-112.1599,33.8871],[-112.1624,33.8716],[-112.1715,33.8615],[-112.1718,33.8566]]]},"properties":{"name":"LD3","district_number":3,"fips":"04003"}},{"type":"Feature","geometry":{"type":"Polygon","coordinates":[[[-112.048,33.5534],[-112.0475,33.5092],[-111.9953,33.5099],[-111.9954,33.5025],[-112.0042,33.5025],[-112.0042,33.4952],[-111.975,33.4946],[-111.9615,33.489],[-111.9441,33.4901],[-111.9347,33.4947],[-111.9347,33.5094],[-111.8916,33.5094],[-111.8913,33.568],[-111.8742,33.568],[-111.8741,33.6153],[-111.8711,33.6168],[-111.8816,33.6285],[-111.8905,33.6297],[-111.8908,33.6417],[-111.8961,33.6498],[-111.9256,33.6581],[-111.9256,33.6987],[-111.9983,33.6987],[-112.0025,33.6956],[-112.0051,33.6759],[-112.0014,33.6721],[-112.0102,33.6729],[-111.9999,33.6635],[-112.0003,33.6552],[-111.9963,33.6552],[-111.9962,33.6407],[-112.0031,33.6406],[-112.0069,33.6263],[-112.0245,33.6266],[-112.0263,33.617],[-112.0232,33.6165],[-112.0226,33.6114],[-112.0305,33.605],[-112.0305,33.5967],[-112.0218,33.5969],[-112.0213,33.5765],[-112.0262,33.5749],[-112.0246,33.5713],[-112.0398,33.5579],[-112.048,33.5534]]]},"properties":{"name":"LD4","district_number":4,"fips":"04004"}},{"type":"Feature","geometry":{"type":"Polygon","coordinates":[[[-112.1172,33.5687],[-112.1143,33.5603],[-112.0997,33.5604],[-112.0996,33.5386],[-112.0824,33.5384],[-112.0824,33.5239],[-112.0997,33.5241],[-112.1001,33.4513],[-112.039,33.4514],[-112.039,33.4553],[-112.0302,33.4571],[-112.0129,33.4549],[-112.0129,33.4657],[-112.0086,33.4657],[-112.0042,33.4712],[-111.9955,33.4712],[-111.9954,33.4951],[-112.0042,33.4952],[-112.0042,33.5025],[-111.9954,33.5025],[-111.9953,33.5099],[-112.0475,33.5092],[-112.048,33.5547],[-112.0398,33.5579],[-112.0246,33.5713],[-112.0262,33.5749],[-112.0215,33.5761],[-112.0218,33.5969],[-112.0416,33.5976],[-112.0602,33.6076],[-112.0651,33.6076],[-112.0709,33.6005],[-112.0826,33.6039],[-112.0957,33.6002],[-112.0982,33.6037],[-112.0996,33.5821],[-112.1168,33.582],[-112.1172,33.5687]]]},"properties":{"name":"LD5","district_number":5,"fips":"04005"}},{"type":"Feature","geometry":{"type":"Polygon","coordinates":[[[-114.0424,35.7251],[-114.0239,35.7146],[-113.985,35.7081],[-113.9713,35.6839],[-113.9352,35.6436],[-113.9199,35.6207],[-113.913,35.6373],[-113.9122,35.6343],[-113.8994,35.6289],[-113.8886,35.6272],[-113.869,35.6322],[-113.8517,35.6233],[-113.8504,35.618],[-113.8686,35.6133],[-113.8755,35.6055],[-113.8728,35.589],[-113.8659,35.5885],[-113.8456,35.5972],[-113.8311,35.6069],[-113.8298,35.6696],[-113.8264,35.6706],[-113.7843,35.6546],[-113.6204,35.4945],[-113.3545,35.4944],[-113.3341,35.5084],[-113.3342,35.5282],[-113.3188,35.5308],[-113.2614,35.5301],[-113.2187,35.5091],[-113.1977,35.5108],[-113.1689,35.504],[-113.1547,35.4939],[-113.147,35.4785],[-113.0845,35.4519],[-112.9744,35.3912],[-112.9632,35.3794],[-112.9532,35.3529],[-112.8898,35.3436],[-112.8075,35.3261],[-112.7851,35.3158],[-112.7643,35.3137],[-112.7549,35.3062],[-112.7351,35.305],[-112.6936,35.3115],[-112.6764,35.3067],[-112.659,35.2918],[-112.6444,35.2998],[-112.6314,35.3002],[-112.6192,35.2907],[-112.6206,35.2748],[-112.604,35.2692],[-112.5774,35.2434],[-112.5418,35.2364],[-112.4996,35.2427],[-112.4729,35.2382],[-112.4657,35.2475],[-112.4444,35.2586],[-112.4424,35.2592],[-112.4421,35.2501],[-112.4105,35.2597],[-112.3993,35.2667],[-112.403,35.28],[-112.3912,35.2866],[-112.3945,35.2928],[-112.3895,35.2919],[-112.3888,35.2969],[-112.3854,35.2981],[-112.3883,35.3015],[-112.3852,35.3064],[-112.3895,35.3124],[-112.3734,35.3111],[-112.3555,35.3158],[-112.3448,35.3295],[-112.3216,35.3477],[-112.3002,35.3508],[-112.284,35.3444],[-112.1714,35.4476],[-112.1717,35.4427],[-112.1662,35.4435],[-112.1514,35.4558],[-112.1434,35.4523],[-112.1351,35.4544],[-112.1073,35.4483],[-112.0985,35.451],[-112.0922,35.4479],[-112.0869,35.4344],[-112.0661,35.43],[-112.0537,35.4188],[-112.0408,35.4128],[-112.0484,35.4021],[-112.0494,35.3934],[-112.0563,35.3885],[-112.0459,35.3863],[-112.0452,35.3678],[-112.0422,35.3652],[-112.0527,35.3584],[-112.0598,35.3577],[-112.0515,35.3541],[-112.0511,35.3426],[-112.0379,35.3287],[-112.0406,35.3233],[-112.054,35.3232],[-112.0553,35.2876],[-112.0538,35.2684],[-112.0502,35.2648],[-111.9821,35.2481],[-111.9282,35.2573],[-111.8969,35.2501],[-111.8833,35.2439],[-111.8544,35.2418],[-111.8088,35.2278],[-111.7751,35.2127],[-111.766,35.2038],[-111.7377,35.195],[-111.6689,35.1881],[-111.6673,35.1786],[-111.6614,35.1791],[-111.6612,35.1901],[-111.6538,35.1982],[-111.6446,35.1936],[-111.6468,35.1864],[-111.6341,35.1855],[-111.5931,35.2128],[-111.5721,35.2187],[-111.4772,35.202],[-111.4094,35.2025],[-111.2979,35.1585],[-111.2725,35.1617],[-111.1645,35.1227],[-111.0286,35.1102],[-110.9187,35.0924],[-110.7507,35.0428],[-110.7507,34.9569],[-110.733,34.966],[-110.7318,34.9569],[-110.7163,34.9565],[-110.7053,34.9641],[-110.6962,34.9635],[-110.6828,34.9737],[-110.6759,34.974],[-110.6749,34.9708],[-110.6696,34.9697],[-110.6537,34.9759],[-110.6467,34.968],[-110.6441,34.9418],[-110.5306,34.924],[-110.5038,34.9079],[-110.4185,34.9076],[-110.396,34.8939],[-110.3834,34.8917],[-110.2731,34.8941],[-110.255,34.8884],[-110.1973,34.8868],[-110.1972,34.8788],[-110.186,34.8788],[-110.1859,34.8866],[-110.1815,34.8866],[-110.1804,34.8665],[-110.1442,34.8665],[-110.1441,34.8877],[-110.1118,34.8824],[-110.0987,34.884],[-109.9571,34.8472],[-109.9449,34.8395],[-109.902,34.7957],[-109.8514,34.7812],[-109.8505,34.6473],[-109.8652,34.5597],[-109.8468,34.4735],[-109.8494,34.1258],[-109.8592,34.1258],[-109.8592,34.1095],[-109.8827,34.1047],[-109.8922,34.0983],[-109.9035,34.1022],[-109.9221,34.1029],[-109.9475,34.115],[-109.9681,34.1091],[-109.978,34.1172],[-109.974,34.1209],[-109.9808,34.139],[-109.9956,34.1436],[-110.002,34.142],[-110.0121,34.1475],[-110.0107,34.1516],[-110.0144,34.1586],[-110.0106,34.161],[-110.0108,34.165],[-110.0182,34.1677],[-110.0159,34.1746],[-110.0314,34.1874],[-110.0367,34.1969],[-110.0409,34.198],[-110.0418,34.2042],[-110.075,34.1912],[-110.0767,34.1986],[-110.087,34.2124],[-110.1083,34.2019],[-110.1168,34.2132],[-110.1361,34.2136],[-110.1499,34.2215],[-110.1583,34.222],[-110.1641,34.2286],[-110.1638,34.2352],[-110.1708,34.2391],[-110.1878,34.2385],[-110.1927,34.2471],[-110.2013,34.2509],[-110.2061,34.245],[-110.2222,34.2404],[-110.2307,34.2307],[-110.2317,34.2247],[-110.2421,34.2192],[-110.2616,34.2168],[-110.2879,34.2188],[-110.2961,34.2227],[-110.3046,34.2342],[-110.3203,34.2395],[-110.3376,34.234],[-110.3482,34.2398],[-110.3551,34.2518],[-110.373,34.2601],[-110.3712,34.2756],[-110.3743,34.2794],[-110.3843,34.2835],[-110.3892,34.2822],[-110.3947,34.2885],[-110.4047,34.2885],[-110.407,34.2928],[-110.4173,34.2937],[-110.424,34.3059],[-110.4311,34.3071],[-110.4407,34.3001],[-110.456,34.3054],[-110.4569,34.3029],[-110.4706,34.3034],[-110.4757,34.3004],[-110.5118,34.303],[-110.5403,34.2825],[-110.5377,34.2743],[-110.542,34.2713],[-110.5475,34.2714],[-110.5654,34.2813],[-110.5714,34.2743],[-110.5822,34.2817],[-110.5841,34.2874],[-110.597,34.2913],[-110.6166,34.2867],[-110.6362,34.288],[-110.6393,34.2846],[-110.6408,34.2686],[-110.6442,34.2692],[-110.6443,34.2663],[-110.6495,34.266],[-110.6591,34.2742],[-110.672,34.2773],[-110.7111,34.2682],[-110.7174,34.2698],[-110.7303,34.2666],[-110.739,34.2707],[-110.7632,34.2584],[-110.767,34.259],[-110.7673,34.2673],[-110.7579,34.2793],[-110.7613,34.2879],[-110.7646,34.2924],[-110.7831,34.2999],[-110.7813,33.847],[-110.7444,33.6978],[-110.7376,33.6966],[-110.7295,33.7031],[-110.7373,33.7074],[-110.737,33.7098],[-110.7182,33.7118],[-110.7166,33.7197],[-110.723,33.7252],[-110.723,33.729],[-110.7158,33.7292],[-110.7044,33.7397],[-110.69,33.7405],[-110.6936,33.7507],[-110.6892,33.7684],[-110.6763,33.7744],[-110.672,33.7873],[-110.6556,33.8013],[-110.6582,33.8088],[-110.6491,33.8119],[-110.6498,33.8158],[-110.6422,33.8157],[-110.6299,33.8078],[-110.6239,33.813],[-110.6261,33.8228],[-110.6237,33.8256],[-110.6165,33.8214],[-110.6069,33.8232],[-110.6003,33.831],[-110.5916,33.8291],[-110.5853,33.8361],[-110.5669,33.825],[-110.5581,33.8384],[-110.5511,33.8267],[-110.5404,33.8245],[-110.5259,33.8144],[-110.5304,33.6377],[-110.6939,33.5042],[-110.6951,33.5001],[-110.7528,33.1706],[-110.7064,33.17],[-110.7065,33.0308],[-110.7036,32.9922],[-110.7067,32.9879],[-110.7072,32.8772],[-110.6357,32.9278],[-110.5731,32.9394],[-110.5222,32.9536],[-110.4933,32.9846],[-110.4856,32.9846],[-110.4611,32.9944],[-110.4361,32.9813],[-110.4174,32.9813],[-110.3951,33.0066],[-110.3756,33.0067],[-110.3132,32.9977],[-110.2815,32.9888],[-110.2304,32.9895],[-110.1909,32.9717],[-110.1367,32.9584],[-110.093,32.8956],[-110.0548,32.8751],[-110.0573,33.0359],[-110.0554,33.3045],[-110.0498,33.3015],[-110.0447,33.2903],[-110.0467,33.2833],[-110.0426,33.2739],[-110.0386,33.2745],[-110.0196,33.2649],[-110.0213,33.2631],[-110.0172,33.26],[-110.0158,33.252],[-110.0224,33.2455],[-110.0006,33.2357],[-109.9992,33.2416],[-109.9913,33.2457],[-109.9914,33.2495],[-109.9823,33.249],[-109.973,33.2448],[-109.9646,33.2363],[-109.9602,33.2369],[-109.959,33.2326],[-109.9526,33.2316],[-109.9518,33.2221],[-109.9458,33.2169],[-109.9495,33.2145],[-109.9431,33.1998],[-109.9519,33.1931],[-109.9514,33.1907],[-109.9273,33.1765],[-109.9259,33.1702],[-109.9169,33.1691],[-109.9091,33.1624],[-109.9023,33.1641],[-109.8929,33.16],[-109.8939,33.1461],[-109.8879,33.1444],[-109.8811,33.154],[-109.8736,33.1544],[-109.8732,33.1596],[-109.8496,33.1619],[-109.8394,33.1572],[-109.833,33.1579],[-109.8333,33.1353],[-109.8239,33.1304],[-109.8175,33.1188],[-109.8067,33.1179],[-109.8085,33.122],[-109.799,33.1249],[-109.7906,33.1175],[-109.7702,33.1259],[-109.767,33.123],[-109.7751,33.1003],[-109.7659,33.0926],[-109.7595,33.0704],[-109.7474,33.0711],[-109.7403,33.0778],[-109.7333,33.0708],[-109.7394,33.0557],[-109.7311,33.0556],[-109.731,33.0504],[-109.7249,33.0465],[-109.7163,33.048],[-109.714,33.0403],[-109.7078,33.0445],[-109.7013,33.0442],[-109.6791,33.022],[-109.674,33.0221],[-109.6657,33.0149],[-109.6463,33.0189],[-109.6435,33.0153],[-109.6306,33.0256],[-109.6203,33.0282],[-109.6161,33.0243],[-109.6037,33.0226],[-109.5948,33.0159],[-109.5608,33.0517],[-109.5211,33.0514],[-109.5159,33.048],[-109.5185,33.0453],[-109.5182,33.0362],[-109.5148,33.0346],[-109.4957,33.0784],[-109.4954,33.6527],[-109.49,33.659],[-109.4902,33.6551],[-109.4817,33.6549],[-109.4863,33.6614],[-109.4797,33.6646],[-109.484,33.6726],[-109.4812,33.684],[-109.4836,33.6867],[-109.4802,33.6876],[-109.4803,33.6913],[-109.4751,33.6904],[-109.4727,33.6968],[-109.462,33.6927],[-109.4615,33.6967],[-109.4459,33.7084],[-109.4495,33.7085],[-109.4482,33.7113],[-109.4215,33.7119],[-109.4139,33.7079],[-109.41,33.7157],[-109.4055,33.7104],[-109.401,33.7177],[-109.3959,33.7129],[-109.3952,33.7165],[-109.3786,33.7246],[-109.3689,33.7224],[-109.3611,33.728],[-109.3529,33.7249],[-109.3528,33.7289],[-109.3647,33.74],[-109.363,33.7517],[-109.3549,33.7634],[-109.3551,33.7702],[-109.3471,33.7763],[-109.3486,33.7781],[-109.0467,33.7774],[-109.0452,36.999],[-110.4697,36.9977],[-110.4903,37.0036],[-110.6257,37.0037],[-111.1506,37.0009],[-112.8295,37.0005],[-112.8274,36.832],[-112.6004,36.8319],[-112.5966,36.8287],[-112.5974,36.8244],[-112.6008,36.8241],[-112.6015,36.8175],[-112.6001,36.8102],[-112.5973,36.8092],[-112.6065,36.8076],[-112.6038,36.7996],[-112.6106,36.8021],[-112.6084,36.798],[-112.6147,36.7977],[-112.6119,36.795],[-112.6139,36.7867],[-112.6197,36.7827],[-112.6166,36.7749],[-112.6122,36.7759],[-112.6209,36.7697],[-112.6203,36.7637],[-112.6154,36.7626],[-112.6155,36.7579],[-112.6098,36.7555],[-112.6117,36.752],[-112.6169,36.7549],[-112.6121,36.7429],[-112.6168,36.7446],[-112.6183,36.7411],[-112.6122,36.7369],[-112.6221,36.7372],[-112.6225,36.7346],[-112.6165,36.7337],[-112.6154,36.7268],[-112.6209,36.7303],[-112.6228,36.7234],[-112.6166,36.7215],[-112.628,36.7167],[-112.6238,36.7112],[-112.6312,36.7054],[-112.627,36.7012],[-112.6304,36.6965],[-112.6287,36.6918],[-112.6343,36.6872],[-112.6334,36.6789],[-112.6387,36.6745],[-112.6346,36.671],[-112.6336,36.6588],[-112.6275,36.6548],[-112.6299,36.6493],[-112.6258,36.6476],[-112.6294,36.6458],[-112.6291,36.6376],[-112.6249,36.6351],[-112.627,36.6299],[-112.6227,36.6268],[-112.6234,36.6151],[-112.6186,36.6135],[-112.6225,36.6072],[-112.6198,36.6024],[-112.6236,36.6001],[-112.6209,36.5956],[-112.6264,36.5932],[-112.6226,36.5914],[-112.6294,36.5895],[-112.6261,36.5817],[-112.63,36.5815],[-112.6285,36.5768],[-112.6355,36.5759],[-112.6323,36.5744],[-112.6328,36.5703],[-112.6441,36.5712],[-112.6416,36.5657],[-112.6481,36.5643],[-112.6477,36.5612],[-112.6537,36.5578],[-112.6564,36.5537],[-112.6501,36.5512],[-112.6541,36.546],[-112.6517,36.5446],[-112.6599,36.5437],[-112.6604,36.5394],[-112.6558,36.5374],[-112.6589,36.529],[-112.6531,36.5284],[-112.6557,36.5228],[-112.6525,36.5184],[-112.6561,36.5146],[-112.6516,36.5091],[-112.6464,36.5101],[-112.6449,36.5061],[-112.6481,36.5034],[-112.6417,36.502],[-112.6458,36.4969],[-112.6406,36.4983],[-112.6353,36.492],[-112.6406,36.4885],[-112.6357,36.4841],[-112.629,36.4867],[-112.6256,36.4864],[-112.6265,36.4834],[-112.6218,36.4849],[-112.6261,36.4793],[-112.6228,36.475],[-112.6323,36.4701],[-112.629,36.4653],[-112.6434,36.4611],[-112.6451,36.4568],[-112.6413,36.4567],[-112.6406,36.4491],[-112.6476,36.4469],[-112.637,36.4441],[-112.64,36.4393],[-112.6447,36.4417],[-112.6468,36.4394],[-112.6424,36.4375],[-112.6445,36.4343],[-112.64,36.4343],[-112.6417,36.4315],[-112.6387,36.4251],[-112.6289,36.4274],[-112.6308,36.4234],[-112.6277,36.4226],[-112.6241,36.4102],[-112.6316,36.4012],[-112.63,36.3966],[-112.6325,36.3946],[-112.6299,36.3921],[-112.648,36.3831],[-112.6511,36.3667],[-112.658,36.3561],[-112.6801,36.3418],[-112.6854,36.344],[-112.6886,36.3532],[-112.6929,36.3555],[-112.7234,36.3467],[-112.7269,36.3418],[-112.7207,36.3259],[-112.7235,36.3197],[-112.7325,36.3179],[-112.7482,36.3253],[-112.7548,36.3252],[-112.7672,36.3051],[-112.788,36.3007],[-112.7932,36.2849],[-112.8243,36.2886],[-112.8438,36.2769],[-112.8705,36.2822],[-112.878,36.2773],[-112.8847,36.2639],[-112.8985,36.2551],[-112.9223,36.2588],[-112.9323,36.2446],[-112.9619,36.236],[-112.9815,36.232],[-113.006,36.2392],[-113.0182,36.2378],[-113.0397,36.2263],[-113.0541,36.2091],[-113.0955,36.1936],[-113.1141,36.1832],[-113.128,36.1695],[-113.1371,36.1664],[-113.1492,36.1737],[-113.1629,36.1717],[-113.1726,36.1627],[-113.2013,36.1496],[-113.2053,36.1332],[-113.202,36.1191],[-113.217,36.1077],[-113.2247,36.0914],[-113.2323,36.0902],[-113.2452,36.0943],[-113.2569,36.0891],[-113.2781,36.0982],[-113.2972,36.0961],[-113.3136,36.1009],[-113.3194,36.0982],[-113.3311,36.0688],[-113.3469,36.0565],[-113.3549,36.0427],[-113.3495,36.0132],[-113.3402,36.003],[-113.3398,35.9852],[-113.3328,35.9785],[-113.3218,35.9759],[-113.3173,35.9686],[-113.3174,35.9608],[-113.3287,35.9501],[-113.3255,35.9347],[-113.3348,35.9139],[-113.3228,35.8987],[-113.3101,35.892],[-113.3128,35.8725],[-113.3104,35.8632],[-113.3269,35.8407],[-113.3258,35.8298],[-113.3339,35.8222],[-113.3295,35.813],[-113.3379,35.7927],[-113.3564,35.7768],[-113.3687,35.7713],[-113.3869,35.7533],[-113.4355,35.7526],[-113.4692,35.7649],[-113.5142,35.7675],[-113.5434,35.7956],[-113.5631,35.8043],[-113.5696,35.8216],[-113.6059,35.8495],[-113.6116,35.8497],[-113.6159,35.846],[-113.619,35.8369],[-113.6318,35.8196],[-113.6474,35.8239],[-113.6562,35.8363],[-113.6559,35.8484],[-113.6638,35.8556],[-113.6688,35.8658],[-113.6811,35.8749],[-113.708,35.8796],[-113.7134,35.8854],[-113.7122,35.8941],[-113.7167,35.9074],[-113.7138,35.9279],[-113.7221,35.9392],[-113.7397,35.9406],[-113.7411,35.9475],[-113.7377,35.9561],[-113.7496,35.9686],[-113.7567,35.9675],[-113.7692,35.9727],[-113.7797,35.9912],[-113.7823,36.0262],[-113.7952,36.0301],[-113.8098,36.0493],[-113.8479,36.0505],[-113.879,36.0595],[-113.8916,36.0704],[-113.8953,36.091],[-113.9036,36.0939],[-113.9048,35.8199],[-113.9331,35.8056],[-113.9405,35.807],[-113.9297,35.7972],[-113.9289,35.7891],[-113.93,35.7833],[-113.9391,35.7721],[-113.9531,35.7675],[-113.9607,35.7693],[-113.9588,35.7739],[-113.9631,35.7744],[-113.9634,35.7777],[-113.9791,35.7757],[-113.9956,35.7644],[-113.9957,35.7547],[-114.0018,35.7486],[-114.0424,35.7251]]]},"properties":{"name":"LD6","district_number":6,"fips":"04006"}},{"type":"Feature","geometry":{"type":"Polygon","coordinates":[[[-112.4429,35.1849],[-112.4423,35.1492],[-112.3358,35.1482],[-112.3345,34.973],[-111.809,34.9763],[-111.8091,34.9811],[-111.7776,34.981],[-111.7777,34.8849],[-111.7432,34.8853],[-111.7429,34.8653],[-111.7566,34.8653],[-111.7608,34.8599],[-111.7581,34.8473],[-111.7603,34.8181],[-111.78,34.8181],[-111.7783,34.8033],[-111.5521,34.8025],[-111.5542,34.4394],[-111.5634,34.432],[-111.5718,34.4298],[-111.5729,34.4233],[-111.5767,34.4206],[-111.5913,34.4221],[-111.5929,34.4191],[-111.601,34.4193],[-111.6114,34.4054],[-111.6303,34.3975],[-111.6302,34.3934],[-111.6474,34.3931],[-111.6596,34.3863],[-111.6569,34.3677],[-111.6674,34.3479],[-111.6645,34.3421],[-111.6633,34.318],[-111.669,34.3105],[-111.6677,34.3083],[-111.6736,34.3077],[-111.6847,34.2982],[-111.6764,34.2894],[-111.6739,34.2948],[-111.6656,34.2972],[-111.665,34.2865],[-111.6852,34.282],[-111.6801,34.2709],[-111.6761,34.2691],[-111.6816,34.2616],[-111.6901,34.2602],[-111.6903,34.2561],[-111.6969,34.2498],[-111.6981,34.2453],[-111.6939,34.2431],[-111.7008,34.2394],[-111.6981,34.23],[-111.7043,34.2275],[-111.7055,34.214],[-111.6956,34.2108],[-111.6902,34.2],[-111.6959,34.1932],[-111.708,34.1997],[-111.712,34.1971],[-111.7069,34.1914],[-111.7099,34.1874],[-111.6975,34.1902],[-111.6942,34.1872],[-111.6945,34.182],[-111.7046,34.1823],[-111.7056,34.1758],[-111.7198,34.1641],[-111.7205,34.1604],[-111.712,34.1511],[-111.477,34.1509],[-111.4928,34.1324],[-111.4788,34.1299],[-111.4812,34.1213],[-111.4743,34.1185],[-111.4708,34.1116],[-111.4854,34.0949],[-111.4812,34.0925],[-111.4754,34.0804],[-111.4638,34.0724],[-111.4607,34.0625],[-111.4621,34.0593],[-111.4719,34.058],[-111.468,34.0477],[-111.472,34.0415],[-111.4829,34.0401],[-111.4857,34.0357],[-111.4926,34.0377],[-111.497,34.0288],[-111.4952,34.0143],[-111.4998,34.0083],[-111.4948,33.9998],[-111.4724,34.0047],[-111.4707,34.0028],[-111.4665,34.0059],[-111.4584,34.0022],[-111.4544,34.0047],[-111.4494,34.0002],[-111.4451,34.0012],[-111.4404,33.9964],[-111.4428,33.9913],[-111.4335,33.9855],[-111.4347,33.9809],[-111.4481,33.9733],[-111.4532,33.9654],[-111.448,33.9578],[-111.4523,33.9488],[-111.4472,33.9411],[-111.4471,33.9349],[-111.452,33.9338],[-111.4493,33.9297],[-111.4517,33.921],[-111.4375,33.9162],[-111.4259,33.9261],[-111.4051,33.9192],[-111.408,33.9053],[-111.4137,33.8987],[-111.4128,33.8859],[-111.4055,33.8821],[-111.4057,33.8795],[-111.396,33.8769],[-111.3963,33.8686],[-111.3869,33.8608],[-111.3923,33.8548],[-111.3955,33.8409],[-111.3901,33.8377],[-111.3925,33.8359],[-111.3836,33.8336],[-111.3726,33.8243],[-111.3715,33.8188],[-111.3842,33.8165],[-111.3883,33.8054],[-111.3785,33.7937],[-111.3828,33.7881],[-111.3812,33.7852],[-111.3894,33.7767],[-111.3867,33.7734],[-111.3894,33.7708],[-111.3871,33.7632],[-111.3822,33.761],[-111.3868,33.75],[-111.3811,33.7477],[-111.373,33.7493],[-111.3721,33.7452],[-111.3563,33.7388],[-111.3548,33.7332],[-111.3375,33.7212],[-111.3383,33.7027],[-111.3314,33.6883],[-111.3149,33.6814],[-111.2995,33.6638],[-111.2872,33.6586],[-111.2872,33.652],[-111.2628,33.6232],[-111.2557,33.6211],[-111.2495,33.6243],[-111.2315,33.6132],[-111.2319,33.6095],[-111.2237,33.6029],[-111.2075,33.6206],[-111.2094,33.6335],[-111.207,33.6369],[-111.1806,33.6598],[-111.1735,33.6601],[-111.1695,33.6675],[-111.1534,33.6776],[-111.0399,33.4661],[-111.5806,33.4658],[-111.5807,33.4368],[-111.5634,33.4368],[-111.5633,33.3933],[-111.5807,33.3933],[-111.5807,33.3787],[-111.5843,33.3788],[-111.5836,33.3073],[-111.4085,33.3088],[-111.3755,33.2848],[-111.3755,33.2495],[-111.3925,33.2493],[-111.3925,33.2439],[-111.3953,33.2441],[-111.4069,33.2261],[-111.438,33.1912],[-111.4878,33.1912],[-111.4742,33.1771],[-111.4661,33.1535],[-111.4741,33.1484],[-111.4744,33.1604],[-111.4877,33.162],[-111.4874,33.1528],[-111.4918,33.1527],[-111.4918,33.1474],[-111.4741,33.1477],[-111.4739,33.1332],[-111.4912,33.1328],[-111.4909,33.1234],[-111.4861,33.1184],[-111.5166,33.1183],[-111.5162,33.0277],[-111.5076,33.0313],[-111.5077,33.0386],[-111.4948,33.0386],[-111.4904,33.0404],[-111.4904,33.0458],[-111.484,33.0474],[-111.4764,33.0452],[-111.4305,33.057],[-111.4075,33.0525],[-111.3791,33.0565],[-111.3791,33.0384],[-111.353,33.0385],[-111.3522,33.0315],[-111.3437,33.0298],[-111.3012,33.0053],[-111.287,33.0044],[-111.2348,32.9896],[-111.2116,32.9875],[-111.1963,32.9813],[-111.1652,32.98],[-111.1457,32.9733],[-111.1254,32.9746],[-111.1195,32.9715],[-111.1084,32.9614],[-111.0969,32.9384],[-111.0681,32.9231],[-111.0574,32.9037],[-111.0377,32.8928],[-111.0231,32.8788],[-111.007,32.8753],[-110.9953,32.8655],[-110.9832,32.8626],[-110.9691,32.8504],[-110.9668,32.8406],[-110.9595,32.834],[-110.9425,32.8317],[-110.9325,32.8355],[-110.9273,32.8248],[-110.9171,32.8206],[-110.9141,32.8074],[-110.9261,32.7907],[-110.9189,32.7649],[-110.9032,32.7551],[-110.8977,32.746],[-110.8957,32.7338],[-110.8878,32.7216],[-110.8947,32.7127],[-110.8801,32.6953],[-110.8822,32.6919],[-110.8979,32.6873],[-110.887,32.6585],[-110.8657,32.625],[-110.8665,32.6123],[-110.8718,32.6005],[-110.8614,32.6047],[-110.8388,32.5858],[-110.8658,32.5675],[-110.8435,32.5721],[-110.8276,32.5715],[-110.8174,32.564],[-110.7976,32.558],[-110.7974,32.5537],[-110.7891,32.5507],[-110.789,32.5446],[-110.786,32.5453],[-110.7844,32.542],[-110.7848,32.5331],[-110.7911,32.5265],[-110.7856,32.519],[-110.7857,32.5138],[-110.4492,32.514],[-110.4494,32.9902],[-110.4611,32.9944],[-110.4856,32.9846],[-110.4933,32.9846],[-110.5238,32.9529],[-110.5731,32.9394],[-110.6357,32.9278],[-110.7072,32.8772],[-110.7067,32.9879],[-110.7036,32.9922],[-110.7065,33.0308],[-110.7064,33.17],[-110.7528,33.1706],[-110.6951,33.5001],[-110.6939,33.5042],[-110.5304,33.6377],[-110.5259,33.8144],[-110.5404,33.8245],[-110.5511,33.8267],[-110.5581,33.8384],[-110.5669,33.825],[-110.5853,33.8361],[-110.5916,33.8291],[-110.6003,33.831],[-110.6069,33.8232],[-110.6165,33.8214],[-110.6237,33.8256],[-110.6261,33.8228],[-110.6239,33.813],[-110.6299,33.8078],[-110.6422,33.8157],[-110.6498,33.8158],[-110.6491,33.8119],[-110.6582,33.8088],[-110.6556,33.8013],[-110.672,33.7873],[-110.6763,33.7744],[-110.6892,33.7684],[-110.6936,33.7507],[-110.69,33.7405],[-110.7044,33.7397],[-110.7158,33.7292],[-110.723,33.729],[-110.723,33.7252],[-110.7166,33.7197],[-110.7182,33.7118],[-110.737,33.7098],[-110.7373,33.7074],[-110.7295,33.7031],[-110.7376,33.6966],[-110.7444,33.6978],[-110.7813,33.847],[-110.7831,34.2999],[-110.7646,34.2924],[-110.7613,34.2879],[-110.7579,34.2793],[-110.7673,34.2673],[-110.767,34.259],[-110.7632,34.2584],[-110.739,34.2707],[-110.7303,34.2666],[-110.7174,34.2698],[-110.7111,34.2682],[-110.672,34.2773],[-110.6591,34.2742],[-110.6495,34.266],[-110.6443,34.2663],[-110.6442,34.2692],[-110.6408,34.2686],[-110.6393,34.2846],[-110.6362,34.288],[-110.6166,34.2867],[-110.597,34.2913],[-110.5841,34.2874],[-110.5822,34.2817],[-110.5714,34.2743],[-110.5654,34.2813],[-110.5475,34.2714],[-110.542,34.2713],[-110.5377,34.2743],[-110.5403,34.2825],[-110.5118,34.303],[-110.4757,34.3004],[-110.4706,34.3034],[-110.4569,34.3029],[-110.456,34.3054],[-110.4407,34.3001],[-110.4311,34.3071],[-110.424,34.3059],[-110.4173,34.2937],[-110.407,34.2928],[-110.4047,34.2885],[-110.3947,34.2885],[-110.3892,34.2822],[-110.3843,34.2835],[-110.3743,34.2794],[-110.3712,34.2756],[-110.373,34.2601],[-110.3551,34.2518],[-110.3482,34.2398],[-110.3376,34.234],[-110.3203,34.2395],[-110.3046,34.2342],[-110.2961,34.2227],[-110.2879,34.2188],[-110.2616,34.2168],[-110.2421,34.2192],[-110.2317,34.2247],[-110.2307,34.2307],[-110.2222,34.2404],[-110.2061,34.245],[-110.2013,34.2509],[-110.1927,34.2471],[-110.1878,34.2385],[-110.1708,34.2391],[-110.1638,34.2352],[-110.1641,34.2286],[-110.1583,34.222],[-110.1499,34.2215],[-110.1361,34.2136],[-110.1168,34.2132],[-110.1083,34.2019],[-110.087,34.2124],[-110.0767,34.1986],[-110.075,34.1912],[-110.0418,34.2042],[-110.0409,34.198],[-110.0367,34.1969],[-110.0314,34.1874],[-110.0159,34.1746],[-110.0182,34.1677],[-110.0108,34.165],[-110.0106,34.161],[-110.0144,34.1586],[-110.0107,34.1516],[-110.0121,34.1475],[-110.002,34.142],[-109.9956,34.1436],[-109.9808,34.139],[-109.974,34.1209],[-109.978,34.1172],[-109.9681,34.1091],[-109.9475,34.115],[-109.9221,34.1029],[-109.9035,34.1022],[-109.8922,34.0983],[-109.8827,34.1047],[-109.8592,34.1095],[-109.8592,34.1258],[-109.8494,34.1258],[-109.8468,34.4735],[-109.8652,34.5597],[-109.8505,34.6473],[-109.8514,34.7812],[-109.902,34.7957],[-109.9449,34.8395],[-109.9571,34.8472],[-110.0987,34.884],[-110.1118,34.8824],[-110.1441,34.8877],[-110.1442,34.8665],[-110.1804,34.8665],[-110.1815,34.8866],[-110.1859,34.8866],[-110.186,34.8788],[-110.1972,34.8788],[-110.1973,34.8868],[-110.255,34.8884],[-110.2731,34.8941],[-110.3834,34.8917],[-110.396,34.8939],[-110.4185,34.9076],[-110.5038,34.9079],[-110.5306,34.924],[-110.6441,34.9418],[-110.6467,34.968],[-110.6537,34.9759],[-110.6696,34.9697],[-110.6749,34.9708],[-110.6759,34.974],[-110.6828,34.9737],[-110.6962,34.9635],[-110.7053,34.9641],[-110.7163,34.9565],[-110.7318,34.9569],[-110.733,34.966],[-110.7507,34.9569],[-110.7507,35.0428],[-110.9187,35.0924],[-111.0286,35.1102],[-111.1645,35.1227],[-111.2725,35.1617],[-111.2979,35.1585],[-111.4094,35.2025],[-111.4772,35.202],[-111.5721,35.2187],[-111.5931,35.2128],[-111.6341,35.1855],[-111.6468,35.1864],[-111.6446,35.1936],[-111.6538,35.1982],[-111.6612,35.1901],[-111.6614,35.1791],[-111.6673,35.1786],[-111.6689,35.1881],[-111.7377,35.195],[-111.766,35.2038],[-111.7751,35.2127],[-111.8088,35.2278],[-111.8544,35.2418],[-111.8833,35.2439],[-111.8969,35.2501],[-111.9282,35.2573],[-111.9821,35.2481],[-112.0502,35.2648],[-112.0538,35.2684],[-112.0553,35.2876],[-112.054,35.3232],[-112.0406,35.3233],[-112.0379,35.3287],[-112.0511,35.3426],[-112.0515,35.3541],[-112.0598,35.3577],[-112.0527,35.3584],[-112.0422,35.3652],[-112.0452,35.3678],[-112.0459,35.3863],[-112.0563,35.3885],[-112.0494,35.3934],[-112.0484,35.4021],[-112.0408,35.4128],[-112.0537,35.4188],[-112.0661,35.43],[-112.0869,35.4344],[-112.0922,35.4479],[-112.0985,35.451],[-112.1073,35.4483],[-112.1351,35.4544],[-112.1434,35.4523],[-112.1514,35.4558],[-112.1662,35.4435],[-112.1717,35.4427],[-112.1714,35.4476],[-112.284,35.3444],[-112.3002,35.3508],[-112.3216,35.3477],[-112.3448,35.3295],[-112.3555,35.3158],[-112.3734,35.3111],[-112.3895,35.3124],[-112.3852,35.3064],[-112.3883,35.3015],[-112.3854,35.2981],[-112.3888,35.2969],[-112.3895,35.2919],[-112.3945,35.2928],[-112.3912,35.2866],[-112.403,35.28],[-112.3994,35.2665],[-112.4115,35.2593],[-112.4164,35.2599],[-112.423,35.2551],[-112.4421,35.2501],[-112.4429,35.1849]]]},"properties":{"name":"LD7","district_number":7,"fips":"04007"}},{"type":"Feature","geometry":{"type":"Polygon","coordinates":[[[-112.0129,33.4633],[-112.0129,33.444],[-111.9954,33.4439],[-111.9955,33.4371],[-111.9789,33.4371],[-111.9783,33.3766],[-111.9525,33.3782],[-111.9523,33.3855],[-111.8919,33.3857],[-111.8919,33.422],[-111.8399,33.4224],[-111.8397,33.4551],[-111.8337,33.4588],[-111.8355,33.4625],[-111.8268,33.4626],[-111.8268,33.4664],[-111.7873,33.4664],[-111.7873,33.4809],[-111.7789,33.4809],[-111.7791,33.472],[-111.7752,33.472],[-111.7703,33.4788],[-111.7757,33.482],[-111.7659,33.4837],[-111.7659,33.481],[-111.762,33.4809],[-111.7604,33.4845],[-111.7443,33.4847],[-111.7443,33.482],[-111.7406,33.4818],[-111.7324,33.4879],[-111.7271,33.4867],[-111.7148,33.4997],[-111.7013,33.4977],[-111.684,33.4999],[-111.6838,33.5163],[-111.6751,33.5193],[-111.6711,33.5428],[-111.6433,33.5504],[-111.6399,33.5741],[-111.7093,33.5641],[-111.7088,33.5679],[-111.7701,33.5679],[-111.7701,33.5752],[-111.7766,33.5751],[-111.7775,33.5784],[-111.7847,33.5816],[-111.7872,33.5715],[-111.7982,33.5724],[-111.7989,33.5679],[-111.8913,33.568],[-111.8916,33.5094],[-111.9347,33.5094],[-111.9347,33.4947],[-111.9441,33.4901],[-111.9615,33.489],[-111.975,33.4946],[-111.9954,33.4951],[-111.9955,33.4712],[-112.0042,33.4712],[-112.0129,33.4633]]]},"properties":{"name":"LD8","district_number":8,"fips":"04008"}},{"type":"Feature","geometry":{"type":"Polygon","coordinates":[[[-111.8949,33.3568],[-111.8418,33.3571],[-111.8411,33.3788],[-111.754,33.3792],[-111.7534,33.4519],[-111.808,33.4515],[-111.8057,33.4542],[-111.8136,33.4543],[-111.8136,33.4589],[-111.8344,33.4581],[-111.8397,33.4551],[-111.8399,33.4224],[-111.8919,33.422],[-111.8949,33.3568]]]},"properties":{"name":"LD9","district_number":9,"fips":"04009"}},{"type":"Feature","geometry":{"type":"Polygon","coordinates":[[[-111.8355,33.4625],[-111.8346,33.458],[-111.8136,33.4589],[-111.8136,33.4543],[-111.8057,33.4542],[-111.808,33.4515],[-111.7534,33.4519],[-111.754,33.3792],[-111.7273,33.3792],[-111.728,33.3858],[-111.7212,33.3858],[-111.7181,33.3858],[-111.7182,33.3793],[-111.6017,33.3789],[-111.598,33.3867],[-111.5807,33.3867],[-111.5807,33.3933],[-111.5633,33.3933],[-111.5634,33.4368],[-111.5807,33.4368],[-111.5806,33.4659],[-111.6031,33.4672],[-111.6004,33.4861],[-111.6038,33.4958],[-111.6839,33.4953],[-111.684,33.4999],[-111.7013,33.4977],[-111.7148,33.4997],[-111.7271,33.4867],[-111.7324,33.4879],[-111.7394,33.4821],[-111.7443,33.482],[-111.7443,33.4847],[-111.7604,33.4845],[-111.762,33.4809],[-111.7659,33.481],[-111.7659,33.4837],[-111.7757,33.482],[-111.7703,33.4788],[-111.7752,33.472],[-111.7791,33.472],[-111.7789,33.4809],[-111.7873,33.4809],[-111.7873,33.4664],[-111.8268,33.4664],[-111.8268,33.4626],[-111.8355,33.4625]]]},"properties":{"name":"LD10","district_number":10,"fips":"04010"}},{"type":"Feature","geometry":{"type":"Polygon","coordinates":[[[-112.2371,33.3896],[-112.2202,33.3746],[-112.22,33.3701],[-112.2153,33.3701],[-112.1479,33.3046],[-112.0836,33.3051],[-112.0836,33.3197],[-112.0318,33.3197],[-112.0318,33.3233],[-112.0145,33.3268],[-112.0145,33.3342],[-112.018,33.3342],[-112.0179,33.3386],[-112.0145,33.3385],[-112.0144,33.3415],[-111.9972,33.3415],[-111.9952,33.3552],[-111.9891,33.3562],[-111.9787,33.3642],[-111.9693,33.3639],[-111.9701,33.3598],[-111.963,33.36],[-111.963,33.3564],[-111.9565,33.358],[-111.9573,33.3676],[-111.9634,33.3781],[-111.9783,33.3766],[-111.9789,33.4371],[-111.9955,33.4371],[-111.9954,33.4439],[-112.0129,33.444],[-112.0129,33.4549],[-112.0172,33.457],[-112.039,33.4553],[-112.039,33.4514],[-112.1431,33.4514],[-112.1421,33.4065],[-112.1736,33.4079],[-112.1732,33.4036],[-112.1776,33.4038],[-112.1774,33.3996],[-112.2127,33.4013],[-112.2127,33.3975],[-112.2201,33.3964],[-112.22,33.3918],[-112.2369,33.3919],[-112.2371,33.3896]]]},"properties":{"name":"LD11","district_number":11,"fips":"04011"}},{"type":"Feature","geometry":{"type":"Polygon","coordinates":[[[-112.1458,33.3047],[-112.1479,33.3046],[-112.1338,33.2903],[-112.099,33.2904],[-112.099,33.231],[-112.089,33.2234],[-112.0921,33.2092],[-112.0835,33.2046],[-111.8931,33.2047],[-111.8943,33.3203],[-111.8242,33.3207],[-111.8242,33.3389],[-111.8329,33.3388],[-111.833,33.3613],[-111.8418,33.3613],[-111.8418,33.3571],[-111.8949,33.3567],[-111.8924,33.3857],[-111.9523,33.3855],[-111.9525,33.3782],[-111.9634,33.3781],[-111.9572,33.3673],[-111.957,33.3564],[-111.9701,33.3598],[-111.9709,33.3643],[-111.9825,33.3626],[-111.9972,33.3524],[-111.9972,33.3415],[-112.0144,33.3415],[-112.0145,33.3385],[-112.0179,33.3386],[-112.018,33.3342],[-112.0145,33.3342],[-112.0145,33.3268],[-112.0223,33.3268],[-112.0224,33.3233],[-112.0318,33.3233],[-112.0318,33.3197],[-112.0836,33.3197],[-112.0836,33.3051],[-112.1458,33.3047]]]},"properties":{"name":"LD12","district_number":12,"fips":"04012"}},{"type":"Feature","geometry":{"type":"Polygon","coordinates":[[[-111.8945,33.3162],[-111.893,33.2034],[-111.7726,33.2047],[-111.7727,33.2776],[-111.7897,33.2774],[-111.7884,33.379],[-111.8417,33.3778],[-111.8418,33.3613],[-111.833,33.3613],[-111.8329,33.3388],[-111.8242,33.3389],[-111.8242,33.3207],[-111.8943,33.3203],[-111.8945,33.3162]]]},"properties":{"name":"LD13","district_number":13,"fips":"04013"}},{"type":"Feature","geometry":{"type":"Polygon","coordinates":[[[-111.7905,33.3317],[-111.7897,33.2774],[-111.7727,33.2776],[-111.7726,33.2047],[-111.6859,33.2046],[-111.6862,33.2885],[-111.6891,33.3052],[-111.6868,33.3124],[-111.6879,33.3794],[-111.7182,33.3793],[-111.7181,33.3858],[-111.7212,33.3858],[-111.728,33.3858],[-111.7273,33.3792],[-111.7884,33.379],[-111.7905,33.3317]]]},"properties":{"name":"LD14","district_number":14,"fips":"04014"}},{"type":"Feature","geometry":{"type":"Polygon","coordinates":[[[-111.6891,33.3055],[-111.6867,33.3009],[-111.6858,33.2665],[-111.686,33.1177],[-111.4861,33.1184],[-111.4909,33.1234],[-111.4912,33.1328],[-111.4739,33.1332],[-111.4741,33.1477],[-111.4918,33.1474],[-111.4918,33.1527],[-111.4874,33.1528],[-111.4877,33.162],[-111.4744,33.1604],[-111.4741,33.1484],[-111.4661,33.1535],[-111.4742,33.1771],[-111.4878,33.1912],[-111.438,33.1912],[-111.4069,33.2261],[-111.3953,33.2441],[-111.3925,33.2439],[-111.3925,33.2493],[-111.3755,33.2495],[-111.3755,33.2848],[-111.4085,33.3088],[-111.5835,33.3072],[-111.5843,33.3788],[-111.5807,33.3787],[-111.5807,33.3867],[-111.598,33.3867],[-111.6017,33.3789],[-111.6879,33.3794],[-111.6868,33.3124],[-111.6891,33.3055]]]},"properties":{"name":"LD15","district_number":15,"fips":"04015"}},{"type":"Feature","geometry":{"type":"Polygon","coordinates":[[[-112.3087,33.381],[-112.3061,33.3806],[-112.3062,33.2469],[-112.2021,33.2469],[-112.2036,32.6836],[-112.1494,32.6815],[-112.1517,32.7231],[-112.0496,32.7236],[-112.0495,32.7676],[-111.8776,32.7676],[-111.8782,32.7924],[-111.7746,32.7927],[-111.7744,32.7631],[-111.7406,32.7631],[-111.7402,32.758],[-111.7403,32.7189],[-111.7744,32.7192],[-111.7758,32.6808],[-111.7926,32.6793],[-111.795,32.4199],[-111.7675,32.4196],[-111.7675,32.3744],[-111.6815,32.3742],[-111.6818,32.419],[-111.5909,32.4194],[-111.5908,32.4218],[-111.5793,32.4219],[-111.5789,32.374],[-111.4737,32.3742],[-111.4743,32.216],[-111.2351,32.2193],[-111.2352,32.2264],[-111.2181,32.2265],[-111.2174,32.1617],[-111.1228,32.1614],[-111.1156,32.1545],[-111.096,32.1645],[-111.0713,32.1714],[-111.0825,32.1795],[-111.0787,32.1844],[-111.0714,32.1846],[-111.0798,32.199],[-111.0884,32.1991],[-111.0884,32.2062],[-111.101,32.2132],[-111.1011,32.2226],[-111.0721,32.2296],[-111.0627,32.2356],[-111.0619,32.2518],[-110.9917,32.2503],[-111.0393,32.3056],[-111.041,32.3099],[-111.0292,32.3072],[-111.0288,32.3124],[-111.0374,32.3124],[-111.0379,32.3177],[-111.0441,32.3209],[-111.046,32.3133],[-111.0546,32.3123],[-111.0545,32.3086],[-111.0671,32.3087],[-111.0671,32.316],[-111.0627,32.3179],[-111.0652,32.321],[-111.0758,32.3264],[-111.08,32.335],[-111.0799,32.3305],[-111.0885,32.3305],[-111.0908,32.3376],[-111.1057,32.3376],[-111.1058,32.3341],[-111.1089,32.3376],[-111.1142,32.3376],[-111.1143,32.3286],[-111.1225,32.3256],[-111.1226,32.3304],[-111.1313,32.3305],[-111.1315,32.3376],[-111.1356,32.3376],[-111.1355,32.3449],[-111.1401,32.345],[-111.1399,32.352],[-111.1825,32.3518],[-111.1824,32.3353],[-111.1669,32.3353],[-111.1669,32.3062],[-111.184,32.3062],[-111.184,32.3135],[-111.2354,32.3136],[-111.2353,32.3063],[-111.2182,32.3063],[-111.2181,32.2917],[-111.3043,32.2917],[-111.3042,32.3918],[-111.2766,32.3933],[-111.2766,32.4078],[-111.287,32.4079],[-111.287,32.4186],[-111.2828,32.4186],[-111.2827,32.4222],[-111.2597,32.4242],[-111.2614,32.4468],[-111.27,32.4556],[-111.2785,32.4536],[-111.2784,32.4658],[-111.2886,32.4648],[-111.2913,32.4689],[-111.2909,32.4717],[-111.2871,32.4717],[-111.2872,32.5016],[-111.2669,32.5016],[-111.2733,32.5137],[-111.3022,32.5483],[-111.2532,32.5552],[-111.2608,32.5804],[-111.2607,32.5985],[-111.209,32.5982],[-111.2091,32.6234],[-111.1976,32.6225],[-111.1545,32.635],[-111.1189,32.6411],[-111.0967,32.6564],[-111.0518,32.6629],[-111.0405,32.653],[-111.0338,32.653],[-111.0192,32.6449],[-110.9888,32.6163],[-110.9811,32.6019],[-110.8971,32.614],[-110.8962,32.6215],[-110.866,32.6199],[-110.8666,32.6274],[-110.887,32.6585],[-110.8951,32.6773],[-110.8978,32.6878],[-110.8822,32.6919],[-110.8801,32.6953],[-110.8947,32.7127],[-110.8878,32.7216],[-110.8957,32.7338],[-110.8977,32.746],[-110.9032,32.7551],[-110.9188,32.7648],[-110.922,32.7728],[-110.9262,32.7917],[-110.917,32.8001],[-110.9141,32.8077],[-110.9167,32.8201],[-110.9273,32.8248],[-110.9325,32.8355],[-110.9425,32.8317],[-110.9595,32.834],[-110.9668,32.8406],[-110.9691,32.8504],[-110.9832,32.8626],[-110.9953,32.8655],[-111.007,32.8753],[-111.0233,32.879],[-111.0377,32.8928],[-111.0578,32.9039],[-111.0683,32.9233],[-111.0969,32.9384],[-111.1086,32.9616],[-111.1254,32.9746],[-111.1454,32.9733],[-111.1652,32.98],[-111.19,32.9802],[-111.2116,32.9875],[-111.2348,32.9896],[-111.287,33.0044],[-111.3012,33.0053],[-111.3437,33.0298],[-111.3522,33.0315],[-111.353,33.0385],[-111.3791,33.0384],[-111.3791,33.0565],[-111.4075,33.0525],[-111.4305,33.057],[-111.4764,33.0452],[-111.484,33.0474],[-111.4904,33.0458],[-111.4904,33.0404],[-111.4948,33.0386],[-111.5077,33.0386],[-111.5076,33.0313],[-111.5162,33.0277],[-111.5166,33.1183],[-111.686,33.1177],[-111.6859,33.2046],[-112.0835,33.2046],[-112.0921,33.2092],[-112.089,33.2234],[-112.099,33.231],[-112.099,33.2904],[-112.1338,33.2903],[-112.2153,33.3701],[-112.22,33.3701],[-112.2202,33.3746],[-112.2349,33.389],[-112.249,33.3826],[-112.2885,33.3793],[-112.3023,33.383],[-112.3087,33.381]]]},"properties":{"name":"LD16","district_number":16,"fips":"04016"}},{"type":"Feature","geometry":{"type":"Polygon","coordinates":[[[-111.3044,32.3543],[-111.3043,32.2917],[-111.2181,32.2917],[-111.2182,32.3063],[-111.2353,32.3063],[-111.2354,32.3136],[-111.184,32.3135],[-111.184,32.3062],[-111.1669,32.3062],[-111.1669,32.3353],[-111.1824,32.3353],[-111.1825,32.3518],[-111.1399,32.352],[-111.1401,32.345],[-111.1355,32.3449],[-111.1356,32.3376],[-111.1315,32.3376],[-111.1313,32.3305],[-111.1226,32.3304],[-111.1216,32.3254],[-111.1143,32.3286],[-111.1142,32.3376],[-111.1089,32.3376],[-111.1058,32.3341],[-111.1057,32.3376],[-111.0908,32.3376],[-111.0885,32.3305],[-111.0799,32.3305],[-111.08,32.335],[-111.0758,32.3264],[-111.0627,32.3179],[-111.0671,32.316],[-111.0671,32.3087],[-111.0545,32.3086],[-111.0546,32.3123],[-111.046,32.3133],[-111.0428,32.3233],[-111.0374,32.3232],[-111.0375,32.3263],[-111.0458,32.3267],[-111.0464,32.3341],[-111.041,32.3379],[-111.0658,32.3394],[-111.0678,32.3449],[-111.0725,32.3448],[-111.0865,32.358],[-111.0777,32.3587],[-111.0717,32.3521],[-111.0674,32.3521],[-111.0675,32.3593],[-111.0469,32.359],[-111.0469,32.3953],[-111.0216,32.3955],[-111.0213,32.3881],[-111.0128,32.3881],[-111.0127,32.3825],[-111.0043,32.3826],[-111.0096,32.3735],[-111.0023,32.3732],[-110.9958,32.3797],[-110.9958,32.3726],[-110.9872,32.3736],[-110.9872,32.3661],[-110.9787,32.3662],[-110.9787,32.3446],[-110.9829,32.3446],[-110.9828,32.3373],[-110.9776,32.3372],[-110.9765,32.3445],[-110.9612,32.3446],[-110.9611,32.3557],[-110.9271,32.3517],[-110.9272,32.3446],[-110.9102,32.3446],[-110.9095,32.3372],[-110.8241,32.3378],[-110.824,32.3232],[-110.807,32.3232],[-110.8069,32.3089],[-110.811,32.3089],[-110.8057,32.2892],[-110.8119,32.2636],[-110.8191,32.2602],[-110.8255,32.2615],[-110.8206,32.2564],[-110.8279,32.2506],[-110.8168,32.2507],[-110.8068,32.2437],[-110.808,32.1983],[-110.7897,32.199],[-110.7897,32.1918],[-110.8103,32.1918],[-110.8001,32.186],[-110.798,32.177],[-110.8069,32.1773],[-110.807,32.1629],[-110.7897,32.1629],[-110.7898,32.1229],[-110.7941,32.1229],[-110.7943,32.119],[-110.8135,32.1191],[-110.8135,32.1086],[-110.7869,32.093],[-110.7726,32.0881],[-110.7741,32.0617],[-110.7208,32.0271],[-110.7188,32.0341],[-110.7063,32.0341],[-110.7074,32.0411],[-110.7162,32.0411],[-110.7117,32.0484],[-110.7338,32.0631],[-110.7153,32.0625],[-110.7189,32.0753],[-110.7215,32.0753],[-110.7214,32.0898],[-110.7198,32.083],[-110.7145,32.0804],[-110.7142,32.0737],[-110.7082,32.0699],[-110.6892,32.0698],[-110.6892,32.073],[-110.657,32.0667],[-110.6743,32.0551],[-110.6655,32.0569],[-110.6373,32.0501],[-110.6513,32.0432],[-110.662,32.0305],[-110.6693,32.0286],[-110.6723,32.012],[-110.6706,32.0042],[-110.6657,31.9988],[-110.6902,32.0072],[-110.684,32.0029],[-110.6561,31.9965],[-110.6258,31.998],[-110.591,31.9884],[-110.5201,31.979],[-110.4513,31.9632],[-110.4477,32.2386],[-110.4477,32.2538],[-110.451,32.2538],[-110.4515,32.514],[-110.7857,32.5138],[-110.7856,32.519],[-110.7911,32.5265],[-110.7848,32.5331],[-110.7844,32.542],[-110.786,32.5453],[-110.789,32.5446],[-110.7891,32.5507],[-110.7974,32.5537],[-110.7976,32.558],[-110.8174,32.564],[-110.8276,32.5715],[-110.8435,32.5721],[-110.8658,32.5675],[-110.8388,32.5856],[-110.8614,32.6047],[-110.8718,32.6005],[-110.866,32.6199],[-110.8962,32.6215],[-110.8971,32.614],[-110.9811,32.6019],[-110.9888,32.6163],[-111.0192,32.6449],[-111.0338,32.653],[-111.0405,32.653],[-111.0518,32.6629],[-111.097,32.6563],[-111.1189,32.6411],[-111.1545,32.635],[-111.1976,32.6225],[-111.2091,32.6234],[-111.209,32.5982],[-111.2607,32.5985],[-111.2608,32.5804],[-111.2532,32.5552],[-111.3022,32.5483],[-111.2733,32.5137],[-111.2669,32.5016],[-111.2872,32.5016],[-111.2871,32.4717],[-111.2909,32.4717],[-111.2913,32.4689],[-111.2886,32.4648],[-111.2784,32.4658],[-111.2785,32.4536],[-111.27,32.4556],[-111.2614,32.4468],[-111.2597,32.4242],[-111.2827,32.4222],[-111.2828,32.4186],[-111.287,32.4186],[-111.287,32.4079],[-111.2766,32.4078],[-111.2766,32.3933],[-111.3042,32.3918],[-111.3044,32.3543]]]},"properties":{"name":"LD17","district_number":17,"fips":"04017"}},{"type":"Feature","geometry":{"type":"Polygon","coordinates":[[[-111.0865,32.358],[-111.0725,32.3448],[-111.0678,32.3449],[-111.0658,32.3394],[-111.0411,32.3379],[-111.0464,32.3341],[-111.0458,32.3267],[-111.0375,32.3263],[-111.0374,32.3232],[-111.0428,32.3219],[-111.0379,32.3177],[-111.0374,32.3124],[-111.0288,32.3124],[-111.0289,32.3095],[-111.0218,32.306],[-111.0084,32.3048],[-111.0004,32.2974],[-110.9811,32.2974],[-110.9785,32.301],[-110.9783,32.2942],[-110.9702,32.2897],[-110.9494,32.2871],[-110.9397,32.2818],[-110.9273,32.2815],[-110.9243,32.2731],[-110.9268,32.2722],[-110.9267,32.2285],[-110.9439,32.2278],[-110.9439,32.2214],[-110.8295,32.221],[-110.8254,32.2064],[-110.8279,32.2036],[-110.8239,32.1966],[-110.8239,32.1773],[-110.798,32.177],[-110.8001,32.186],[-110.8103,32.1918],[-110.7897,32.1918],[-110.7897,32.199],[-110.808,32.1983],[-110.8095,32.2011],[-110.8068,32.2064],[-110.8068,32.2437],[-110.8168,32.2507],[-110.8279,32.2506],[-110.8206,32.2564],[-110.8255,32.2615],[-110.8191,32.2602],[-110.8119,32.2636],[-110.8057,32.2892],[-110.811,32.3089],[-110.8069,32.3089],[-110.807,32.3232],[-110.824,32.3232],[-110.8241,32.3378],[-110.9095,32.3372],[-110.9102,32.3446],[-110.9272,32.3446],[-110.9271,32.3517],[-110.9611,32.3557],[-110.9612,32.3446],[-110.9765,32.3445],[-110.9776,32.3372],[-110.9828,32.3373],[-110.9829,32.3446],[-110.9787,32.3446],[-110.9787,32.3662],[-110.9872,32.3661],[-110.9872,32.3736],[-110.9958,32.3726],[-110.9958,32.3797],[-111.0023,32.3732],[-111.0096,32.3735],[-111.0043,32.3826],[-111.0127,32.3825],[-111.0128,32.3881],[-111.0213,32.3881],[-111.0216,32.3955],[-111.0469,32.3953],[-111.0469,32.359],[-111.0675,32.3593],[-111.0674,32.3521],[-111.0717,32.3521],[-111.0777,32.3587],[-111.0865,32.358]]]},"properties":{"name":"LD18","district_number":18,"fips":"04018"}},{"type":"Feature","geometry":{"type":"Polygon","coordinates":[[[-111.058,31.7264],[-111.0117,31.7264],[-111.0115,31.7173],[-111.0025,31.7003],[-110.9843,31.6906],[-110.9686,31.6899],[-110.9572,31.6837],[-110.9463,31.6728],[-110.9316,31.6707],[-110.9342,31.6678],[-110.9331,31.6629],[-110.9422,31.6582],[-110.941,31.6565],[-110.9218,31.6565],[-110.9219,31.6495],[-110.9157,31.6505],[-110.9175,31.6436],[-110.9083,31.6395],[-110.8927,31.6383],[-110.8904,31.6344],[-110.8813,31.6379],[-110.8735,31.6219],[-110.8766,31.6167],[-110.875,31.6075],[-110.8858,31.5922],[-110.8724,31.579],[-110.8545,31.5696],[-110.8496,31.5526],[-110.8371,31.552],[-110.8155,31.5394],[-110.8079,31.528],[-110.8019,31.5267],[-110.7937,31.5159],[-110.7848,31.5159],[-110.7826,31.5085],[-110.7626,31.5009],[-110.7557,31.4898],[-110.7388,31.4851],[-110.7384,31.4803],[-110.7226,31.4639],[-110.7086,31.4672],[-110.7053,31.4733],[-110.7011,31.4742],[-110.6947,31.4874],[-110.6853,31.4902],[-110.6804,31.4828],[-110.6719,31.4794],[-110.6696,31.4683],[-110.6715,31.4596],[-110.6588,31.4535],[-110.6125,31.4554],[-110.5934,31.4599],[-110.5936,31.4668],[-110.5884,31.464],[-110.5867,31.4588],[-110.5795,31.4598],[-110.5728,31.4547],[-110.5625,31.4591],[-110.5625,31.4282],[-110.4599,31.4281],[-110.4599,31.3999],[-110.4579,31.4039],[-110.4452,31.4103],[-110.4363,31.4248],[-110.4337,31.4174],[-110.4291,31.4189],[-110.4296,31.4144],[-110.4265,31.4148],[-110.4242,31.4087],[-110.4212,31.41],[-110.4178,31.4058],[-110.4192,31.4038],[-110.3989,31.3768],[-110.3655,31.3766],[-110.3627,31.3801],[-110.3578,31.3748],[-110.3468,31.3739],[-110.342,31.3685],[-110.3292,31.3725],[-110.3183,31.3655],[-110.3004,31.3625],[-110.2872,31.3526],[-110.2892,31.3607],[-110.2845,31.3677],[-110.2696,31.3602],[-110.2647,31.3611],[-110.245,31.3544],[-110.2391,31.3478],[-110.2072,31.3512],[-110.2071,31.3799],[-110.2249,31.3841],[-110.2396,31.3986],[-110.2407,31.4091],[-110.1223,31.4091],[-110.1223,31.3945],[-110.1065,31.3944],[-110.1094,31.3913],[-110.1061,31.388],[-110.1111,31.38],[-110.0375,31.3799],[-110.0376,31.4234],[-110.0035,31.4237],[-110.0035,31.4685],[-110.0532,31.4686],[-110.0534,31.5531],[-109.8519,31.5532],[-109.8519,31.5571],[-109.8245,31.5187],[-109.8224,31.4582],[-109.8265,31.4424],[-109.8171,31.4365],[-109.8171,31.3798],[-109.7832,31.3785],[-109.783,31.3403],[-109.7927,31.334],[-109.05,31.3323],[-109.0467,33.7774],[-109.3486,33.7781],[-109.3471,33.7763],[-109.3551,33.7702],[-109.3549,33.7634],[-109.363,33.7517],[-109.3647,33.74],[-109.3528,33.7289],[-109.3529,33.7249],[-109.3611,33.728],[-109.3689,33.7224],[-109.3786,33.7246],[-109.3952,33.7165],[-109.3959,33.7129],[-109.401,33.7177],[-109.4055,33.7104],[-109.41,33.7157],[-109.4139,33.7079],[-109.4215,33.7119],[-109.4482,33.7113],[-109.4495,33.7085],[-109.4459,33.7084],[-109.4615,33.6967],[-109.462,33.6927],[-109.4727,33.6968],[-109.4751,33.6904],[-109.4803,33.6913],[-109.4802,33.6876],[-109.4836,33.6867],[-109.4812,33.684],[-109.484,33.6726],[-109.4797,33.6646],[-109.4863,33.6614],[-109.4817,33.6549],[-109.4902,33.6551],[-109.49,33.659],[-109.4954,33.6527],[-109.4957,33.0784],[-109.5148,33.0346],[-109.5182,33.0362],[-109.5185,33.0453],[-109.5159,33.048],[-109.5211,33.0514],[-109.5608,33.0517],[-109.5948,33.0159],[-109.6037,33.0226],[-109.6161,33.0243],[-109.6203,33.0282],[-109.6306,33.0256],[-109.6435,33.0153],[-109.6463,33.0189],[-109.6657,33.0149],[-109.674,33.0221],[-109.6791,33.022],[-109.7013,33.0442],[-109.7078,33.0445],[-109.714,33.0403],[-109.7163,33.048],[-109.7249,33.0465],[-109.731,33.0504],[-109.7311,33.0556],[-109.7394,33.0557],[-109.7333,33.0708],[-109.7403,33.0778],[-109.7474,33.0711],[-109.7595,33.0704],[-109.7659,33.0926],[-109.7751,33.1003],[-109.767,33.123],[-109.7702,33.1259],[-109.7906,33.1175],[-109.799,33.1249],[-109.8085,33.122],[-109.8067,33.1179],[-109.8175,33.1188],[-109.8239,33.1304],[-109.8333,33.1353],[-109.833,33.1579],[-109.8394,33.1572],[-109.8496,33.1619],[-109.8732,33.1596],[-109.8736,33.1544],[-109.8811,33.154],[-109.8879,33.1444],[-109.8939,33.1461],[-109.8929,33.16],[-109.9023,33.1641],[-109.9091,33.1624],[-109.9169,33.1691],[-109.9259,33.1702],[-109.9273,33.1765],[-109.9514,33.1907],[-109.9519,33.1931],[-109.9431,33.1998],[-109.9495,33.2145],[-109.9458,33.2169],[-109.9518,33.2221],[-109.9526,33.2316],[-109.959,33.2326],[-109.9602,33.2369],[-109.9646,33.2363],[-109.973,33.2448],[-109.9823,33.249],[-109.9914,33.2495],[-109.9913,33.2457],[-109.9992,33.2416],[-110.0006,33.2357],[-110.0224,33.2455],[-110.0158,33.252],[-110.0172,33.26],[-110.0213,33.2631],[-110.0196,33.2649],[-110.0386,33.2745],[-110.0426,33.2739],[-110.0467,33.2833],[-110.0447,33.2903],[-110.0498,33.3015],[-110.0554,33.3045],[-110.0573,33.0359],[-110.0548,32.8751],[-110.093,32.8956],[-110.1367,32.9584],[-110.1909,32.9717],[-110.2304,32.9895],[-110.2815,32.9888],[-110.3132,32.9977],[-110.3717,33.0066],[-110.3951,33.0066],[-110.4174,32.9813],[-110.4361,32.9813],[-110.4494,32.9882],[-110.4485,32.5284],[-110.4492,32.514],[-110.4515,32.514],[-110.4515,32.4275],[-110.451,32.2538],[-110.4477,32.2538],[-110.4476,32.1648],[-110.4515,32.0797],[-110.4513,31.9632],[-110.5201,31.979],[-110.591,31.9884],[-110.6258,31.998],[-110.6561,31.9965],[-110.6822,32.0021],[-110.6902,32.0072],[-110.6657,31.9988],[-110.6706,32.0042],[-110.6723,32.012],[-110.6693,32.0286],[-110.662,32.0305],[-110.6513,32.0432],[-110.6373,32.0501],[-110.6655,32.0569],[-110.6743,32.0551],[-110.657,32.0667],[-110.6892,32.073],[-110.6892,32.0698],[-110.7082,32.0699],[-110.7142,32.0737],[-110.7145,32.0804],[-110.7198,32.083],[-110.7215,32.0898],[-110.7215,32.0753],[-110.7189,32.0753],[-110.7153,32.0625],[-110.7338,32.0631],[-110.7117,32.0484],[-110.7162,32.0411],[-110.7062,32.0401],[-110.7063,32.0341],[-110.7188,32.0341],[-110.7208,32.0271],[-110.858,32.1147],[-110.8589,31.9631],[-110.8737,31.9576],[-110.9105,31.9576],[-110.9106,31.9429],[-110.9326,31.943],[-110.9329,31.9504],[-110.9444,31.9503],[-110.9449,31.9395],[-110.9487,31.9395],[-110.9484,31.9211],[-110.959,31.9215],[-110.9637,31.8956],[-110.9688,31.8994],[-110.9974,31.8996],[-111.0117,31.8907],[-111.0181,31.8814],[-111.0181,31.8531],[-111.0091,31.8528],[-111.0502,31.7698],[-111.0396,31.7582],[-111.058,31.7264]]]},"properties":{"name":"LD19","district_number":19,"fips":"04019"}},{"type":"Feature","geometry":{"type":"Polygon","coordinates":[[[-111.106,32.1519],[-111.106,32.1479],[-111.0974,32.148],[-111.0975,32.1334],[-111.0889,32.1334],[-111.0889,32.1261],[-111.0973,32.1261],[-111.0974,32.1117],[-111.1017,32.1118],[-111.1017,32.1044],[-111.0457,32.1043],[-111.0438,32.1337],[-111.0198,32.1338],[-111.0197,32.1484],[-111.0116,32.1484],[-111.0119,32.1194],[-110.9608,32.1195],[-110.9618,32.1626],[-110.9681,32.1633],[-110.9683,32.1778],[-110.9613,32.1779],[-110.9609,32.2069],[-110.9435,32.2068],[-110.9439,32.2278],[-110.9267,32.2285],[-110.9256,32.2795],[-110.93,32.2828],[-110.9397,32.2818],[-110.9494,32.2871],[-110.9713,32.2901],[-110.9783,32.2942],[-110.9785,32.301],[-110.9811,32.2974],[-111.0004,32.2974],[-111.0088,32.305],[-111.041,32.3099],[-110.9917,32.2503],[-111.0619,32.2518],[-111.0627,32.2356],[-111.0721,32.2296],[-111.101,32.2226],[-111.101,32.2132],[-111.0884,32.2062],[-111.0884,32.1991],[-111.0798,32.199],[-111.0714,32.1846],[-111.0787,32.1844],[-111.0825,32.1795],[-111.0713,32.1714],[-111.0978,32.1637],[-111.106,32.1588],[-111.106,32.1519]]]},"properties":{"name":"LD20","district_number":20,"fips":"04020"}},{"type":"Feature","geometry":{"type":"Polygon","coordinates":[[[-111.6515,31.602],[-111.6453,31.5963],[-111.6459,31.5919],[-111.6516,31.5896],[-111.6454,31.5749],[-111.6432,31.5764],[-111.6379,31.57],[-111.6267,31.565],[-111.6195,31.5675],[-111.6091,31.5612],[-111.6003,31.5621],[-111.5942,31.5523],[-111.5943,31.5502],[-111.6231,31.5501],[-111.6231,31.5079],[-111.075,31.3323],[-109.7927,31.334],[-109.783,31.3403],[-109.7832,31.3785],[-109.8171,31.3798],[-109.8171,31.4365],[-109.8265,31.4424],[-109.8224,31.4582],[-109.8245,31.5187],[-109.8519,31.5571],[-109.8519,31.5532],[-110.0534,31.5531],[-110.0532,31.4686],[-110.0035,31.4685],[-110.0035,31.4237],[-110.0376,31.4234],[-110.0375,31.3799],[-110.1111,31.38],[-110.1061,31.388],[-110.1094,31.3913],[-110.1065,31.3944],[-110.1223,31.3945],[-110.1223,31.4091],[-110.2407,31.4091],[-110.2396,31.3986],[-110.2249,31.3841],[-110.2071,31.3799],[-110.2072,31.3512],[-110.2391,31.3478],[-110.245,31.3544],[-110.2647,31.3611],[-110.2696,31.3602],[-110.2845,31.3677],[-110.2892,31.3607],[-110.2872,31.3526],[-110.3004,31.3625],[-110.3183,31.3655],[-110.3292,31.3725],[-110.342,31.3685],[-110.3468,31.3739],[-110.3578,31.3748],[-110.3627,31.3801],[-110.3655,31.3766],[-110.3989,31.3768],[-110.4192,31.4038],[-110.4178,31.4058],[-110.4212,31.41],[-110.4242,31.4087],[-110.4265,31.4148],[-110.4296,31.4144],[-110.4291,31.4189],[-110.4337,31.4174],[-110.4363,31.4248],[-110.4452,31.4103],[-110.4579,31.4039],[-110.4599,31.3999],[-110.4599,31.4281],[-110.5625,31.4282],[-110.5625,31.4591],[-110.5728,31.4547],[-110.5795,31.4598],[-110.5867,31.4588],[-110.5884,31.464],[-110.5936,31.4668],[-110.5934,31.4599],[-110.6125,31.4554],[-110.6588,31.4535],[-110.6715,31.4596],[-110.6696,31.4683],[-110.6719,31.4794],[-110.6804,31.4828],[-110.6853,31.4902],[-110.6947,31.4874],[-110.7011,31.4742],[-110.7053,31.4733],[-110.7086,31.4672],[-110.7226,31.4639],[-110.7384,31.4803],[-110.7388,31.4851],[-110.7557,31.4898],[-110.7626,31.5009],[-110.7826,31.5085],[-110.7848,31.5159],[-110.7937,31.5159],[-110.8019,31.5267],[-110.8079,31.528],[-110.8155,31.5394],[-110.8371,31.552],[-110.8496,31.5526],[-110.8545,31.5696],[-110.8724,31.579],[-110.8858,31.5922],[-110.875,31.6075],[-110.8766,31.6167],[-110.8735,31.6219],[-110.8813,31.6379],[-110.8904,31.6344],[-110.8927,31.6383],[-110.9083,31.6395],[-110.9175,31.6436],[-110.9157,31.6505],[-110.9219,31.6495],[-110.9218,31.6565],[-110.941,31.6565],[-110.9422,31.6582],[-110.9331,31.6629],[-110.9342,31.6678],[-110.9316,31.6707],[-110.9463,31.6728],[-110.9572,31.6837],[-110.9686,31.6899],[-110.9843,31.6906],[-111.0025,31.7003],[-111.0115,31.7173],[-111.0117,31.7264],[-111.058,31.7262],[-111.0396,31.7582],[-111.0502,31.7698],[-111.0091,31.8528],[-111.0181,31.8531],[-111.0181,31.8814],[-111.0117,31.8907],[-110.9974,31.8996],[-110.9688,31.8994],[-110.9637,31.8956],[-110.959,31.9215],[-110.9484,31.9211],[-110.9487,31.9395],[-110.9449,31.9395],[-110.9444,31.9503],[-110.9329,31.9504],[-110.9326,31.943],[-110.9106,31.9429],[-110.9105,31.9576],[-110.8737,31.9576],[-110.8589,31.9631],[-110.858,32.1147],[-110.7731,32.0633],[-110.7726,32.0881],[-110.8134,32.1082],[-110.8135,32.1191],[-110.7943,32.119],[-110.7941,32.1229],[-110.7898,32.1229],[-110.7897,32.1623],[-110.807,32.1629],[-110.8069,32.1773],[-110.8239,32.1773],[-110.8239,32.1966],[-110.8279,32.2036],[-110.8254,32.2064],[-110.8295,32.221],[-110.9439,32.2214],[-110.9435,32.2068],[-110.9609,32.2069],[-110.9613,32.1779],[-110.9683,32.1778],[-110.9681,32.1633],[-110.9618,32.1626],[-110.9608,32.1195],[-110.9889,32.1193],[-110.9608,32.1194],[-110.9613,32.0015],[-111.2163,32.0004],[-111.217,31.9813],[-111.2311,31.9732],[-111.2253,31.9602],[-111.2284,31.9561],[-111.2446,31.9542],[-111.2654,31.9624],[-111.2654,31.9588],[-111.2821,31.9587],[-111.2878,31.9554],[-111.3166,31.9592],[-111.3166,32.0021],[-111.3507,32.0045],[-111.351,32.0167],[-111.3877,31.9579],[-111.391,31.9423],[-111.3901,31.9097],[-111.3961,31.881],[-111.3996,31.8823],[-111.4049,31.8719],[-111.4111,31.868],[-111.4118,31.8611],[-111.4449,31.81],[-111.4459,31.802],[-111.4684,31.7699],[-111.595,31.7695],[-111.6005,31.7536],[-111.5985,31.749],[-111.6164,31.732],[-111.6183,31.7238],[-111.6107,31.7108],[-111.642,31.6889],[-111.6421,31.6855],[-111.6315,31.6822],[-111.6311,31.6778],[-111.6416,31.6593],[-111.6439,31.6488],[-111.6369,31.6429],[-111.6373,31.6341],[-111.6476,31.6225],[-111.6515,31.602]]]},"properties":{"name":"LD21","district_number":21,"fips":"04021"}},{"type":"Feature","geometry":{"type":"Polygon","coordinates":[[[-112.3753,33.3647],[-112.3579,33.3628],[-112.3579,33.2758],[-112.3405,33.2758],[-112.3405,33.2685],[-112.3492,33.2685],[-112.3492,33.2613],[-112.3062,33.2612],[-112.3061,33.3806],[-112.3087,33.381],[-112.3023,33.383],[-112.2885,33.3793],[-112.2486,33.3827],[-112.24,33.3849],[-112.2369,33.3919],[-112.22,33.3918],[-112.2201,33.3964],[-112.2127,33.3975],[-112.2127,33.4013],[-112.1774,33.3996],[-112.1776,33.4038],[-112.1732,33.4036],[-112.1736,33.4079],[-112.1421,33.4065],[-112.1431,33.4514],[-112.1866,33.4515],[-112.1865,33.466],[-112.238,33.4653],[-112.2377,33.5377],[-112.3071,33.5365],[-112.3066,33.5075],[-112.313,33.4929],[-112.3196,33.4929],[-112.3196,33.4967],[-112.3238,33.4968],[-112.3239,33.5039],[-112.3281,33.504],[-112.328,33.4933],[-112.3436,33.4931],[-112.358,33.4861],[-112.3553,33.4789],[-112.3409,33.4788],[-112.3411,33.4499],[-112.3539,33.4498],[-112.3498,33.4426],[-112.3539,33.4426],[-112.3562,33.4317],[-112.3537,33.428],[-112.3499,33.4289],[-112.3579,33.4247],[-112.3573,33.392],[-112.3751,33.3917],[-112.3753,33.3647]]]},"properties":{"name":"LD22","district_number":22,"fips":"04022"}},{"type":"Feature","geometry":{"type":"Polygon","coordinates":[[[-114.8163,32.5078],[-114.8124,32.5003],[-114.8135,32.494],[-113.8592,32.2033],[-113.1553,31.9825],[-112.2126,31.6935],[-111.6231,31.5079],[-111.6231,31.5501],[-111.5943,31.5502],[-111.5942,31.5523],[-111.6003,31.5621],[-111.6091,31.5612],[-111.6195,31.5675],[-111.6275,31.5653],[-111.6379,31.57],[-111.6432,31.5764],[-111.6454,31.5749],[-111.6508,31.5831],[-111.6516,31.5896],[-111.6454,31.5924],[-111.6453,31.5963],[-111.6516,31.6015],[-111.648,31.6214],[-111.6373,31.6341],[-111.6369,31.6429],[-111.6439,31.6488],[-111.6416,31.6593],[-111.6311,31.6778],[-111.6315,31.6822],[-111.6421,31.6855],[-111.642,31.6889],[-111.6107,31.7108],[-111.6183,31.7238],[-111.6164,31.732],[-111.5985,31.749],[-111.6005,31.7536],[-111.595,31.7695],[-111.4684,31.7699],[-111.4459,31.802],[-111.4449,31.81],[-111.4118,31.8611],[-111.4111,31.868],[-111.4049,31.8719],[-111.3996,31.8823],[-111.3961,31.881],[-111.3901,31.9097],[-111.391,31.9423],[-111.3877,31.9579],[-111.351,32.0167],[-111.3507,32.0045],[-111.3166,32.0021],[-111.3166,31.9592],[-111.2878,31.9554],[-111.2821,31.9587],[-111.2654,31.9588],[-111.2654,31.9624],[-111.2446,31.9542],[-111.2284,31.9561],[-111.2253,31.9602],[-111.2311,31.9732],[-111.217,31.9813],[-111.2163,32.0004],[-110.9613,32.0015],[-110.9608,32.1194],[-111.0119,32.1194],[-111.0116,32.1484],[-111.0197,32.1484],[-111.0198,32.1338],[-111.0438,32.1337],[-111.0457,32.1043],[-111.1017,32.1044],[-111.1017,32.1118],[-111.0974,32.1117],[-111.0973,32.1261],[-111.0889,32.1261],[-111.0889,32.1334],[-111.0975,32.1334],[-111.0974,32.148],[-111.106,32.1479],[-111.106,32.1588],[-111.1156,32.1545],[-111.1228,32.1614],[-111.218,32.1619],[-111.2181,32.2265],[-111.2352,32.2264],[-111.2351,32.2193],[-111.4743,32.216],[-111.4737,32.3742],[-111.5789,32.374],[-111.5793,32.4219],[-111.5908,32.4218],[-111.5909,32.4194],[-111.6818,32.419],[-111.6815,32.3742],[-111.7675,32.3744],[-111.7675,32.4196],[-111.795,32.4199],[-111.7926,32.6793],[-111.7758,32.6808],[-111.7744,32.7192],[-111.7403,32.7189],[-111.7402,32.758],[-111.7406,32.7631],[-111.7744,32.7631],[-111.7746,32.7927],[-111.8782,32.7924],[-111.8776,32.7676],[-112.0495,32.7676],[-112.0496,32.7236],[-112.1517,32.7231],[-112.1494,32.6815],[-112.2036,32.6836],[-112.2021,33.2469],[-112.3062,33.2469],[-112.3062,33.2612],[-112.3492,33.2613],[-112.3492,33.2685],[-112.3405,33.2685],[-112.3405,33.2758],[-112.3579,33.2758],[-112.3579,33.3628],[-112.3753,33.3629],[-112.3751,33.3917],[-112.3574,33.392],[-112.3579,33.4247],[-112.3499,33.4289],[-112.3537,33.428],[-112.3562,33.4317],[-112.3539,33.4426],[-112.3498,33.4426],[-112.3539,33.4498],[-112.3411,33.4499],[-112.3409,33.4643],[-112.4613,33.4648],[-112.4611,33.3774],[-112.4583,33.3774],[-112.4583,33.3738],[-112.4693,33.36],[-112.474,33.36],[-112.484,33.3524],[-112.5007,33.3539],[-112.5045,33.3504],[-112.5043,33.36],[-112.5778,33.3594],[-112.5778,33.3559],[-112.5908,33.356],[-112.5908,33.3487],[-112.5991,33.3486],[-112.5991,33.3451],[-112.6237,33.3373],[-112.6241,33.3169],[-112.6519,33.191],[-112.6499,33.1163],[-112.6669,33.1153],[-112.6653,33.109],[-112.6582,33.109],[-112.6581,33.1017],[-112.6668,33.1018],[-112.6677,33.0967],[-112.6658,33.0653],[-112.6614,33.0654],[-112.6612,33.0581],[-112.6612,33.0401],[-112.6654,33.0401],[-112.6657,33.0144],[-112.7002,33.0145],[-112.7025,33.0054],[-112.7133,33.0022],[-112.7175,33.0043],[-112.7171,33.0287],[-112.8098,33.0283],[-112.8202,33.0371],[-112.8236,33.026],[-112.8359,33.0306],[-112.8397,33.0354],[-112.8397,33.0181],[-112.8468,33.0213],[-112.8745,33.0215],[-112.8739,33.0097],[-112.8608,32.9991],[-112.9779,32.9982],[-112.9767,32.9411],[-113.0235,32.9411],[-113.0232,32.8923],[-113.0592,32.8808],[-113.1116,32.8777],[-113.143,32.8648],[-113.2129,32.8569],[-113.2039,32.8348],[-113.2043,32.8293],[-113.2093,32.8251],[-113.3338,32.8251],[-113.3337,32.7679],[-113.5745,32.7672],[-113.5746,32.7635],[-113.5787,32.7634],[-113.5787,32.7672],[-113.583,32.7672],[-113.5829,32.7635],[-113.5916,32.7635],[-113.5917,32.7671],[-113.6169,32.767],[-113.7205,32.7276],[-113.7473,32.7257],[-113.7471,32.6943],[-113.8154,32.694],[-113.8154,32.6792],[-113.8844,32.6791],[-113.884,32.6649],[-113.9703,32.6644],[-113.9701,32.6498],[-114.0221,32.6497],[-114.022,32.6424],[-114.039,32.6423],[-114.0389,32.6348],[-114.0906,32.6347],[-114.0905,32.6273],[-114.1161,32.6268],[-114.1162,32.6198],[-114.358,32.6198],[-114.3582,32.6269],[-114.5422,32.6264],[-114.5422,32.6191],[-114.5465,32.6191],[-114.5463,32.5972],[-114.5545,32.597],[-114.5544,32.5818],[-114.5632,32.5819],[-114.5629,32.553],[-114.632,32.5528],[-114.6327,32.6258],[-114.6842,32.6256],[-114.6846,32.6838],[-114.6675,32.6838],[-114.6674,32.6693],[-114.6409,32.6695],[-114.6361,32.6785],[-114.6386,32.684],[-114.6074,32.684],[-114.6073,32.68],[-114.5988,32.6801],[-114.5989,32.6921],[-114.6094,32.7005],[-114.6143,32.7258],[-114.6075,32.7169],[-114.599,32.717],[-114.5991,32.721],[-114.5896,32.7246],[-114.5647,32.7198],[-114.5503,32.7208],[-114.5392,32.7278],[-114.5307,32.7389],[-114.527,32.7467],[-114.5266,32.7603],[-114.5269,32.7571],[-114.5391,32.7569],[-114.5392,32.7498],[-114.5644,32.7496],[-114.5645,32.7423],[-114.5817,32.7423],[-114.5818,32.7349],[-114.6151,32.7345],[-114.6174,32.7283],[-114.6882,32.7375],[-114.7016,32.7456],[-114.7145,32.7304],[-114.7221,32.7137],[-114.7298,32.7047],[-114.7318,32.6954],[-114.7445,32.6785],[-114.7486,32.663],[-114.7645,32.6498],[-114.7638,32.6434],[-114.7806,32.6321],[-114.7827,32.6243],[-114.7917,32.622],[-114.7998,32.6253],[-114.8084,32.6194],[-114.8078,32.6032],[-114.8018,32.5994],[-114.7994,32.5926],[-114.804,32.582],[-114.8016,32.5764],[-114.8129,32.5688],[-114.8139,32.5622],[-114.8065,32.5592],[-114.7928,32.5695],[-114.7914,32.5565],[-114.7939,32.552],[-114.8055,32.5467],[-114.802,32.5363],[-114.8132,32.5248],[-114.8102,32.5183],[-114.8023,32.5158],[-114.8025,32.5121],[-114.8163,32.5078]]]},"properties":{"name":"LD23","district_number":23,"fips":"04023"}},{"type":"Feature","geometry":{"type":"Polygon","coordinates":[[[-112.2379,33.4659],[-112.1865,33.466],[-112.1866,33.4515],[-112.1691,33.4512],[-112.1688,33.5095],[-112.1864,33.5096],[-112.1863,33.5241],[-112.1601,33.5239],[-112.16,33.5384],[-112.1514,33.5385],[-112.1517,33.5819],[-112.2029,33.5817],[-112.2029,33.5672],[-112.2116,33.5671],[-112.2114,33.5526],[-112.2378,33.552],[-112.2379,33.4659]]]},"properties":{"name":"LD24","district_number":24,"fips":"04024"}},{"type":"Feature","geometry":{"type":"Polygon","coordinates":[[[-114.6846,32.6693],[-114.6842,32.6256],[-114.6327,32.6258],[-114.632,32.5528],[-114.5629,32.553],[-114.5632,32.5819],[-114.5544,32.5818],[-114.5545,32.597],[-114.5463,32.5972],[-114.5465,32.6191],[-114.5422,32.6191],[-114.5422,32.6264],[-114.3582,32.6269],[-114.358,32.6198],[-114.1162,32.6198],[-114.1161,32.6268],[-114.0905,32.6273],[-114.0906,32.6347],[-114.0389,32.6348],[-114.039,32.6423],[-114.022,32.6424],[-114.0221,32.6497],[-113.9701,32.6498],[-113.9703,32.6644],[-113.884,32.6649],[-113.8844,32.6791],[-113.8154,32.6792],[-113.8154,32.694],[-113.7471,32.6943],[-113.7473,32.7257],[-113.7205,32.7276],[-113.6169,32.767],[-113.5917,32.7671],[-113.5916,32.7635],[-113.5829,32.7635],[-113.583,32.7672],[-113.5787,32.7672],[-113.5787,32.7634],[-113.5746,32.7635],[-113.5745,32.7672],[-113.3337,32.7679],[-113.3338,32.8251],[-113.2093,32.8251],[-113.2043,32.8293],[-113.2039,32.8348],[-113.2129,32.8569],[-113.143,32.8648],[-113.1116,32.8777],[-113.0592,32.8808],[-113.0232,32.8923],[-113.0235,32.9411],[-112.9767,32.9411],[-112.9779,32.9982],[-112.8608,32.9991],[-112.8739,33.0097],[-112.8745,33.0215],[-112.8468,33.0213],[-112.8397,33.0181],[-112.8397,33.0354],[-112.8359,33.0306],[-112.8236,33.026],[-112.8202,33.0371],[-112.8098,33.0283],[-112.7171,33.0287],[-112.7175,33.0043],[-112.7133,33.0022],[-112.7025,33.0054],[-112.7002,33.0145],[-112.6657,33.0144],[-112.6654,33.0401],[-112.6612,33.0401],[-112.6612,33.0581],[-112.6614,33.0654],[-112.6658,33.0653],[-112.6677,33.0967],[-112.6668,33.1018],[-112.6581,33.1017],[-112.6582,33.109],[-112.6653,33.109],[-112.6669,33.1153],[-112.6499,33.1163],[-112.6519,33.191],[-112.6241,33.3169],[-112.6237,33.3373],[-112.5991,33.3451],[-112.5991,33.3486],[-112.5908,33.3487],[-112.5908,33.356],[-112.5778,33.3559],[-112.5778,33.3594],[-112.5043,33.36],[-112.5045,33.3504],[-112.5007,33.3539],[-112.484,33.3524],[-112.474,33.36],[-112.4693,33.36],[-112.4583,33.3738],[-112.4583,33.3774],[-112.4611,33.3774],[-112.4615,33.4647],[-112.4258,33.4647],[-112.4186,33.5014],[-112.4181,33.6388],[-112.6257,33.6391],[-112.6258,33.6533],[-112.6085,33.6533],[-112.6085,33.7114],[-112.6692,33.7114],[-112.6692,33.7242],[-112.6552,33.7242],[-112.6553,33.8112],[-112.664,33.8112],[-112.664,33.7931],[-112.6596,33.7931],[-112.6596,33.7858],[-112.664,33.7858],[-112.664,33.7677],[-112.6727,33.7677],[-112.6727,33.7531],[-112.6813,33.7532],[-112.6778,33.6968],[-112.6865,33.6968],[-112.6865,33.7041],[-112.6951,33.7041],[-112.6951,33.7114],[-112.7124,33.7114],[-112.7124,33.7241],[-112.7298,33.7241],[-112.7298,33.7114],[-112.7454,33.7114],[-112.7471,33.7242],[-112.8157,33.7242],[-112.8158,33.6697],[-112.8325,33.6829],[-112.832,33.6643],[-112.8339,33.6678],[-112.859,33.6678],[-112.8592,33.6392],[-113.3351,33.6386],[-113.335,33.3775],[-113.9575,33.3774],[-113.9575,33.4644],[-114.2688,33.4644],[-114.2688,33.03],[-114.5168,33.0279],[-114.508,33.0197],[-114.5012,33.0076],[-114.4929,32.9718],[-114.4886,32.9699],[-114.4754,32.9752],[-114.4686,32.9716],[-114.4681,32.9553],[-114.4809,32.9363],[-114.4766,32.9236],[-114.4644,32.9131],[-114.4629,32.9079],[-114.469,32.8452],[-114.4941,32.8233],[-114.5103,32.8165],[-114.5296,32.7955],[-114.5324,32.7769],[-114.5266,32.7603],[-114.527,32.7467],[-114.5404,32.7267],[-114.5584,32.7195],[-114.5896,32.7246],[-114.5991,32.721],[-114.599,32.717],[-114.6089,32.7174],[-114.6138,32.726],[-114.6102,32.7027],[-114.6055,32.6953],[-114.5989,32.6921],[-114.5988,32.6801],[-114.6073,32.68],[-114.6074,32.684],[-114.6386,32.684],[-114.6361,32.6785],[-114.6409,32.6695],[-114.6674,32.6693],[-114.6675,32.6838],[-114.6846,32.6838],[-114.6846,32.6693]]]},"properties":{"name":"LD25","district_number":25,"fips":"04025"}},{"type":"Feature","geometry":{"type":"Polygon","coordinates":[[[-112.1864,33.51],[-112.1688,33.5095],[-112.1691,33.4512],[-112.1001,33.4513],[-112.0997,33.5241],[-112.0824,33.5239],[-112.0824,33.5384],[-112.0996,33.5386],[-112.0997,33.5604],[-112.1143,33.5603],[-112.1172,33.5676],[-112.1168,33.582],[-112.1517,33.5819],[-112.1514,33.5385],[-112.16,33.5384],[-112.1601,33.5239],[-112.1863,33.5241],[-112.1864,33.51]]]},"properties":{"name":"LD26","district_number":26,"fips":"04026"}},{"type":"Feature","geometry":{"type":"Polygon","coordinates":[[[-112.2942,33.5375],[-112.2377,33.5377],[-112.2378,33.552],[-112.2114,33.5526],[-112.2116,33.5671],[-112.2029,33.5672],[-112.2029,33.5817],[-112.0996,33.5821],[-112.0996,33.6111],[-112.1512,33.6107],[-112.1511,33.6728],[-112.1533,33.6778],[-112.1242,33.6941],[-112.1218,33.6893],[-112.1174,33.6886],[-112.113,33.6923],[-112.1146,33.6999],[-112.2203,33.6963],[-112.2204,33.6816],[-112.2377,33.6525],[-112.2402,33.6147],[-112.2589,33.5971],[-112.2612,33.5902],[-112.2595,33.5807],[-112.2675,33.5805],[-112.2725,33.5656],[-112.2898,33.5656],[-112.2898,33.5438],[-112.2875,33.5435],[-112.2942,33.5375]]]},"properties":{"name":"LD27","district_number":27,"fips":"04027"}},{"type":"Feature","geometry":{"type":"Polygon","coordinates":[[[-112.4471,33.8322],[-112.4471,33.7821],[-112.3948,33.7821],[-112.3946,33.753],[-112.3602,33.7531],[-112.3602,33.7385],[-112.3513,33.7385],[-112.3513,33.7313],[-112.3427,33.7313],[-112.3426,33.7207],[-112.3285,33.7249],[-112.3094,33.7249],[-112.3119,33.71],[-112.3202,33.6992],[-112.3752,33.6957],[-112.3903,33.692],[-112.4016,33.6823],[-112.406,33.6823],[-112.3501,33.6387],[-112.3077,33.6388],[-112.3077,33.6307],[-112.31,33.6307],[-112.3075,33.6235],[-112.3032,33.6234],[-112.3046,33.6068],[-112.2987,33.6052],[-112.2987,33.58],[-112.3029,33.5794],[-112.3031,33.5755],[-112.3002,33.5655],[-112.2725,33.5656],[-112.2675,33.5805],[-112.2595,33.5807],[-112.2612,33.5902],[-112.2589,33.5971],[-112.2401,33.6151],[-112.2377,33.6525],[-112.2204,33.6816],[-112.2203,33.6963],[-112.1146,33.6999],[-112.1372,33.8075],[-112.1446,33.8275],[-112.1436,33.8459],[-112.1479,33.8501],[-112.148,33.8573],[-112.1718,33.8566],[-112.1715,33.8615],[-112.1624,33.8716],[-112.1599,33.8871],[-112.1478,33.9008],[-112.1365,33.9534],[-112.1268,33.9685],[-112.1336,33.9878],[-112.1349,34.009],[-112.1452,34.0253],[-112.1456,34.0462],[-112.1648,34.0482],[-112.1616,34.0423],[-112.1584,34.0438],[-112.1536,34.0409],[-112.1647,34.0363],[-112.1611,34.0177],[-112.1655,34.0126],[-112.1716,34.0178],[-112.183,34.0123],[-112.1804,34.0038],[-112.1927,33.9919],[-112.1965,33.9742],[-112.215,33.9671],[-112.2146,33.9636],[-112.2292,33.9542],[-112.2403,33.9566],[-112.2403,33.9505],[-112.2358,33.9473],[-112.2414,33.9405],[-112.2316,33.936],[-112.2351,33.9164],[-112.2429,33.9155],[-112.2407,33.9083],[-112.243,33.9054],[-112.2589,33.905],[-112.2752,33.8934],[-112.2776,33.8904],[-112.2762,33.8825],[-112.4279,33.9207],[-112.4297,33.829],[-112.4471,33.8322]]]},"properties":{"name":"LD28","district_number":28,"fips":"04028"}},{"type":"Feature","geometry":{"type":"Polygon","coordinates":[[[-112.6855,33.9442],[-112.6852,33.926],[-112.6772,33.9187],[-112.6609,33.8831],[-112.6641,33.8774],[-112.6616,33.8708],[-112.6655,33.8645],[-112.6605,33.8492],[-112.6606,33.8359],[-112.664,33.8241],[-112.6718,33.8201],[-112.6676,33.8112],[-112.6553,33.8112],[-112.6552,33.7242],[-112.6692,33.7242],[-112.6692,33.7114],[-112.6085,33.7114],[-112.6085,33.6533],[-112.6258,33.6533],[-112.6257,33.6391],[-112.4181,33.6388],[-112.4183,33.5043],[-112.426,33.4649],[-112.3409,33.4643],[-112.3409,33.4788],[-112.3553,33.4789],[-112.358,33.4861],[-112.3436,33.4931],[-112.328,33.4933],[-112.3281,33.504],[-112.3239,33.5039],[-112.3238,33.4968],[-112.3196,33.4967],[-112.3196,33.4929],[-112.313,33.4929],[-112.3066,33.5075],[-112.3071,33.5365],[-112.2943,33.5364],[-112.2936,33.5402],[-112.2875,33.5435],[-112.2898,33.5438],[-112.2898,33.5656],[-112.3002,33.5655],[-112.3028,33.5713],[-112.3029,33.5794],[-112.2987,33.58],[-112.2987,33.6052],[-112.3046,33.6068],[-112.3032,33.6234],[-112.3075,33.6235],[-112.31,33.6307],[-112.3077,33.6307],[-112.3077,33.6388],[-112.3501,33.6387],[-112.406,33.6823],[-112.4016,33.6823],[-112.3903,33.692],[-112.3752,33.6957],[-112.3202,33.6992],[-112.3119,33.71],[-112.3094,33.7249],[-112.3285,33.7249],[-112.3426,33.7207],[-112.3427,33.7313],[-112.3513,33.7313],[-112.3513,33.7385],[-112.3602,33.7385],[-112.3602,33.7531],[-112.3946,33.753],[-112.3948,33.7821],[-112.4471,33.7821],[-112.4471,33.8322],[-112.4297,33.829],[-112.4279,33.9207],[-112.685,33.9852],[-112.6855,33.9442]]]},"properties":{"name":"LD29","district_number":29,"fips":"04029"}},{"type":"Feature","geometry":{"type":"Polygon","coordinates":[[[-114.7545,36.0862],[-114.7353,36.0566],[-114.7425,36.0457],[-114.7413,36.038],[-114.7334,36.0379],[-114.7221,36.029],[-114.743,36.0084],[-114.7393,35.9918],[-114.7436,35.9858],[-114.7405,35.9755],[-114.7287,35.9618],[-114.7134,35.9319],[-114.7076,35.928],[-114.7081,35.9099],[-114.6961,35.8965],[-114.6616,35.8712],[-114.6697,35.865],[-114.6878,35.8607],[-114.6944,35.8545],[-114.7059,35.8505],[-114.7063,35.8462],[-114.6953,35.8311],[-114.7037,35.8146],[-114.712,35.8055],[-114.6993,35.7905],[-114.701,35.7697],[-114.6943,35.7566],[-114.6977,35.751],[-114.6979,35.7317],[-114.7056,35.7083],[-114.7014,35.7011],[-114.6827,35.6886],[-114.6806,35.684],[-114.6902,35.6652],[-114.6895,35.6514],[-114.6776,35.6418],[-114.6667,35.6231],[-114.6595,35.6196],[-114.6535,35.6097],[-114.6539,35.5985],[-114.6592,35.5875],[-114.6757,35.58],[-114.6644,35.5684],[-114.6615,35.5441],[-114.6568,35.535],[-114.6646,35.5215],[-114.6757,35.5156],[-114.6786,35.4976],[-114.6719,35.4821],[-114.6732,35.4748],[-114.6657,35.4669],[-114.6672,35.4604],[-114.6629,35.4464],[-114.6521,35.4301],[-114.6268,35.4096],[-114.6177,35.3801],[-114.6046,35.3552],[-114.5956,35.3265],[-114.5967,35.2946],[-114.5866,35.2624],[-114.5795,35.2089],[-114.5721,35.2008],[-114.5693,35.1834],[-114.5726,35.1396],[-114.5783,35.1288],[-114.5978,35.1217],[-114.6284,35.1189],[-114.6468,35.1019],[-114.6428,35.0965],[-114.6131,35.0831],[-114.6047,35.0748],[-114.6029,35.0686],[-114.6067,35.0589],[-114.629,35.0425],[-114.6375,35.0271],[-114.6371,35.0104],[-114.6291,34.9861],[-114.6352,34.9651],[-114.6298,34.9387],[-114.6333,34.9246],[-114.6309,34.9073],[-114.6367,34.8891],[-114.6352,34.875],[-114.6239,34.8597],[-114.6007,34.8474],[-114.5868,34.8357],[-114.5765,34.8153],[-114.571,34.7943],[-114.5527,34.7669],[-114.5296,34.7508],[-114.5166,34.7367],[-114.492,34.7257],[-114.4875,34.7166],[-114.4705,34.7114],[-114.4652,34.6912],[-114.4505,34.6668],[-114.458,34.6571],[-114.4415,34.6425],[-114.4387,34.6215],[-114.4242,34.6105],[-114.4253,34.6008],[-114.4368,34.5961],[-114.4224,34.5807],[-114.4052,34.5696],[-114.3808,34.5297],[-114.3781,34.5073],[-114.3824,34.4958],[-114.3817,34.476],[-114.3867,34.4579],[-114.3737,34.4469],[-114.3354,34.45],[-114.3261,34.4373],[-114.3123,34.4327],[-114.2948,34.4214],[-114.2887,34.4066],[-114.2643,34.4013],[-114.2343,34.3767],[-114.2261,34.3659],[-114.1995,34.3614],[-114.1769,34.3493],[-114.1572,34.3179],[-114.1383,34.3032],[-114.1367,34.2744],[-114.1312,34.2627],[-114.1355,34.2579],[-114.1646,34.2597],[-114.1661,34.25],[-114.1746,34.2473],[-114.1781,34.24],[-114.2252,34.2036],[-114.2249,34.1939],[-114.2297,34.1869],[-114.257,34.1728],[-114.2873,34.1705],[-114.3208,34.1386],[-114.353,34.1331],[-114.3665,34.1186],[-114.3906,34.1101],[-114.4059,34.1115],[-114.4159,34.1076],[-114.4342,34.0874],[-114.4393,34.0579],[-114.4349,34.0378],[-114.4383,34.0226],[-114.4502,34.0126],[-114.4659,34.011],[-114.4673,34.0052],[-114.4592,34.0],[-114.4593,33.9947],[-114.4679,33.9929],[-114.4999,33.9618],[-114.522,33.9556],[-114.5355,33.9347],[-114.535,33.9257],[-114.5184,33.9175],[-114.5079,33.9038],[-114.5137,33.898],[-114.5259,33.901],[-114.5228,33.8926],[-114.5043,33.8769],[-114.503,33.868],[-114.5147,33.8586],[-114.5243,33.8601],[-114.5299,33.8576],[-114.5296,33.8481],[-114.52,33.8254],[-114.528,33.815],[-114.5049,33.7605],[-114.5045,33.751],[-114.5123,33.7342],[-114.4966,33.7192],[-114.4942,33.7079],[-114.4965,33.6969],[-114.524,33.6859],[-114.5315,33.6751],[-114.5303,33.6668],[-114.5141,33.6602],[-114.5183,33.6559],[-114.5332,33.6517],[-114.5238,33.6347],[-114.531,33.6282],[-114.5312,33.6239],[-114.5218,33.6125],[-114.5406,33.5914],[-114.5368,33.571],[-114.5242,33.5531],[-114.5589,33.5318],[-114.561,33.5167],[-114.5695,33.5092],[-114.5805,33.5065],[-114.5924,33.4987],[-114.6017,33.4814],[-114.6229,33.4566],[-114.6223,33.4476],[-114.6275,33.4323],[-114.6352,33.4227],[-114.6528,33.4129],[-114.6737,33.4192],[-114.6879,33.4179],[-114.6957,33.4151],[-114.7018,33.4084],[-114.7201,33.4079],[-114.7255,33.4041],[-114.7073,33.3825],[-114.698,33.3524],[-114.7009,33.337],[-114.7079,33.3233],[-114.7236,33.3121],[-114.7312,33.3024],[-114.7217,33.287],[-114.6805,33.2736],[-114.6721,33.2585],[-114.6895,33.2464],[-114.6736,33.2231],[-114.6787,33.2034],[-114.6758,33.1815],[-114.6809,33.1691],[-114.6799,33.1591],[-114.6874,33.142],[-114.6969,33.1311],[-114.7081,33.094],[-114.7047,33.0871],[-114.689,33.084],[-114.687,33.071],[-114.6743,33.0572],[-114.6748,33.0455],[-114.6708,33.038],[-114.6598,33.0327],[-114.646,33.0489],[-114.6258,33.0294],[-114.6017,33.0254],[-114.587,33.0269],[-114.5783,33.0354],[-114.5717,33.0366],[-114.5311,33.0324],[-114.5168,33.0279],[-114.2688,33.03],[-114.2688,33.4644],[-113.9575,33.4644],[-113.9575,33.3774],[-113.335,33.3775],[-113.3351,33.6386],[-112.8592,33.6392],[-112.859,33.6678],[-112.8339,33.6678],[-112.832,33.6643],[-112.8325,33.6829],[-112.8158,33.6697],[-112.8157,33.7242],[-112.7471,33.7242],[-112.7454,33.7114],[-112.7298,33.7114],[-112.7298,33.7241],[-112.7124,33.7241],[-112.7124,33.7114],[-112.6951,33.7114],[-112.6951,33.7041],[-112.6865,33.7041],[-112.6865,33.6968],[-112.6778,33.6968],[-112.6813,33.7532],[-112.6727,33.7531],[-112.6727,33.7677],[-112.664,33.7677],[-112.664,33.7858],[-112.6596,33.7858],[-112.6596,33.7931],[-112.664,33.7931],[-112.664,33.8112],[-112.6683,33.8119],[-112.6718,33.8201],[-112.664,33.8241],[-112.6606,33.8359],[-112.6605,33.8492],[-112.6655,33.8645],[-112.6616,33.8708],[-112.6641,33.8774],[-112.6609,33.8828],[-112.6772,33.9187],[-112.6852,33.926],[-112.685,33.9852],[-112.7152,33.9927],[-112.7153,33.9959],[-112.7109,33.996],[-112.7115,33.9998],[-112.7171,33.9998],[-112.7156,33.998],[-112.7198,33.9965],[-112.7178,33.9934],[-112.727,33.9959],[-112.7239,33.9971],[-112.7255,33.9998],[-112.7343,33.9975],[-112.7458,33.9999],[-112.7458,34.0143],[-112.7432,34.0144],[-112.748,34.018],[-112.7429,34.0211],[-112.7458,34.0212],[-112.7458,34.0252],[-112.7587,34.0251],[-112.7588,34.0215],[-112.7632,34.0215],[-112.7632,34.0143],[-112.7545,34.0107],[-112.7544,34.0028],[-112.7624,34.0036],[-112.7626,34.0071],[-112.772,34.0072],[-112.772,34.0107],[-112.785,34.0109],[-112.787,34.0144],[-112.7946,34.0151],[-112.7894,34.0179],[-112.7945,34.0256],[-112.7924,34.0339],[-112.7893,34.0326],[-112.7893,34.0579],[-112.8178,34.0579],[-112.811,34.0292],[-112.8043,34.0217],[-112.8173,34.0308],[-112.8166,34.027],[-112.8114,34.0072],[-112.7981,34.0056],[-112.7894,34.0121],[-112.7742,34.0048],[-112.7752,33.9999],[-113.3333,34.0],[-113.3341,35.5084],[-113.3545,35.4944],[-113.6204,35.4945],[-113.7843,35.6546],[-113.8264,35.6706],[-113.8298,35.6696],[-113.8311,35.6069],[-113.8456,35.5972],[-113.8659,35.5885],[-113.8728,35.589],[-113.8755,35.6055],[-113.8686,35.6133],[-113.8504,35.618],[-113.8517,35.6233],[-113.869,35.6322],[-113.8886,35.6272],[-113.8994,35.6289],[-113.9122,35.6343],[-113.913,35.6373],[-113.9199,35.6207],[-113.9352,35.6436],[-113.9713,35.6839],[-113.985,35.7081],[-114.0239,35.7146],[-114.0429,35.7247],[-114.0018,35.7486],[-113.9957,35.7547],[-113.9956,35.7644],[-113.9791,35.7757],[-113.9634,35.7777],[-113.9631,35.7744],[-113.9588,35.7739],[-113.9607,35.7693],[-113.9531,35.7675],[-113.9391,35.7721],[-113.93,35.7833],[-113.9289,35.7891],[-113.9297,35.7972],[-113.9405,35.807],[-113.9331,35.8056],[-113.9048,35.8199],[-113.9028,36.0941],[-113.8953,36.091],[-113.8916,36.0704],[-113.879,36.0595],[-113.8479,36.0505],[-113.8098,36.0493],[-113.7952,36.0301],[-113.7823,36.0262],[-113.7797,35.9912],[-113.7692,35.9727],[-113.7567,35.9675],[-113.7496,35.9686],[-113.7377,35.9561],[-113.7411,35.9475],[-113.7397,35.9406],[-113.7221,35.9392],[-113.7138,35.9279],[-113.7167,35.9074],[-113.7122,35.8941],[-113.7134,35.8854],[-113.708,35.8796],[-113.6811,35.8749],[-113.6688,35.8658],[-113.6638,35.8556],[-113.6559,35.8484],[-113.6562,35.8363],[-113.6474,35.8239],[-113.6318,35.8196],[-113.619,35.8369],[-113.6159,35.846],[-113.6116,35.8497],[-113.6059,35.8495],[-113.5696,35.8216],[-113.5631,35.8043],[-113.5434,35.7956],[-113.5142,35.7675],[-113.4692,35.7649],[-113.4373,35.753],[-113.4209,35.751],[-113.3839,35.7546],[-113.3687,35.7713],[-113.3564,35.7768],[-113.3379,35.7927],[-113.3295,35.813],[-113.3339,35.8222],[-113.3258,35.8298],[-113.3269,35.8407],[-113.3104,35.8632],[-113.3128,35.8725],[-113.3101,35.892],[-113.3228,35.8987],[-113.3348,35.9139],[-113.3255,35.9347],[-113.3287,35.9501],[-113.3174,35.9608],[-113.3173,35.9686],[-113.3218,35.9759],[-113.3328,35.9785],[-113.3398,35.9852],[-113.3402,36.003],[-113.3495,36.0132],[-113.3549,36.0427],[-113.3469,36.0565],[-113.3311,36.0688],[-113.3194,36.0982],[-113.3136,36.1009],[-113.2972,36.0961],[-113.2781,36.0982],[-113.2569,36.0891],[-113.2452,36.0943],[-113.2323,36.0902],[-113.2247,36.0914],[-113.217,36.1077],[-113.202,36.1191],[-113.2053,36.1332],[-113.2013,36.1496],[-113.1726,36.1627],[-113.1629,36.1717],[-113.1492,36.1737],[-113.1371,36.1664],[-113.128,36.1695],[-113.1141,36.1832],[-113.0955,36.1936],[-113.0541,36.2091],[-113.0397,36.2263],[-113.0182,36.2378],[-113.006,36.2392],[-112.9815,36.232],[-112.9619,36.236],[-112.9323,36.2446],[-112.9223,36.2588],[-112.8985,36.2551],[-112.8847,36.2639],[-112.878,36.2773],[-112.8705,36.2822],[-112.8438,36.2769],[-112.8243,36.2886],[-112.7932,36.2849],[-112.788,36.3007],[-112.7672,36.3051],[-112.7548,36.3252],[-112.7482,36.3253],[-112.7325,36.3179],[-112.7235,36.3197],[-112.7207,36.3259],[-112.7269,36.3418],[-112.7234,36.3467],[-112.6961,36.3557],[-112.6891,36.3539],[-112.6822,36.342],[-112.6686,36.3469],[-112.6523,36.3635],[-112.6473,36.3842],[-112.6297,36.3923],[-112.6325,36.3946],[-112.63,36.3966],[-112.6316,36.4012],[-112.6251,36.4067],[-112.6242,36.4146],[-112.6282,36.4177],[-112.6281,36.4233],[-112.6308,36.4234],[-112.6291,36.4277],[-112.6387,36.4251],[-112.6417,36.4315],[-112.64,36.4343],[-112.6446,36.4344],[-112.6423,36.4374],[-112.6469,36.4404],[-112.6401,36.4392],[-112.637,36.4441],[-112.6476,36.4469],[-112.6406,36.4491],[-112.6413,36.4567],[-112.6451,36.4568],[-112.6434,36.4611],[-112.629,36.4653],[-112.6323,36.4701],[-112.6228,36.475],[-112.6261,36.4793],[-112.6218,36.4849],[-112.6265,36.4834],[-112.6256,36.4864],[-112.629,36.4867],[-112.6357,36.4841],[-112.6406,36.4885],[-112.6353,36.492],[-112.6406,36.4983],[-112.6458,36.4969],[-112.6417,36.502],[-112.6481,36.5034],[-112.6449,36.5061],[-112.6464,36.5101],[-112.6516,36.5091],[-112.6561,36.5146],[-112.6525,36.5184],[-112.6557,36.5228],[-112.6531,36.5284],[-112.6589,36.529],[-112.6558,36.5374],[-112.6603,36.5385],[-112.6601,36.5434],[-112.6517,36.5446],[-112.6541,36.546],[-112.6501,36.5512],[-112.6564,36.5539],[-112.6474,36.5616],[-112.6481,36.5643],[-112.6416,36.5657],[-112.6442,36.5711],[-112.6328,36.5703],[-112.6323,36.5744],[-112.6355,36.5759],[-112.6285,36.5768],[-112.63,36.5815],[-112.6261,36.5817],[-112.6294,36.5895],[-112.6226,36.5914],[-112.6264,36.5932],[-112.6209,36.5956],[-112.6236,36.6001],[-112.6198,36.6024],[-112.6225,36.6072],[-112.6186,36.6135],[-112.6234,36.6151],[-112.6227,36.6268],[-112.627,36.6299],[-112.6249,36.6351],[-112.6291,36.6376],[-112.6294,36.6458],[-112.6258,36.6476],[-112.6299,36.6493],[-112.6275,36.6548],[-112.6336,36.6588],[-112.6346,36.671],[-112.6387,36.6745],[-112.6334,36.6789],[-112.6343,36.6872],[-112.6287,36.6918],[-112.6304,36.6965],[-112.627,36.7012],[-112.6312,36.7054],[-112.6238,36.7112],[-112.628,36.7167],[-112.6166,36.7215],[-112.6228,36.7234],[-112.6209,36.7303],[-112.6154,36.7268],[-112.6165,36.7337],[-112.6225,36.7346],[-112.6221,36.7372],[-112.6122,36.7369],[-112.6183,36.7411],[-112.6168,36.7446],[-112.6121,36.7429],[-112.6169,36.7549],[-112.6117,36.752],[-112.6098,36.7555],[-112.6155,36.7579],[-112.6154,36.7626],[-112.6203,36.7637],[-112.6209,36.7697],[-112.6122,36.7759],[-112.6166,36.7749],[-112.6197,36.7827],[-112.6139,36.7867],[-112.6119,36.795],[-112.6147,36.7977],[-112.6084,36.798],[-112.6106,36.8021],[-112.6038,36.7996],[-112.6065,36.8076],[-112.5973,36.8092],[-112.6001,36.8102],[-112.6015,36.8175],[-112.5969,36.8295],[-112.6004,36.8319],[-112.8274,36.832],[-112.8295,37.0005],[-114.0506,37.0002],[-114.0499,36.7095],[-114.0428,36.4482],[-114.0456,36.2888],[-114.0439,36.1934],[-114.0587,36.1878],[-114.0668,36.1791],[-114.0812,36.1502],[-114.0917,36.1373],[-114.097,36.1208],[-114.1084,36.1192],[-114.1209,36.1108],[-114.121,36.1039],[-114.112,36.0949],[-114.1334,36.0617],[-114.1371,36.0385],[-114.1447,36.0343],[-114.1459,36.0272],[-114.1514,36.0231],[-114.1747,36.0267],[-114.2119,36.0148],[-114.2334,36.0128],[-114.2439,36.0153],[-114.2644,36.0279],[-114.2709,36.0455],[-114.288,36.0491],[-114.2986,36.0573],[-114.3136,36.059],[-114.3124,36.0661],[-114.3044,36.074],[-114.3069,36.0825],[-114.3258,36.1039],[-114.3346,36.1068],[-114.3451,36.1186],[-114.359,36.1278],[-114.3702,36.1426],[-114.3815,36.1413],[-114.4056,36.147],[-114.4153,36.1451],[-114.4231,36.1374],[-114.445,36.1253],[-114.4565,36.138],[-114.4626,36.1396],[-114.4838,36.1297],[-114.5047,36.1272],[-114.5092,36.1332],[-114.5002,36.1432],[-114.5112,36.1506],[-114.5311,36.1476],[-114.5392,36.1518],[-114.5711,36.1511],[-114.5965,36.1415],[-114.6155,36.1297],[-114.6305,36.1422],[-114.6358,36.1362],[-114.6555,36.1262],[-114.6643,36.1163],[-114.6719,36.116],[-114.6818,36.1092],[-114.6937,36.1125],[-114.7037,36.1083],[-114.7349,36.1044],[-114.7489,36.0952],[-114.7545,36.0862]]]},"properties":{"name":"LD30","district_number":30,"fips":"04030"}}],"source":"U.S. Census Bureau TIGERweb, 2026 State Legislative Districts (upper)"}