{"type":"FeatureCollection","features":[{"type":"Feature","id":"06001","properties":{"name":"Alameda","fips":"06001"},"geometry":{"type":"Polygon","coordinates":[[[-121.8558,37.4845],[-122.0453,37.4603],[-122.0526,37.4597],[-122.0815,37.4778],[-122.1096,37.4976],[-122.1161,37.5054],[-122.1113,37.5076],[-122.112,37.5289],[-122.1287,37.5606],[-122.1339,37.5629],[-122.1375,37.5675],[-122.1444,37.5819],[-122.147,37.5884],[-122.1454,37.6008],[-122.1464,37.6074],[-122.1529,37.6408],[-122.163,37.6679],[-122.1709,37.6761],[-122.1791,37.68],[-122.1974,37.6928],[-122.204,37.6978],[-122.2138,37.6987],[-122.2216,37.7056],[-122.2468,37.7219],[-122.256,37.7357],[-122.258,37.7396],[-122.2571,37.745],[-122.2522,37.7476],[-122.2449,37.7503],[-122.2426,37.7537],[-122.2538,37.7612],[-122.2641,37.7647],[-122.2754,37.7674],[-122.2861,37.7695],[-122.294,37.7704],[-122.3043,37.7746],[-122.3189,37.779],[-122.3292,37.7832],[-122.3308,37.7838],[-122.331,37.786],[-122.3317,37.7961],[-122.3355,37.7995],[-122.3357,37.7997],[-122.3337,37.8098],[-122.3236,37.8232],[-122.3177,37.8268],[-122.3062,37.8275],[-122.3039,37.8301],[-122.3013,37.8478],[-122.3105,37.8739],[-122.31,37.8928],[-122.3133,37.897],[-122.3135,37.8972],[-122.3109,37.8978],[-122.3062,37.8982],[-122.186,37.8207],[-122.0042,37.7701],[-122.0108,37.7551],[-122.0011,37.739],[-121.978,37.7296],[-121.9608,37.7186],[-121.9101,37.7305],[-121.8816,37.7373],[-121.6237,37.7993],[-121.5592,37.8189],[-121.5569,37.8172],[-121.5567,37.5427],[-121.4719,37.4818],[-121.4726,37.4822],[-121.8558,37.4845]]]}},{"type":"Feature","id":"06003","properties":{"name":"Alpine","fips":"06003"},"geometry":{"type":"Polygon","coordinates":[[[-120.0724,38.7028],[-119.8803,38.8648],[-119.9043,38.9333],[-119.5877,38.7147],[-119.5871,38.7143],[-119.5854,38.7132],[-119.6191,38.6035],[-119.5429,38.4997],[-119.6392,38.3269],[-119.7535,38.4168],[-119.8847,38.3562],[-120.02,38.4335],[-120.0725,38.5099],[-120.0724,38.7028]]]}},{"type":"Feature","id":"06005","properties":{"name":"Amador","fips":"06005"},"geometry":{"type":"Polygon","coordinates":[[[-120.9955,38.2254],[-121.0271,38.3003],[-121.0275,38.5083],[-120.8136,38.5622],[-120.6276,38.5031],[-120.5106,38.5115],[-120.3017,38.5491],[-120.0983,38.709],[-120.0724,38.7028],[-120.0725,38.5099],[-120.3807,38.461],[-120.4232,38.4733],[-120.8938,38.2213],[-120.9955,38.2254]]]}},{"type":"Feature","id":"06007","properties":{"name":"Butte","fips":"06007"},"geometry":{"type":"Polygon","coordinates":[[[-121.0767,39.5973],[-121.1499,39.5264],[-121.3051,39.5196],[-121.3334,39.4687],[-121.4075,39.3398],[-121.6238,39.2956],[-121.9083,39.3039],[-121.89,39.3839],[-121.8565,39.5369],[-121.994,39.5339],[-121.951,39.715],[-122.0465,39.7976],[-122.0449,39.8838],[-121.804,39.8843],[-121.7032,39.9842],[-121.646,39.9825],[-121.5864,40.1005],[-121.4369,40.1519],[-121.3668,40.0861],[-121.43,39.9148],[-121.3605,39.8407],[-121.0767,39.5973]]]}},{"type":"Feature","id":"06009","properties":{"name":"Calaveras","fips":"06009"},"geometry":{"type":"Polygon","coordinates":[[[-120.6527,37.8314],[-120.9264,38.0774],[-120.9389,38.0883],[-120.9955,38.2254],[-120.8938,38.2213],[-120.4232,38.4733],[-120.3807,38.461],[-120.0725,38.5099],[-120.02,38.4335],[-120.1762,38.374],[-120.5045,37.9911],[-120.5348,37.9912],[-120.515,37.9534],[-120.6527,37.8314]]]}},{"type":"Feature","id":"06011","properties":{"name":"Colusa","fips":"06011"},"geometry":{"type":"Polygon","coordinates":[[[-121.9083,39.3039],[-121.9455,39.181],[-121.848,39.0708],[-121.8355,38.9245],[-122.338,38.9239],[-122.3402,38.9242],[-122.4922,39.0541],[-122.4761,39.1726],[-122.6809,39.2387],[-122.775,39.3118],[-122.7851,39.383],[-122.7391,39.3833],[-122.136,39.3855],[-122.1362,39.4145],[-121.89,39.3839],[-121.9083,39.3039]]]}},{"type":"Feature","id":"06013","properties":{"name":"Contra Costa","fips":"06013"},"geometry":{"type":"Polygon","coordinates":[[[-121.9101,37.7305],[-121.9608,37.7186],[-121.978,37.7296],[-122.0011,37.739],[-122.0108,37.7551],[-122.0042,37.7701],[-122.186,37.8207],[-122.3062,37.8982],[-122.3109,37.8978],[-122.3135,37.8972],[-122.3237,37.9058],[-122.3345,37.9088],[-122.3571,37.9088],[-122.3623,37.9042],[-122.3676,37.9039],[-122.3787,37.9052],[-122.3859,37.9081],[-122.3892,37.9101],[-122.3905,37.9225],[-122.3951,37.9271],[-122.4013,37.9284],[-122.4137,37.9373],[-122.4174,37.9435],[-122.4301,37.9631],[-122.4298,37.9654],[-122.4154,37.9631],[-122.4118,37.9605],[-122.4084,37.9575],[-122.3998,37.956],[-122.3676,37.9782],[-122.3619,37.99],[-122.363,37.9944],[-122.3669,37.9985],[-122.3689,38.0079],[-122.3679,38.0125],[-122.3637,38.0142],[-122.3595,38.0099],[-122.3401,38.0037],[-122.3319,38.0053],[-122.3211,38.0129],[-122.3155,38.0135],[-122.3008,38.0109],[-122.2835,38.0227],[-122.2629,38.0446],[-122.2629,38.0515],[-122.2667,38.0601],[-122.124,38.0357],[-122.0504,38.0602],[-121.8695,38.0545],[-121.8652,38.0599],[-121.8625,38.066],[-121.7378,38.0266],[-121.6793,38.0893],[-121.58,38.0944],[-121.5799,37.9761],[-121.5748,37.973],[-121.5699,37.9575],[-121.5636,37.9461],[-121.5619,37.9376],[-121.5599,37.9209],[-121.5691,37.9015],[-121.5748,37.885],[-121.5755,37.8631],[-121.5694,37.8589],[-121.5618,37.8571],[-121.5495,37.857],[-121.538,37.8496],[-121.5366,37.8447],[-121.5389,37.8396],[-121.551,37.8312],[-121.5569,37.8172],[-121.5592,37.8189],[-121.6237,37.7993],[-121.8816,37.7373],[-121.9101,37.7305]]]}},{"type":"Feature","id":"06015","properties":{"name":"Del Norte","fips":"06015"},"geometry":{"type":"Polygon","coordinates":[[[-124.0655,41.4647],[-124.0661,41.4703],[-124.0759,41.5018],[-124.0814,41.5112],[-124.082,41.5478],[-124.0924,41.5536],[-124.1011,41.5692],[-124.1014,41.5785],[-124.0974,41.5853],[-124.101,41.6025],[-124.1144,41.6168],[-124.116,41.6288],[-124.1202,41.6404],[-124.1356,41.6573],[-124.1394,41.6717],[-124.1384,41.6789],[-124.1435,41.7093],[-124.1474,41.718],[-124.1542,41.7288],[-124.1647,41.7401],[-124.1774,41.7458],[-124.1854,41.7394],[-124.191,41.7361],[-124.195,41.7368],[-124.2038,41.747],[-124.2397,41.7708],[-124.2423,41.772],[-124.2487,41.7715],[-124.256,41.783],[-124.245,41.7923],[-124.2307,41.8187],[-124.2196,41.8464],[-124.2084,41.8882],[-124.2034,41.941],[-124.2049,41.9834],[-124.2116,41.9985],[-124.1009,41.997],[-124.1002,41.9968],[-124.0878,41.9969],[-124.0867,41.9969],[-123.8215,41.9955],[-123.6246,41.9998],[-123.5181,42.0004],[-123.5654,41.9031],[-123.6428,41.8894],[-123.7038,41.8291],[-123.6602,41.7141],[-123.7191,41.5953],[-123.6124,41.449],[-123.6614,41.3821],[-123.7702,41.3808],[-123.7706,41.4642],[-124.0655,41.4647]]]}},{"type":"Feature","id":"06017","properties":{"name":"El Dorado","fips":"06017"},"geometry":{"type":"Polygon","coordinates":[[[-121.141,38.712],[-121.0404,38.9157],[-120.7464,39.0104],[-120.6425,38.9444],[-120.5563,38.9152],[-120.471,38.9655],[-120.4352,39.0284],[-120.1841,39.031],[-120.1437,39.0673],[-120.0025,39.0675],[-120.001,38.9996],[-119.9043,38.9333],[-119.8803,38.8648],[-120.0724,38.7028],[-120.0983,38.709],[-120.3017,38.5491],[-120.5106,38.5115],[-120.6276,38.5031],[-120.8136,38.5622],[-121.0275,38.5083],[-121.1186,38.7171],[-121.1333,38.7054],[-121.141,38.712]]]}},{"type":"Feature","id":"06019","properties":{"name":"Fresno","fips":"06019"},"geometry":{"type":"Polygon","coordinates":[[[-119.5732,36.4888],[-119.6663,36.419],[-119.9051,36.4017],[-119.9592,36.401],[-119.9592,36.1814],[-120.3151,35.9072],[-120.6488,36.108],[-120.6269,36.2032],[-120.6786,36.2673],[-120.5966,36.3285],[-120.6037,36.4882],[-120.9187,36.7404],[-120.656,36.9528],[-120.5906,36.9526],[-120.5417,37.0445],[-120.4222,36.8401],[-120.2292,36.7697],[-120.1329,36.8098],[-120.0795,36.8253],[-120.0278,36.8145],[-120.0133,36.8282],[-119.9326,36.843],[-119.8234,36.8483],[-119.7339,36.9486],[-119.5377,37.104],[-119.5594,37.1436],[-119.4708,37.1105],[-119.4331,37.1615],[-119.3619,37.1678],[-119.3306,37.2058],[-119.3352,37.3108],[-119.2867,37.3749],[-119.0224,37.5857],[-118.775,37.4631],[-118.7867,37.3434],[-118.716,37.3282],[-118.6652,37.261],[-118.6546,37.1418],[-118.4371,37.0598],[-118.3606,36.7448],[-118.9824,36.7416],[-118.9848,36.6571],[-119.3046,36.6606],[-119.3051,36.5737],[-119.4663,36.5752],[-119.5732,36.4888]]]}},{"type":"Feature","id":"06021","properties":{"name":"Glenn","fips":"06021"},"geometry":{"type":"Polygon","coordinates":[[[-122.9377,39.7982],[-122.0465,39.7976],[-121.951,39.715],[-121.994,39.5339],[-121.8565,39.5369],[-121.89,39.3839],[-122.1362,39.4145],[-122.136,39.3855],[-122.7391,39.3833],[-122.7356,39.5807],[-122.8854,39.5801],[-122.8927,39.7089],[-122.9377,39.7982]]]}},{"type":"Feature","id":"06023","properties":{"name":"Humboldt","fips":"06023"},"geometry":{"type":"Polygon","coordinates":[[[-123.5445,40.0019],[-124.0239,40.0013],[-124.0359,40.0133],[-124.0564,40.0243],[-124.0651,40.0248],[-124.0689,40.0213],[-124.0725,40.0227],[-124.08,40.0298],[-124.0807,40.0661],[-124.0871,40.0784],[-124.1105,40.1038],[-124.14,40.1163],[-124.1708,40.1242],[-124.1879,40.1305],[-124.2149,40.1609],[-124.2311,40.1716],[-124.2584,40.1843],[-124.2965,40.2088],[-124.3209,40.2266],[-124.3277,40.2374],[-124.3431,40.244],[-124.3527,40.2505],[-124.3634,40.261],[-124.3636,40.2762],[-124.3479,40.3146],[-124.3531,40.3314],[-124.3566,40.335],[-124.3628,40.35],[-124.3654,40.3749],[-124.3736,40.3929],[-124.3791,40.3988],[-124.3915,40.407],[-124.4026,40.4221],[-124.4096,40.4381],[-124.4086,40.4432],[-124.3966,40.4621],[-124.3849,40.4898],[-124.3832,40.4999],[-124.387,40.505],[-124.3828,40.519],[-124.3791,40.5229],[-124.3635,40.5487],[-124.3294,40.6164],[-124.3151,40.6395],[-124.3126,40.6413],[-124.2891,40.6796],[-124.2484,40.7352],[-124.2282,40.7694],[-124.2019,40.8051],[-124.1767,40.8436],[-124.1583,40.8761],[-124.1371,40.9257],[-124.1181,40.9893],[-124.1122,41.0282],[-124.1254,41.0485],[-124.1329,41.0525],[-124.1382,41.0543],[-124.1429,41.054],[-124.1472,41.0529],[-124.1489,41.0515],[-124.1513,41.0511],[-124.1536,41.0536],[-124.154,41.0599],[-124.1545,41.0872],[-124.1606,41.099],[-124.1591,41.122],[-124.1654,41.1298],[-124.164,41.1387],[-124.1585,41.143],[-124.1497,41.1408],[-124.1438,41.1447],[-124.1227,41.1897],[-124.107,41.2297],[-124.1064,41.2407],[-124.0923,41.2877],[-124.079,41.3471],[-124.0723,41.3748],[-124.0631,41.4396],[-124.0655,41.4647],[-123.7706,41.4642],[-123.7702,41.3808],[-123.6614,41.3821],[-123.4741,41.3662],[-123.4083,41.1799],[-123.4815,40.915],[-123.5602,40.9503],[-123.6238,40.9294],[-123.5598,40.8296],[-123.5441,40.7394],[-123.5445,40.0019]]]}},{"type":"Feature","id":"06025","properties":{"name":"Imperial","fips":"06025"},"geometry":{"type":"Polygon","coordinates":[[[-116.1031,32.9041],[-116.0811,33.0748],[-116.0852,33.4259],[-115.4675,33.427],[-114.6271,33.4336],[-114.6653,33.4154],[-114.7212,33.3969],[-114.7001,33.341],[-114.6721,33.2585],[-114.6754,33.1855],[-114.6794,33.1595],[-114.6871,33.1422],[-114.6968,33.1312],[-114.7062,33.1053],[-114.7078,33.0911],[-114.6751,33.0475],[-114.6239,33.0287],[-114.6063,33.0257],[-114.5898,33.0262],[-114.5848,33.0282],[-114.5783,33.0354],[-114.5717,33.0366],[-114.5236,33.031],[-114.5169,33.0269],[-114.5113,33.0235],[-114.4686,32.9716],[-114.4629,32.9058],[-114.4657,32.8794],[-114.4657,32.8792],[-114.4963,32.8223],[-114.4968,32.8221],[-114.6157,32.7294],[-114.6156,32.7284],[-114.6583,32.7338],[-114.6588,32.7338],[-114.6771,32.7362],[-114.6786,32.7366],[-114.7196,32.7188],[-115.4652,32.6671],[-115.8758,32.6364],[-116.1062,32.6183],[-116.1031,32.9041]]]}},{"type":"Feature","id":"06027","properties":{"name":"Inyo","fips":"06027"},"geometry":{"type":"Polygon","coordinates":[[[-117.8327,37.4649],[-117.5009,37.2203],[-117.1662,36.9709],[-117.0009,36.8477],[-116.4882,36.4591],[-116.0972,36.1583],[-116.0936,36.1558],[-115.9129,36.0154],[-115.893,36.0],[-115.8461,35.9636],[-115.6893,35.842],[-115.648,35.8096],[-115.6489,35.8091],[-115.7357,35.8091],[-115.7359,35.7936],[-117.633,35.7973],[-118.008,35.7892],[-117.9983,35.8688],[-117.9808,35.8675],[-118.0036,35.9837],[-118.0336,36.0089],[-118.1271,36.2797],[-118.1003,36.3461],[-118.2148,36.435],[-118.2746,36.5973],[-118.3663,36.6916],[-118.3606,36.7448],[-118.4371,37.0598],[-118.6546,37.1418],[-118.6652,37.261],[-118.716,37.3282],[-118.7867,37.3434],[-118.775,37.4631],[-117.8327,37.4649]]]}},{"type":"Feature","id":"06029","properties":{"name":"Kern","fips":"06029"},"geometry":{"type":"Polygon","coordinates":[[[-117.6673,34.8225],[-118.1401,34.8208],[-118.8543,34.8178],[-118.8814,34.7906],[-118.9767,34.8122],[-119.2436,34.8142],[-119.2769,34.8797],[-119.4424,34.9013],[-119.4728,34.9012],[-119.4727,35.0769],[-119.561,35.0877],[-119.5536,35.18],[-119.6671,35.1748],[-119.6667,35.2625],[-119.8094,35.2636],[-119.8093,35.3509],[-119.8802,35.3512],[-119.88,35.4391],[-119.9974,35.4395],[-119.9974,35.4687],[-120.0867,35.5266],[-120.0859,35.6145],[-120.1939,35.6144],[-120.1939,35.7265],[-120.1939,35.7494],[-120.1941,35.75],[-120.1941,35.7892],[-119.5381,35.7896],[-119.5346,35.7898],[-119.214,35.7905],[-118.2705,35.79],[-118.008,35.7892],[-117.633,35.7973],[-117.652,35.7099],[-117.6162,35.6809],[-117.6301,35.5641],[-117.632,34.8223],[-117.6673,34.8225]]]}},{"type":"Feature","id":"06031","properties":{"name":"Kings","fips":"06031"},"geometry":{"type":"Polygon","coordinates":[[[-119.9051,36.4017],[-119.6663,36.419],[-119.5732,36.4888],[-119.5288,36.4015],[-119.4749,36.401],[-119.4746,36.269],[-119.5294,36.2698],[-119.5381,35.7896],[-120.1941,35.7892],[-120.214,35.7893],[-120.2433,35.8777],[-120.3151,35.9072],[-119.9592,36.1814],[-119.9592,36.401],[-119.9051,36.4017]]]}},{"type":"Feature","id":"06033","properties":{"name":"Lake","fips":"06033"},"geometry":{"type":"Polygon","coordinates":[[[-122.6274,38.6675],[-122.8216,38.8501],[-122.9489,38.9002],[-122.9866,38.9973],[-123.028,38.9966],[-123.093,39.072],[-123.0778,39.1738],[-122.9948,39.2359],[-123.0751,39.4077],[-123.0632,39.5035],[-122.8903,39.529],[-122.8854,39.5801],[-122.7356,39.5807],[-122.7391,39.3833],[-122.7851,39.383],[-122.775,39.3118],[-122.6809,39.2387],[-122.4761,39.1726],[-122.4922,39.0541],[-122.3402,38.9242],[-122.3951,38.8642],[-122.4639,38.7052],[-122.6274,38.6675]]]}},{"type":"Feature","id":"06035","properties":{"name":"Lassen","fips":"06035"},"geometry":{"type":"Polygon","coordinates":[[[-120.0013,39.7224],[-120.0013,39.7224],[-120.1471,39.7077],[-120.1106,39.7658],[-120.1088,39.9395],[-120.2013,40.0135],[-120.2096,40.086],[-120.3414,40.1152],[-120.4459,40.1769],[-120.5108,40.2489],[-120.6522,40.3077],[-120.7644,40.316],[-120.9286,40.1919],[-121.0615,40.2564],[-121.0614,40.4465],[-121.3278,40.4454],[-121.32,40.9059],[-121.3318,41.1839],[-119.9999,41.184],[-119.9994,40.8731],[-119.9992,40.8675],[-119.9992,40.8659],[-119.9959,40.4999],[-119.9962,40.3218],[-119.9962,40.3212],[-119.9962,40.2635],[-119.9962,40.2625],[-119.9971,40.1264],[-119.9972,40.0916],[-119.9972,40.0772],[-119.9973,40.0718],[-120.0006,39.7808],[-120.0005,39.78],[-120.0013,39.7224]]]}},{"type":"Feature","id":"06037","properties":{"name":"Los Angeles","fips":"06037"},"geometry":{"type":"MultiPolygon","coordinates":[[[[-118.5245,32.8955],[-118.5358,32.9063],[-118.5511,32.9452],[-118.5609,32.9579],[-118.5735,32.9692],[-118.5869,33.0083],[-118.596,33.0154],[-118.6066,33.0147],[-118.6055,33.031],[-118.594,33.036],[-118.5752,33.034],[-118.569,33.0292],[-118.5644,33.0249],[-118.5645,33.0186],[-118.5592,33.0063],[-118.5401,32.9809],[-118.5292,32.9709],[-118.4968,32.9338],[-118.4853,32.9235],[-118.479,32.9204],[-118.4606,32.9095],[-118.4468,32.8954],[-118.37,32.8393],[-118.3535,32.822],[-118.3565,32.8173],[-118.3605,32.8199],[-118.38,32.8245],[-118.3874,32.8253],[-118.3946,32.824],[-118.4013,32.8203],[-118.4256,32.8006],[-118.4294,32.8054],[-118.4284,32.8069],[-118.4449,32.8206],[-118.4761,32.8418],[-118.4879,32.8446],[-118.4963,32.8516],[-118.5069,32.8685],[-118.5081,32.8713],[-118.5072,32.8763],[-118.5246,32.8932],[-118.5245,32.8955]]],[[[-118.5002,33.4496],[-118.4997,33.4479],[-118.4856,33.4462],[-118.4776,33.4484],[-118.4458,33.4289],[-118.4236,33.4273],[-118.382,33.4099],[-118.3703,33.4093],[-118.3683,33.4071],[-118.3651,33.3884],[-118.3245,33.3488],[-118.3161,33.3429],[-118.3102,33.3358],[-118.3032,33.3203],[-118.3051,33.3103],[-118.3168,33.3011],[-118.3252,33.2991],[-118.3432,33.3052],[-118.3603,33.3153],[-118.3748,33.3201],[-118.4029,33.3209],[-118.44,33.3186],[-118.4563,33.3218],[-118.4654,33.3261],[-118.4819,33.3441],[-118.4888,33.3566],[-118.4826,33.3699],[-118.4785,33.3863],[-118.4849,33.4121],[-118.4887,33.4198],[-118.504,33.4242],[-118.5159,33.4224],[-118.5163,33.4251],[-118.5232,33.4307],[-118.5374,33.4346],[-118.5587,33.4334],[-118.5634,33.4344],[-118.5709,33.4394],[-118.5759,33.4483],[-118.594,33.4672],[-118.6012,33.4699],[-118.604,33.4765],[-118.6034,33.4781],[-118.5988,33.4779],[-118.5859,33.4738],[-118.5445,33.4741],[-118.5307,33.4681],[-118.5002,33.4496]]],[[[-118.7967,34.6166],[-118.8814,34.7906],[-118.8543,34.8178],[-118.1401,34.8208],[-117.6673,34.8225],[-117.6588,34.4406],[-117.6505,34.339],[-117.7111,34.0795],[-117.7195,34.0597],[-117.726,34.0411],[-117.7358,34.0186],[-117.7678,34.0194],[-117.7833,33.9464],[-117.9765,33.928],[-117.9765,33.9192],[-117.9766,33.9112],[-117.9767,33.9106],[-117.9766,33.9098],[-117.9766,33.9062],[-118.0633,33.8242],[-118.0632,33.8196],[-118.0726,33.8151],[-118.0846,33.8032],[-118.093,33.7863],[-118.0991,33.7765],[-118.092,33.7585],[-118.1167,33.7435],[-118.1327,33.7532],[-118.1569,33.7603],[-118.1755,33.7636],[-118.1808,33.7631],[-118.1877,33.7492],[-118.1837,33.7361],[-118.1814,33.7174],[-118.2075,33.7169],[-118.2587,33.7037],[-118.2772,33.7071],[-118.2971,33.7083],[-118.3172,33.7128],[-118.3547,33.7323],[-118.3605,33.7368],[-118.385,33.7414],[-118.3966,33.7359],[-118.4112,33.742],[-118.4284,33.7747],[-118.4234,33.782],[-118.405,33.8002],[-118.3944,33.8043],[-118.3943,33.8043],[-118.3915,33.8154],[-118.3921,33.8409],[-118.4127,33.8839],[-118.4424,33.9403],[-118.4606,33.9691],[-118.4827,33.9959],[-118.4842,33.9977],[-118.5028,34.0155],[-118.5195,34.0275],[-118.5431,34.0385],[-118.5692,34.0416],[-118.6036,34.039],[-118.6097,34.0364],[-118.6684,34.0389],[-118.6754,34.0375],[-118.6794,34.0333],[-118.7062,34.0294],[-118.7324,34.0327],[-118.745,34.0321],[-118.7834,34.0215],[-118.7871,34.0195],[-118.8051,34.0012],[-118.8216,34.014],[-118.8404,34.0275],[-118.8547,34.0342],[-118.8962,34.0392],[-118.928,34.0458],[-118.9381,34.0434],[-118.9449,34.0453],[-118.941,34.0748],[-118.7889,34.1682],[-118.6682,34.1682],[-118.6335,34.2696],[-118.6368,34.2918],[-118.6509,34.3205],[-118.7967,34.6166]]]]}},{"type":"Feature","id":"06039","properties":{"name":"Madera","fips":"06039"},"geometry":{"type":"Polygon","coordinates":[[[-119.7339,36.9486],[-119.8234,36.8483],[-119.9326,36.843],[-120.0133,36.8282],[-120.0278,36.8145],[-120.0795,36.8253],[-120.1329,36.8098],[-120.2292,36.7697],[-120.4222,36.8401],[-120.5417,37.0445],[-120.4008,37.1178],[-120.0521,37.1831],[-119.7618,37.4171],[-119.6512,37.4178],[-119.6512,37.4614],[-119.5842,37.4947],[-119.5836,37.5603],[-119.309,37.778],[-119.2934,37.7679],[-119.2884,37.745],[-119.269,37.7392],[-119.1243,37.7339],[-119.0224,37.5857],[-119.2867,37.3749],[-119.3352,37.3108],[-119.3306,37.2058],[-119.3619,37.1678],[-119.4331,37.1615],[-119.4708,37.1105],[-119.5594,37.1436],[-119.5377,37.104],[-119.7339,36.9486]]]}},{"type":"Feature","id":"06041","properties":{"name":"Marin","fips":"06041"},"geometry":{"type":"Polygon","coordinates":[[[-122.4907,38.1098],[-122.4913,38.1081],[-122.49,38.097],[-122.4867,38.0901],[-122.4838,38.0718],[-122.4923,38.0564],[-122.4995,38.0322],[-122.4978,38.0194],[-122.4946,38.0151],[-122.4815,38.0076],[-122.4628,38.0034],[-122.453,37.9962],[-122.4484,37.9883],[-122.4484,37.9847],[-122.4566,37.9788],[-122.4625,37.9814],[-122.472,37.9818],[-122.4887,37.9667],[-122.4903,37.9648],[-122.4903,37.9592],[-122.4877,37.9487],[-122.4805,37.9454],[-122.4792,37.9415],[-122.4857,37.9376],[-122.4995,37.9392],[-122.5031,37.9366],[-122.5031,37.9288],[-122.4936,37.9219],[-122.4864,37.9219],[-122.4782,37.9186],[-122.472,37.9104],[-122.4723,37.9026],[-122.4586,37.8941],[-122.4484,37.8934],[-122.4393,37.8839],[-122.4383,37.881],[-122.4501,37.8712],[-122.4622,37.8689],[-122.4743,37.8744],[-122.4808,37.8734],[-122.4834,37.8689],[-122.4831,37.864],[-122.4765,37.8328],[-122.4765,37.8325],[-122.4792,37.8254],[-122.4799,37.8256],[-122.4835,37.8267],[-122.4925,37.8248],[-122.5054,37.8221],[-122.5228,37.8247],[-122.5236,37.8248],[-122.5373,37.8303],[-122.549,37.8362],[-122.5615,37.8518],[-122.5843,37.8592],[-122.6013,37.8751],[-122.6271,37.8861],[-122.64,37.8973],[-122.6565,37.9045],[-122.6785,37.9066],[-122.6822,37.9064],[-122.6936,37.9012],[-122.7026,37.8938],[-122.7273,37.9046],[-122.7329,37.9202],[-122.7369,37.9258],[-122.7546,37.9355],[-122.7661,37.938],[-122.7832,37.9513],[-122.7917,37.9694],[-122.7974,37.9767],[-122.8214,37.9967],[-122.8566,38.0167],[-122.8821,38.0253],[-122.9397,38.0319],[-122.9568,38.0287],[-122.9724,38.0202],[-122.9818,38.0091],[-122.9824,38.0043],[-122.9801,38.0008],[-122.9768,37.9957],[-122.9744,37.9924],[-123.0241,37.9949],[-123.0206,37.9995],[-123.0163,38.0017],[-123.0115,38.0034],[-122.9924,38.0418],[-122.9609,38.113],[-122.9521,38.1386],[-122.9491,38.1541],[-122.9496,38.164],[-122.9536,38.1757],[-122.9654,38.1871],[-122.9664,38.1985],[-122.9681,38.2024],[-122.992,38.2332],[-122.994,38.2376],[-122.9932,38.2397],[-122.9871,38.2375],[-122.9686,38.2429],[-122.9672,38.2507],[-122.9771,38.2679],[-122.9863,38.2732],[-122.9946,38.2831],[-122.9971,38.2895],[-123.0029,38.2957],[-122.9017,38.3169],[-122.7399,38.207],[-122.649,38.1811],[-122.5651,38.1822],[-122.4907,38.1098]]]}},{"type":"Feature","id":"06043","properties":{"name":"Mariposa","fips":"06043"},"geometry":{"type":"Polygon","coordinates":[[[-120.3877,37.6334],[-120.3873,37.6335],[-120.3876,37.6337],[-120.3919,37.6836],[-120.3259,37.649],[-120.3454,37.7248],[-120.1272,37.7816],[-120.0795,37.8288],[-119.907,37.7579],[-119.8094,37.755],[-119.6672,37.8012],[-119.6462,37.8468],[-119.5357,37.9041],[-119.309,37.778],[-119.5836,37.5603],[-119.5842,37.4947],[-119.6512,37.4614],[-119.6512,37.4178],[-119.7618,37.4171],[-120.0521,37.1831],[-120.1438,37.2392],[-120.266,37.4006],[-120.3877,37.6334]]]}},{"type":"Feature","id":"06045","properties":{"name":"Mendocino","fips":"06045"},"geometry":{"type":"Polygon","coordinates":[[[-122.8216,38.8501],[-123.081,38.8524],[-123.1363,38.8091],[-123.2687,38.8084],[-123.5335,38.7684],[-123.5418,38.7768],[-123.572,38.7982],[-123.5799,38.8028],[-123.5864,38.8029],[-123.6002,38.8141],[-123.6016,38.819],[-123.6053,38.8228],[-123.6386,38.8439],[-123.6427,38.844],[-123.6474,38.8455],[-123.6522,38.8546],[-123.6547,38.8656],[-123.6598,38.8725],[-123.6881,38.8936],[-123.7105,38.9132],[-123.7254,38.9174],[-123.7276,38.9295],[-123.7263,38.9364],[-123.7389,38.9541],[-123.7329,38.955],[-123.7291,38.9567],[-123.7213,38.9639],[-123.7111,38.9773],[-123.6969,39.0044],[-123.6907,39.0213],[-123.6901,39.0312],[-123.694,39.0574],[-123.7134,39.1084],[-123.7215,39.1253],[-123.7359,39.1396],[-123.7379,39.1434],[-123.7422,39.1649],[-123.761,39.1916],[-123.7659,39.1937],[-123.775,39.2121],[-123.7774,39.2372],[-123.7879,39.2643],[-123.799,39.2714],[-123.8038,39.2788],[-123.8018,39.2835],[-123.8031,39.2917],[-123.8114,39.3128],[-123.8088,39.3244],[-123.8174,39.3388],[-123.8221,39.3439],[-123.8253,39.3608],[-123.8263,39.3687],[-123.8223,39.38],[-123.8219,39.4068],[-123.8147,39.4465],[-123.7956,39.4922],[-123.7842,39.5094],[-123.7785,39.5215],[-123.7665,39.5528],[-123.7672,39.5599],[-123.7874,39.6046],[-123.7835,39.6095],[-123.7823,39.6215],[-123.7864,39.6599],[-123.7927,39.6841],[-123.8082,39.7107],[-123.8247,39.7181],[-123.8295,39.7231],[-123.8316,39.7306],[-123.8351,39.7388],[-123.8381,39.7524],[-123.8371,39.7762],[-123.8398,39.7956],[-123.8517,39.832],[-123.8538,39.8341],[-123.8815,39.8454],[-123.9077,39.863],[-123.9151,39.8753],[-123.9159,39.8811],[-123.93,39.9097],[-123.955,39.9224],[-123.9627,39.9376],[-123.98,39.9625],[-123.9959,39.973],[-124.0239,40.0013],[-123.5445,40.0019],[-123.5446,39.977],[-122.934,39.9781],[-122.9377,39.7982],[-122.8927,39.7089],[-122.8854,39.5801],[-122.8903,39.529],[-123.0632,39.5035],[-123.0751,39.4077],[-122.9948,39.2359],[-123.0778,39.1738],[-123.093,39.072],[-123.028,38.9966],[-122.9866,38.9973],[-122.9489,38.9002],[-122.8216,38.8501]]]}},{"type":"Feature","id":"06047","properties":{"name":"Merced","fips":"06047"},"geometry":{"type":"Polygon","coordinates":[[[-120.9314,37.4218],[-120.3877,37.6334],[-120.266,37.4006],[-120.1438,37.2392],[-120.0521,37.1831],[-120.4008,37.1178],[-120.5417,37.0445],[-120.5906,36.9526],[-120.656,36.9528],[-120.9187,36.7404],[-121.1415,36.8367],[-121.2154,36.9612],[-121.2268,37.1348],[-120.9642,37.3458],[-120.9314,37.4218]]]}},{"type":"Feature","id":"06049","properties":{"name":"Modoc","fips":"06049"},"geometry":{"type":"Polygon","coordinates":[[[-121.4475,41.9972],[-121.4396,41.9971],[-121.435,41.997],[-121.3761,41.997],[-121.3603,41.9967],[-121.3405,41.9962],[-121.3357,41.9965],[-121.3344,41.9967],[-121.1543,41.9964],[-121.0352,41.9933],[-120.8795,41.9938],[-120.6939,41.9937],[-120.6922,41.9937],[-120.326,41.9931],[-120.2864,41.9931],[-119.9992,41.9945],[-119.9999,41.184],[-121.3318,41.1839],[-121.4465,41.1835],[-121.4475,41.9972]]]}},{"type":"Feature","id":"06051","properties":{"name":"Mono","fips":"06051"},"geometry":{"type":"Polygon","coordinates":[[[-119.1569,38.4147],[-119.126,38.3932],[-118.7466,38.1249],[-118.4286,37.8956],[-118.0398,37.6153],[-118.0398,37.6152],[-117.8327,37.4649],[-118.775,37.4631],[-119.0224,37.5857],[-119.1243,37.7339],[-119.269,37.7392],[-119.2013,37.8043],[-119.2003,37.8858],[-119.3084,37.9468],[-119.3046,38.0239],[-119.3459,38.0831],[-119.6327,38.1989],[-119.6392,38.3269],[-119.5429,38.4997],[-119.6191,38.6035],[-119.5854,38.7132],[-119.4942,38.6499],[-119.494,38.6497],[-119.4506,38.62],[-119.4506,38.62],[-119.3285,38.5346],[-119.1569,38.4147]]]}},{"type":"Feature","id":"06053","properties":{"name":"Monterey","fips":"06053"},"geometry":{"type":"Polygon","coordinates":[[[-120.214,35.7893],[-121.1757,35.7941],[-121.3464,35.7952],[-121.3567,35.8042],[-121.3881,35.8235],[-121.4068,35.8446],[-121.4131,35.8553],[-121.427,35.8601],[-121.4396,35.867],[-121.4623,35.8856],[-121.4612,35.8969],[-121.4635,35.9044],[-121.4724,35.9199],[-121.4862,35.9703],[-121.5031,36.0003],[-121.5116,36.0066],[-121.5319,36.0144],[-121.5537,36.0198],[-121.5696,36.0215],[-121.5746,36.0252],[-121.5904,36.0504],[-121.5892,36.0538],[-121.5929,36.0651],[-121.6068,36.0721],[-121.6187,36.0878],[-121.622,36.0997],[-121.6296,36.1145],[-121.6801,36.1658],[-121.7172,36.1951],[-121.7799,36.2274],[-121.7971,36.2342],[-121.807,36.2329],[-121.8137,36.2342],[-121.8264,36.2419],[-121.8358,36.2507],[-121.8393,36.2605],[-121.852,36.2778],[-121.8748,36.2891],[-121.8885,36.3028],[-121.8947,36.3178],[-121.8929,36.3404],[-121.9054,36.3583],[-121.9027,36.3639],[-121.9018,36.3819],[-121.9032,36.3936],[-121.9057,36.3982],[-121.9144,36.4043],[-121.9175,36.4148],[-121.9147,36.4259],[-121.9255,36.4539],[-121.9372,36.4725],[-121.9416,36.4856],[-121.9392,36.4969],[-121.9388,36.5064],[-121.9437,36.5118],[-121.9447,36.5219],[-121.9288,36.5231],[-121.9259,36.5252],[-121.9325,36.5599],[-121.9425,36.5664],[-121.9497,36.5676],[-121.9515,36.564],[-121.9573,36.5645],[-121.9726,36.5734],[-121.9786,36.5805],[-121.9704,36.5828],[-121.9417,36.6181],[-121.9386,36.6339],[-121.9364,36.6367],[-121.9297,36.637],[-121.9239,36.6346],[-121.8902,36.6093],[-121.8891,36.6018],[-121.8868,36.6015],[-121.8714,36.6046],[-121.8606,36.6111],[-121.8423,36.6301],[-121.832,36.6449],[-121.8251,36.6572],[-121.8145,36.6829],[-121.8071,36.7142],[-121.8056,36.7502],[-121.7883,36.804],[-121.7915,36.8152],[-121.8094,36.8487],[-121.8106,36.8506],[-121.7453,36.9093],[-121.644,36.894],[-121.5977,36.8374],[-121.4513,36.7248],[-121.4681,36.6855],[-121.3501,36.6484],[-121.3184,36.61],[-121.3118,36.5027],[-121.2441,36.5069],[-121.1935,36.4458],[-121.0408,36.324],[-121.0272,36.2599],[-120.9206,36.311],[-120.8651,36.2926],[-120.7615,36.2036],[-120.7182,36.1968],[-120.7583,36.3086],[-120.6786,36.2673],[-120.6269,36.2032],[-120.6488,36.108],[-120.3151,35.9072],[-120.2433,35.8777],[-120.214,35.7893]]]}},{"type":"Feature","id":"06055","properties":{"name":"Napa","fips":"06055"},"geometry":{"type":"Polygon","coordinates":[[[-122.1033,38.5133],[-122.0888,38.3842],[-122.0648,38.3159],[-122.206,38.3157],[-122.1954,38.155],[-122.4068,38.1556],[-122.379,38.2507],[-122.5439,38.52],[-122.6463,38.5991],[-122.6274,38.6675],[-122.4639,38.7052],[-122.3951,38.8642],[-122.288,38.8399],[-122.1649,38.6425],[-122.1683,38.6193],[-122.1518,38.6253],[-122.1281,38.5837],[-122.1116,38.5241],[-122.1033,38.5133]]]}},{"type":"Feature","id":"06057","properties":{"name":"Nevada","fips":"06057"},"geometry":{"type":"Polygon","coordinates":[[[-121.2795,39.0346],[-121.2669,39.2716],[-121.1275,39.3802],[-121.0221,39.3916],[-120.7557,39.4527],[-120.6543,39.5269],[-120.5751,39.5223],[-120.5054,39.4461],[-120.0031,39.445],[-120.0053,39.3165],[-120.6458,39.3152],[-120.6916,39.304],[-120.8579,39.2062],[-120.9863,39.1022],[-121.0688,39.0052],[-121.1374,39.0379],[-121.2795,39.0346]]]}},{"type":"Feature","id":"06059","properties":{"name":"Orange","fips":"06059"},"geometry":{"type":"Polygon","coordinates":[[[-118.093,33.7863],[-118.0846,33.8032],[-118.0726,33.8151],[-118.0632,33.8196],[-118.0633,33.8242],[-117.9766,33.9062],[-117.9766,33.9098],[-117.9767,33.9106],[-117.9766,33.9112],[-117.9765,33.9192],[-117.9765,33.928],[-117.7833,33.9464],[-117.6803,33.8774],[-117.6737,33.8708],[-117.534,33.7104],[-117.4746,33.7038],[-117.4598,33.6917],[-117.413,33.659],[-117.5097,33.505],[-117.5959,33.3866],[-117.6079,33.4063],[-117.6317,33.4305],[-117.6456,33.4407],[-117.6456,33.4407],[-117.6846,33.4619],[-117.6893,33.4602],[-117.692,33.4566],[-117.6914,33.454],[-117.7153,33.4606],[-117.7265,33.4834],[-117.7614,33.5163],[-117.7849,33.5415],[-117.8013,33.5463],[-117.8142,33.5522],[-117.8403,33.5735],[-117.8768,33.5923],[-117.8998,33.5996],[-117.9271,33.6055],[-117.9406,33.62],[-117.9571,33.6295],[-118.0006,33.6543],[-118.0297,33.6764],[-118.0649,33.711],[-118.0889,33.7298],[-118.1011,33.7341],[-118.1167,33.7435],[-118.092,33.7585],[-118.0991,33.7765],[-118.093,33.7863]]]}},{"type":"Feature","id":"06061","properties":{"name":"Placer","fips":"06061"},"geometry":{"type":"Polygon","coordinates":[[[-120.0053,39.3165],[-120.0053,39.3163],[-120.0054,39.3138],[-120.0054,39.3133],[-120.0057,39.2287],[-120.0057,39.2252],[-120.0045,39.1656],[-120.0034,39.1127],[-120.0025,39.0675],[-120.1437,39.0673],[-120.1841,39.031],[-120.4352,39.0284],[-120.471,38.9655],[-120.5563,38.9152],[-120.6425,38.9444],[-120.7464,39.0104],[-121.0404,38.9157],[-121.141,38.712],[-121.1519,38.7115],[-121.1886,38.7143],[-121.2428,38.7182],[-121.4844,38.7346],[-121.4694,38.926],[-121.4149,38.9964],[-121.2795,39.0346],[-121.1374,39.0379],[-121.0688,39.0052],[-120.9863,39.1022],[-120.8579,39.2062],[-120.6916,39.304],[-120.6458,39.3152],[-120.0053,39.3165]]]}},{"type":"Feature","id":"06063","properties":{"name":"Plumas","fips":"06063"},"geometry":{"type":"Polygon","coordinates":[[[-121.0767,39.5973],[-121.3605,39.8407],[-121.43,39.9148],[-121.3668,40.0861],[-121.4369,40.1519],[-121.3684,40.2122],[-121.3456,40.3127],[-121.4704,40.3502],[-121.4976,40.4456],[-121.3278,40.4454],[-121.0614,40.4465],[-121.0615,40.2564],[-120.9286,40.1919],[-120.7644,40.316],[-120.6522,40.3077],[-120.5108,40.2489],[-120.4459,40.1769],[-120.3414,40.1152],[-120.2096,40.086],[-120.2013,40.0135],[-120.1088,39.9395],[-120.1106,39.7658],[-120.1471,39.7077],[-120.7925,39.7098],[-120.8736,39.7759],[-121.0095,39.6395],[-121.0509,39.6138],[-121.0527,39.6123],[-121.0767,39.5973]]]}},{"type":"Feature","id":"06065","properties":{"name":"Riverside","fips":"06065"},"geometry":{"type":"Polygon","coordinates":[[[-117.2845,34.019],[-117.2254,34.0043],[-116.9294,34.0049],[-116.9296,34.0341],[-116.4578,34.0329],[-115.3162,34.0341],[-115.3161,34.0778],[-114.4354,34.0797],[-114.4349,34.0378],[-114.4383,34.0226],[-114.4636,33.9934],[-114.4999,33.9618],[-114.5184,33.9175],[-114.5255,33.8386],[-114.5234,33.8061],[-114.5043,33.7564],[-114.4942,33.7079],[-114.4965,33.6969],[-114.5191,33.6885],[-114.524,33.6859],[-114.5303,33.6792],[-114.5406,33.5914],[-114.5403,33.5806],[-114.536,33.5692],[-114.5357,33.5688],[-114.5589,33.5318],[-114.5945,33.4951],[-114.6229,33.4566],[-114.6271,33.4336],[-115.4675,33.427],[-116.0852,33.4259],[-116.1976,33.4289],[-116.6177,33.4274],[-117.0797,33.4303],[-117.2413,33.432],[-117.3709,33.4905],[-117.5097,33.505],[-117.413,33.659],[-117.4598,33.6917],[-117.4746,33.7038],[-117.534,33.7104],[-117.6737,33.8708],[-117.6001,33.9753],[-117.5583,34.0335],[-117.3362,34.0194],[-117.2845,34.019]]]}},{"type":"Feature","id":"06067","properties":{"name":"Sacramento","fips":"06067"},"geometry":{"type":"Polygon","coordinates":[[[-121.2428,38.7182],[-121.1886,38.7143],[-121.1519,38.7115],[-121.141,38.712],[-121.1333,38.7054],[-121.1186,38.7171],[-121.0275,38.5083],[-121.0271,38.3003],[-121.344,38.2283],[-121.4843,38.2415],[-121.58,38.0944],[-121.6793,38.0893],[-121.7378,38.0266],[-121.8625,38.066],[-121.7139,38.0845],[-121.6882,38.1454],[-121.6028,38.2302],[-121.6032,38.2373],[-121.6021,38.2417],[-121.602,38.2524],[-121.6002,38.2578],[-121.604,38.2701],[-121.6007,38.2784],[-121.6053,38.2954],[-121.5933,38.3131],[-121.5216,38.3601],[-121.5041,38.4666],[-121.5388,38.4747],[-121.5592,38.498],[-121.5113,38.5463],[-121.521,38.5662],[-121.5063,38.5863],[-121.5277,38.6046],[-121.5499,38.5994],[-121.5761,38.6486],[-121.5941,38.6441],[-121.6258,38.6731],[-121.6304,38.6976],[-121.6058,38.7183],[-121.6029,38.7358],[-121.5218,38.7364],[-121.4844,38.7346],[-121.2428,38.7182]]]}},{"type":"Feature","id":"06069","properties":{"name":"San Benito","fips":"06069"},"geometry":{"type":"Polygon","coordinates":[[[-121.5814,36.8992],[-121.5015,36.9719],[-121.2154,36.9612],[-121.1415,36.8367],[-120.9187,36.7404],[-120.6037,36.4882],[-120.5966,36.3285],[-120.6786,36.2673],[-120.7583,36.3086],[-120.7182,36.1968],[-120.7615,36.2036],[-120.8651,36.2926],[-120.9206,36.311],[-121.0272,36.2599],[-121.0408,36.324],[-121.1935,36.4458],[-121.2441,36.5069],[-121.3118,36.5027],[-121.3184,36.61],[-121.3501,36.6484],[-121.4681,36.6855],[-121.4513,36.7248],[-121.5977,36.8374],[-121.644,36.894],[-121.6295,36.9117],[-121.6074,36.8995],[-121.5814,36.8992]]]}},{"type":"Feature","id":"06071","properties":{"name":"San Bernardino","fips":"06071"},"geometry":{"type":"Polygon","coordinates":[[[-115.648,35.8096],[-115.6477,35.8094],[-115.6472,35.809],[-115.4061,35.6186],[-115.4045,35.6176],[-115.394,35.6093],[-115.3915,35.6073],[-115.3889,35.6052],[-115.3037,35.5382],[-115.2713,35.5127],[-115.2253,35.4759],[-115.1606,35.4243],[-115.1601,35.4241],[-115.1468,35.4137],[-115.1458,35.4132],[-114.9255,35.2371],[-114.9254,35.237],[-114.805,35.1403],[-114.8042,35.1397],[-114.633,35.0021],[-114.6292,34.9919],[-114.629,34.9861],[-114.6309,34.9073],[-114.6367,34.8891],[-114.6352,34.875],[-114.6331,34.87],[-114.5527,34.7669],[-114.4656,34.6923],[-114.4525,34.6535],[-114.3396,34.4514],[-114.2643,34.4013],[-114.1995,34.3614],[-114.1769,34.3493],[-114.1383,34.3032],[-114.1315,34.2604],[-114.1333,34.2585],[-114.1645,34.2517],[-114.2259,34.2018],[-114.2442,34.1796],[-114.3126,34.1445],[-114.3216,34.1381],[-114.3665,34.1186],[-114.3906,34.1101],[-114.4014,34.1117],[-114.4117,34.11],[-114.4205,34.1035],[-114.4334,34.0884],[-114.4354,34.0797],[-115.3161,34.0778],[-115.3162,34.0341],[-116.4578,34.0329],[-116.9296,34.0341],[-116.9294,34.0049],[-117.2254,34.0043],[-117.2845,34.019],[-117.3362,34.0194],[-117.5583,34.0335],[-117.6001,33.9753],[-117.6737,33.8708],[-117.6803,33.8774],[-117.7833,33.9464],[-117.7678,34.0194],[-117.7358,34.0186],[-117.726,34.0411],[-117.7195,34.0597],[-117.7111,34.0795],[-117.6505,34.339],[-117.6588,34.4406],[-117.6673,34.8225],[-117.632,34.8223],[-117.6301,35.5641],[-117.6162,35.6809],[-117.652,35.7099],[-117.633,35.7973],[-115.7359,35.7936],[-115.7357,35.8091],[-115.6489,35.8091],[-115.648,35.8096]]]}},{"type":"Feature","id":"06073","properties":{"name":"San Diego","fips":"06073"},"geometry":{"type":"Polygon","coordinates":[[[-116.1062,32.6183],[-116.3901,32.596],[-117.1189,32.5347],[-117.1249,32.5342],[-117.1334,32.5756],[-117.133,32.5971],[-117.1367,32.6188],[-117.1395,32.6271],[-117.1599,32.6607],[-117.1689,32.672],[-117.1804,32.6817],[-117.193,32.6878],[-117.1968,32.6889],[-117.2131,32.6878],[-117.2239,32.6831],[-117.2362,32.6714],[-117.2461,32.6694],[-117.2552,32.7001],[-117.2576,32.7261],[-117.2554,32.7454],[-117.2526,32.7529],[-117.255,32.7869],[-117.2611,32.8031],[-117.281,32.8222],[-117.2822,32.8395],[-117.2812,32.843],[-117.2739,32.8514],[-117.265,32.8489],[-117.2607,32.8526],[-117.2562,32.8594],[-117.2517,32.8743],[-117.2545,32.9001],[-117.2605,32.9312],[-117.2625,32.9395],[-117.2808,33.0123],[-117.2934,33.0346],[-117.3098,33.0745],[-117.3153,33.0935],[-117.3284,33.1218],[-117.3595,33.1642],[-117.3626,33.1684],[-117.3915,33.2028],[-117.4019,33.2136],[-117.4456,33.2685],[-117.4698,33.2964],[-117.5057,33.3341],[-117.5477,33.3655],[-117.5717,33.379],[-117.5959,33.3866],[-117.5097,33.505],[-117.3709,33.4905],[-117.2413,33.432],[-117.0797,33.4303],[-116.6177,33.4274],[-116.1976,33.4289],[-116.0852,33.4259],[-116.0811,33.0748],[-116.1031,32.9041],[-116.1062,32.6183]]]}},{"type":"Feature","id":"06075","properties":{"name":"San Francisco","fips":"06075"},"geometry":{"type":"MultiPolygon","coordinates":[[[[-122.4187,37.8527],[-122.4344,37.8524],[-122.4433,37.8554],[-122.4463,37.861],[-122.4386,37.8684],[-122.431,37.8722],[-122.4214,37.87],[-122.4213,37.8699],[-122.4185,37.8618],[-122.4185,37.8527],[-122.4187,37.8527]]],[[[-123.0139,37.7004],[-123.0139,37.7045],[-123.0122,37.7067],[-123.0045,37.7063],[-123.0002,37.7029],[-122.9972,37.6979],[-123.0007,37.6902],[-123.0055,37.6894],[-123.0115,37.6919],[-123.0143,37.6962],[-123.0139,37.7004]]],[[[-122.3785,37.8265],[-122.3779,37.8306],[-122.3699,37.8321],[-122.3632,37.824],[-122.3588,37.8143],[-122.3627,37.8076],[-122.3724,37.8113],[-122.3727,37.8165],[-122.3785,37.8265]]],[[[-122.5024,37.7081],[-122.5065,37.7237],[-122.5094,37.7488],[-122.512,37.7711],[-122.5145,37.7808],[-122.5053,37.7883],[-122.4929,37.7879],[-122.4858,37.7906],[-122.4781,37.8108],[-122.4703,37.8087],[-122.4638,37.8047],[-122.4259,37.811],[-122.4075,37.8114],[-122.3981,37.8056],[-122.3853,37.7907],[-122.3759,37.735],[-122.3701,37.7323],[-122.3677,37.7349],[-122.3655,37.7346],[-122.3568,37.7295],[-122.3617,37.715],[-122.3704,37.7176],[-122.3914,37.7083],[-122.3938,37.7082],[-122.4713,37.7083],[-122.4718,37.7083],[-122.4811,37.7082],[-122.4849,37.7083],[-122.4854,37.7082],[-122.5024,37.7081]]]]}},{"type":"Feature","id":"06077","properties":{"name":"San Joaquin","fips":"06077"},"geometry":{"type":"Polygon","coordinates":[[[-120.9264,38.0774],[-120.9207,37.7384],[-120.9958,37.7602],[-121.1558,37.7198],[-121.2582,37.6535],[-121.2738,37.6383],[-121.3334,37.5911],[-121.4719,37.4818],[-121.5567,37.5427],[-121.5569,37.8172],[-121.551,37.8312],[-121.5389,37.8396],[-121.5366,37.8447],[-121.538,37.8496],[-121.5495,37.857],[-121.5618,37.8571],[-121.5694,37.8589],[-121.5755,37.8631],[-121.5748,37.885],[-121.5691,37.9015],[-121.5599,37.9209],[-121.5619,37.9376],[-121.5636,37.9461],[-121.5699,37.9575],[-121.5748,37.973],[-121.5799,37.9761],[-121.58,38.0944],[-121.4843,38.2415],[-121.344,38.2283],[-121.0271,38.3003],[-120.9955,38.2254],[-120.9389,38.0883],[-120.9264,38.0774]]]}},{"type":"Feature","id":"06079","properties":{"name":"San Luis Obispo","fips":"06079"},"geometry":{"type":"Polygon","coordinates":[[[-120.1941,35.7892],[-120.1941,35.75],[-120.1939,35.7494],[-120.1939,35.7265],[-120.1939,35.6144],[-120.0859,35.6145],[-120.0867,35.5266],[-119.9974,35.4687],[-119.9974,35.4395],[-119.88,35.4391],[-119.8802,35.3512],[-119.8093,35.3509],[-119.8094,35.2636],[-119.6667,35.2625],[-119.6671,35.1748],[-119.5536,35.18],[-119.561,35.0877],[-119.4727,35.0769],[-119.4728,34.9012],[-119.5358,34.8976],[-119.673,34.9734],[-119.7456,34.9737],[-119.9284,35.0598],[-119.9801,35.0576],[-120.0934,35.1141],[-120.1884,35.0304],[-120.3345,35.0063],[-120.3115,34.9038],[-120.3553,34.9413],[-120.5139,34.9893],[-120.6489,34.9744],[-120.64,35.003],[-120.6336,35.0331],[-120.6299,35.0615],[-120.6296,35.0784],[-120.631,35.1019],[-120.6358,35.1238],[-120.6443,35.1396],[-120.6511,35.1478],[-120.6625,35.1534],[-120.668,35.152],[-120.6751,35.1531],[-120.687,35.1607],[-120.6989,35.1712],[-120.7042,35.1732],[-120.7142,35.176],[-120.7342,35.1785],[-120.7489,35.1778],[-120.7548,35.1747],[-120.7569,35.1692],[-120.7561,35.1605],[-120.7605,35.1597],[-120.779,35.1689],[-120.7861,35.1777],[-120.8053,35.185],[-120.8467,35.2044],[-120.856,35.2065],[-120.873,35.2257],[-120.8968,35.2479],[-120.8969,35.254],[-120.8894,35.2778],[-120.8796,35.2942],[-120.8672,35.3272],[-120.8627,35.3468],[-120.8621,35.3608],[-120.8661,35.393],[-120.8692,35.4033],[-120.8848,35.4302],[-120.8969,35.4422],[-120.9079,35.4491],[-120.9465,35.4467],[-120.9507,35.448],[-120.9559,35.4537],[-120.9694,35.4602],[-120.9761,35.459],[-121.0034,35.4607],[-121.0256,35.4846],[-121.0531,35.5075],[-121.0599,35.5097],[-121.1016,35.5488],[-121.126,35.5931],[-121.1336,35.6005],[-121.1436,35.606],[-121.1667,35.6354],[-121.1889,35.6431],[-121.1953,35.6407],[-121.251,35.6566],[-121.2723,35.6667],[-121.285,35.6741],[-121.2898,35.6894],[-121.2965,35.6968],[-121.3046,35.7018],[-121.3146,35.7133],[-121.3158,35.7525],[-121.3249,35.7693],[-121.3324,35.7831],[-121.3464,35.7952],[-121.1757,35.7941],[-120.214,35.7893],[-120.1941,35.7892]]]}},{"type":"Feature","id":"06081","properties":{"name":"San Mateo","fips":"06081"},"geometry":{"type":"Polygon","coordinates":[[[-122.293,37.1073],[-122.3061,37.1164],[-122.3139,37.1182],[-122.323,37.1155],[-122.3305,37.1153],[-122.3371,37.1174],[-122.3389,37.1209],[-122.3371,37.1308],[-122.3378,37.1359],[-122.344,37.1441],[-122.3598,37.1556],[-122.3618,37.1636],[-122.3671,37.1728],[-122.3793,37.1811],[-122.3906,37.183],[-122.3971,37.1872],[-122.4051,37.1958],[-122.4072,37.2195],[-122.409,37.2253],[-122.4158,37.2328],[-122.4191,37.2415],[-122.4185,37.2485],[-122.4117,37.2658],[-122.4013,37.337],[-122.4009,37.3592],[-122.4093,37.3748],[-122.4233,37.3925],[-122.4437,37.4359],[-122.446,37.4615],[-122.4521,37.4805],[-122.4679,37.4981],[-122.4724,37.5005],[-122.4764,37.4988],[-122.4824,37.4962],[-122.4859,37.4946],[-122.4867,37.4944],[-122.4871,37.4943],[-122.4938,37.4923],[-122.4944,37.4927],[-122.4993,37.4953],[-122.5167,37.5213],[-122.5195,37.5373],[-122.5166,37.5449],[-122.5148,37.5461],[-122.5137,37.5522],[-122.5181,37.5761],[-122.5172,37.5906],[-122.5014,37.5996],[-122.4968,37.6121],[-122.4941,37.644],[-122.4968,37.6864],[-122.5024,37.7081],[-122.4854,37.7082],[-122.4849,37.7083],[-122.4811,37.7082],[-122.4718,37.7083],[-122.4713,37.7083],[-122.3938,37.7082],[-122.3914,37.7083],[-122.3932,37.7075],[-122.3876,37.6791],[-122.3743,37.6622],[-122.3756,37.6524],[-122.3779,37.6504],[-122.3874,37.6485],[-122.3861,37.6377],[-122.3655,37.6262],[-122.3553,37.6157],[-122.3586,37.6112],[-122.3704,37.6144],[-122.3733,37.6138],[-122.3785,37.6056],[-122.3602,37.5925],[-122.3177,37.5909],[-122.3154,37.5873],[-122.3157,37.5837],[-122.3059,37.5755],[-122.2627,37.5729],[-122.2519,37.5663],[-122.2444,37.5581],[-122.2428,37.5571],[-122.2363,37.5529],[-122.2251,37.5456],[-122.2143,37.5385],[-122.1966,37.5372],[-122.195,37.5225],[-122.1684,37.5041],[-122.1557,37.5012],[-122.1496,37.5027],[-122.1401,37.5079],[-122.131,37.5037],[-122.1277,37.5001],[-122.1161,37.5054],[-122.1096,37.4976],[-122.0815,37.4778],[-122.1904,37.4315],[-122.1523,37.2861],[-122.1528,37.2154],[-122.3177,37.1869],[-122.293,37.1073]]]}},{"type":"Feature","id":"06083","properties":{"name":"Santa Barbara","fips":"06083"},"geometry":{"type":"MultiPolygon","coordinates":[[[[-120.2485,33.9993],[-120.2474,34.0019],[-120.2387,34.0076],[-120.23,34.0101],[-120.2213,34.0104],[-120.2085,34.0057],[-120.1958,34.0043],[-120.1673,34.0082],[-120.1517,34.0181],[-120.1476,34.0248],[-120.1404,34.026],[-120.1359,34.0261],[-120.1151,34.0199],[-120.0902,34.0198],[-120.0736,34.0245],[-120.0628,34.0312],[-120.062,34.034],[-120.0576,34.0373],[-120.0551,34.0377],[-120.0433,34.0358],[-120.044,34.0248],[-120.0478,34.0212],[-120.0504,34.0133],[-120.0489,34.0099],[-120.0466,34.0],[-120.0413,33.9945],[-120.0257,33.9856],[-120.0111,33.9799],[-120.0038,33.9795],[-119.9843,33.9839],[-119.9789,33.9831],[-119.9799,33.9696],[-119.9769,33.9567],[-119.9711,33.9504],[-119.9703,33.9444],[-119.9737,33.9425],[-120.001,33.9416],[-120.0177,33.9364],[-120.0469,33.9196],[-120.0483,33.9176],[-120.0486,33.9158],[-120.0497,33.9146],[-120.0778,33.9089],[-120.0986,33.9079],[-120.1055,33.9043],[-120.1091,33.8991],[-120.1218,33.8957],[-120.169,33.9191],[-120.179,33.928],[-120.1898,33.9477],[-120.1923,33.9503],[-120.1986,33.9522],[-120.2001,33.9569],[-120.2094,33.9724],[-120.2245,33.9891],[-120.2485,33.9993]]],[[[-119.7898,34.0573],[-119.7707,34.0551],[-119.7661,34.0554],[-119.7637,34.0572],[-119.7555,34.0567],[-119.7395,34.0493],[-119.7264,34.0479],[-119.7126,34.0433],[-119.7046,34.0377],[-119.6865,34.0198],[-119.6377,34.0132],[-119.6193,34.0165],[-119.6122,34.0213],[-119.6043,34.0316],[-119.6088,34.0352],[-119.6092,34.0374],[-119.5932,34.0496],[-119.5734,34.0501],[-119.5667,34.0535],[-119.5296,34.0412],[-119.5206,34.0343],[-119.5218,34.0322],[-119.5324,34.0249],[-119.5388,34.024],[-119.5424,34.0211],[-119.5483,34.0098],[-119.5471,34.0055],[-119.5545,33.9978],[-119.5605,33.9955],[-119.5756,33.996],[-119.5902,33.9897],[-119.5969,33.9886],[-119.6191,33.9872],[-119.6211,33.989],[-119.6477,33.9878],[-119.6628,33.9859],[-119.6901,33.9722],[-119.707,33.9692],[-119.7124,33.9654],[-119.7147,33.9614],[-119.7212,33.9596],[-119.743,33.9639],[-119.7504,33.9638],[-119.7581,33.9592],[-119.7959,33.9629],[-119.8427,33.9703],[-119.8734,33.9804],[-119.8771,33.9858],[-119.883,34.0008],[-119.8849,34.0088],[-119.8825,34.0117],[-119.8769,34.0235],[-119.8763,34.0321],[-119.8928,34.0455],[-119.9162,34.0584],[-119.9233,34.0694],[-119.9192,34.0773],[-119.9129,34.0775],[-119.8911,34.0729],[-119.8573,34.0713],[-119.8259,34.0598],[-119.8187,34.053],[-119.8078,34.0521],[-119.7898,34.0573]]],[[[-120.4626,34.0426],[-120.4402,34.0369],[-120.4188,34.0521],[-120.4153,34.055],[-120.4113,34.0529],[-120.4036,34.0504],[-120.3962,34.0502],[-120.3909,34.052],[-120.3742,34.0627],[-120.3688,34.0678],[-120.3686,34.0712],[-120.3702,34.0749],[-120.3683,34.0765],[-120.3623,34.0731],[-120.355,34.0593],[-120.3603,34.0558],[-120.3586,34.0502],[-120.3469,34.0466],[-120.3312,34.0491],[-120.319,34.042],[-120.3132,34.0366],[-120.3021,34.0236],[-120.3045,34.0212],[-120.3171,34.0188],[-120.3477,34.0201],[-120.3553,34.0179],[-120.3579,34.015],[-120.3751,34.0188],[-120.4094,34.0322],[-120.4152,34.0322],[-120.419,34.0289],[-120.4274,34.0254],[-120.4541,34.0281],[-120.4596,34.0315],[-120.4653,34.0384],[-120.4626,34.0426]]],[[[-120.3553,34.9413],[-120.3115,34.9038],[-120.3345,35.0063],[-120.1884,35.0304],[-120.0934,35.1141],[-119.9801,35.0576],[-119.9284,35.0598],[-119.7456,34.9737],[-119.673,34.9734],[-119.5358,34.8976],[-119.4728,34.9012],[-119.4424,34.9013],[-119.4423,34.4655],[-119.4404,34.4418],[-119.4447,34.4295],[-119.4534,34.4286],[-119.4543,34.4182],[-119.4454,34.4089],[-119.4541,34.3956],[-119.4725,34.3838],[-119.4738,34.3791],[-119.4783,34.3772],[-119.5107,34.3863],[-119.537,34.3955],[-119.5595,34.4134],[-119.6169,34.421],[-119.6389,34.4157],[-119.6487,34.4174],[-119.6719,34.4161],[-119.6882,34.4125],[-119.6847,34.4083],[-119.6917,34.4032],[-119.7091,34.3954],[-119.7294,34.3959],[-119.7455,34.4029],[-119.7859,34.416],[-119.7948,34.4176],[-119.8358,34.4158],[-119.8538,34.408],[-119.874,34.4088],[-119.9252,34.4339],[-119.9564,34.4353],[-119.972,34.4446],[-120.0081,34.4604],[-120.0388,34.4634],[-120.0507,34.4617],[-120.0886,34.4602],[-120.0972,34.4618],[-120.1184,34.4699],[-120.1412,34.4734],[-120.1835,34.4704],[-120.2255,34.4706],[-120.238,34.4681],[-120.2578,34.4675],[-120.283,34.4684],[-120.2951,34.4706],[-120.2992,34.4697],[-120.3018,34.4671],[-120.3414,34.4588],[-120.442,34.4515],[-120.4514,34.4471],[-120.4714,34.4478],[-120.4766,34.4751],[-120.4804,34.4811],[-120.4905,34.4901],[-120.5114,34.523],[-120.5248,34.5313],[-120.5813,34.557],[-120.6084,34.5567],[-120.612,34.5536],[-120.6226,34.554],[-120.6378,34.5662],[-120.6457,34.581],[-120.6402,34.6044],[-120.6251,34.6345],[-120.602,34.6921],[-120.6004,34.7046],[-120.6017,34.7097],[-120.6149,34.7307],[-120.6263,34.7381],[-120.6374,34.7559],[-120.623,34.7933],[-120.6163,34.8163],[-120.6099,34.8428],[-120.6103,34.8582],[-120.6163,34.8667],[-120.6393,34.8804],[-120.6422,34.8941],[-120.6473,34.9011],[-120.6629,34.9012],[-120.6708,34.9041],[-120.6489,34.9744],[-120.5139,34.9893],[-120.3553,34.9413]]]]}},{"type":"Feature","id":"06085","properties":{"name":"Santa Clara","fips":"06085"},"geometry":{"type":"Polygon","coordinates":[[[-121.654,36.9506],[-121.7576,37.0496],[-122.016,37.1657],[-122.1523,37.2861],[-122.1904,37.4315],[-122.0815,37.4778],[-122.0526,37.4597],[-122.0453,37.4603],[-121.8558,37.4845],[-121.4726,37.4822],[-121.4058,37.311],[-121.4591,37.2827],[-121.4046,37.156],[-121.2823,37.1837],[-121.2268,37.1348],[-121.2154,36.9612],[-121.5015,36.9719],[-121.5814,36.8992],[-121.654,36.9506]]]}},{"type":"Feature","id":"06087","properties":{"name":"Santa Cruz","fips":"06087"},"geometry":{"type":"Polygon","coordinates":[[[-122.016,37.1657],[-121.7576,37.0496],[-121.654,36.9506],[-121.5814,36.8992],[-121.6074,36.8995],[-121.6295,36.9117],[-121.644,36.894],[-121.7453,36.9093],[-121.8106,36.8506],[-121.8277,36.8794],[-121.8623,36.9316],[-121.8802,36.9502],[-121.8947,36.9619],[-121.9065,36.9689],[-121.9301,36.9781],[-121.9395,36.9781],[-121.9517,36.9714],[-121.9728,36.9542],[-121.9759,36.9541],[-121.9839,36.9587],[-122.0124,36.9646],[-122.0234,36.9622],[-122.0272,36.9511],[-122.0501,36.9485],[-122.0664,36.9483],[-122.0794,36.9508],[-122.106,36.956],[-122.1406,36.9749],[-122.1551,36.9808],[-122.1869,37.0035],[-122.2062,37.0139],[-122.2522,37.0594],[-122.2605,37.0725],[-122.2849,37.1017],[-122.293,37.1073],[-122.3177,37.1869],[-122.1528,37.2154],[-122.1523,37.2861],[-122.016,37.1657]]]}},{"type":"Feature","id":"06089","properties":{"name":"Shasta","fips":"06089"},"geometry":{"type":"Polygon","coordinates":[[[-123.0654,40.287],[-123.0688,40.3322],[-122.9987,40.4181],[-122.9037,40.4451],[-122.846,40.5052],[-122.6953,40.5725],[-122.7523,40.6896],[-122.4455,41.1579],[-122.4984,41.1827],[-122.3761,41.1829],[-121.4465,41.1835],[-121.3318,41.1839],[-121.32,40.9059],[-121.3278,40.4454],[-121.4976,40.4456],[-121.6463,40.4347],[-121.8065,40.4449],[-121.941,40.4153],[-122.0103,40.4266],[-122.3104,40.3711],[-122.445,40.3734],[-122.524,40.3945],[-122.6513,40.3283],[-122.8728,40.3488],[-122.9185,40.3068],[-123.0654,40.287]]]}},{"type":"Feature","id":"06091","properties":{"name":"Sierra","fips":"06091"},"geometry":{"type":"Polygon","coordinates":[[[-120.0013,39.7224],[-120.0031,39.4451],[-120.0031,39.445],[-120.5054,39.4461],[-120.5751,39.5223],[-120.6543,39.5269],[-120.7557,39.4527],[-121.0221,39.3916],[-121.0344,39.5145],[-121.0095,39.6395],[-120.8736,39.7759],[-120.7925,39.7098],[-120.1471,39.7077],[-120.0013,39.7224]]]}},{"type":"Feature","id":"06093","properties":{"name":"Siskiyou","fips":"06093"},"geometry":{"type":"Polygon","coordinates":[[[-122.2895,42.0078],[-122.2895,42.0078],[-122.1613,42.0076],[-122.1604,42.0076],[-122.1567,42.0074],[-122.1554,42.0074],[-122.0011,42.004],[-121.7082,42.0008],[-121.705,42.0008],[-121.6892,42.0006],[-121.6753,42.0004],[-121.5809,41.9987],[-121.5203,41.998],[-121.4475,41.9972],[-121.4465,41.1835],[-122.3761,41.1829],[-122.4984,41.1827],[-122.5226,41.2135],[-122.5039,41.343],[-122.5852,41.359],[-122.6537,41.2892],[-122.8113,41.2025],[-122.9613,41.1815],[-122.9669,41.0821],[-122.8974,41.0285],[-122.9175,40.994],[-123.0368,41.0041],[-123.1413,41.0792],[-123.2395,41.0758],[-123.2734,41.1229],[-123.4083,41.1799],[-123.4741,41.3662],[-123.6614,41.3821],[-123.6124,41.449],[-123.7191,41.5953],[-123.6602,41.7141],[-123.7038,41.8291],[-123.6428,41.8894],[-123.5654,41.9031],[-123.5181,42.0004],[-123.502,42.0005],[-123.4989,42.0005],[-123.4988,42.0005],[-123.3476,41.9991],[-123.2308,42.0038],[-123.2308,42.0038],[-123.1549,42.008],[-123.0453,42.003],[-123.0012,42.003],[-122.6347,42.0049],[-122.5011,42.0085],[-122.3782,42.0095],[-122.2895,42.0078]]]}},{"type":"Feature","id":"06095","properties":{"name":"Solano","fips":"06095"},"geometry":{"type":"Polygon","coordinates":[[[-122.0888,38.3842],[-122.1033,38.5133],[-122.0117,38.489],[-121.9403,38.5334],[-121.6947,38.5271],[-121.6937,38.3137],[-121.5933,38.3131],[-121.6053,38.2954],[-121.6007,38.2784],[-121.604,38.2701],[-121.6002,38.2578],[-121.602,38.2524],[-121.6021,38.2417],[-121.6032,38.2373],[-121.6028,38.2302],[-121.6882,38.1454],[-121.7139,38.0845],[-121.8625,38.066],[-121.8652,38.0599],[-121.8695,38.0545],[-122.0504,38.0602],[-122.124,38.0357],[-122.2667,38.0601],[-122.273,38.0744],[-122.2828,38.0829],[-122.3018,38.1051],[-122.3146,38.1153],[-122.3663,38.1415],[-122.3964,38.15],[-122.4035,38.1506],[-122.407,38.1557],[-122.4068,38.1556],[-122.1954,38.155],[-122.206,38.3157],[-122.0648,38.3159],[-122.0888,38.3842]]]}},{"type":"Feature","id":"06097","properties":{"name":"Sonoma","fips":"06097"},"geometry":{"type":"Polygon","coordinates":[[[-123.2687,38.8084],[-123.1363,38.8091],[-123.081,38.8524],[-122.8216,38.8501],[-122.6274,38.6675],[-122.6463,38.5991],[-122.5439,38.52],[-122.379,38.2507],[-122.4068,38.1556],[-122.407,38.1557],[-122.4035,38.1506],[-122.4036,38.1506],[-122.4098,38.1362],[-122.4396,38.1169],[-122.4504,38.1163],[-122.455,38.1189],[-122.4844,38.115],[-122.49,38.112],[-122.4907,38.1098],[-122.5651,38.1822],[-122.649,38.1811],[-122.7399,38.207],[-122.9017,38.3169],[-123.0029,38.2957],[-123.0041,38.297],[-123.0243,38.3106],[-123.0387,38.3136],[-123.0511,38.3107],[-123.0535,38.3057],[-123.052,38.3022],[-123.0535,38.2994],[-123.0582,38.2984],[-123.0637,38.3022],[-123.0747,38.3226],[-123.0684,38.3352],[-123.0683,38.3599],[-123.0856,38.3905],[-123.1037,38.4155],[-123.1224,38.4373],[-123.1288,38.4504],[-123.1453,38.4594],[-123.1664,38.4749],[-123.2023,38.4943],[-123.2498,38.511],[-123.2872,38.5402],[-123.2972,38.5435],[-123.3319,38.5655],[-123.3433,38.59],[-123.3496,38.5968],[-123.3719,38.6072],[-123.3793,38.622],[-123.3982,38.647],[-123.403,38.6494],[-123.4057,38.6567],[-123.4327,38.6871],[-123.4418,38.6997],[-123.4613,38.717],[-123.49,38.7322],[-123.5148,38.742],[-123.5252,38.7538],[-123.5335,38.7684],[-123.2687,38.8084]]]}},{"type":"Feature","id":"06099","properties":{"name":"Stanislaus","fips":"06099"},"geometry":{"type":"Polygon","coordinates":[[[-120.9314,37.4218],[-120.9642,37.3458],[-121.2268,37.1348],[-121.2823,37.1837],[-121.4046,37.156],[-121.4591,37.2827],[-121.4058,37.311],[-121.4726,37.4822],[-121.4719,37.4818],[-121.3334,37.5911],[-121.2738,37.6383],[-121.2582,37.6535],[-121.1558,37.7198],[-120.9958,37.7602],[-120.9207,37.7384],[-120.9264,38.0774],[-120.6527,37.8314],[-120.3876,37.6337],[-120.3873,37.6335],[-120.3877,37.6334],[-120.9314,37.4218]]]}},{"type":"Feature","id":"06101","properties":{"name":"Sutter","fips":"06101"},"geometry":{"type":"Polygon","coordinates":[[[-121.4844,38.7346],[-121.5218,38.7364],[-121.6029,38.7358],[-121.686,38.7634],[-121.7231,38.8513],[-121.8355,38.9245],[-121.848,39.0708],[-121.9455,39.181],[-121.9083,39.3039],[-121.6238,39.2956],[-121.5713,38.9389],[-121.4149,38.9964],[-121.4694,38.926],[-121.4844,38.7346]]]}},{"type":"Feature","id":"06103","properties":{"name":"Tehama","fips":"06103"},"geometry":{"type":"Polygon","coordinates":[[[-122.934,39.9781],[-122.9896,40.1455],[-122.989,40.2501],[-123.0654,40.287],[-122.9185,40.3068],[-122.8728,40.3488],[-122.6513,40.3283],[-122.524,40.3945],[-122.445,40.3734],[-122.3104,40.3711],[-122.0103,40.4266],[-121.941,40.4153],[-121.8065,40.4449],[-121.6463,40.4347],[-121.4976,40.4456],[-121.4704,40.3502],[-121.3456,40.3127],[-121.3684,40.2122],[-121.4369,40.1519],[-121.5864,40.1005],[-121.646,39.9825],[-121.7032,39.9842],[-121.804,39.8843],[-122.0449,39.8838],[-122.0465,39.7976],[-122.9377,39.7982],[-122.934,39.9781]]]}},{"type":"Feature","id":"06105","properties":{"name":"Trinity","fips":"06105"},"geometry":{"type":"Polygon","coordinates":[[[-123.0654,40.287],[-122.989,40.2501],[-122.9896,40.1455],[-122.934,39.9781],[-123.5446,39.977],[-123.5445,40.0019],[-123.5441,40.7394],[-123.5598,40.8296],[-123.6238,40.9294],[-123.5602,40.9503],[-123.4815,40.915],[-123.4083,41.1799],[-123.2734,41.1229],[-123.2395,41.0758],[-123.1413,41.0792],[-123.0368,41.0041],[-122.9175,40.994],[-122.8974,41.0285],[-122.9669,41.0821],[-122.9613,41.1815],[-122.8113,41.2025],[-122.6537,41.2892],[-122.5852,41.359],[-122.5039,41.343],[-122.5226,41.2135],[-122.4984,41.1827],[-122.4455,41.1579],[-122.7523,40.6896],[-122.6953,40.5725],[-122.846,40.5052],[-122.9037,40.4451],[-122.9987,40.4181],[-123.0688,40.3322],[-123.0654,40.287]]]}},{"type":"Feature","id":"06107","properties":{"name":"Tulare","fips":"06107"},"geometry":{"type":"Polygon","coordinates":[[[-119.214,35.7905],[-119.5346,35.7898],[-119.5381,35.7896],[-119.5294,36.2698],[-119.4746,36.269],[-119.4749,36.401],[-119.5288,36.4015],[-119.5732,36.4888],[-119.4663,36.5752],[-119.3051,36.5737],[-119.3046,36.6606],[-118.9848,36.6571],[-118.9824,36.7416],[-118.3606,36.7448],[-118.3663,36.6916],[-118.2746,36.5973],[-118.2148,36.435],[-118.1003,36.3461],[-118.1271,36.2797],[-118.0336,36.0089],[-118.0036,35.9837],[-117.9808,35.8675],[-117.9983,35.8688],[-118.008,35.7892],[-118.2705,35.79],[-119.214,35.7905]]]}},{"type":"Feature","id":"06109","properties":{"name":"Tuolumne","fips":"06109"},"geometry":{"type":"Polygon","coordinates":[[[-120.6527,37.8314],[-120.515,37.9534],[-120.5348,37.9912],[-120.5045,37.9911],[-120.1762,38.374],[-120.02,38.4335],[-119.8847,38.3562],[-119.7535,38.4168],[-119.6392,38.3269],[-119.6327,38.1989],[-119.3459,38.0831],[-119.3046,38.0239],[-119.3084,37.9468],[-119.2003,37.8858],[-119.2013,37.8043],[-119.269,37.7392],[-119.2884,37.745],[-119.2934,37.7679],[-119.309,37.778],[-119.5357,37.9041],[-119.6462,37.8468],[-119.6672,37.8012],[-119.8094,37.755],[-119.907,37.7579],[-120.0795,37.8288],[-120.1272,37.7816],[-120.3454,37.7248],[-120.3259,37.649],[-120.3919,37.6836],[-120.3876,37.6337],[-120.6527,37.8314]]]}},{"type":"Feature","id":"06111","properties":{"name":"Ventura","fips":"06111"},"geometry":{"type":"MultiPolygon","coordinates":[[[[-119.5438,33.2803],[-119.5329,33.2847],[-119.5281,33.2849],[-119.505,33.2728],[-119.4828,33.264],[-119.4657,33.2592],[-119.4585,33.2547],[-119.4296,33.2282],[-119.4443,33.2192],[-119.4647,33.2154],[-119.476,33.2155],[-119.5007,33.2206],[-119.5117,33.223],[-119.5175,33.2267],[-119.5459,33.2334],[-119.565,33.2474],[-119.5656,33.25],[-119.566,33.2526],[-119.5706,33.2577],[-119.5789,33.2786],[-119.562,33.2711],[-119.5552,33.2734],[-119.5476,33.2803],[-119.5438,33.2803]]],[[[-119.423,34.0044],[-119.4276,34.0064],[-119.4377,34.01],[-119.4411,34.0124],[-119.4412,34.0141],[-119.4339,34.016],[-119.4214,34.015],[-119.4113,34.008],[-119.3963,34.0059],[-119.39,34.0061],[-119.3666,34.0168],[-119.3575,34.0159],[-119.3764,34.0106],[-119.3916,34.0025],[-119.4145,34.005],[-119.423,34.0044]]],[[[-118.8814,34.7906],[-118.7967,34.6166],[-118.6509,34.3205],[-118.6368,34.2918],[-118.6335,34.2696],[-118.6682,34.1682],[-118.7889,34.1682],[-118.941,34.0748],[-118.9449,34.0453],[-118.9547,34.0482],[-118.9778,34.0598],[-118.997,34.0659],[-119.0046,34.0662],[-119.0375,34.0831],[-119.07,34.0905],[-119.0885,34.0983],[-119.0982,34.0993],[-119.1098,34.0946],[-119.1302,34.1001],[-119.1596,34.1197],[-119.1886,34.139],[-119.2031,34.1445],[-119.2112,34.1449],[-119.2164,34.1461],[-119.2277,34.1617],[-119.2371,34.1758],[-119.257,34.2133],[-119.2659,34.2346],[-119.2701,34.2529],[-119.2786,34.2669],[-119.2909,34.2749],[-119.3021,34.2728],[-119.313,34.2757],[-119.3375,34.2906],[-119.3492,34.3044],[-119.3704,34.3195],[-119.3758,34.3211],[-119.3882,34.3174],[-119.3904,34.3182],[-119.4278,34.353],[-119.4311,34.3553],[-119.4359,34.3558],[-119.461,34.3741],[-119.4727,34.3756],[-119.4783,34.3772],[-119.4738,34.3791],[-119.4725,34.3838],[-119.4541,34.3956],[-119.4454,34.4089],[-119.4543,34.4182],[-119.4534,34.4286],[-119.4447,34.4295],[-119.4404,34.4418],[-119.4423,34.4655],[-119.4424,34.9013],[-119.2769,34.8797],[-119.2436,34.8142],[-118.9767,34.8122],[-118.8814,34.7906]]]]}},{"type":"Feature","id":"06113","properties":{"name":"Yolo","fips":"06113"},"geometry":{"type":"Polygon","coordinates":[[[-121.5041,38.4666],[-121.5216,38.3601],[-121.5933,38.3131],[-121.6937,38.3137],[-121.6947,38.5271],[-121.9403,38.5334],[-122.0117,38.489],[-122.1033,38.5133],[-122.1116,38.5241],[-122.1281,38.5837],[-122.1518,38.6253],[-122.1683,38.6193],[-122.1649,38.6425],[-122.288,38.8399],[-122.3951,38.8642],[-122.3402,38.9242],[-122.338,38.9239],[-121.8355,38.9245],[-121.7231,38.8513],[-121.686,38.7634],[-121.6029,38.7358],[-121.6058,38.7183],[-121.6304,38.6976],[-121.6258,38.6731],[-121.5941,38.6441],[-121.5761,38.6486],[-121.5499,38.5994],[-121.5277,38.6046],[-121.5063,38.5863],[-121.521,38.5662],[-121.5113,38.5463],[-121.5592,38.498],[-121.5388,38.4747],[-121.5041,38.4666]]]}},{"type":"Feature","id":"06115","properties":{"name":"Yuba","fips":"06115"},"geometry":{"type":"Polygon","coordinates":[[[-121.3334,39.4687],[-121.3051,39.5196],[-121.1499,39.5264],[-121.0767,39.5973],[-121.0527,39.6123],[-121.0509,39.6138],[-121.0095,39.6395],[-121.0344,39.5145],[-121.0221,39.3916],[-121.1275,39.3802],[-121.2669,39.2716],[-121.2795,39.0346],[-121.4149,38.9964],[-121.5713,38.9389],[-121.6238,39.2956],[-121.4075,39.3398],[-121.3334,39.4687]]]}}]}