{"type":"FeatureCollection","features":[{"type":"Feature","id":"09001","properties":{"name":"Fairfield","fips":"09001"},"geometry":{"type":"Polygon","coordinates":[[[-73.5175,41.6666],[-73.516,41.666],[-73.5148,41.6659],[-73.5111,41.6665],[-73.5104,41.6665],[-73.5069,41.6658],[-73.4415,41.4913],[-73.3316,41.4727],[-73.3268,41.4695],[-73.3129,41.4674],[-73.3105,41.4688],[-73.2077,41.4205],[-73.1849,41.4063],[-73.188,41.3973],[-73.1833,41.3917],[-73.1734,41.3836],[-73.1613,41.3839],[-73.1476,41.3677],[-73.1361,41.3512],[-73.1158,41.3322],[-73.0909,41.3193],[-73.0867,41.3145],[-73.079,41.3116],[-73.0777,41.3077],[-73.0754,41.3056],[-73.0679,41.301],[-72.9851,41.2344],[-72.9862,41.2335],[-72.9979,41.2227],[-73.0036,41.2153],[-73.0075,41.2102],[-73.0135,41.2055],[-73.014,41.2051],[-73.0149,41.2043],[-73.0201,41.2041],[-73.0202,41.2042],[-73.0202,41.2044],[-73.0202,41.2046],[-73.0203,41.2049],[-73.0204,41.2064],[-73.0225,41.2072],[-73.0248,41.2074],[-73.0456,41.2097],[-73.0507,41.2102],[-73.0549,41.2085],[-73.0593,41.2067],[-73.0776,41.1952],[-73.0794,41.194],[-73.0912,41.1842],[-73.092,41.1835],[-73.0921,41.1834],[-73.1043,41.1732],[-73.1055,41.1722],[-73.1055,41.1722],[-73.108,41.1687],[-73.1104,41.1597],[-73.11,41.157],[-73.1084,41.1537],[-73.1111,41.1508],[-73.1303,41.1468],[-73.1644,41.1586],[-73.1701,41.1605],[-73.1707,41.1649],[-73.1778,41.1667],[-73.2027,41.1581],[-73.2283,41.1426],[-73.2351,41.144],[-73.248,41.1264],[-73.2624,41.1175],[-73.2868,41.1279],[-73.2964,41.1257],[-73.3119,41.1163],[-73.3307,41.11],[-73.3723,41.104],[-73.3922,41.0877],[-73.4002,41.0863],[-73.4137,41.0733],[-73.4351,41.0567],[-73.4504,41.0571],[-73.4682,41.0513],[-73.4774,41.036],[-73.4933,41.0482],[-73.5169,41.0387],[-73.5168,41.0295],[-73.5227,41.0193],[-73.5289,41.0164],[-73.5312,41.0219],[-73.5302,41.0288],[-73.5328,41.0317],[-73.5353,41.0319],[-73.5515,41.0243],[-73.562,41.0168],[-73.5677,41.0109],[-73.5701,41.0016],[-73.584,41.0009],[-73.585,41.0105],[-73.5957,41.016],[-73.604,41.0151],[-73.6435,41.0022],[-73.6512,40.9952],[-73.6573,40.9852],[-73.6547,41.0117],[-73.6554,41.0128],[-73.6705,41.0301],[-73.68,41.0418],[-73.6872,41.0507],[-73.6943,41.0593],[-73.7278,41.1007],[-73.6397,41.1415],[-73.6322,41.1449],[-73.6144,41.153],[-73.5146,41.1984],[-73.5095,41.2008],[-73.4827,41.2128],[-73.551,41.2954],[-73.5447,41.3664],[-73.5436,41.3768],[-73.5377,41.4339],[-73.5375,41.4359],[-73.537,41.4411],[-73.5361,41.4513],[-73.536,41.4531],[-73.5359,41.4552],[-73.5359,41.4557],[-73.5358,41.4572],[-73.5344,41.4759],[-73.5343,41.4764],[-73.5343,41.4769],[-73.5341,41.4781],[-73.5341,41.479],[-73.534,41.4797],[-73.5301,41.5272],[-73.5215,41.6164],[-73.5175,41.6666]]]}},{"type":"Feature","id":"09003","properties":{"name":"Hartford","fips":"09003"},"geometry":{"type":"Polygon","coordinates":[[[-72.7522,41.5789],[-72.9463,41.5568],[-72.9832,41.6396],[-72.9985,41.7125],[-73.0123,41.7751],[-73.0125,41.7754],[-73.0126,41.7775],[-73.0165,41.7957],[-73.0169,41.7982],[-72.949,41.8064],[-72.9059,41.9217],[-72.8871,41.9731],[-73.0295,41.9666],[-73.0087,42.0389],[-73.0087,42.0394],[-72.8637,42.0377],[-72.8636,42.0377],[-72.8135,42.0365],[-72.8167,41.9976],[-72.7748,42.0021],[-72.7667,42.003],[-72.7661,42.0077],[-72.7582,42.0209],[-72.7575,42.0209],[-72.7558,42.0362],[-72.7141,42.0366],[-72.6959,42.0368],[-72.5092,42.0346],[-72.5091,42.0335],[-72.4997,41.9843],[-72.4989,41.9779],[-72.4927,41.9475],[-72.5031,41.9466],[-72.5133,41.9454],[-72.5136,41.943],[-72.5173,41.8699],[-72.4639,41.7456],[-72.4106,41.6018],[-72.4172,41.5906],[-72.4667,41.5839],[-72.5442,41.6427],[-72.6305,41.6333],[-72.6278,41.6402],[-72.7145,41.6043],[-72.7317,41.5958],[-72.7529,41.5925],[-72.7522,41.5789]]]}},{"type":"Feature","id":"09005","properties":{"name":"Litchfield","fips":"09005"},"geometry":{"type":"Polygon","coordinates":[[[-73.145,41.5578],[-73.1647,41.5571],[-73.1557,41.5153],[-73.3189,41.5052],[-73.3271,41.4845],[-73.3105,41.4688],[-73.3129,41.4674],[-73.3268,41.4695],[-73.3316,41.4727],[-73.4415,41.4913],[-73.5069,41.6658],[-73.5104,41.6665],[-73.5111,41.6665],[-73.5148,41.6659],[-73.516,41.666],[-73.5175,41.6666],[-73.5102,41.7587],[-73.505,41.8238],[-73.5049,41.8243],[-73.4873,42.0496],[-73.2944,42.047],[-73.2931,42.0469],[-73.2311,42.0449],[-73.2298,42.0449],[-73.1273,42.042],[-73.0533,42.0399],[-73.0087,42.0394],[-73.0087,42.0389],[-73.0295,41.9666],[-72.8871,41.9731],[-72.9059,41.9217],[-72.949,41.8064],[-73.0169,41.7982],[-73.0165,41.7957],[-73.0126,41.7775],[-73.0125,41.7754],[-73.0123,41.7751],[-72.9985,41.7125],[-72.9832,41.6396],[-73.004,41.6286],[-73.0215,41.6271],[-73.0186,41.6141],[-73.0362,41.6152],[-73.058,41.6067],[-73.145,41.5578]]]}},{"type":"Feature","id":"09007","properties":{"name":"Middlesex","fips":"09007"},"geometry":{"type":"Polygon","coordinates":[[[-72.3229,41.5181],[-72.3055,41.4363],[-72.4337,41.424],[-72.3415,41.2801],[-72.3486,41.2774],[-72.3481,41.2697],[-72.3866,41.2618],[-72.3987,41.2782],[-72.4059,41.2784],[-72.4519,41.2789],[-72.4725,41.2701],[-72.4857,41.2709],[-72.4995,41.2659],[-72.5066,41.2601],[-72.5187,41.2613],[-72.5213,41.2656],[-72.5294,41.2644],[-72.5332,41.2627],[-72.5367,41.2562],[-72.5378,41.2556],[-72.6787,41.4338],[-72.6825,41.4338],[-72.7083,41.4294],[-72.7461,41.4233],[-72.7339,41.4854],[-72.7433,41.4831],[-72.7447,41.4977],[-72.7522,41.5789],[-72.7529,41.5925],[-72.7317,41.5958],[-72.7145,41.6043],[-72.6278,41.6402],[-72.6305,41.6333],[-72.5442,41.6427],[-72.4667,41.5839],[-72.4308,41.5246],[-72.3229,41.5181]]]}},{"type":"Feature","id":"09009","properties":{"name":"New Haven","fips":"09009"},"geometry":{"type":"Polygon","coordinates":[[[-73.1557,41.5153],[-73.1647,41.5571],[-73.145,41.5578],[-73.058,41.6067],[-73.0362,41.6152],[-73.0186,41.6141],[-73.0215,41.6271],[-73.004,41.6286],[-72.9832,41.6396],[-72.9463,41.5568],[-72.7522,41.5789],[-72.7447,41.4977],[-72.7433,41.4831],[-72.7339,41.4854],[-72.7461,41.4233],[-72.7083,41.4294],[-72.6825,41.4338],[-72.6787,41.4338],[-72.5378,41.2556],[-72.5468,41.2507],[-72.5472,41.2505],[-72.5707,41.2677],[-72.5711,41.2681],[-72.5711,41.2681],[-72.5833,41.2717],[-72.5852,41.2713],[-72.5859,41.2712],[-72.5867,41.271],[-72.5879,41.2708],[-72.5898,41.2704],[-72.591,41.2701],[-72.598,41.2687],[-72.6079,41.2704],[-72.6102,41.2708],[-72.6172,41.272],[-72.6175,41.2719],[-72.618,41.2718],[-72.6314,41.2691],[-72.641,41.2671],[-72.6415,41.267],[-72.6428,41.2669],[-72.6507,41.2662],[-72.6538,41.2659],[-72.6539,41.2659],[-72.6547,41.2662],[-72.6622,41.269],[-72.6628,41.2692],[-72.6672,41.2682],[-72.6717,41.2672],[-72.6723,41.267],[-72.6743,41.2655],[-72.6849,41.2576],[-72.6854,41.2526],[-72.6855,41.2513],[-72.6894,41.2476],[-72.6902,41.2469],[-72.6904,41.2467],[-72.6934,41.2455],[-72.6947,41.245],[-72.6955,41.2449],[-72.7018,41.2448],[-72.7062,41.2446],[-72.7072,41.2446],[-72.7087,41.2445],[-72.709,41.2445],[-72.7092,41.2445],[-72.7106,41.2445],[-72.7108,41.2448],[-72.7137,41.249],[-72.7112,41.251],[-72.7125,41.2542],[-72.7224,41.2591],[-72.7328,41.2547],[-72.7544,41.2669],[-72.7575,41.2669],[-72.7861,41.2648],[-72.8187,41.2522],[-72.8194,41.2541],[-72.8269,41.2568],[-72.8478,41.2567],[-72.8502,41.2555],[-72.8541,41.2477],[-72.8613,41.2453],[-72.8814,41.2426],[-72.8954,41.2437],[-72.9008,41.2459],[-72.9043,41.2473],[-72.9052,41.2483],[-72.903,41.2528],[-72.9028,41.2529],[-72.8947,41.2562],[-72.8947,41.2563],[-72.8938,41.2599],[-72.8964,41.2639],[-72.9031,41.2748],[-72.908,41.2825],[-72.9082,41.2829],[-72.9168,41.282],[-72.917,41.2819],[-72.9201,41.2801],[-72.9207,41.2716],[-72.9207,41.2708],[-72.9208,41.2689],[-72.9319,41.2611],[-72.9335,41.26],[-72.9356,41.2585],[-72.957,41.2529],[-72.9596,41.2522],[-72.9613,41.2518],[-72.962,41.2516],[-72.9838,41.2354],[-72.9851,41.2344],[-73.0679,41.301],[-73.0754,41.3056],[-73.0777,41.3077],[-73.079,41.3116],[-73.0867,41.3145],[-73.0909,41.3193],[-73.1158,41.3322],[-73.1361,41.3512],[-73.1476,41.3677],[-73.1613,41.3839],[-73.1734,41.3836],[-73.1833,41.3917],[-73.188,41.3973],[-73.1849,41.4063],[-73.2077,41.4205],[-73.3105,41.4688],[-73.3271,41.4845],[-73.3189,41.5052],[-73.1557,41.5153]]]}},{"type":"Feature","id":"09011","properties":{"name":"New London","fips":"09011"},"geometry":{"type":"Polygon","coordinates":[[[-72.1575,41.6576],[-72.1534,41.6656],[-72.1203,41.6619],[-72.1057,41.6595],[-72.1035,41.6593],[-72.0621,41.6522],[-71.955,41.6348],[-71.7895,41.64],[-71.7894,41.5969],[-71.7894,41.5969],[-71.7977,41.4169],[-71.7977,41.4167],[-71.8184,41.4196],[-71.8396,41.4121],[-71.8426,41.4099],[-71.8435,41.4058],[-71.8421,41.3954],[-71.8334,41.3845],[-71.8316,41.3709],[-71.8312,41.3446],[-71.8325,41.3412],[-71.8398,41.3347],[-71.8596,41.3224],[-71.8682,41.3309],[-71.8863,41.3364],[-71.9167,41.3322],[-71.9221,41.3345],[-71.9233,41.3351],[-71.9363,41.338],[-71.9457,41.3378],[-71.9567,41.3299],[-71.971,41.3245],[-71.9794,41.33],[-71.9822,41.3299],[-71.9882,41.3206],[-72.0219,41.3168],[-72.0845,41.3196],[-72.0944,41.3142],[-72.0998,41.307],[-72.1118,41.2991],[-72.1342,41.2994],[-72.1616,41.3103],[-72.1739,41.3176],[-72.1776,41.3225],[-72.1841,41.324],[-72.191,41.3232],[-72.2014,41.3157],[-72.203,41.3132],[-72.204,41.2991],[-72.2129,41.2914],[-72.2253,41.299],[-72.2355,41.3004],[-72.2482,41.2995],[-72.2519,41.2986],[-72.2505,41.2944],[-72.2513,41.29],[-72.2615,41.2829],[-72.3178,41.2778],[-72.3276,41.2785],[-72.3339,41.2829],[-72.3415,41.2801],[-72.4337,41.424],[-72.3055,41.4363],[-72.3229,41.5181],[-72.4308,41.5246],[-72.4667,41.5839],[-72.4172,41.5906],[-72.4106,41.6018],[-72.2396,41.7142],[-72.2379,41.7132],[-72.1867,41.6763],[-72.1575,41.6576]]]}},{"type":"Feature","id":"09013","properties":{"name":"Tolland","fips":"09013"},"geometry":{"type":"Polygon","coordinates":[[[-72.1022,42.029],[-72.0992,41.9589],[-72.1236,41.959],[-72.1245,41.959],[-72.1517,41.9593],[-72.217,41.9582],[-72.2177,41.8352],[-72.1646,41.8349],[-72.1569,41.7538],[-72.1563,41.7535],[-72.2396,41.7142],[-72.4106,41.6018],[-72.4639,41.7456],[-72.5173,41.8699],[-72.5136,41.943],[-72.5133,41.9454],[-72.5031,41.9466],[-72.4927,41.9475],[-72.4989,41.9779],[-72.4997,41.9843],[-72.5091,42.0335],[-72.5092,42.0346],[-72.3974,42.0333],[-72.1988,42.031],[-72.1357,42.0302],[-72.1357,42.0302],[-72.1022,42.029]]]}},{"type":"Feature","id":"09015","properties":{"name":"Windham","fips":"09015"},"geometry":{"type":"Polygon","coordinates":[[[-72.0992,41.9589],[-72.1022,42.029],[-72.0598,42.0273],[-71.8007,42.0236],[-71.7992,42.0081],[-71.7968,41.9286],[-71.7961,41.9045],[-71.7942,41.8411],[-71.7942,41.8401],[-71.7928,41.8087],[-71.7928,41.807],[-71.7897,41.7247],[-71.7897,41.7246],[-71.7895,41.64],[-71.955,41.6348],[-72.0621,41.6522],[-72.1035,41.6593],[-72.1057,41.6595],[-72.1203,41.6619],[-72.1534,41.6656],[-72.1575,41.6576],[-72.1867,41.6763],[-72.2379,41.7132],[-72.2396,41.7142],[-72.1563,41.7535],[-72.1569,41.7538],[-72.1646,41.8349],[-72.2177,41.8352],[-72.217,41.9582],[-72.1517,41.9593],[-72.1245,41.959],[-72.1236,41.959],[-72.0992,41.9589]]]}}]}