{"type":"FeatureCollection","features":[{"type":"Feature","geometry":{"type":"Polygon","coordinates":[[[-72.4228,41.732],[-72.3987,41.6969],[-72.3565,41.7015],[-72.3507,41.7119],[-72.3289,41.7388],[-72.3546,41.7672],[-72.3809,41.7639],[-72.4103,41.7655],[-72.4036,41.734],[-72.4228,41.732]]]},"properties":{"name":"Andover","fips":"0911001080"}},{"type":"Feature","geometry":{"type":"Polygon","coordinates":[[[-73.1022,41.353],[-73.0957,41.3393],[-73.0911,41.3387],[-73.0882,41.3351],[-73.0723,41.3269],[-73.0563,41.3238],[-73.0391,41.3267],[-73.0463,41.3461],[-73.0472,41.3605],[-73.0707,41.3602],[-73.0856,41.363],[-73.0948,41.3607],[-73.1022,41.353]]]},"properties":{"name":"Ansonia","fips":"0914001220"}},{"type":"Feature","geometry":{"type":"Polygon","coordinates":[[[-72.2177,41.8362],[-72.1324,41.8345],[-72.114,41.8317],[-72.1129,41.8793],[-72.1328,41.9104],[-72.1394,41.9162],[-72.1389,41.9212],[-72.1447,41.9288],[-72.1453,41.9381],[-72.1495,41.9441],[-72.1508,41.9526],[-72.1528,41.9531],[-72.1517,41.9593],[-72.217,41.9582],[-72.2177,41.8362]]]},"properties":{"name":"Ashford","fips":"0915001430"}},{"type":"Feature","geometry":{"type":"Polygon","coordinates":[[[-72.9282,41.8025],[-72.9254,41.7984],[-72.925,41.7879],[-72.9203,41.7793],[-72.903,41.7757],[-72.9012,41.7687],[-72.8959,41.7649],[-72.8811,41.7655],[-72.8201,41.7579],[-72.7967,41.7588],[-72.8,41.7918],[-72.7972,41.8047],[-72.7986,41.8249],[-72.9159,41.8104],[-72.9154,41.8076],[-72.9212,41.8071],[-72.921,41.8054],[-72.9282,41.8025]]]},"properties":{"name":"Avon","fips":"0911002060"}},{"type":"Feature","geometry":{"type":"Polygon","coordinates":[[[-73.0527,41.8908],[-73.0535,41.8873],[-72.9153,41.8968],[-72.8871,41.9731],[-73.034,41.9663],[-73.0527,41.8908]]]},"properties":{"name":"Barkhamsted","fips":"0916002760"}},{"type":"Feature","geometry":{"type":"Polygon","coordinates":[[[-73.0927,41.4135],[-73.0836,41.4038],[-73.0759,41.4104],[-73.0685,41.4107],[-73.0696,41.4138],[-73.0631,41.4236],[-73.0295,41.4195],[-73.0252,41.4346],[-73.0262,41.4616],[-73.0305,41.4659],[-73.0521,41.469],[-73.0537,41.4616],[-73.0621,41.4563],[-73.0774,41.4652],[-73.0835,41.4391],[-73.0927,41.4135]]]},"properties":{"name":"Beacon Falls","fips":"0914003250"}},{"type":"Feature","geometry":{"type":"Polygon","coordinates":[[[-72.8402,41.5691],[-72.8276,41.571],[-72.8296,41.5624],[-72.8257,41.5643],[-72.8261,41.5559],[-72.8191,41.5543],[-72.8092,41.562],[-72.8012,41.5731],[-72.7521,41.5789],[-72.7529,41.5925],[-72.7317,41.5958],[-72.7299,41.6015],[-72.7145,41.6043],[-72.7159,41.6064],[-72.7111,41.618],[-72.7158,41.6237],[-72.7123,41.6306],[-72.7153,41.6527],[-72.7499,41.647],[-72.7504,41.6502],[-72.8142,41.6457],[-72.8252,41.6298],[-72.8253,41.6277],[-72.818,41.6276],[-72.8228,41.6176],[-72.8194,41.6156],[-72.8183,41.6069],[-72.8235,41.6043],[-72.8265,41.5869],[-72.8365,41.5805],[-72.8402,41.5691]]]},"properties":{"name":"Berlin","fips":"0911004300"}},{"type":"Feature","geometry":{"type":"Polygon","coordinates":[[[-73.0475,41.3959],[-73.0424,41.3956],[-73.03,41.3885],[-72.9549,41.3945],[-72.9535,41.3997],[-72.9389,41.4086],[-72.9526,41.4194],[-72.9507,41.4278],[-72.9616,41.4324],[-72.9635,41.4375],[-72.9579,41.4452],[-72.9571,41.4501],[-72.949,41.4558],[-72.948,41.4641],[-73.0013,41.4711],[-73.0033,41.4627],[-73.0258,41.4596],[-73.0252,41.4346],[-73.0295,41.4195],[-73.0417,41.4209],[-73.0475,41.3959]]]},"properties":{"name":"Bethany","fips":"0917004580"}},{"type":"Feature","geometry":{"type":"Polygon","coordinates":[[[-73.435,41.3724],[-73.4243,41.3353],[-73.3471,41.3504],[-73.3801,41.4229],[-73.406,41.4282],[-73.406,41.4154],[-73.4009,41.4032],[-73.405,41.4026],[-73.4073,41.3957],[-73.4239,41.3823],[-73.4326,41.3785],[-73.435,41.3724]]]},"properties":{"name":"Bethel","fips":"0919004720"}},{"type":"Feature","geometry":{"type":"Polygon","coordinates":[[[-73.2614,41.6646],[-73.2535,41.6045],[-73.1578,41.6127],[-73.1708,41.6692],[-73.2614,41.6646]]]},"properties":{"name":"Bethlehem","fips":"0914004930"}},{"type":"Feature","geometry":{"type":"Polygon","coordinates":[[[-72.7986,41.8249],[-72.7972,41.8047],[-72.6914,41.8076],[-72.6901,41.8008],[-72.686,41.8002],[-72.6897,41.8662],[-72.743,41.8774],[-72.7378,41.8924],[-72.7591,41.902],[-72.7606,41.9057],[-72.7651,41.9026],[-72.7714,41.8851],[-72.7704,41.8808],[-72.7844,41.8557],[-72.7833,41.8269],[-72.7986,41.8249]]]},"properties":{"name":"Bloomfield","fips":"0911005910"}},{"type":"Feature","geometry":{"type":"Polygon","coordinates":[[[-72.4735,41.7983],[-72.4601,41.7273],[-72.4036,41.734],[-72.4189,41.8066],[-72.4735,41.7983]]]},"properties":{"name":"Bolton","fips":"0911006260"}},{"type":"Feature","geometry":{"type":"Polygon","coordinates":[[[-72.2276,41.5187],[-72.1935,41.512],[-72.1911,41.5142],[-72.1825,41.5128],[-72.1826,41.5161],[-72.1785,41.516],[-72.1657,41.5106],[-72.1354,41.504],[-72.1329,41.5089],[-72.1407,41.5363],[-72.1327,41.5485],[-72.1321,41.5648],[-72.1358,41.5691],[-72.1358,41.5735],[-72.1387,41.5764],[-72.194,41.5904],[-72.2259,41.5266],[-72.2276,41.5187]]]},"properties":{"name":"Bozrah","fips":"0918006820"}},{"type":"Feature","geometry":{"type":"Polygon","coordinates":[[[-72.8642,41.2694],[-72.8519,41.2622],[-72.8603,41.2442],[-72.8501,41.247],[-72.8472,41.2549],[-72.8366,41.2471],[-72.8266,41.2558],[-72.8272,41.2513],[-72.8246,41.2467],[-72.8162,41.2397],[-72.793,41.2465],[-72.7842,41.2554],[-72.7675,41.2538],[-72.7631,41.2418],[-72.7594,41.2397],[-72.7396,41.2477],[-72.7352,41.2521],[-72.7393,41.2588],[-72.7319,41.2627],[-72.7322,41.2656],[-72.728,41.268],[-72.7381,41.2863],[-72.7461,41.3106],[-72.7713,41.3051],[-72.7992,41.3243],[-72.8365,41.3135],[-72.8413,41.298],[-72.859,41.2877],[-72.8608,41.283],[-72.8595,41.2789],[-72.8642,41.2694]]]},"properties":{"name":"Branford","fips":"0917007310"}},{"type":"Feature","geometry":{"type":"Polygon","coordinates":[[[-73.2441,41.2266],[-73.2191,41.1978],[-73.2204,41.1879],[-73.2178,41.1828],[-73.2278,41.1692],[-73.2238,41.1712],[-73.2223,41.1689],[-73.2372,41.1551],[-73.2331,41.1495],[-73.2348,41.1438],[-73.2211,41.1399],[-73.1799,41.1526],[-73.1658,41.1543],[-73.1542,41.183],[-73.1538,41.1927],[-73.1628,41.2202],[-73.1576,41.2284],[-73.1695,41.2228],[-73.1863,41.2205],[-73.1907,41.2242],[-73.1832,41.2237],[-73.1845,41.2259],[-73.1814,41.2271],[-73.1883,41.2275],[-73.1909,41.225],[-73.2015,41.2296],[-73.2441,41.2266]]]},"properties":{"name":"Bridgeport","fips":"0912008070"}},{"type":"Feature","geometry":{"type":"Polygon","coordinates":[[[-73.4047,41.537],[-73.3998,41.5201],[-73.3851,41.5125],[-73.3886,41.5065],[-73.379,41.5019],[-73.3753,41.4892],[-73.3367,41.4757],[-73.3268,41.4695],[-73.3129,41.4674],[-73.3105,41.4688],[-73.3271,41.4845],[-73.3248,41.4896],[-73.3268,41.493],[-73.3189,41.5052],[-73.3303,41.5044],[-73.3431,41.5659],[-73.372,41.5651],[-73.3791,41.5621],[-73.3912,41.556],[-73.389,41.5469],[-73.3995,41.544],[-73.4047,41.537]]]},"properties":{"name":"Bridgewater","fips":"0919008210"}},{"type":"Feature","geometry":{"type":"Polygon","coordinates":[[[-72.9985,41.7125],[-72.9831,41.6395],[-72.9286,41.6455],[-72.9278,41.6407],[-72.922,41.6411],[-72.9239,41.6455],[-72.8834,41.6495],[-72.8983,41.7232],[-72.9985,41.7125]]]},"properties":{"name":"Bristol","fips":"0914008490"}},{"type":"Feature","geometry":{"type":"Polygon","coordinates":[[[-73.4444,41.4776],[-73.4433,41.4724],[-73.4374,41.4655],[-73.4348,41.4689],[-73.4383,41.4741],[-73.4313,41.4688],[-73.4297,41.4697],[-73.4158,41.4303],[-73.3801,41.4229],[-73.3787,41.4199],[-73.3317,41.4727],[-73.3753,41.4892],[-73.379,41.5019],[-73.3886,41.5065],[-73.385,41.511],[-73.387,41.5148],[-73.4308,41.498],[-73.4415,41.4913],[-73.437,41.4836],[-73.4427,41.4854],[-73.4444,41.4776]]]},"properties":{"name":"Brookfield","fips":"0919008980"}},{"type":"Feature","geometry":{"type":"Polygon","coordinates":[[[-72.0227,41.7604],[-71.9139,41.7423],[-71.9153,41.7468],[-71.9129,41.7518],[-71.918,41.7582],[-71.9135,41.766],[-71.9063,41.7721],[-71.9037,41.7802],[-71.889,41.7849],[-71.8901,41.7932],[-71.8861,41.7956],[-71.8865,41.8007],[-71.899,41.8075],[-71.8948,41.8113],[-71.8996,41.8165],[-71.9143,41.8156],[-71.9084,41.8173],[-71.9062,41.8268],[-71.9766,41.8268],[-71.9776,41.8183],[-71.9923,41.8185],[-71.992,41.8061],[-72.0145,41.805],[-72.0227,41.7604]]]},"properties":{"name":"Brooklyn","fips":"0915009190"}},{"type":"Feature","geometry":{"type":"Polygon","coordinates":[[[-73.0169,41.7982],[-72.9985,41.7125],[-72.8983,41.7232],[-72.9085,41.776],[-72.9194,41.7786],[-72.925,41.7879],[-72.9254,41.7984],[-72.9282,41.8025],[-72.921,41.8054],[-72.9212,41.8071],[-72.9256,41.8092],[-73.0169,41.7982]]]},"properties":{"name":"Burlington","fips":"0916010100"}},{"type":"Feature","geometry":{"type":"Polygon","coordinates":[[[-73.373,41.9603],[-73.3698,41.9573],[-73.37,41.9513],[-73.3667,41.9476],[-73.3665,41.9432],[-73.3634,41.9417],[-73.3663,41.9361],[-73.3613,41.9339],[-73.3615,41.9305],[-73.3567,41.9261],[-73.3621,41.9222],[-73.3618,41.9184],[-73.263,41.9162],[-73.2493,41.9643],[-73.2436,41.994],[-73.3566,42.0026],[-73.3637,42.001],[-73.365,41.9984],[-73.3663,42.0005],[-73.3694,41.9984],[-73.3649,41.9982],[-73.3675,41.9945],[-73.3663,41.9831],[-73.373,41.981],[-73.3675,41.9722],[-73.3674,41.9675],[-73.373,41.9603]]]},"properties":{"name":"Canaan","fips":"0916010940"}},{"type":"Feature","geometry":{"type":"Polygon","coordinates":[[[-72.0621,41.6522],[-71.955,41.6348],[-71.9484,41.6748],[-71.9535,41.6753],[-71.9557,41.6798],[-71.9547,41.6898],[-71.9624,41.6958],[-71.9623,41.7049],[-71.9654,41.7085],[-71.964,41.7107],[-71.9663,41.7144],[-71.9581,41.7196],[-71.9563,41.7262],[-71.9457,41.7225],[-71.9335,41.7307],[-71.9315,41.7346],[-71.9222,41.7344],[-71.9139,41.7423],[-72.0229,41.7596],[-72.0458,41.7305],[-72.0526,41.7314],[-72.0562,41.7014],[-72.0529,41.6879],[-72.0621,41.6522]]]},"properties":{"name":"Canterbury","fips":"0915012130"}},{"type":"Feature","geometry":{"type":"Polygon","coordinates":[[[-72.9538,41.8486],[-72.9518,41.8429],[-72.9422,41.8434],[-72.9363,41.8398],[-72.949,41.8064],[-72.9256,41.8092],[-72.9198,41.807],[-72.9154,41.8076],[-72.9159,41.8104],[-72.8702,41.8161],[-72.873,41.8374],[-72.8766,41.9208],[-72.9059,41.9217],[-72.9153,41.8968],[-72.9406,41.8952],[-72.9538,41.8486]]]},"properties":{"name":"Canton","fips":"0911012270"}},{"type":"Feature","geometry":{"type":"Polygon","coordinates":[[[-72.1645,41.8349],[-72.1567,41.7537],[-72.1026,41.7444],[-72.0966,41.7683],[-72.0924,41.8317],[-72.1645,41.8349]]]},"properties":{"name":"Chaplin","fips":"0915013810"}},{"type":"Feature","geometry":{"type":"Polygon","coordinates":[[[-72.9692,41.5305],[-72.949,41.5227],[-72.9347,41.5067],[-72.9346,41.5012],[-72.9412,41.4952],[-72.9444,41.4794],[-72.9477,41.4774],[-72.9524,41.4646],[-72.9169,41.4597],[-72.8867,41.448],[-72.8463,41.5028],[-72.8531,41.5249],[-72.8612,41.5281],[-72.858,41.5345],[-72.8536,41.5335],[-72.8517,41.5403],[-72.8531,41.5464],[-72.8678,41.549],[-72.8695,41.5545],[-72.8793,41.5632],[-72.9568,41.5553],[-72.9692,41.5305]]]},"properties":{"name":"Cheshire","fips":"0914014160"}},{"type":"Feature","geometry":{"type":"Polygon","coordinates":[[[-72.5388,41.4215],[-72.5241,41.3762],[-72.4546,41.3824],[-72.46,41.3866],[-72.4423,41.3926],[-72.4357,41.4009],[-72.4253,41.402],[-72.4255,41.4117],[-72.4359,41.4268],[-72.451,41.4337],[-72.5388,41.4215]]]},"properties":{"name":"Chester","fips":"0913014300"}},{"type":"Feature","geometry":{"type":"Polygon","coordinates":[[[-72.5861,41.3092],[-72.5818,41.3039],[-72.5707,41.298],[-72.5701,41.2944],[-72.5656,41.2924],[-72.5572,41.282],[-72.546,41.2803],[-72.548,41.2774],[-72.5443,41.2737],[-72.547,41.2716],[-72.5472,41.2625],[-72.5279,41.2501],[-72.5263,41.2556],[-72.5165,41.2482],[-72.5017,41.2478],[-72.4937,41.2574],[-72.4834,41.2623],[-72.512,41.3416],[-72.5317,41.3368],[-72.5861,41.3092]]]},"properties":{"name":"Clinton","fips":"0913015350"}},{"type":"Feature","geometry":{"type":"Polygon","coordinates":[[[-72.4667,41.5839],[-72.4308,41.5246],[-72.3234,41.5342],[-72.3229,41.5181],[-72.2191,41.5388],[-72.3095,41.6115],[-72.3131,41.6095],[-72.3245,41.6186],[-72.3281,41.6055],[-72.3435,41.5992],[-72.3562,41.5976],[-72.3625,41.6012],[-72.3711,41.5995],[-72.3752,41.6014],[-72.3841,41.5887],[-72.4013,41.5956],[-72.4104,41.6026],[-72.4172,41.5906],[-72.4667,41.5839]]]},"properties":{"name":"Colchester","fips":"0918015910"}},{"type":"Feature","geometry":{"type":"Polygon","coordinates":[[[-73.1515,41.9598],[-73.0295,41.9666],[-73.0088,42.0388],[-73.1272,42.0421],[-73.1515,41.9598]]]},"properties":{"name":"Colebrook","fips":"0916016050"}},{"type":"Feature","geometry":{"type":"Polygon","coordinates":[[[-72.3565,41.7015],[-72.3342,41.6436],[-72.3036,41.654],[-72.2787,41.672],[-72.2684,41.6711],[-72.2661,41.6773],[-72.2743,41.6926],[-72.2682,41.6928],[-72.2665,41.6907],[-72.2607,41.6986],[-72.2554,41.7005],[-72.2502,41.6993],[-72.2512,41.7033],[-72.244,41.7057],[-72.2478,41.708],[-72.2433,41.7121],[-72.245,41.7139],[-72.2396,41.7142],[-72.2442,41.7169],[-72.2466,41.7229],[-72.2534,41.721],[-72.2588,41.7223],[-72.2654,41.7176],[-72.2717,41.721],[-72.2762,41.7203],[-72.2781,41.724],[-72.2822,41.7219],[-72.2848,41.7251],[-72.3003,41.7252],[-72.311,41.7316],[-72.3271,41.7345],[-72.3289,41.7388],[-72.3507,41.7119],[-72.3565,41.7015]]]},"properties":{"name":"Columbia","fips":"0911016400"}},{"type":"Feature","geometry":{"type":"Polygon","coordinates":[[[-73.4148,41.7814],[-73.3014,41.779],[-73.263,41.9162],[-73.3618,41.9184],[-73.3596,41.9032],[-73.3611,41.8981],[-73.3578,41.8882],[-73.3654,41.8843],[-73.3637,41.8692],[-73.3683,41.8684],[-73.3739,41.8607],[-73.3758,41.851],[-73.3742,41.8455],[-73.3841,41.831],[-73.3716,41.8215],[-73.3771,41.8139],[-73.3939,41.8059],[-73.4077,41.7922],[-73.4148,41.7814]]]},"properties":{"name":"Cornwall","fips":"0916017240"}},{"type":"Feature","geometry":{"type":"Polygon","coordinates":[[[-72.4215,41.8255],[-72.4103,41.7655],[-72.3809,41.7639],[-72.3546,41.7672],[-72.3277,41.7381],[-72.3271,41.7345],[-72.311,41.7316],[-72.3003,41.7252],[-72.2848,41.7251],[-72.2822,41.7219],[-72.2781,41.724],[-72.2762,41.7203],[-72.2717,41.721],[-72.2654,41.7176],[-72.2588,41.7223],[-72.2534,41.721],[-72.2466,41.7229],[-72.253,41.7249],[-72.2537,41.7294],[-72.2598,41.7297],[-72.2635,41.7405],[-72.2696,41.746],[-72.2657,41.7507],[-72.2709,41.7598],[-72.2689,41.7629],[-72.2757,41.7766],[-72.2806,41.7795],[-72.281,41.7848],[-72.2916,41.7953],[-72.3027,41.7975],[-72.3059,41.7954],[-72.3128,41.7983],[-72.3095,41.8021],[-72.3159,41.8054],[-72.3149,41.8126],[-72.3168,41.8164],[-72.3131,41.8204],[-72.3141,41.8283],[-72.3084,41.8329],[-72.3097,41.8378],[-72.4215,41.8255]]]},"properties":{"name":"Coventry","fips":"0911017800"}},{"type":"Feature","geometry":{"type":"Polygon","coordinates":[[[-72.7159,41.6064],[-72.7127,41.6025],[-72.7089,41.6039],[-72.6965,41.6003],[-72.6841,41.6019],[-72.6795,41.5971],[-72.674,41.5997],[-72.6718,41.5976],[-72.6732,41.5947],[-72.6673,41.5914],[-72.6654,41.5871],[-72.6681,41.5835],[-72.6553,41.5776],[-72.6561,41.5734],[-72.654,41.5723],[-72.6488,41.5752],[-72.6381,41.594],[-72.6208,41.6032],[-72.6175,41.6077],[-72.6181,41.6132],[-72.6255,41.6193],[-72.6308,41.6277],[-72.6278,41.6402],[-72.7139,41.6277],[-72.7158,41.6237],[-72.7111,41.618],[-72.7159,41.6064]]]},"properties":{"name":"Cromwell","fips":"0913018080"}},{"type":"Feature","geometry":{"type":"Polygon","coordinates":[[[-73.5435,41.3763],[-73.5064,41.3774],[-73.5016,41.362],[-73.4854,41.3566],[-73.4701,41.3264],[-73.4242,41.3349],[-73.435,41.3724],[-73.4326,41.3785],[-73.4239,41.3823],[-73.4073,41.3957],[-73.405,41.4026],[-73.4009,41.4032],[-73.406,41.4154],[-73.406,41.4282],[-73.4158,41.4303],[-73.4269,41.4638],[-73.5363,41.4405],[-73.5435,41.3763]]]},"properties":{"name":"Danbury","fips":"0919018500"}},{"type":"Feature","geometry":{"type":"Polygon","coordinates":[[[-73.5182,41.0803],[-73.5154,41.0743],[-73.5101,41.0708],[-73.5063,41.0589],[-73.4959,41.0486],[-73.4961,40.9755],[-73.4565,40.9838],[-73.4554,41.0337],[-73.444,41.0684],[-73.4476,41.0719],[-73.4459,41.0765],[-73.4475,41.085],[-73.4513,41.0886],[-73.4538,41.0875],[-73.4536,41.0919],[-73.4746,41.1147],[-73.5008,41.1144],[-73.5114,41.1076],[-73.5094,41.1038],[-73.5149,41.0944],[-73.5146,41.0877],[-73.5182,41.0803]]]},"properties":{"name":"Darien","fips":"0919018850"}},{"type":"Feature","geometry":{"type":"Polygon","coordinates":[[[-72.5241,41.3762],[-72.5139,41.3464],[-72.4982,41.3476],[-72.4769,41.3345],[-72.4727,41.3342],[-72.4687,41.3455],[-72.4252,41.3645],[-72.4129,41.3741],[-72.3826,41.3825],[-72.3872,41.3861],[-72.4217,41.3905],[-72.4257,41.3957],[-72.4257,41.4008],[-72.4336,41.4018],[-72.4423,41.3926],[-72.46,41.3866],[-72.4546,41.3824],[-72.5241,41.3762]]]},"properties":{"name":"Deep River","fips":"0913019130"}},{"type":"Feature","geometry":{"type":"Polygon","coordinates":[[[-73.1246,41.3453],[-73.1158,41.3322],[-73.0932,41.321],[-73.0679,41.301],[-73.059,41.3116],[-73.0491,41.3113],[-73.0407,41.3139],[-73.0391,41.3267],[-73.0563,41.3238],[-73.0723,41.3269],[-73.0882,41.3351],[-73.0911,41.3387],[-73.0957,41.3393],[-73.1024,41.3529],[-73.1246,41.3453]]]},"properties":{"name":"Derby","fips":"0914019550"}},{"type":"Feature","geometry":{"type":"Polygon","coordinates":[[[-72.7461,41.4233],[-72.6542,41.4383],[-72.609,41.4431],[-72.637,41.4638],[-72.6279,41.4854],[-72.6337,41.5002],[-72.6779,41.4962],[-72.7339,41.4854],[-72.7391,41.4383],[-72.7461,41.4233]]]},"properties":{"name":"Durham","fips":"0913020810"}},{"type":"Feature","geometry":{"type":"Polygon","coordinates":[[[-72.7854,41.9181],[-72.7682,41.9177],[-72.7589,41.9081],[-72.7605,41.9029],[-72.7378,41.8924],[-72.7222,41.9279],[-72.6954,41.9223],[-72.6876,41.9481],[-72.7162,41.9498],[-72.7085,41.9738],[-72.7629,41.9859],[-72.7854,41.9181]]]},"properties":{"name":"East Granby","fips":"0911022070"}},{"type":"Feature","geometry":{"type":"Polygon","coordinates":[[[-72.4879,41.5004],[-72.4857,41.4914],[-72.4773,41.4886],[-72.4777,41.4753],[-72.4696,41.4687],[-72.4649,41.4525],[-72.4564,41.4373],[-72.4379,41.4283],[-72.4337,41.424],[-72.403,41.4248],[-72.3055,41.4363],[-72.3125,41.4784],[-72.3152,41.4781],[-72.3226,41.5161],[-72.3234,41.5342],[-72.4495,41.5225],[-72.4597,41.54],[-72.4636,41.5335],[-72.4826,41.5184],[-72.4821,41.5118],[-72.4879,41.5004]]]},"properties":{"name":"East Haddam","fips":"0913022280"}},{"type":"Feature","geometry":{"type":"Polygon","coordinates":[[[-72.5627,41.5586],[-72.5608,41.554],[-72.5544,41.5506],[-72.5511,41.543],[-72.5513,41.5353],[-72.5561,41.5234],[-72.5549,41.511],[-72.4804,41.5195],[-72.4636,41.5335],[-72.4597,41.54],[-72.4495,41.5225],[-72.4308,41.5246],[-72.5054,41.647],[-72.5442,41.6427],[-72.5293,41.6174],[-72.5445,41.6158],[-72.5408,41.6054],[-72.543,41.5964],[-72.5575,41.5784],[-72.5594,41.5627],[-72.5627,41.5586]]]},"properties":{"name":"East Hampton","fips":"0913022490"}},{"type":"Feature","geometry":{"type":"Polygon","coordinates":[[[-72.6651,41.7665],[-72.6613,41.7587],[-72.6446,41.7457],[-72.6426,41.7352],[-72.6478,41.7279],[-72.6363,41.7249],[-72.5712,41.7338],[-72.5835,41.8006],[-72.646,41.7976],[-72.6459,41.7859],[-72.6518,41.779],[-72.6642,41.7722],[-72.6651,41.7665]]]},"properties":{"name":"East Hartford","fips":"0911022630"}},{"type":"Feature","geometry":{"type":"Polygon","coordinates":[[[-72.904,41.2409],[-72.9051,41.2391],[-72.862,41.2392],[-72.8519,41.2622],[-72.8643,41.2692],[-72.8595,41.2789],[-72.8603,41.2851],[-72.8558,41.2909],[-72.8413,41.298],[-72.8365,41.3135],[-72.8238,41.3183],[-72.8178,41.34],[-72.817,41.3639],[-72.8225,41.3642],[-72.8228,41.3618],[-72.8271,41.3615],[-72.828,41.3424],[-72.8603,41.3366],[-72.8724,41.3088],[-72.8877,41.2857],[-72.8873,41.253],[-72.8996,41.2485],[-72.904,41.2409]]]},"properties":{"name":"East Haven","fips":"0917022910"}},{"type":"Feature","geometry":{"type":"Polygon","coordinates":[[[-72.2821,41.4061],[-72.2745,41.3561],[-72.2564,41.3259],[-72.2583,41.3218],[-72.2488,41.3],[-72.2485,41.2759],[-72.1845,41.276],[-72.1826,41.3206],[-72.1762,41.324],[-72.1805,41.3281],[-72.1811,41.3427],[-72.1888,41.3464],[-72.1894,41.3585],[-72.193,41.3671],[-72.1916,41.3731],[-72.242,41.4432],[-72.2766,41.4404],[-72.2821,41.4061]]]},"properties":{"name":"East Lyme","fips":"0918023400"}},{"type":"Feature","geometry":{"type":"Polygon","coordinates":[[[-72.624,41.9302],[-72.6193,41.8683],[-72.5173,41.8699],[-72.5133,41.9453],[-72.6234,41.9343],[-72.624,41.9302]]]},"properties":{"name":"East Windsor","fips":"0911024800"}},{"type":"Feature","geometry":{"type":"Polygon","coordinates":[[[-72.1527,41.9533],[-72.1453,41.9381],[-72.1447,41.9288],[-72.1389,41.9212],[-72.1394,41.9162],[-72.1328,41.9104],[-72.1129,41.8793],[-72.114,41.8317],[-72.0447,41.8315],[-72.044,41.9146],[-72.097,41.915],[-72.0986,41.9589],[-72.1517,41.9593],[-72.1527,41.9533]]]},"properties":{"name":"Eastford","fips":"0915021860"}},{"type":"Feature","geometry":{"type":"Polygon","coordinates":[[[-73.3688,41.275],[-73.3259,41.2274],[-73.3236,41.2219],[-73.329,41.2134],[-73.3019,41.2127],[-73.2843,41.2253],[-73.2795,41.2316],[-73.2633,41.2125],[-73.2566,41.2193],[-73.2514,41.2305],[-73.2361,41.2384],[-73.2745,41.2839],[-73.2743,41.2937],[-73.2782,41.2984],[-73.2706,41.3072],[-73.2727,41.3183],[-73.306,41.3324],[-73.3253,41.3225],[-73.3048,41.2978],[-73.3688,41.275]]]},"properties":{"name":"Easton","fips":"0912023890"}},{"type":"Feature","geometry":{"type":"Polygon","coordinates":[[[-72.5183,41.8592],[-72.5185,41.8572],[-72.4976,41.8597],[-72.4955,41.8662],[-72.4276,41.8748],[-72.4316,41.9151],[-72.3077,41.9294],[-72.3092,41.9335],[-72.3063,41.9407],[-72.4075,41.9418],[-72.4071,41.9571],[-72.5136,41.9453],[-72.5183,41.8592]]]},"properties":{"name":"Ellington","fips":"0911025360"}},{"type":"Feature","geometry":{"type":"Polygon","coordinates":[[[-72.6234,41.9343],[-72.4927,41.9475],[-72.5092,42.0344],[-72.5315,42.0346],[-72.5728,42.0302],[-72.5822,42.0247],[-72.607,42.0251],[-72.6049,42.0119],[-72.6075,41.9993],[-72.6036,41.9898],[-72.6116,41.9608],[-72.6139,41.9435],[-72.6234,41.9343]]]},"properties":{"name":"Enfield","fips":"0911025990"}},{"type":"Feature","geometry":{"type":"Polygon","coordinates":[[[-72.4727,41.3344],[-72.4358,41.331],[-72.432,41.3265],[-72.4255,41.3242],[-72.4027,41.3316],[-72.3839,41.332],[-72.3691,41.3423],[-72.3777,41.3465],[-72.3794,41.3497],[-72.3753,41.3751],[-72.3826,41.3825],[-72.4129,41.3741],[-72.4252,41.3645],[-72.4689,41.3454],[-72.4727,41.3344]]]},"properties":{"name":"Essex","fips":"0913026270"}},{"type":"Feature","geometry":{"type":"Polygon","coordinates":[[[-73.3384,41.1946],[-73.3074,41.1523],[-73.3048,41.1524],[-73.306,41.1495],[-73.3034,41.1459],[-73.2983,41.1439],[-73.2961,41.1337],[-73.2989,41.1249],[-73.2901,41.124],[-73.2643,41.1145],[-73.2417,41.1274],[-73.2326,41.1425],[-73.2351,41.1448],[-73.2329,41.1476],[-73.2337,41.1521],[-73.2372,41.1551],[-73.2236,41.1669],[-73.2236,41.1711],[-73.2277,41.1702],[-73.2178,41.1828],[-73.2204,41.1879],[-73.2194,41.1982],[-73.2486,41.232],[-73.2633,41.2125],[-73.2795,41.2316],[-73.2843,41.2253],[-73.3019,41.2127],[-73.329,41.2134],[-73.3335,41.1988],[-73.3384,41.1946]]]},"properties":{"name":"Fairfield","fips":"0912026620"}},{"type":"Feature","geometry":{"type":"Polygon","coordinates":[[[-72.9085,41.776],[-72.8929,41.6967],[-72.8778,41.6981],[-72.8154,41.6878],[-72.783,41.7128],[-72.762,41.7158],[-72.7625,41.7377],[-72.7688,41.7376],[-72.7689,41.7396],[-72.7791,41.7302],[-72.7822,41.7482],[-72.795,41.7475],[-72.7967,41.7588],[-72.8201,41.7579],[-72.8811,41.7655],[-72.8952,41.7647],[-72.9012,41.7687],[-72.9022,41.7751],[-72.9085,41.776]]]},"properties":{"name":"Farmington","fips":"0911027600"}},{"type":"Feature","geometry":{"type":"Polygon","coordinates":[[[-72.1937,41.5911],[-72.1387,41.5764],[-72.135,41.5695],[-72.1252,41.5633],[-72.1041,41.6008],[-72.12,41.6633],[-72.1517,41.6675],[-72.1937,41.5911]]]},"properties":{"name":"Franklin","fips":"0918029910"}},{"type":"Feature","geometry":{"type":"Polygon","coordinates":[[[-72.6483,41.7232],[-72.6406,41.7145],[-72.622,41.7122],[-72.6159,41.7071],[-72.6197,41.7025],[-72.6353,41.6987],[-72.6362,41.692],[-72.6157,41.6881],[-72.6086,41.6813],[-72.6095,41.6746],[-72.612,41.6725],[-72.6248,41.6693],[-72.628,41.666],[-72.6235,41.6503],[-72.6305,41.6333],[-72.5054,41.647],[-72.4973,41.6624],[-72.4773,41.6688],[-72.4827,41.6813],[-72.4768,41.6861],[-72.4522,41.6888],[-72.4639,41.7456],[-72.6483,41.7232]]]},"properties":{"name":"Glastonbury","fips":"0911031240"}},{"type":"Feature","geometry":{"type":"Polygon","coordinates":[[[-73.301,41.7797],[-73.2018,41.79],[-73.165,41.9132],[-73.263,41.9162],[-73.301,41.7797]]]},"properties":{"name":"Goshen","fips":"0916032290"}},{"type":"Feature","geometry":{"type":"Polygon","coordinates":[[[-72.9054,41.9232],[-72.9059,41.9217],[-72.7854,41.918],[-72.7629,41.9859],[-72.7784,41.9894],[-72.7747,42.0024],[-72.8171,41.9977],[-72.8138,42.0367],[-72.8636,42.0375],[-72.9054,41.9232]]]},"properties":{"name":"Granby","fips":"0911032640"}},{"type":"Feature","geometry":{"type":"Polygon","coordinates":[[[-73.7278,41.1007],[-73.6553,41.0122],[-73.6603,41.0005],[-73.6572,40.9909],[-73.6597,40.9879],[-73.6568,40.9845],[-73.6129,40.9509],[-73.5537,40.9635],[-73.5539,41.0222],[-73.5509,41.0222],[-73.5551,41.0252],[-73.5632,41.0402],[-73.5683,41.0597],[-73.6339,41.144],[-73.7278,41.1007]]]},"properties":{"name":"Greenwich","fips":"0919033620"}},{"type":"Feature","geometry":{"type":"Polygon","coordinates":[[[-71.9915,41.6055],[-71.9846,41.5979],[-71.987,41.5883],[-71.9845,41.585],[-71.9895,41.5769],[-71.9892,41.5656],[-71.9546,41.5665],[-71.9029,41.5203],[-71.8634,41.5149],[-71.8844,41.6412],[-71.9519,41.6343],[-71.9753,41.6381],[-71.9844,41.6101],[-71.9915,41.6055]]]},"properties":{"name":"Griswold","fips":"0918033900"}},{"type":"Feature","geometry":{"type":"Polygon","coordinates":[[[-72.0971,41.3966],[-72.0929,41.3889],[-72.0932,41.3771],[-72.0877,41.3625],[-72.0796,41.2989],[-72.0551,41.2766],[-72.0501,41.2766],[-72.0192,41.2906],[-71.9791,41.3],[-71.9811,41.3112],[-71.9768,41.32],[-71.9812,41.3287],[-71.9761,41.333],[-71.9691,41.3452],[-71.9711,41.3514],[-71.9671,41.3581],[-71.9673,41.3697],[-71.9642,41.3826],[-71.9586,41.3881],[-71.9609,41.3931],[-71.9587,41.3979],[-72.0958,41.4004],[-72.0971,41.3966]]]},"properties":{"name":"Groton","fips":"0918034250"}},{"type":"Feature","geometry":{"type":"Polygon","coordinates":[[[-72.7493,41.3981],[-72.7415,41.3237],[-72.7467,41.308],[-72.728,41.268],[-72.7322,41.2656],[-72.7319,41.2627],[-72.7393,41.2588],[-72.7337,41.2502],[-72.7063,41.2437],[-72.6902,41.2469],[-72.6845,41.2551],[-72.6786,41.2445],[-72.6778,41.2503],[-72.6705,41.2481],[-72.6673,41.2513],[-72.6669,41.2597],[-72.6746,41.2665],[-72.6689,41.2655],[-72.6656,41.2706],[-72.6584,41.265],[-72.6545,41.2657],[-72.6566,41.2699],[-72.6544,41.274],[-72.6497,41.2744],[-72.648,41.2759],[-72.6493,41.2796],[-72.6444,41.2809],[-72.6474,41.2859],[-72.6461,41.2874],[-72.649,41.2892],[-72.6456,41.289],[-72.6333,41.2994],[-72.6317,41.3093],[-72.6424,41.3226],[-72.6653,41.3354],[-72.675,41.3486],[-72.6786,41.3601],[-72.6797,41.3798],[-72.6787,41.4338],[-72.7206,41.4274],[-72.7234,41.4191],[-72.7282,41.4176],[-72.7427,41.403],[-72.746,41.3969],[-72.7493,41.3981]]]},"properties":{"name":"Guilford","fips":"0917034950"}},{"type":"Feature","geometry":{"type":"Polygon","coordinates":[[[-72.637,41.4639],[-72.57,41.4148],[-72.5242,41.4248],[-72.451,41.4337],[-72.4564,41.4373],[-72.4649,41.4525],[-72.4696,41.4687],[-72.4777,41.4753],[-72.4773,41.4886],[-72.4844,41.4901],[-72.4863,41.4931],[-72.4878,41.5022],[-72.4821,41.5118],[-72.4826,41.5184],[-72.4804,41.5195],[-72.6337,41.5002],[-72.6279,41.4854],[-72.637,41.4639]]]},"properties":{"name":"Haddam","fips":"0913035230"}},{"type":"Feature","geometry":{"type":"Polygon","coordinates":[[[-72.9754,41.3599],[-72.9732,41.3475],[-72.9678,41.3479],[-72.9645,41.3438],[-72.9613,41.349],[-72.9528,41.3491],[-72.9539,41.3474],[-72.9515,41.3471],[-72.9514,41.3439],[-72.9572,41.3402],[-72.954,41.3374],[-72.9132,41.3336],[-72.9025,41.3272],[-72.8917,41.3285],[-72.8926,41.3303],[-72.8888,41.3326],[-72.8868,41.3412],[-72.8802,41.3434],[-72.8796,41.3475],[-72.8772,41.3466],[-72.8733,41.3494],[-72.877,41.3535],[-72.8838,41.3535],[-72.8817,41.3609],[-72.908,41.3665],[-72.9038,41.3781],[-72.8956,41.3836],[-72.8909,41.3932],[-72.887,41.3933],[-72.8864,41.4113],[-72.8846,41.4114],[-72.8832,41.4233],[-72.874,41.4263],[-72.8618,41.4259],[-72.8514,41.4344],[-72.9169,41.4597],[-72.948,41.4641],[-72.949,41.4558],[-72.9571,41.4501],[-72.9579,41.4452],[-72.9635,41.4375],[-72.9616,41.4324],[-72.9507,41.4278],[-72.9526,41.4194],[-72.9389,41.4086],[-72.9535,41.3997],[-72.9536,41.3955],[-72.9634,41.3844],[-72.9754,41.3599]]]},"properties":{"name":"Hamden","fips":"0917035650"}},{"type":"Feature","geometry":{"type":"Polygon","coordinates":[[[-72.1025,41.745],[-72.081,41.7351],[-72.0458,41.7305],[-72.0229,41.7596],[-72.0145,41.805],[-72.0214,41.8282],[-72.0318,41.8317],[-72.0924,41.8317],[-72.0966,41.7683],[-72.1025,41.745]]]},"properties":{"name":"Hampton","fips":"0915036000"}},{"type":"Feature","geometry":{"type":"Polygon","coordinates":[[[-72.7182,41.8066],[-72.7139,41.7774],[-72.7165,41.7708],[-72.7146,41.7236],[-72.6556,41.7299],[-72.6478,41.7279],[-72.6426,41.7352],[-72.6446,41.7457],[-72.6613,41.7587],[-72.6651,41.7658],[-72.6642,41.7722],[-72.6518,41.779],[-72.6459,41.7859],[-72.6456,41.8058],[-72.6557,41.806],[-72.6629,41.8015],[-72.6627,41.8056],[-72.6584,41.8057],[-72.6611,41.8071],[-72.6861,41.8029],[-72.686,41.8002],[-72.6901,41.8008],[-72.6914,41.8076],[-72.7182,41.8066]]]},"properties":{"name":"Hartford","fips":"0911037070"}},{"type":"Feature","geometry":{"type":"Polygon","coordinates":[[[-73.0284,41.9709],[-73.0295,41.9666],[-72.8871,41.9731],[-72.8636,42.0375],[-73.0088,42.0388],[-73.0284,41.9709]]]},"properties":{"name":"Hartland","fips":"0916037140"}},{"type":"Feature","geometry":{"type":"Polygon","coordinates":[[[-73.1205,41.7746],[-73.1162,41.7698],[-73.1172,41.7567],[-73.1121,41.7507],[-73.1156,41.7419],[-73.0977,41.7298],[-73.0887,41.7181],[-73.0815,41.717],[-73.0684,41.7071],[-72.9989,41.7144],[-73.0169,41.7982],[-73.1041,41.7984],[-73.1037,41.7951],[-73.1125,41.7822],[-73.1172,41.7814],[-73.1205,41.7746]]]},"properties":{"name":"Harwinton","fips":"0916037280"}},{"type":"Feature","geometry":{"type":"Polygon","coordinates":[[[-72.4601,41.7273],[-72.4481,41.6719],[-72.4294,41.6623],[-72.4137,41.6347],[-72.4092,41.6307],[-72.4079,41.6252],[-72.4104,41.6026],[-72.4013,41.5956],[-72.3841,41.5887],[-72.3752,41.6014],[-72.3711,41.5995],[-72.3625,41.6012],[-72.3562,41.5976],[-72.3435,41.5992],[-72.3281,41.6055],[-72.3245,41.6186],[-72.3564,41.7015],[-72.3987,41.6969],[-72.4228,41.732],[-72.4601,41.7273]]]},"properties":{"name":"Hebron","fips":"0911037910"}},{"type":"Feature","geometry":{"type":"Polygon","coordinates":[[[-73.5181,41.6668],[-73.5069,41.6658],[-73.5019,41.6695],[-73.3821,41.6833],[-73.384,41.6988],[-73.3788,41.6994],[-73.3985,41.7362],[-73.4016,41.7544],[-73.3932,41.7609],[-73.3869,41.781],[-73.4148,41.7814],[-73.4101,41.7883],[-73.5079,41.7915],[-73.5181,41.6668]]]},"properties":{"name":"Kent","fips":"0916040290"}},{"type":"Feature","geometry":{"type":"Polygon","coordinates":[[[-71.9273,41.8517],[-71.9261,41.8497],[-71.921,41.8495],[-71.9043,41.8313],[-71.9077,41.8253],[-71.9081,41.8177],[-71.9143,41.8156],[-71.8996,41.8165],[-71.8948,41.8113],[-71.899,41.8075],[-71.8872,41.8018],[-71.8857,41.797],[-71.8901,41.7932],[-71.889,41.7849],[-71.9037,41.7802],[-71.9063,41.7721],[-71.9172,41.7597],[-71.7913,41.7745],[-71.7968,41.9044],[-71.8983,41.8806],[-71.9096,41.8696],[-71.9158,41.87],[-71.9192,41.8678],[-71.9273,41.8517]]]},"properties":{"name":"Killingly","fips":"0915040500"}},{"type":"Feature","geometry":{"type":"Polygon","coordinates":[[[-72.6546,41.4364],[-72.6484,41.4351],[-72.6495,41.4309],[-72.6423,41.4292],[-72.6488,41.422],[-72.6494,41.4175],[-72.6383,41.4125],[-72.632,41.4121],[-72.6303,41.4027],[-72.6123,41.3862],[-72.614,41.3808],[-72.6088,41.3735],[-72.6081,41.3674],[-72.6106,41.3668],[-72.6097,41.3634],[-72.6126,41.3605],[-72.6111,41.3445],[-72.6144,41.3373],[-72.6143,41.3296],[-72.6008,41.3258],[-72.5967,41.3284],[-72.5915,41.3227],[-72.5859,41.324],[-72.5851,41.319],[-72.5896,41.3155],[-72.5846,41.3132],[-72.5886,41.3117],[-72.5857,41.3099],[-72.5317,41.3368],[-72.512,41.3416],[-72.5388,41.4215],[-72.57,41.4148],[-72.609,41.4431],[-72.6537,41.4381],[-72.6546,41.4364]]]},"properties":{"name":"Killingworth","fips":"0913040710"}},{"type":"Feature","geometry":{"type":"Polygon","coordinates":[[[-72.3342,41.6436],[-72.3244,41.6184],[-72.3131,41.6095],[-72.3095,41.6115],[-72.2191,41.5388],[-72.1981,41.5835],[-72.1575,41.6576],[-72.2382,41.7135],[-72.244,41.7144],[-72.2433,41.7121],[-72.2478,41.7084],[-72.244,41.7057],[-72.2512,41.7033],[-72.2502,41.6993],[-72.2554,41.7005],[-72.2607,41.6986],[-72.2665,41.6907],[-72.2682,41.6928],[-72.2743,41.6926],[-72.2661,41.6773],[-72.2684,41.6711],[-72.2787,41.672],[-72.3036,41.654],[-72.3342,41.6436]]]},"properties":{"name":"Lebanon","fips":"0918042390"}},{"type":"Feature","geometry":{"type":"Polygon","coordinates":[[[-72.0965,41.4302],[-72.093,41.4158],[-72.096,41.4088],[-72.0958,41.4004],[-71.9613,41.3979],[-71.9628,41.4114],[-71.9569,41.4138],[-71.9508,41.4245],[-71.9432,41.4291],[-71.9424,41.44],[-71.9458,41.4417],[-71.9494,41.4492],[-71.9474,41.4582],[-71.9566,41.4874],[-72.0236,41.4831],[-72.0338,41.4848],[-72.0397,41.4829],[-72.0467,41.4852],[-72.056,41.4829],[-72.0584,41.4799],[-72.0581,41.4736],[-72.0649,41.4657],[-72.07,41.4636],[-72.0721,41.4581],[-72.0828,41.4489],[-72.0879,41.4394],[-72.0965,41.4302]]]},"properties":{"name":"Ledyard","fips":"0918042600"}},{"type":"Feature","geometry":{"type":"Polygon","coordinates":[[[-72.0479,41.5948],[-72.046,41.5853],[-72.0412,41.5804],[-72.0459,41.5706],[-72.0432,41.5611],[-72.0461,41.556],[-72.0366,41.5537],[-72.0192,41.554],[-72.0107,41.5694],[-71.9899,41.565],[-71.989,41.5796],[-71.9845,41.585],[-71.987,41.5883],[-71.9846,41.5979],[-71.9915,41.6055],[-71.9844,41.6101],[-71.9753,41.6381],[-72.0312,41.6472],[-72.0323,41.635],[-72.0406,41.6284],[-72.0356,41.6107],[-72.0479,41.5948]]]},"properties":{"name":"Lisbon","fips":"0918043230"}},{"type":"Feature","geometry":{"type":"Polygon","coordinates":[[[-73.2986,41.779],[-73.2933,41.7366],[-73.2959,41.7307],[-73.2927,41.7179],[-73.2958,41.7107],[-73.2755,41.6952],[-73.2763,41.7078],[-73.1568,41.7159],[-73.1414,41.6727],[-73.0684,41.7071],[-73.0815,41.717],[-73.0887,41.7181],[-73.0977,41.7298],[-73.1156,41.7419],[-73.1121,41.7507],[-73.1172,41.7567],[-73.1162,41.7696],[-73.1198,41.7756],[-73.1586,41.7848],[-73.1632,41.794],[-73.2986,41.779]]]},"properties":{"name":"Litchfield","fips":"0916043370"}},{"type":"Feature","geometry":{"type":"Polygon","coordinates":[[[-72.4332,41.4239],[-72.4255,41.4117],[-72.4263,41.3977],[-72.4235,41.3919],[-72.3861,41.3857],[-72.376,41.3763],[-72.3794,41.3497],[-72.3722,41.3434],[-72.3691,41.3423],[-72.3543,41.3462],[-72.3534,41.3502],[-72.3391,41.3531],[-72.338,41.3509],[-72.3339,41.3557],[-72.2767,41.3663],[-72.2822,41.4059],[-72.2766,41.4404],[-72.3049,41.4327],[-72.3055,41.4363],[-72.403,41.4248],[-72.4332,41.4239]]]},"properties":{"name":"Lyme","fips":"0913044210"}},{"type":"Feature","geometry":{"type":"MultiPolygon","coordinates":[[[[-72.6794,41.3868],[-72.6786,41.3601],[-72.675,41.3486],[-72.6653,41.3354],[-72.6424,41.3226],[-72.6317,41.3093],[-72.6333,41.2994],[-72.6456,41.289],[-72.649,41.2892],[-72.6461,41.2874],[-72.6474,41.2859],[-72.6444,41.2809],[-72.6493,41.2796],[-72.648,41.2759],[-72.6497,41.2744],[-72.6544,41.274],[-72.6566,41.2699],[-72.6545,41.2657],[-72.6317,41.2679],[-72.6304,41.2701],[-72.6222,41.2718],[-72.5982,41.2689],[-72.5828,41.272],[-72.5685,41.2668],[-72.5446,41.2487],[-72.5366,41.2516],[-72.5413,41.2518],[-72.5359,41.2546],[-72.5472,41.2625],[-72.547,41.2716],[-72.5443,41.2737],[-72.548,41.2774],[-72.546,41.2803],[-72.5572,41.282],[-72.5656,41.2924],[-72.5701,41.2944],[-72.5707,41.298],[-72.5818,41.3039],[-72.5886,41.3117],[-72.5846,41.3132],[-72.5896,41.3155],[-72.5851,41.319],[-72.5859,41.324],[-72.5915,41.3227],[-72.5967,41.3284],[-72.6008,41.3258],[-72.6143,41.3296],[-72.6144,41.3373],[-72.6111,41.3445],[-72.6126,41.3605],[-72.6097,41.3634],[-72.6106,41.3668],[-72.6081,41.3674],[-72.6088,41.3735],[-72.614,41.3808],[-72.6123,41.3862],[-72.6303,41.4027],[-72.632,41.4121],[-72.6383,41.4125],[-72.6494,41.4175],[-72.6488,41.422],[-72.6423,41.4292],[-72.6496,41.431],[-72.6486,41.4354],[-72.6527,41.4347],[-72.6542,41.4383],[-72.6787,41.4338],[-72.6794,41.3868]]],[[[-72.6027,41.2666],[-72.6009,41.2659],[-72.6017,41.2667],[-72.6027,41.2666]]]]},"properties":{"name":"Madison","fips":"0917044560"}},{"type":"Feature","geometry":{"type":"Polygon","coordinates":[[[-72.5835,41.8006],[-72.5712,41.7338],[-72.4639,41.7456],[-72.476,41.813],[-72.5075,41.8097],[-72.5054,41.8203],[-72.5835,41.8006]]]},"properties":{"name":"Manchester","fips":"0911044700"}},{"type":"Feature","geometry":{"type":"Polygon","coordinates":[[[-72.3168,41.8164],[-72.3149,41.8126],[-72.3159,41.8054],[-72.3095,41.8021],[-72.3128,41.7983],[-72.3059,41.7954],[-72.3027,41.7975],[-72.2916,41.7953],[-72.281,41.7848],[-72.2806,41.7795],[-72.272,41.7712],[-72.2724,41.7672],[-72.2689,41.7629],[-72.2709,41.7598],[-72.2657,41.751],[-72.2696,41.746],[-72.2635,41.7405],[-72.2597,41.7296],[-72.1981,41.7282],[-72.1985,41.7317],[-72.195,41.73],[-72.191,41.7314],[-72.1956,41.7396],[-72.189,41.7471],[-72.1892,41.7504],[-72.1857,41.7519],[-72.1877,41.7552],[-72.1779,41.7554],[-72.1764,41.75],[-72.1741,41.7512],[-72.1716,41.7485],[-72.1685,41.7522],[-72.1634,41.7497],[-72.1563,41.7535],[-72.1645,41.8349],[-72.3101,41.8361],[-72.3084,41.8329],[-72.3141,41.8283],[-72.3131,41.8204],[-72.3168,41.8164]]]},"properties":{"name":"Mansfield","fips":"0911044910"}},{"type":"Feature","geometry":{"type":"Polygon","coordinates":[[[-72.5054,41.647],[-72.4667,41.5839],[-72.4172,41.5906],[-72.4106,41.6018],[-72.4079,41.6252],[-72.4092,41.6307],[-72.4137,41.6347],[-72.4294,41.6623],[-72.4481,41.6719],[-72.4522,41.6888],[-72.4768,41.6861],[-72.4827,41.6813],[-72.4773,41.6688],[-72.4973,41.6624],[-72.5054,41.647]]]},"properties":{"name":"Marlborough","fips":"0911045820"}},{"type":"Feature","geometry":{"type":"Polygon","coordinates":[[[-72.8612,41.5281],[-72.8531,41.5249],[-72.8514,41.516],[-72.7961,41.5048],[-72.7726,41.4968],[-72.7448,41.4982],[-72.7522,41.5789],[-72.8012,41.5731],[-72.8092,41.562],[-72.8191,41.5543],[-72.8261,41.5559],[-72.8257,41.5643],[-72.8296,41.5624],[-72.8276,41.571],[-72.8485,41.5673],[-72.8443,41.5447],[-72.8531,41.5464],[-72.8517,41.5403],[-72.8536,41.5335],[-72.858,41.5345],[-72.8612,41.5281]]]},"properties":{"name":"Meriden","fips":"0917046520"}},{"type":"Feature","geometry":{"type":"Polygon","coordinates":[[[-73.1647,41.5571],[-73.1553,41.5143],[-73.1604,41.4979],[-73.1573,41.4952],[-73.1579,41.4894],[-73.125,41.4876],[-73.1042,41.4894],[-73.1019,41.497],[-73.0953,41.5016],[-73.0947,41.5138],[-73.0701,41.5143],[-73.0868,41.5372],[-73.0939,41.5702],[-73.1452,41.5578],[-73.1647,41.5571]]]},"properties":{"name":"Middlebury","fips":"0914046940"}},{"type":"Feature","geometry":{"type":"Polygon","coordinates":[[[-72.7489,41.5443],[-72.7433,41.4831],[-72.6779,41.4962],[-72.6824,41.5309],[-72.6946,41.5495],[-72.7489,41.5443]]]},"properties":{"name":"Middlefield","fips":"0913047080"}},{"type":"Feature","geometry":{"type":"Polygon","coordinates":[[[-72.7529,41.5925],[-72.7489,41.5443],[-72.6946,41.5495],[-72.6821,41.5297],[-72.6776,41.4948],[-72.5549,41.511],[-72.5561,41.5234],[-72.5513,41.5353],[-72.5511,41.543],[-72.5544,41.5506],[-72.5608,41.554],[-72.5765,41.5576],[-72.5952,41.5581],[-72.6089,41.5628],[-72.6238,41.5606],[-72.6411,41.5613],[-72.648,41.5669],[-72.6488,41.5752],[-72.654,41.5723],[-72.6561,41.5734],[-72.6553,41.5776],[-72.6681,41.5835],[-72.6654,41.5871],[-72.6673,41.5914],[-72.6732,41.5947],[-72.6728,41.5989],[-72.6795,41.5971],[-72.6841,41.6019],[-72.6965,41.6003],[-72.7053,41.6033],[-72.7181,41.6038],[-72.7299,41.6015],[-72.7317,41.5958],[-72.7529,41.5925]]]},"properties":{"name":"Middletown","fips":"0913047360"}},{"type":"Feature","geometry":{"type":"Polygon","coordinates":[[[-73.1225,41.1829],[-73.1199,41.1757],[-73.1078,41.1686],[-73.0882,41.1878],[-73.0768,41.1956],[-73.0736,41.1966],[-73.0579,41.1854],[-73.0375,41.1951],[-73.0547,41.2093],[-73.0456,41.2096],[-73.0379,41.2018],[-73.0359,41.2052],[-73.0296,41.2075],[-73.0154,41.2045],[-73.0081,41.2102],[-73.0063,41.216],[-72.996,41.2133],[-72.9843,41.2189],[-72.979,41.2304],[-72.9869,41.2355],[-72.9927,41.2343],[-72.9922,41.2393],[-72.9946,41.2417],[-72.9921,41.2449],[-73.0441,41.2568],[-73.0869,41.2766],[-73.0887,41.2717],[-73.0873,41.2518],[-73.0912,41.2464],[-73.1016,41.2401],[-73.11,41.2294],[-73.1097,41.202],[-73.1208,41.1885],[-73.1225,41.1829]]]},"properties":{"name":"Milford","fips":"0917047535"}},{"type":"Feature","geometry":{"type":"Polygon","coordinates":[[[-73.306,41.3324],[-73.2727,41.3183],[-73.2706,41.3072],[-73.2782,41.2984],[-73.2744,41.2938],[-73.2048,41.2994],[-73.1768,41.3376],[-73.1707,41.3579],[-73.1571,41.3767],[-73.158,41.383],[-73.1734,41.3836],[-73.1833,41.3917],[-73.1892,41.3884],[-73.1946,41.3887],[-73.1978,41.3828],[-73.2036,41.3792],[-73.2013,41.3739],[-73.2048,41.3705],[-73.2212,41.364],[-73.2281,41.3652],[-73.2291,41.3703],[-73.306,41.3324]]]},"properties":{"name":"Monroe","fips":"0912048620"}},{"type":"Feature","geometry":{"type":"Polygon","coordinates":[[[-72.242,41.4432],[-72.2193,41.4121],[-72.1044,41.4275],[-72.0956,41.4253],[-72.0965,41.4302],[-72.0934,41.4355],[-72.0721,41.4581],[-72.0699,41.4658],[-72.0744,41.4818],[-72.081,41.4921],[-72.0937,41.4972],[-72.0992,41.4946],[-72.108,41.5028],[-72.1141,41.5005],[-72.1197,41.5029],[-72.1425,41.5042],[-72.1806,41.5163],[-72.1826,41.5161],[-72.1825,41.5128],[-72.1911,41.5142],[-72.1935,41.512],[-72.2276,41.5187],[-72.2182,41.5004],[-72.2127,41.4575],[-72.2225,41.4565],[-72.2215,41.4463],[-72.242,41.4432]]]},"properties":{"name":"Montville","fips":"0918048900"}},{"type":"Feature","geometry":{"type":"Polygon","coordinates":[[[-73.2763,41.7078],[-73.2755,41.6952],[-73.2606,41.6838],[-73.2614,41.6646],[-73.1708,41.6692],[-73.1414,41.6727],[-73.1568,41.7159],[-73.2763,41.7078]]]},"properties":{"name":"Morris","fips":"0916049460"}},{"type":"Feature","geometry":{"type":"Polygon","coordinates":[[[-73.1046,41.4914],[-73.1034,41.4817],[-73.0621,41.4563],[-73.0537,41.4616],[-73.0521,41.469],[-73.0305,41.4659],[-73.0258,41.4596],[-73.0033,41.4627],[-73.0009,41.4699],[-73.0187,41.5196],[-73.0547,41.5146],[-73.0947,41.5138],[-73.0953,41.5016],[-73.1019,41.497],[-73.1046,41.4914]]]},"properties":{"name":"Naugatuck","fips":"0914049950"}},{"type":"Feature","geometry":{"type":"Polygon","coordinates":[[[-72.8256,41.6685],[-72.8192,41.645],[-72.7504,41.6502],[-72.762,41.7158],[-72.783,41.7128],[-72.8111,41.6922],[-72.8198,41.6831],[-72.8256,41.6685]]]},"properties":{"name":"New Britain","fips":"0911050440"}},{"type":"Feature","geometry":{"type":"Polygon","coordinates":[[[-73.5547,41.1799],[-73.5531,41.1742],[-73.5323,41.1546],[-73.5341,41.1498],[-73.5223,41.1145],[-73.4746,41.1147],[-73.4495,41.1501],[-73.4509,41.1585],[-73.464,41.1613],[-73.4665,41.1646],[-73.4653,41.1759],[-73.4735,41.1819],[-73.4701,41.1896],[-73.4729,41.1914],[-73.472,41.1944],[-73.4789,41.2064],[-73.4837,41.208],[-73.4849,41.2117],[-73.5547,41.1799]]]},"properties":{"name":"New Canaan","fips":"0919050580"}},{"type":"Feature","geometry":{"type":"Polygon","coordinates":[[[-73.537,41.4405],[-73.4269,41.4638],[-73.4332,41.472],[-73.4383,41.4741],[-73.4348,41.4689],[-73.4371,41.4654],[-73.4433,41.4724],[-73.4429,41.4852],[-73.437,41.4836],[-73.4415,41.4913],[-73.4453,41.5095],[-73.4428,41.5141],[-73.4504,41.5347],[-73.5307,41.52],[-73.537,41.4405]]]},"properties":{"name":"New Fairfield","fips":"0919050860"}},{"type":"Feature","geometry":{"type":"Polygon","coordinates":[[[-73.0766,41.7985],[-73.0167,41.7982],[-72.949,41.8064],[-72.9363,41.8398],[-72.9422,41.8434],[-72.9518,41.8429],[-72.9538,41.8485],[-72.9406,41.8952],[-73.0535,41.8873],[-73.0766,41.7985]]]},"properties":{"name":"New Hartford","fips":"0916051350"}},{"type":"Feature","geometry":{"type":"Polygon","coordinates":[[[-72.9979,41.3157],[-72.998,41.3141],[-72.9563,41.3105],[-72.9563,41.3016],[-72.9499,41.2962],[-72.952,41.2945],[-72.9402,41.2878],[-72.9385,41.281],[-72.9331,41.2819],[-72.9299,41.2798],[-72.9264,41.2831],[-72.906,41.2827],[-72.9031,41.2746],[-72.9057,41.2704],[-72.8994,41.267],[-72.8935,41.2595],[-72.8942,41.2566],[-72.9005,41.2554],[-72.9038,41.2513],[-72.9041,41.2476],[-72.9009,41.2464],[-72.8873,41.253],[-72.8877,41.2857],[-72.8724,41.3088],[-72.8603,41.3366],[-72.8888,41.3326],[-72.8926,41.3303],[-72.892,41.3283],[-72.9025,41.3272],[-72.9132,41.3336],[-72.954,41.3374],[-72.9572,41.3402],[-72.9514,41.3439],[-72.9515,41.3471],[-72.9577,41.3504],[-72.9642,41.3464],[-72.9645,41.3438],[-72.9678,41.3479],[-72.9729,41.3474],[-72.9702,41.3429],[-72.9833,41.3373],[-72.9889,41.3289],[-72.9968,41.3236],[-72.9979,41.3157]]]},"properties":{"name":"New Haven","fips":"0917052070"}},{"type":"Feature","geometry":{"type":"Polygon","coordinates":[[[-72.1285,41.3585],[-72.1135,41.3436],[-72.1052,41.3202],[-72.1006,41.3132],[-72.1039,41.3052],[-72.1015,41.3049],[-72.0891,41.2765],[-72.0551,41.2766],[-72.0796,41.2989],[-72.0877,41.3625],[-72.0932,41.3771],[-72.0929,41.387],[-72.1098,41.3829],[-72.1283,41.3653],[-72.1285,41.3585]]]},"properties":{"name":"New London","fips":"0918052350"}},{"type":"Feature","geometry":{"type":"Polygon","coordinates":[[[-73.5069,41.6647],[-73.4983,41.6589],[-73.494,41.6611],[-73.4847,41.6474],[-73.4941,41.6445],[-73.4978,41.6381],[-73.4459,41.5253],[-73.4428,41.5141],[-73.4453,41.5095],[-73.4415,41.4913],[-73.4308,41.498],[-73.387,41.5148],[-73.3998,41.5201],[-73.4045,41.5312],[-73.4035,41.5406],[-73.3995,41.544],[-73.389,41.5469],[-73.3912,41.556],[-73.372,41.5651],[-73.3431,41.5659],[-73.3591,41.6465],[-73.3779,41.659],[-73.3821,41.6833],[-73.5019,41.6695],[-73.5069,41.6647]]]},"properties":{"name":"New Milford","fips":"0919052630"}},{"type":"Feature","geometry":{"type":"Polygon","coordinates":[[[-72.7622,41.7178],[-72.7499,41.647],[-72.7272,41.6495],[-72.7274,41.6522],[-72.703,41.6543],[-72.7069,41.6737],[-72.7004,41.6746],[-72.708,41.7104],[-72.7059,41.7243],[-72.7622,41.7178]]]},"properties":{"name":"Newington","fips":"0911052140"}},{"type":"Feature","geometry":{"type":"Polygon","coordinates":[[[-73.3786,41.42],[-73.3333,41.3183],[-73.2291,41.3703],[-73.2281,41.3652],[-73.2212,41.364],[-73.2048,41.3705],[-73.2013,41.3739],[-73.2036,41.3792],[-73.1978,41.3828],[-73.1956,41.3879],[-73.1833,41.3917],[-73.1882,41.3982],[-73.1854,41.4022],[-73.1866,41.4086],[-73.1982,41.4119],[-73.2182,41.4291],[-73.2265,41.4303],[-73.2384,41.4263],[-73.2423,41.4298],[-73.2423,41.4361],[-73.2453,41.4399],[-73.2577,41.4336],[-73.2637,41.4345],[-73.2737,41.4516],[-73.2807,41.4523],[-73.2939,41.4474],[-73.2978,41.4483],[-73.3008,41.4559],[-73.2983,41.4676],[-73.3028,41.4714],[-73.3129,41.4674],[-73.3268,41.4695],[-73.3317,41.4727],[-73.3786,41.42]]]},"properties":{"name":"Newtown","fips":"0919052980"}},{"type":"Feature","geometry":{"type":"Polygon","coordinates":[[[-73.2623,41.9187],[-73.263,41.9162],[-73.165,41.9132],[-73.1272,42.0421],[-73.233,42.045],[-73.2492,41.965],[-73.2623,41.9187]]]},"properties":{"name":"Norfolk","fips":"0916053470"}},{"type":"Feature","geometry":{"type":"Polygon","coordinates":[[[-72.8238,41.3183],[-72.7992,41.3243],[-72.7713,41.3051],[-72.7461,41.3106],[-72.7415,41.3264],[-72.7493,41.3981],[-72.746,41.3969],[-72.7427,41.403],[-72.7282,41.4176],[-72.7234,41.4191],[-72.7206,41.4274],[-72.7461,41.4233],[-72.8177,41.3994],[-72.8178,41.34],[-72.8238,41.3183]]]},"properties":{"name":"North Branford","fips":"0917053890"}},{"type":"Feature","geometry":{"type":"Polygon","coordinates":[[[-73.3592,42.009],[-73.3574,42.0026],[-73.2436,41.994],[-73.233,42.045],[-73.3405,42.0484],[-73.3405,42.0443],[-73.3524,42.0287],[-73.3511,42.0164],[-73.3578,42.013],[-73.3592,42.009]]]},"properties":{"name":"North Canaan","fips":"0916054030"}},{"type":"Feature","geometry":{"type":"Polygon","coordinates":[[[-72.9079,41.3669],[-72.8817,41.3609],[-72.8838,41.3535],[-72.8745,41.3517],[-72.8749,41.3474],[-72.8796,41.3475],[-72.8811,41.3465],[-72.8788,41.3446],[-72.888,41.3397],[-72.8888,41.3326],[-72.828,41.3424],[-72.8271,41.3615],[-72.8228,41.3618],[-72.8225,41.3642],[-72.817,41.3639],[-72.8177,41.3994],[-72.8276,41.3966],[-72.8274,41.4244],[-72.8342,41.4242],[-72.8385,41.4273],[-72.8483,41.4262],[-72.8514,41.4344],[-72.8618,41.4259],[-72.874,41.4263],[-72.8832,41.4233],[-72.8846,41.4114],[-72.8864,41.4113],[-72.887,41.3933],[-72.8909,41.3932],[-72.8956,41.3836],[-72.9038,41.3781],[-72.9079,41.3669]]]},"properties":{"name":"North Haven","fips":"0917054870"}},{"type":"Feature","geometry":{"type":"Polygon","coordinates":[[[-71.9672,41.5287],[-71.9474,41.4582],[-71.9494,41.4492],[-71.9458,41.4417],[-71.9424,41.44],[-71.9433,41.4336],[-71.845,41.4088],[-71.8393,41.4124],[-71.8341,41.4116],[-71.8254,41.4147],[-71.8181,41.4199],[-71.8014,41.4155],[-71.7977,41.4167],[-71.7932,41.5057],[-71.9672,41.5287]]]},"properties":{"name":"North Stonington","fips":"0918055500"}},{"type":"Feature","geometry":{"type":"Polygon","coordinates":[[[-73.4746,41.1147],[-73.4536,41.0919],[-73.4538,41.0875],[-73.4513,41.0886],[-73.4475,41.085],[-73.4459,41.0765],[-73.4476,41.0719],[-73.444,41.0684],[-73.4554,41.0337],[-73.4565,41.0204],[-73.3903,41.021],[-73.3838,41.0288],[-73.3843,41.1073],[-73.3801,41.1219],[-73.3827,41.1423],[-73.3888,41.1489],[-73.3871,41.1705],[-73.3948,41.1718],[-73.4186,41.1609],[-73.4489,41.1538],[-73.4578,41.1364],[-73.4746,41.1147]]]},"properties":{"name":"Norwalk","fips":"0919056060"}},{"type":"Feature","geometry":{"type":"Polygon","coordinates":[[[-72.1407,41.5365],[-72.1329,41.5089],[-72.135,41.5036],[-72.1197,41.5029],[-72.1141,41.5005],[-72.108,41.5028],[-72.0989,41.4945],[-72.0937,41.4972],[-72.078,41.4907],[-72.0725,41.4919],[-72.0677,41.5175],[-72.0586,41.5121],[-72.0403,41.5311],[-72.0469,41.5352],[-72.0451,41.5406],[-72.0503,41.5418],[-72.0458,41.5493],[-72.0461,41.556],[-72.0432,41.5611],[-72.0459,41.5706],[-72.0412,41.5804],[-72.046,41.5853],[-72.0495,41.5975],[-72.0553,41.6046],[-72.0639,41.6083],[-72.1041,41.6008],[-72.1252,41.5633],[-72.1358,41.5692],[-72.1321,41.5648],[-72.1327,41.5485],[-72.1407,41.5365]]]},"properties":{"name":"Norwich","fips":"0918056270"}},{"type":"Feature","geometry":{"type":"Polygon","coordinates":[[[-72.3691,41.3423],[-72.3578,41.3351],[-72.3491,41.3245],[-72.3474,41.3192],[-72.3495,41.2963],[-72.3407,41.2787],[-72.3335,41.2722],[-72.3023,41.2715],[-72.2485,41.2759],[-72.2487,41.2996],[-72.2583,41.3218],[-72.2564,41.3259],[-72.2745,41.3561],[-72.2767,41.3663],[-72.3339,41.3557],[-72.338,41.3509],[-72.3391,41.3531],[-72.3534,41.3502],[-72.3543,41.3462],[-72.3691,41.3423]]]},"properties":{"name":"Old Lyme","fips":"0913057040"}},{"type":"Feature","geometry":{"type":"Polygon","coordinates":[[[-72.4331,41.3152],[-72.4216,41.2837],[-72.4166,41.2786],[-72.4182,41.2579],[-72.385,41.2539],[-72.3396,41.2619],[-72.3315,41.2684],[-72.3407,41.2787],[-72.3495,41.2963],[-72.3474,41.3192],[-72.3491,41.3245],[-72.3578,41.3351],[-72.3661,41.3411],[-72.3691,41.3423],[-72.3839,41.332],[-72.4027,41.3316],[-72.4255,41.3242],[-72.4331,41.3152]]]},"properties":{"name":"Old Saybrook","fips":"0913057320"}},{"type":"Feature","geometry":{"type":"Polygon","coordinates":[[[-73.0869,41.2766],[-73.0441,41.2568],[-72.9921,41.2449],[-72.9905,41.2474],[-72.9924,41.2487],[-72.992,41.2681],[-72.9799,41.2792],[-72.9871,41.2815],[-72.9843,41.3018],[-72.9891,41.3133],[-72.998,41.3141],[-73.0131,41.3103],[-73.0407,41.3139],[-73.0617,41.3101],[-73.0679,41.301],[-73.0653,41.2949],[-73.0688,41.2892],[-73.0838,41.2815],[-73.0869,41.2766]]]},"properties":{"name":"Orange","fips":"0917057600"}},{"type":"Feature","geometry":{"type":"Polygon","coordinates":[[[-73.2077,41.4205],[-73.1982,41.4119],[-73.1866,41.4086],[-73.1854,41.4022],[-73.188,41.3973],[-73.1812,41.3896],[-73.1734,41.3836],[-73.1587,41.3834],[-73.1579,41.3772],[-73.147,41.3678],[-73.1158,41.3863],[-73.1105,41.3981],[-73.0887,41.3997],[-73.0836,41.4038],[-73.0927,41.4135],[-73.0835,41.4391],[-73.0774,41.4652],[-73.1034,41.4817],[-73.1042,41.4894],[-73.125,41.4876],[-73.1579,41.4894],[-73.156,41.4829],[-73.1597,41.4705],[-73.1576,41.4651],[-73.1619,41.4577],[-73.1658,41.4569],[-73.1642,41.4482],[-73.2077,41.4205]]]},"properties":{"name":"Oxford","fips":"0914058300"}},{"type":"Feature","geometry":{"type":"Polygon","coordinates":[[[-71.9663,41.7144],[-71.964,41.7107],[-71.9654,41.7085],[-71.9623,41.7049],[-71.9624,41.6958],[-71.9547,41.6898],[-71.9557,41.6798],[-71.9535,41.6753],[-71.9484,41.6748],[-71.955,41.6348],[-71.8579,41.6442],[-71.8387,41.7688],[-71.9172,41.7597],[-71.918,41.7572],[-71.9129,41.7511],[-71.9153,41.7468],[-71.9142,41.7415],[-71.919,41.7361],[-71.9315,41.7346],[-71.9335,41.7307],[-71.9457,41.7225],[-71.9563,41.7262],[-71.9581,41.7196],[-71.9663,41.7144]]]},"properties":{"name":"Plainfield","fips":"0915059980"}},{"type":"Feature","geometry":{"type":"Polygon","coordinates":[[[-72.8929,41.6967],[-72.8834,41.6494],[-72.8226,41.6557],[-72.8256,41.6685],[-72.8198,41.6831],[-72.8154,41.6878],[-72.8778,41.6981],[-72.8929,41.6967]]]},"properties":{"name":"Plainville","fips":"0911060120"}},{"type":"Feature","geometry":{"type":"Polygon","coordinates":[[[-73.0647,41.6418],[-73.0504,41.6097],[-73.0362,41.6152],[-73.0186,41.6141],[-73.0215,41.6271],[-73.004,41.6286],[-72.9831,41.6395],[-72.9989,41.7144],[-73.0553,41.7082],[-73.0647,41.6418]]]},"properties":{"name":"Plymouth","fips":"0914060750"}},{"type":"Feature","geometry":{"type":"Polygon","coordinates":[[[-72.0447,41.8324],[-72.0318,41.8317],[-72.0214,41.8282],[-72.0145,41.805],[-71.992,41.8061],[-71.9923,41.8185],[-71.9776,41.8183],[-71.9766,41.8268],[-71.9062,41.8268],[-71.9043,41.8309],[-71.921,41.8495],[-71.9273,41.8508],[-71.923,41.8628],[-71.9174,41.8692],[-71.9232,41.8705],[-71.9249,41.8736],[-71.9212,41.887],[-71.9272,41.9008],[-71.9322,41.9061],[-71.9338,41.9169],[-72.044,41.9146],[-72.0447,41.8324]]]},"properties":{"name":"Pomfret","fips":"0915061030"}},{"type":"Feature","geometry":{"type":"Polygon","coordinates":[[[-72.6489,41.5757],[-72.6477,41.5665],[-72.6387,41.5604],[-72.6089,41.5628],[-72.5952,41.5581],[-72.5765,41.5576],[-72.5608,41.554],[-72.5628,41.5584],[-72.5594,41.5627],[-72.5577,41.578],[-72.543,41.5964],[-72.5408,41.6054],[-72.5445,41.6158],[-72.5293,41.6174],[-72.5442,41.6427],[-72.6305,41.6333],[-72.6308,41.6277],[-72.6255,41.6193],[-72.6181,41.6132],[-72.6175,41.6077],[-72.6208,41.6032],[-72.6381,41.594],[-72.6489,41.5757]]]},"properties":{"name":"Portland","fips":"0913061800"}},{"type":"Feature","geometry":{"type":"Polygon","coordinates":[[[-72.081,41.4921],[-72.0744,41.4818],[-72.07,41.4636],[-72.0649,41.4657],[-72.0581,41.4736],[-72.0584,41.4799],[-72.0557,41.4833],[-72.0501,41.4849],[-72.0236,41.4831],[-71.9566,41.4874],[-71.9672,41.5287],[-71.9029,41.5203],[-71.9546,41.5665],[-71.9906,41.5648],[-72.0107,41.5694],[-72.0192,41.554],[-72.0366,41.5537],[-72.0461,41.556],[-72.0458,41.5493],[-72.0503,41.5418],[-72.0451,41.5406],[-72.0469,41.5352],[-72.0403,41.5311],[-72.0586,41.5121],[-72.0677,41.5175],[-72.0725,41.4919],[-72.081,41.4921]]]},"properties":{"name":"Preston","fips":"0918062150"}},{"type":"Feature","geometry":{"type":"Polygon","coordinates":[[[-73.0187,41.5196],[-73.0013,41.4711],[-72.9524,41.4646],[-72.9477,41.4774],[-72.9444,41.4794],[-72.9412,41.4952],[-72.9346,41.5012],[-72.9351,41.5076],[-72.949,41.5227],[-72.9783,41.5339],[-73.0187,41.5196]]]},"properties":{"name":"Prospect","fips":"0914062290"}},{"type":"Feature","geometry":{"type":"Polygon","coordinates":[[[-71.9337,41.9169],[-71.9322,41.9061],[-71.9272,41.9008],[-71.9212,41.887],[-71.9249,41.8736],[-71.9232,41.8705],[-71.9174,41.8692],[-71.9096,41.8696],[-71.8983,41.8806],[-71.7968,41.9044],[-71.7979,41.9324],[-71.9318,41.9316],[-71.9274,41.917],[-71.9337,41.9169]]]},"properties":{"name":"Putnam","fips":"0915062710"}},{"type":"Feature","geometry":{"type":"Polygon","coordinates":[[[-73.4701,41.3264],[-73.4661,41.3122],[-73.4512,41.306],[-73.4471,41.2785],[-73.4301,41.2543],[-73.3048,41.2978],[-73.3253,41.3225],[-73.3333,41.3183],[-73.3471,41.3504],[-73.4701,41.3264]]]},"properties":{"name":"Redding","fips":"0919063480"}},{"type":"Feature","geometry":{"type":"Polygon","coordinates":[[[-73.5499,41.3015],[-73.551,41.2954],[-73.5025,41.2372],[-73.4382,41.2652],[-73.4471,41.2785],[-73.4512,41.306],[-73.4661,41.3122],[-73.4698,41.3258],[-73.4854,41.3566],[-73.5016,41.362],[-73.5064,41.3774],[-73.5436,41.3751],[-73.5499,41.3015]]]},"properties":{"name":"Ridgefield","fips":"0919063970"}},{"type":"Feature","geometry":{"type":"Polygon","coordinates":[[[-72.7153,41.6527],[-72.7123,41.6306],[-72.7139,41.6277],[-72.6278,41.6402],[-72.6235,41.6503],[-72.628,41.666],[-72.6248,41.6693],[-72.612,41.6725],[-72.6095,41.6746],[-72.6086,41.6813],[-72.6157,41.6881],[-72.6517,41.6843],[-72.6653,41.6801],[-72.667,41.6726],[-72.6699,41.6699],[-72.6831,41.6719],[-72.706,41.6688],[-72.703,41.6543],[-72.7153,41.6527]]]},"properties":{"name":"Rocky Hill","fips":"0911065370"}},{"type":"Feature","geometry":{"type":"Polygon","coordinates":[[[-73.3486,41.5952],[-73.3413,41.5504],[-73.3303,41.5044],[-73.2523,41.5121],[-73.258,41.5369],[-73.2673,41.6032],[-73.3486,41.5952]]]},"properties":{"name":"Roxbury","fips":"0916065930"}},{"type":"Feature","geometry":{"type":"Polygon","coordinates":[[[-72.3229,41.5181],[-72.3152,41.4781],[-72.3125,41.4784],[-72.3049,41.4327],[-72.2866,41.4391],[-72.2215,41.4463],[-72.2225,41.4565],[-72.2127,41.4575],[-72.2182,41.5004],[-72.2276,41.5187],[-72.2259,41.5266],[-72.2191,41.5388],[-72.3229,41.5181]]]},"properties":{"name":"Salem","fips":"0918066210"}},{"type":"Feature","geometry":{"type":"Polygon","coordinates":[[[-73.4966,41.9218],[-73.3618,41.9184],[-73.3621,41.9222],[-73.3567,41.9261],[-73.3615,41.9305],[-73.3613,41.9339],[-73.3663,41.9361],[-73.3634,41.9417],[-73.3665,41.9432],[-73.3667,41.9476],[-73.37,41.9513],[-73.3698,41.9573],[-73.373,41.9602],[-73.3679,41.9664],[-73.3671,41.9712],[-73.373,41.981],[-73.3663,41.9831],[-73.3675,41.9945],[-73.3649,41.9982],[-73.3693,41.9985],[-73.3573,42.0027],[-73.3581,42.0125],[-73.3509,42.0173],[-73.3524,42.0287],[-73.3405,42.0443],[-73.3405,42.0484],[-73.4873,42.0495],[-73.4966,41.9218]]]},"properties":{"name":"Salisbury","fips":"0916066420"}},{"type":"Feature","geometry":{"type":"Polygon","coordinates":[[[-72.1225,41.7128],[-72.1198,41.6618],[-72.0621,41.6522],[-72.0529,41.6879],[-72.0562,41.7014],[-72.0526,41.7314],[-72.081,41.7351],[-72.1026,41.7444],[-72.112,41.7459],[-72.1225,41.7128]]]},"properties":{"name":"Scotland","fips":"0915067400"}},{"type":"Feature","geometry":{"type":"Polygon","coordinates":[[[-73.1475,41.3677],[-73.1396,41.3612],[-73.1361,41.3512],[-73.1247,41.3453],[-73.1024,41.3529],[-73.0948,41.3607],[-73.0863,41.3629],[-73.0707,41.3602],[-73.0472,41.3605],[-73.0489,41.3841],[-73.0417,41.4209],[-73.0631,41.4236],[-73.0696,41.4138],[-73.0685,41.4107],[-73.0759,41.4104],[-73.0887,41.3997],[-73.1105,41.3981],[-73.1158,41.3863],[-73.1475,41.3677]]]},"properties":{"name":"Seymour","fips":"0914067610"}},{"type":"Feature","geometry":{"type":"Polygon","coordinates":[[[-73.5079,41.7922],[-73.4101,41.7883],[-73.3939,41.8059],[-73.3763,41.8145],[-73.3719,41.8228],[-73.3841,41.831],[-73.3742,41.8455],[-73.3758,41.851],[-73.3739,41.8607],[-73.3683,41.8684],[-73.3637,41.8692],[-73.3654,41.8843],[-73.3578,41.8882],[-73.3611,41.8981],[-73.3596,41.9032],[-73.3618,41.9184],[-73.4966,41.9217],[-73.5079,41.7922]]]},"properties":{"name":"Sharon","fips":"0916067960"}},{"type":"Feature","geometry":{"type":"Polygon","coordinates":[[[-73.2045,41.2997],[-73.1739,41.2686],[-73.1553,41.2691],[-73.1469,41.2554],[-73.1083,41.2686],[-73.103,41.2595],[-73.0868,41.2546],[-73.0887,41.2717],[-73.0869,41.2766],[-73.0838,41.2815],[-73.0688,41.2892],[-73.0651,41.2976],[-73.0777,41.3077],[-73.079,41.3116],[-73.1158,41.3322],[-73.1247,41.3453],[-73.1361,41.3512],[-73.1396,41.3612],[-73.1571,41.3767],[-73.1707,41.3579],[-73.1768,41.3376],[-73.2045,41.2997]]]},"properties":{"name":"Shelton","fips":"0914068170"}},{"type":"Feature","geometry":{"type":"Polygon","coordinates":[[[-73.5307,41.5202],[-73.4504,41.5347],[-73.4978,41.6381],[-73.4941,41.6445],[-73.4847,41.6474],[-73.494,41.6611],[-73.4983,41.6589],[-73.5104,41.6665],[-73.5181,41.6666],[-73.5307,41.5202]]]},"properties":{"name":"Sherman","fips":"0919068310"}},{"type":"Feature","geometry":{"type":"Polygon","coordinates":[[[-72.8766,41.9208],[-72.873,41.8374],[-72.8702,41.8161],[-72.7833,41.8269],[-72.7844,41.8557],[-72.7704,41.8808],[-72.7714,41.8851],[-72.7651,41.9026],[-72.7586,41.9072],[-72.765,41.9154],[-72.7706,41.918],[-72.8766,41.9208]]]},"properties":{"name":"Simsbury","fips":"0911068940"}},{"type":"Feature","geometry":{"type":"Polygon","coordinates":[[[-72.5092,42.0344],[-72.4927,41.9475],[-72.4071,41.9571],[-72.3974,42.0331],[-72.5092,42.0344]]]},"properties":{"name":"Somers","fips":"0911069220"}},{"type":"Feature","geometry":{"type":"Polygon","coordinates":[[[-72.646,41.7983],[-72.5836,41.8006],[-72.5054,41.8203],[-72.4968,41.8606],[-72.5185,41.8572],[-72.5173,41.8699],[-72.6193,41.8683],[-72.6256,41.8457],[-72.6404,41.8252],[-72.646,41.7983]]]},"properties":{"name":"South Windsor","fips":"0911071390"}},{"type":"Feature","geometry":{"type":"Polygon","coordinates":[[[-73.3271,41.4848],[-73.3128,41.4699],[-73.2996,41.4701],[-73.2983,41.4648],[-73.3008,41.4559],[-73.2978,41.4483],[-73.2939,41.4474],[-73.2807,41.4523],[-73.2737,41.4516],[-73.2637,41.4345],[-73.2577,41.4336],[-73.2453,41.4399],[-73.2423,41.4361],[-73.2423,41.4298],[-73.2384,41.4263],[-73.2221,41.4298],[-73.2077,41.4205],[-73.1642,41.4482],[-73.1658,41.4569],[-73.1619,41.4577],[-73.1576,41.4651],[-73.1597,41.4711],[-73.1566,41.4779],[-73.1568,41.493],[-73.1604,41.4979],[-73.1553,41.5143],[-73.2042,41.5085],[-73.2428,41.513],[-73.3194,41.5051],[-73.3268,41.493],[-73.3248,41.4896],[-73.3271,41.4848]]]},"properties":{"name":"Southbury","fips":"0914069640"}},{"type":"Feature","geometry":{"type":"Polygon","coordinates":[[[-72.9463,41.5568],[-72.8839,41.5638],[-72.8741,41.5593],[-72.8678,41.549],[-72.8443,41.5447],[-72.8485,41.5673],[-72.8402,41.5691],[-72.8365,41.5805],[-72.8265,41.5869],[-72.8235,41.6043],[-72.8183,41.6069],[-72.8194,41.6156],[-72.8228,41.6176],[-72.818,41.6276],[-72.8253,41.6277],[-72.8252,41.6298],[-72.8142,41.6457],[-72.8192,41.645],[-72.8207,41.6557],[-72.9239,41.6455],[-72.922,41.6411],[-72.9278,41.6407],[-72.9286,41.6455],[-72.9385,41.6443],[-72.9336,41.6078],[-72.9463,41.5568]]]},"properties":{"name":"Southington","fips":"0911070550"}},{"type":"Feature","geometry":{"type":"Polygon","coordinates":[[[-72.1186,41.6616],[-72.1041,41.6008],[-72.0639,41.6083],[-72.0553,41.6046],[-72.0479,41.5948],[-72.0379,41.6064],[-72.0354,41.6116],[-72.0406,41.6284],[-72.0323,41.635],[-72.0312,41.6472],[-72.1186,41.6616]]]},"properties":{"name":"Sprague","fips":"0918071670"}},{"type":"Feature","geometry":{"type":"Polygon","coordinates":[[[-72.4075,41.9426],[-72.2367,41.9399],[-72.2368,41.9583],[-72.2349,41.9576],[-72.2164,41.9964],[-72.2051,42.0311],[-72.3974,42.0331],[-72.4075,41.9426]]]},"properties":{"name":"Stafford","fips":"0911072090"}},{"type":"Feature","geometry":{"type":"Polygon","coordinates":[[[-73.6339,41.144],[-73.5683,41.0597],[-73.5632,41.0402],[-73.5551,41.0252],[-73.5509,41.0222],[-73.5539,41.0222],[-73.5537,40.9635],[-73.4961,40.9755],[-73.4959,41.0486],[-73.5063,41.0589],[-73.5101,41.0708],[-73.5154,41.0743],[-73.5182,41.0803],[-73.5146,41.0877],[-73.5149,41.0944],[-73.5094,41.1038],[-73.5114,41.1076],[-73.5008,41.1144],[-73.5223,41.1145],[-73.5341,41.1498],[-73.5323,41.1546],[-73.5531,41.1742],[-73.5546,41.1799],[-73.6339,41.144]]]},"properties":{"name":"Stamford","fips":"0919073070"}},{"type":"Feature","geometry":{"type":"Polygon","coordinates":[[[-71.8579,41.6442],[-71.7877,41.6399],[-71.7913,41.7745],[-71.8387,41.7688],[-71.8579,41.6442]]]},"properties":{"name":"Sterling","fips":"0915073420"}},{"type":"Feature","geometry":{"type":"Polygon","coordinates":[[[-71.9812,41.3287],[-71.9768,41.32],[-71.9811,41.3112],[-71.9791,41.3],[-71.9295,41.3104],[-71.9073,41.3045],[-71.8921,41.3301],[-71.8665,41.3192],[-71.8575,41.3208],[-71.8294,41.3424],[-71.8313,41.3513],[-71.836,41.354],[-71.8379,41.3601],[-71.8376,41.3655],[-71.8318,41.3703],[-71.8327,41.3758],[-71.8306,41.3788],[-71.8335,41.3823],[-71.8331,41.3878],[-71.8422,41.3954],[-71.8425,41.4087],[-71.9433,41.4336],[-71.9432,41.4291],[-71.9508,41.4245],[-71.9569,41.4138],[-71.9628,41.4114],[-71.963,41.4001],[-71.9587,41.3979],[-71.9609,41.3931],[-71.9586,41.3881],[-71.9642,41.3826],[-71.9673,41.3697],[-71.9671,41.3581],[-71.9711,41.3514],[-71.9691,41.3452],[-71.9761,41.333],[-71.9812,41.3287]]]},"properties":{"name":"Stonington","fips":"0918073770"}},{"type":"Feature","geometry":{"type":"Polygon","coordinates":[[[-73.1655,41.155],[-73.1305,41.1463],[-73.0954,41.1466],[-73.1075,41.1684],[-73.1199,41.1757],[-73.1224,41.1798],[-73.1214,41.1875],[-73.1097,41.202],[-73.11,41.2294],[-73.1016,41.2401],[-73.0912,41.2464],[-73.0868,41.2546],[-73.103,41.2595],[-73.1083,41.2686],[-73.1469,41.2554],[-73.1407,41.238],[-73.1467,41.2368],[-73.1575,41.2286],[-73.1627,41.2208],[-73.1538,41.1927],[-73.1554,41.178],[-73.1593,41.1738],[-73.1655,41.155]]]},"properties":{"name":"Stratford","fips":"0912074190"}},{"type":"Feature","geometry":{"type":"Polygon","coordinates":[[[-72.7761,41.9973],[-72.7784,41.9894],[-72.7076,41.9734],[-72.7162,41.9498],[-72.6174,41.9436],[-72.6139,41.9435],[-72.6116,41.9608],[-72.6036,41.9898],[-72.6075,41.9993],[-72.6049,42.0119],[-72.608,42.0311],[-72.6993,42.037],[-72.7559,42.0363],[-72.7573,42.0334],[-72.7519,42.0298],[-72.7567,42.0216],[-72.7653,42.0221],[-72.7658,42.0196],[-72.7629,42.0197],[-72.759,42.0155],[-72.7631,42.0133],[-72.7615,42.0093],[-72.7663,42.0079],[-72.7667,42.0033],[-72.7747,42.0024],[-72.7761,41.9973]]]},"properties":{"name":"Suffield","fips":"0911074540"}},{"type":"Feature","geometry":{"type":"Polygon","coordinates":[[[-73.1415,41.6727],[-73.1317,41.6617],[-73.1257,41.6642],[-73.1219,41.6604],[-73.1138,41.6611],[-73.114,41.6568],[-73.1038,41.6579],[-73.0811,41.6477],[-73.0777,41.6313],[-73.0591,41.6198],[-73.0588,41.6067],[-73.0504,41.6097],[-73.0648,41.641],[-73.0553,41.7082],[-73.0686,41.707],[-73.1415,41.6727]]]},"properties":{"name":"Thomaston","fips":"0914075730"}},{"type":"Feature","geometry":{"type":"Polygon","coordinates":[[[-71.963,42.0262],[-71.9318,41.9316],[-71.7979,41.9324],[-71.8007,42.0235],[-71.963,42.0262]]]},"properties":{"name":"Thompson","fips":"0915075870"}},{"type":"Feature","geometry":{"type":"Polygon","coordinates":[[[-72.4316,41.9151],[-72.4215,41.8255],[-72.3097,41.8378],[-72.3097,41.8479],[-72.3042,41.8506],[-72.3038,41.8533],[-72.3072,41.8561],[-72.3065,41.8609],[-72.3119,41.8737],[-72.3082,41.875],[-72.3067,41.8829],[-72.2982,41.8878],[-72.3031,41.8892],[-72.3021,41.8922],[-72.2909,41.8973],[-72.2927,41.9002],[-72.2912,41.9063],[-72.2968,41.9111],[-72.2988,41.9191],[-72.3052,41.9242],[-72.3069,41.9296],[-72.4316,41.9151]]]},"properties":{"name":"Tolland","fips":"0911076290"}},{"type":"Feature","geometry":{"type":"Polygon","coordinates":[[[-73.2018,41.79],[-73.1632,41.794],[-73.1586,41.7848],[-73.1198,41.7756],[-73.1172,41.7814],[-73.1125,41.7822],[-73.1037,41.7951],[-73.1041,41.7984],[-73.0767,41.7985],[-73.0535,41.8873],[-73.1532,41.8726],[-73.1516,41.8856],[-73.1582,41.8922],[-73.1707,41.8943],[-73.2018,41.79]]]},"properties":{"name":"Torrington","fips":"0916076570"}},{"type":"Feature","geometry":{"type":"Polygon","coordinates":[[[-73.2752,41.2916],[-73.2745,41.2839],[-73.2712,41.2793],[-73.2361,41.2384],[-73.2486,41.232],[-73.2442,41.2266],[-73.2015,41.2296],[-73.1909,41.225],[-73.1883,41.2275],[-73.1814,41.2271],[-73.1845,41.2259],[-73.1832,41.2237],[-73.1907,41.2242],[-73.1873,41.2205],[-73.1833,41.2207],[-73.1695,41.2228],[-73.1539,41.23],[-73.1467,41.2368],[-73.1407,41.238],[-73.1432,41.2412],[-73.1455,41.2544],[-73.1553,41.2691],[-73.1739,41.2686],[-73.2048,41.2994],[-73.2724,41.2941],[-73.2752,41.2916]]]},"properties":{"name":"Trumbull","fips":"0912077200"}},{"type":"Feature","geometry":{"type":"Polygon","coordinates":[[[-72.2348,41.9578],[-72.0992,41.9589],[-72.1022,42.0289],[-72.2051,42.0311],[-72.2149,42.0001],[-72.2348,41.9578]]]},"properties":{"name":"Union","fips":"0915077830"}},{"type":"Feature","geometry":{"type":"Polygon","coordinates":[[[-72.5072,41.8115],[-72.5075,41.8097],[-72.476,41.813],[-72.4735,41.7983],[-72.4189,41.8066],[-72.428,41.8748],[-72.496,41.8659],[-72.5072,41.8115]]]},"properties":{"name":"Vernon","fips":"0911078250"}},{"type":"Feature","geometry":{"type":"Polygon","coordinates":[[[-71.8844,41.6412],[-71.8634,41.5149],[-71.7932,41.5057],[-71.7877,41.6399],[-71.8579,41.6442],[-71.8844,41.6412]]]},"properties":{"name":"Voluntown","fips":"0915078600"}},{"type":"Feature","geometry":{"type":"Polygon","coordinates":[[[-72.8864,41.4483],[-72.8501,41.434],[-72.848,41.4261],[-72.8385,41.4273],[-72.8342,41.4242],[-72.8274,41.4244],[-72.8276,41.3966],[-72.7461,41.4233],[-72.7391,41.4383],[-72.7339,41.4854],[-72.7433,41.4831],[-72.7448,41.4982],[-72.7726,41.4968],[-72.7961,41.5048],[-72.8503,41.5157],[-72.8463,41.5028],[-72.8864,41.4483]]]},"properties":{"name":"Wallingford","fips":"0917078740"}},{"type":"Feature","geometry":{"type":"Polygon","coordinates":[[[-73.4016,41.7544],[-73.3985,41.7362],[-73.3788,41.6994],[-73.3433,41.6969],[-73.2943,41.7087],[-73.2958,41.7108],[-73.2927,41.7188],[-73.2959,41.7307],[-73.2933,41.7366],[-73.2986,41.779],[-73.3869,41.781],[-73.3932,41.7609],[-73.4016,41.7544]]]},"properties":{"name":"Warren","fips":"0916079510"}},{"type":"Feature","geometry":{"type":"Polygon","coordinates":[[[-73.384,41.6988],[-73.3779,41.659],[-73.3591,41.6465],[-73.3486,41.5952],[-73.2535,41.6044],[-73.2614,41.6646],[-73.2606,41.6838],[-73.2882,41.7048],[-73.2943,41.7087],[-73.3433,41.6969],[-73.384,41.6988]]]},"properties":{"name":"Washington","fips":"0916079720"}},{"type":"Feature","geometry":{"type":"Polygon","coordinates":[[[-73.0939,41.5702],[-73.0868,41.5372],[-73.0701,41.5143],[-73.0189,41.5194],[-72.9783,41.5339],[-72.9694,41.5302],[-72.9568,41.5553],[-72.9799,41.5533],[-73.0121,41.5838],[-73.0186,41.6141],[-73.0362,41.6152],[-73.0595,41.6062],[-73.0604,41.5947],[-73.058,41.5886],[-73.083,41.5856],[-73.0939,41.5702]]]},"properties":{"name":"Waterbury","fips":"0914080070"}},{"type":"Feature","geometry":{"type":"Polygon","coordinates":[[[-72.2193,41.4121],[-72.1924,41.3747],[-72.193,41.3671],[-72.1894,41.3585],[-72.1888,41.3464],[-72.1811,41.3427],[-72.1805,41.3281],[-72.1762,41.324],[-72.1826,41.3206],[-72.1845,41.276],[-72.0891,41.2765],[-72.1015,41.3049],[-72.1039,41.3052],[-72.1006,41.3132],[-72.1052,41.3202],[-72.1135,41.3436],[-72.1285,41.3576],[-72.1283,41.3653],[-72.1098,41.3829],[-72.0929,41.387],[-72.0972,41.3962],[-72.093,41.4158],[-72.0956,41.4253],[-72.1044,41.4275],[-72.2193,41.4121]]]},"properties":{"name":"Waterford","fips":"0918080280"}},{"type":"Feature","geometry":{"type":"Polygon","coordinates":[[[-73.1708,41.6692],[-73.145,41.5578],[-73.0924,41.5705],[-73.083,41.5856],[-73.0574,41.5893],[-73.0604,41.5947],[-73.058,41.6067],[-73.0591,41.6198],[-73.0777,41.6313],[-73.0811,41.6477],[-73.1038,41.6579],[-73.114,41.6568],[-73.1138,41.6611],[-73.1219,41.6604],[-73.1257,41.6642],[-73.1317,41.6617],[-73.1415,41.6727],[-73.1708,41.6692]]]},"properties":{"name":"Watertown","fips":"0914080490"}},{"type":"Feature","geometry":{"type":"Polygon","coordinates":[[[-72.8,41.7918],[-72.795,41.7475],[-72.7822,41.7482],[-72.7791,41.7302],[-72.7689,41.7396],[-72.7688,41.7376],[-72.7625,41.7377],[-72.7622,41.7183],[-72.7146,41.7236],[-72.7165,41.7708],[-72.7139,41.7774],[-72.7182,41.8066],[-72.7972,41.8047],[-72.8,41.7918]]]},"properties":{"name":"West Hartford","fips":"0911082590"}},{"type":"Feature","geometry":{"type":"Polygon","coordinates":[[[-72.9946,41.2417],[-72.9922,41.2393],[-72.9926,41.2342],[-72.9859,41.2357],[-72.9755,41.2335],[-72.962,41.2514],[-72.933,41.2602],[-72.9267,41.2671],[-72.9308,41.2628],[-72.9299,41.2662],[-72.9222,41.2687],[-72.9206,41.2715],[-72.9312,41.2665],[-72.9362,41.273],[-72.9402,41.2878],[-72.9517,41.2941],[-72.9499,41.2962],[-72.9563,41.3016],[-72.9563,41.3105],[-72.9891,41.3133],[-72.9843,41.3018],[-72.9871,41.2815],[-72.9799,41.2792],[-72.992,41.2681],[-72.9924,41.2487],[-72.9906,41.2463],[-72.9946,41.2417]]]},"properties":{"name":"West Haven","fips":"0917082870"}},{"type":"Feature","geometry":{"type":"Polygon","coordinates":[[[-72.5139,41.3464],[-72.4834,41.2623],[-72.487,41.2501],[-72.4568,41.2501],[-72.4182,41.2579],[-72.4166,41.2786],[-72.4216,41.2837],[-72.4331,41.3152],[-72.4255,41.3242],[-72.432,41.3265],[-72.4358,41.331],[-72.4766,41.3344],[-72.4982,41.3476],[-72.5139,41.3464]]]},"properties":{"name":"Westbrook","fips":"0913081680"}},{"type":"Feature","geometry":{"type":"Polygon","coordinates":[[[-73.4301,41.2543],[-73.3716,41.1747],[-73.3335,41.1988],[-73.3289,41.21],[-73.3303,41.2112],[-73.3236,41.2219],[-73.3258,41.2272],[-73.3688,41.275],[-73.4301,41.2543]]]},"properties":{"name":"Weston","fips":"0919083430"}},{"type":"Feature","geometry":{"type":"Polygon","coordinates":[[[-73.3888,41.15],[-73.3827,41.1423],[-73.3801,41.1219],[-73.3843,41.1073],[-73.3838,41.0288],[-73.3685,41.0473],[-73.3614,41.0754],[-73.2956,41.0796],[-73.299,41.1252],[-73.2961,41.1337],[-73.2988,41.1448],[-73.3034,41.1459],[-73.306,41.1495],[-73.3048,41.1524],[-73.3074,41.1523],[-73.3385,41.1945],[-73.3716,41.1747],[-73.3796,41.1858],[-73.3871,41.1705],[-73.3888,41.15]]]},"properties":{"name":"Westport","fips":"0919083500"}},{"type":"Feature","geometry":{"type":"Polygon","coordinates":[[[-72.708,41.7104],[-72.7004,41.6746],[-72.7069,41.6737],[-72.706,41.6688],[-72.6831,41.6719],[-72.6699,41.6699],[-72.6633,41.6809],[-72.6491,41.685],[-72.6157,41.6881],[-72.6327,41.6899],[-72.6367,41.6931],[-72.6353,41.6987],[-72.6197,41.7025],[-72.6159,41.7071],[-72.622,41.7122],[-72.6406,41.7145],[-72.6489,41.7231],[-72.6363,41.7249],[-72.6556,41.7299],[-72.7059,41.7243],[-72.708,41.7104]]]},"properties":{"name":"Wethersfield","fips":"0911084900"}},{"type":"Feature","geometry":{"type":"Polygon","coordinates":[[[-72.312,41.8731],[-72.3065,41.8609],[-72.3072,41.8561],[-72.3038,41.8533],[-72.3042,41.8506],[-72.3097,41.8479],[-72.3101,41.8361],[-72.2177,41.8352],[-72.217,41.9582],[-72.2368,41.9583],[-72.2367,41.9399],[-72.3063,41.9407],[-72.3091,41.9315],[-72.3052,41.9242],[-72.2988,41.9191],[-72.2968,41.9111],[-72.2912,41.9063],[-72.2927,41.9002],[-72.2909,41.8973],[-72.3021,41.8922],[-72.3031,41.8892],[-72.2982,41.8878],[-72.3067,41.8829],[-72.3082,41.875],[-72.312,41.8731]]]},"properties":{"name":"Willington","fips":"0911085950"}},{"type":"Feature","geometry":{"type":"Polygon","coordinates":[[[-73.502,41.2372],[-73.4827,41.2128],[-73.4849,41.2117],[-73.4844,41.209],[-73.4789,41.2064],[-73.472,41.1944],[-73.4729,41.1914],[-73.4701,41.1896],[-73.4735,41.1819],[-73.4653,41.1759],[-73.4668,41.1655],[-73.464,41.1613],[-73.4525,41.1596],[-73.448,41.1538],[-73.4186,41.1609],[-73.3948,41.1718],[-73.3871,41.1705],[-73.3849,41.1744],[-73.3796,41.1858],[-73.4382,41.2652],[-73.502,41.2372]]]},"properties":{"name":"Wilton","fips":"0919086370"}},{"type":"Feature","geometry":{"type":"Polygon","coordinates":[[[-73.1702,41.8958],[-73.1707,41.8943],[-73.1582,41.8922],[-73.1516,41.8856],[-73.1532,41.8726],[-73.0535,41.8873],[-73.034,41.9663],[-73.1515,41.9597],[-73.1702,41.8958]]]},"properties":{"name":"Winchester","fips":"0916086440"}},{"type":"Feature","geometry":{"type":"Polygon","coordinates":[[[-72.2532,41.7258],[-72.2471,41.7235],[-72.2442,41.7169],[-72.1575,41.6576],[-72.1517,41.6675],[-72.12,41.6633],[-72.1225,41.7128],[-72.112,41.7459],[-72.1563,41.7535],[-72.1634,41.7497],[-72.1685,41.7522],[-72.1716,41.7485],[-72.1741,41.7512],[-72.1764,41.75],[-72.1776,41.7552],[-72.1832,41.7561],[-72.188,41.7548],[-72.1857,41.7519],[-72.1892,41.7504],[-72.189,41.7471],[-72.1956,41.7396],[-72.1951,41.7357],[-72.191,41.7326],[-72.1921,41.7304],[-72.1985,41.7317],[-72.1982,41.7282],[-72.2526,41.7282],[-72.2532,41.7258]]]},"properties":{"name":"Windham","fips":"0918086790"}},{"type":"Feature","geometry":{"type":"Polygon","coordinates":[[[-72.7428,41.878],[-72.6897,41.8662],[-72.6861,41.8029],[-72.6587,41.8073],[-72.6584,41.8057],[-72.6627,41.8056],[-72.6629,41.8015],[-72.6603,41.8014],[-72.6557,41.806],[-72.6456,41.8058],[-72.6389,41.8288],[-72.6299,41.8372],[-72.6256,41.8457],[-72.6193,41.8683],[-72.6217,41.9046],[-72.6354,41.9033],[-72.6398,41.8976],[-72.676,41.9167],[-72.7222,41.9279],[-72.7292,41.9156],[-72.7428,41.878]]]},"properties":{"name":"Windsor","fips":"0911087000"}},{"type":"Feature","geometry":{"type":"Polygon","coordinates":[[[-72.6959,41.9224],[-72.6922,41.9197],[-72.6744,41.916],[-72.6398,41.8976],[-72.6354,41.9033],[-72.6217,41.9046],[-72.6234,41.9343],[-72.6139,41.9435],[-72.6876,41.9481],[-72.6959,41.9224]]]},"properties":{"name":"Windsor Locks","fips":"0911087070"}},{"type":"Feature","geometry":{"type":"Polygon","coordinates":[[[-73.0215,41.6271],[-73.0121,41.5838],[-72.9799,41.5533],[-72.9463,41.5568],[-72.9336,41.6078],[-72.9385,41.6443],[-72.9831,41.6395],[-73.004,41.6286],[-73.0215,41.6271]]]},"properties":{"name":"Wolcott","fips":"0914087560"}},{"type":"Feature","geometry":{"type":"Polygon","coordinates":[[[-73.049,41.3816],[-73.0463,41.3461],[-73.0389,41.328],[-73.0407,41.3139],[-73.0088,41.3104],[-72.998,41.3141],[-72.9968,41.3236],[-72.9889,41.3289],[-72.9833,41.3373],[-72.9702,41.3429],[-72.9748,41.3526],[-72.9747,41.3636],[-72.9611,41.3879],[-72.9549,41.3945],[-73.03,41.3885],[-73.0424,41.3956],[-73.0475,41.3958],[-73.049,41.3816]]]},"properties":{"name":"Woodbridge","fips":"0917087700"}},{"type":"Feature","geometry":{"type":"Polygon","coordinates":[[[-73.2673,41.6032],[-73.258,41.5369],[-73.2523,41.5121],[-73.2424,41.513],[-73.2042,41.5085],[-73.1555,41.5143],[-73.1647,41.5571],[-73.145,41.5578],[-73.1578,41.6127],[-73.2673,41.6032]]]},"properties":{"name":"Woodbury","fips":"0914087910"}},{"type":"Feature","geometry":{"type":"Polygon","coordinates":[[[-72.1022,42.0289],[-72.097,41.915],[-72.0052,41.9144],[-71.9274,41.917],[-71.963,42.0262],[-72.1022,42.0289]]]},"properties":{"name":"Woodstock","fips":"0915088190"}}],"source":"U.S. Census Bureau TIGERweb, County Subdivisions"}