{"type":"FeatureCollection","features":[{"type":"Feature","id":"10001","properties":{"name":"Kent","fips":"10001"},"geometry":{"type":"Polygon","coordinates":[[[-75.7477,39.1433],[-75.756,39.246],[-75.756,39.2461],[-75.7601,39.2968],[-75.5843,39.3087],[-75.5124,39.3657],[-75.5118,39.3652],[-75.5053,39.3592],[-75.4942,39.3546],[-75.4918,39.3518],[-75.4941,39.3466],[-75.4931,39.3455],[-75.4917,39.344],[-75.4904,39.3428],[-75.4798,39.3375],[-75.48,39.3366],[-75.4693,39.3308],[-75.4604,39.3282],[-75.439,39.3134],[-75.4369,39.3094],[-75.4356,39.2975],[-75.4354,39.2967],[-75.428,39.285],[-75.4084,39.2647],[-75.403,39.2546],[-75.4048,39.2459],[-75.4059,39.2436],[-75.4057,39.2238],[-75.4047,39.2227],[-75.3969,39.2161],[-75.393,39.2045],[-75.3948,39.1884],[-75.3986,39.1866],[-75.4001,39.1865],[-75.4083,39.1746],[-75.4106,39.1562],[-75.4012,39.0888],[-75.402,39.0669],[-75.4003,39.0656],[-75.3958,39.0592],[-75.3963,39.0579],[-75.3879,39.0512],[-75.3799,39.0488],[-75.3458,39.0249],[-75.3409,39.02],[-75.3184,38.9882],[-75.315,38.9808],[-75.3116,38.9676],[-75.3125,38.9511],[-75.3125,38.9493],[-75.3119,38.9459],[-75.3813,38.9613],[-75.555,38.8356],[-75.7226,38.8299],[-75.7226,38.83],[-75.7229,38.8332],[-75.724,38.8467],[-75.7241,38.8478],[-75.7256,38.8682],[-75.7258,38.8693],[-75.7458,39.1149],[-75.7461,39.1203],[-75.7477,39.1433],[-75.7477,39.1433]]]}},{"type":"Feature","id":"10003","properties":{"name":"New Castle","fips":"10003"},"geometry":{"type":"MultiPolygon","coordinates":[[[[-75.5649,39.5832],[-75.5763,39.5881],[-75.5787,39.5915],[-75.5796,39.5987],[-75.5658,39.5906],[-75.5649,39.5832]]],[[[-75.5559,39.6058],[-75.5619,39.6052],[-75.5677,39.6137],[-75.5718,39.6236],[-75.5708,39.6268],[-75.5594,39.6298],[-75.5559,39.6058]]],[[[-75.5948,39.8373],[-75.5937,39.8375],[-75.5931,39.8375],[-75.5799,39.8385],[-75.5798,39.8385],[-75.5393,39.8382],[-75.4988,39.8333],[-75.4537,39.8203],[-75.428,39.8092],[-75.415,39.8018],[-75.4161,39.7958],[-75.4379,39.7834],[-75.4406,39.7809],[-75.4481,39.774],[-75.4662,39.7508],[-75.4663,39.7507],[-75.4692,39.7436],[-75.4742,39.7355],[-75.4754,39.7311],[-75.504,39.6983],[-75.5097,39.6861],[-75.5297,39.6926],[-75.5622,39.6567],[-75.5871,39.651],[-75.612,39.622],[-75.6132,39.621],[-75.6134,39.6203],[-75.6141,39.6183],[-75.6149,39.616],[-75.6143,39.6146],[-75.6133,39.6131],[-75.6137,39.6126],[-75.6132,39.6074],[-75.6135,39.6069],[-75.6135,39.6068],[-75.6138,39.6062],[-75.6119,39.5976],[-75.6119,39.5974],[-75.6046,39.5899],[-75.6036,39.589],[-75.5922,39.5836],[-75.592,39.5832],[-75.5877,39.5807],[-75.5872,39.5803],[-75.5866,39.5789],[-75.586,39.5784],[-75.5716,39.5677],[-75.5708,39.5673],[-75.563,39.5622],[-75.5646,39.5599],[-75.5656,39.5585],[-75.5694,39.5406],[-75.5694,39.5391],[-75.5704,39.5272],[-75.5607,39.5205],[-75.5669,39.5083],[-75.5764,39.5092],[-75.5877,39.4964],[-75.5877,39.4954],[-75.5931,39.4792],[-75.5931,39.478],[-75.5899,39.462],[-75.5894,39.4608],[-75.5802,39.4508],[-75.5789,39.4479],[-75.571,39.4425],[-75.5718,39.4389],[-75.5559,39.4304],[-75.5385,39.4165],[-75.536,39.4094],[-75.5236,39.3916],[-75.5217,39.3879],[-75.513,39.3662],[-75.5124,39.3657],[-75.5843,39.3087],[-75.7601,39.2968],[-75.7667,39.3772],[-75.7667,39.3775],[-75.7792,39.5347],[-75.7794,39.5365],[-75.7869,39.6306],[-75.7875,39.6375],[-75.7886,39.6807],[-75.7887,39.6819],[-75.7884,39.7],[-75.7884,39.7003],[-75.7884,39.7218],[-75.7397,39.7726],[-75.717,39.792],[-75.686,39.8111],[-75.6628,39.8212],[-75.6415,39.8284],[-75.6347,39.8302],[-75.5958,39.8372],[-75.5948,39.8373]]]]}},{"type":"Feature","id":"10005","properties":{"name":"Sussex","fips":"10005"},"geometry":{"type":"Polygon","coordinates":[[[-75.3119,38.9459],[-75.3119,38.9457],[-75.3115,38.9446],[-75.3026,38.939],[-75.3123,38.9246],[-75.3041,38.9132],[-75.2631,38.8774],[-75.232,38.8443],[-75.2053,38.8234],[-75.1906,38.8069],[-75.1607,38.7912],[-75.159,38.7902],[-75.134,38.7822],[-75.1133,38.783],[-75.0971,38.7887],[-75.0937,38.794],[-75.0972,38.8031],[-75.0938,38.8038],[-75.0895,38.7972],[-75.0822,38.7722],[-75.0802,38.7501],[-75.0792,38.7382],[-75.0655,38.661],[-75.0652,38.6324],[-75.0619,38.6089],[-75.0613,38.6086],[-75.0605,38.608],[-75.06,38.6077],[-75.0497,38.4864],[-75.0489,38.4513],[-75.0493,38.4513],[-75.0525,38.4513],[-75.0535,38.4513],[-75.0663,38.4513],[-75.0699,38.4513],[-75.0704,38.4513],[-75.0858,38.4513],[-75.0883,38.4513],[-75.0896,38.4513],[-75.1419,38.4512],[-75.1854,38.451],[-75.2527,38.4514],[-75.2604,38.4515],[-75.3412,38.452],[-75.3413,38.452],[-75.3558,38.452],[-75.3711,38.4521],[-75.3936,38.4521],[-75.3948,38.4522],[-75.4109,38.4524],[-75.4248,38.4526],[-75.4287,38.4527],[-75.4792,38.4537],[-75.5001,38.4541],[-75.503,38.4542],[-75.5213,38.4547],[-75.5227,38.4547],[-75.5338,38.455],[-75.5592,38.4556],[-75.5599,38.4556],[-75.5741,38.456],[-75.5836,38.4564],[-75.5893,38.4563],[-75.5931,38.4564],[-75.5981,38.4569],[-75.6305,38.4579],[-75.6628,38.4588],[-75.6656,38.4589],[-75.6935,38.4601],[-75.6964,38.4924],[-75.6967,38.4965],[-75.6988,38.522],[-75.7002,38.5427],[-75.7015,38.5594],[-75.7016,38.5607],[-75.7034,38.5851],[-75.704,38.5921],[-75.7058,38.6147],[-75.7059,38.6163],[-75.7062,38.6213],[-75.7066,38.6261],[-75.7073,38.6353],[-75.7074,38.6354],[-75.722,38.8221],[-75.7226,38.8299],[-75.555,38.8356],[-75.3813,38.9613],[-75.3119,38.9459]]]}}]}