{"type":"FeatureCollection","features":[{"type":"Feature","geometry":{"type":"Polygon","coordinates":[[[-75.5686,39.7556],[-75.5566,39.7525],[-75.5517,39.7557],[-75.5383,39.7503],[-75.5319,39.7562],[-75.5252,39.752],[-75.5048,39.7533],[-75.5267,39.7743],[-75.5403,39.7655],[-75.5686,39.7556]]]},"properties":{"name":"HD1","district_number":1,"fips":"10001"}},{"type":"Feature","geometry":{"type":"Polygon","coordinates":[[[-75.6041,39.7128],[-75.5791,39.7202],[-75.5722,39.7171],[-75.5637,39.7186],[-75.5599,39.7214],[-75.5609,39.7289],[-75.5576,39.736],[-75.5474,39.7334],[-75.5359,39.7362],[-75.5331,39.7352],[-75.5304,39.723],[-75.492,39.7089],[-75.4873,39.7153],[-75.4797,39.7137],[-75.4764,39.7162],[-75.4757,39.7337],[-75.4677,39.7471],[-75.506,39.7421],[-75.5158,39.7461],[-75.5194,39.7507],[-75.5173,39.7536],[-75.5252,39.752],[-75.5319,39.7562],[-75.5383,39.7503],[-75.5517,39.7557],[-75.5566,39.7525],[-75.5634,39.7543],[-75.5647,39.7524],[-75.5515,39.7443],[-75.5547,39.7397],[-75.5587,39.7413],[-75.5804,39.732],[-75.603,39.7165],[-75.6016,39.7137],[-75.6041,39.7128]]]},"properties":{"name":"HD2","district_number":2,"fips":"10002"}},{"type":"Feature","geometry":{"type":"Polygon","coordinates":[[[-75.5884,39.7527],[-75.5817,39.7497],[-75.5846,39.7445],[-75.5763,39.7423],[-75.5731,39.735],[-75.5587,39.7413],[-75.5547,39.7397],[-75.5515,39.7443],[-75.5689,39.7553],[-75.577,39.7568],[-75.5786,39.7545],[-75.5875,39.7581],[-75.5884,39.7527]]]},"properties":{"name":"HD3","district_number":3,"fips":"10003"}},{"type":"Feature","geometry":{"type":"Polygon","coordinates":[[[-75.2913,38.596],[-75.2744,38.5928],[-75.2756,38.5867],[-75.2699,38.5897],[-75.2663,38.5865],[-75.26,38.5882],[-75.2574,38.5848],[-75.2484,38.5924],[-75.2396,38.5931],[-75.2324,38.5884],[-75.2295,38.5915],[-75.2209,38.5904],[-75.224,38.5949],[-75.213,38.5911],[-75.2044,38.5963],[-75.1961,38.5916],[-75.1728,38.5963],[-75.1674,38.59],[-75.1032,38.6069],[-75.1003,38.6136],[-75.0874,38.6229],[-75.0852,38.6284],[-75.0919,38.6431],[-75.1027,38.6445],[-75.1024,38.6632],[-75.1248,38.6804],[-75.1412,38.6828],[-75.1624,38.7037],[-75.1887,38.7175],[-75.1926,38.712],[-75.1793,38.6983],[-75.1778,38.6911],[-75.1858,38.6833],[-75.1937,38.6882],[-75.2167,38.6886],[-75.2218,38.6772],[-75.2204,38.6549],[-75.2269,38.648],[-75.2389,38.6467],[-75.247,38.6328],[-75.2475,38.6246],[-75.2556,38.6228],[-75.2762,38.6282],[-75.2819,38.6013],[-75.2913,38.596]]]},"properties":{"name":"HD4","district_number":4,"fips":"10004"}},{"type":"Feature","geometry":{"type":"Polygon","coordinates":[[[-75.6871,39.6283],[-75.6816,39.6165],[-75.6608,39.6278],[-75.6644,39.6084],[-75.6543,39.6127],[-75.644,39.6181],[-75.6218,39.6487],[-75.6045,39.6654],[-75.6421,39.6626],[-75.6311,39.6483],[-75.6395,39.6398],[-75.6531,39.632],[-75.6534,39.6366],[-75.6598,39.6329],[-75.6571,39.6458],[-75.6721,39.6407],[-75.6744,39.6442],[-75.6871,39.6283]]]},"properties":{"name":"HD5","district_number":5,"fips":"10005"}},{"type":"Feature","geometry":{"type":"Polygon","coordinates":[[[-75.5537,39.7619],[-75.5382,39.7665],[-75.5267,39.7743],[-75.5048,39.7533],[-75.5174,39.7533],[-75.5194,39.7507],[-75.506,39.7421],[-75.4677,39.7471],[-75.4622,39.7632],[-75.4887,39.7773],[-75.4813,39.7827],[-75.4938,39.7966],[-75.523,39.8124],[-75.5357,39.8084],[-75.5338,39.7987],[-75.5285,39.7941],[-75.5336,39.7889],[-75.5461,39.7856],[-75.5439,39.7717],[-75.5537,39.7619]]]},"properties":{"name":"HD6","district_number":6,"fips":"10006"}},{"type":"Feature","geometry":{"type":"Polygon","coordinates":[[[-75.505,39.8023],[-75.4938,39.7966],[-75.4813,39.7827],[-75.4886,39.7772],[-75.462,39.7631],[-75.4523,39.769],[-75.4507,39.7751],[-75.4383,39.7844],[-75.4054,39.7964],[-75.4597,39.8227],[-75.4763,39.8083],[-75.4808,39.8136],[-75.4927,39.8166],[-75.4904,39.8145],[-75.505,39.8023]]]},"properties":{"name":"HD7","district_number":7,"fips":"10007"}},{"type":"Feature","geometry":{"type":"Polygon","coordinates":[[[-75.776,39.4943],[-75.7697,39.416],[-75.7489,39.4102],[-75.7399,39.4264],[-75.7365,39.4278],[-75.7271,39.4255],[-75.717,39.4331],[-75.7119,39.4277],[-75.7096,39.431],[-75.6957,39.4347],[-75.6847,39.4364],[-75.682,39.4339],[-75.6807,39.4376],[-75.6764,39.438],[-75.6743,39.4353],[-75.6719,39.44],[-75.665,39.4429],[-75.6739,39.4509],[-75.6764,39.4603],[-75.6602,39.4704],[-75.667,39.4717],[-75.6724,39.4846],[-75.6857,39.4865],[-75.6937,39.4957],[-75.702,39.4964],[-75.6942,39.5027],[-75.6928,39.5069],[-75.6971,39.5104],[-75.7213,39.5107],[-75.7446,39.5066],[-75.7571,39.4974],[-75.776,39.4943]]]},"properties":{"name":"HD8","district_number":8,"fips":"10008"}},{"type":"Feature","geometry":{"type":"Polygon","coordinates":[[[-75.7102,39.5113],[-75.6954,39.5093],[-75.6928,39.5069],[-75.6946,39.5018],[-75.702,39.4964],[-75.6937,39.4957],[-75.6857,39.4865],[-75.6724,39.4846],[-75.667,39.4717],[-75.6602,39.4704],[-75.6764,39.4603],[-75.6739,39.4509],[-75.665,39.4429],[-75.672,39.4399],[-75.6727,39.4359],[-75.6804,39.4377],[-75.6831,39.4347],[-75.678,39.4277],[-75.6589,39.4176],[-75.6618,39.4066],[-75.6377,39.392],[-75.6314,39.3848],[-75.6175,39.3952],[-75.5963,39.3794],[-75.5998,39.3767],[-75.6061,39.3575],[-75.6045,39.3391],[-75.5841,39.3408],[-75.5862,39.336],[-75.5796,39.3304],[-75.5656,39.339],[-75.5568,39.3382],[-75.5605,39.3451],[-75.5573,39.3491],[-75.5512,39.3453],[-75.5511,39.3495],[-75.5547,39.3511],[-75.5528,39.3534],[-75.5451,39.3508],[-75.5408,39.3543],[-75.5358,39.3506],[-75.5326,39.3545],[-75.5284,39.3536],[-75.5278,39.359],[-75.5169,39.361],[-75.5158,39.3646],[-75.4814,39.3876],[-75.5605,39.4556],[-75.5636,39.483],[-75.5591,39.4958],[-75.527,39.4992],[-75.5301,39.5054],[-75.5268,39.5314],[-75.534,39.5407],[-75.515,39.5626],[-75.5597,39.5615],[-75.6188,39.5528],[-75.6424,39.555],[-75.6676,39.5449],[-75.6827,39.5421],[-75.7031,39.5433],[-75.7102,39.5113]]]},"properties":{"name":"HD9","district_number":9,"fips":"10009"}},{"type":"Feature","geometry":{"type":"Polygon","coordinates":[[[-75.5785,39.838],[-75.5725,39.8294],[-75.5553,39.8268],[-75.5557,39.8228],[-75.5479,39.8195],[-75.5492,39.8092],[-75.5341,39.8085],[-75.5222,39.8124],[-75.5051,39.8022],[-75.4904,39.8145],[-75.4927,39.8166],[-75.4808,39.8136],[-75.4763,39.8083],[-75.4597,39.8227],[-75.5203,39.837],[-75.5785,39.838]]]},"properties":{"name":"HD10","district_number":10,"fips":"10010"}},{"type":"Feature","geometry":{"type":"Polygon","coordinates":[[[-75.7697,39.416],[-75.7427,39.0798],[-75.7276,39.0912],[-75.7157,39.0953],[-75.7291,39.1137],[-75.7002,39.1347],[-75.6927,39.1372],[-75.6819,39.1269],[-75.6583,39.1331],[-75.6353,39.1216],[-75.6298,39.1275],[-75.6208,39.1302],[-75.6243,39.1341],[-75.6245,39.1409],[-75.6042,39.165],[-75.6055,39.1772],[-75.6183,39.1786],[-75.6264,39.1858],[-75.6192,39.1981],[-75.6367,39.2079],[-75.6262,39.225],[-75.6356,39.2382],[-75.6518,39.2384],[-75.6404,39.2522],[-75.6546,39.2706],[-75.6504,39.2762],[-75.636,39.2813],[-75.633,39.286],[-75.6404,39.2874],[-75.6394,39.2895],[-75.6482,39.2958],[-75.6408,39.3015],[-75.6258,39.3041],[-75.6196,39.3101],[-75.6094,39.3088],[-75.6275,39.3332],[-75.6194,39.3348],[-75.6069,39.3315],[-75.6028,39.342],[-75.6061,39.3575],[-75.5998,39.3767],[-75.5963,39.3794],[-75.6175,39.3952],[-75.6314,39.3848],[-75.6377,39.392],[-75.6618,39.4066],[-75.6589,39.4176],[-75.678,39.4277],[-75.6847,39.4364],[-75.7096,39.431],[-75.7119,39.4277],[-75.717,39.4331],[-75.7255,39.4258],[-75.7395,39.4265],[-75.7489,39.4102],[-75.7697,39.416]]]},"properties":{"name":"HD11","district_number":11,"fips":"10011"}},{"type":"Feature","geometry":{"type":"Polygon","coordinates":[[[-75.6946,39.8063],[-75.6905,39.7926],[-75.6807,39.7859],[-75.6699,39.7836],[-75.6648,39.7785],[-75.6642,39.7711],[-75.6417,39.7623],[-75.6114,39.7609],[-75.5885,39.7525],[-75.5875,39.7581],[-75.5701,39.7535],[-75.5535,39.7618],[-75.5439,39.7717],[-75.5461,39.7856],[-75.5336,39.7889],[-75.5285,39.7941],[-75.5338,39.7987],[-75.5357,39.8084],[-75.5492,39.8092],[-75.5479,39.8195],[-75.5557,39.8228],[-75.5553,39.8268],[-75.5725,39.8294],[-75.5785,39.838],[-75.5764,39.8391],[-75.6408,39.8287],[-75.6946,39.8063]]]},"properties":{"name":"HD12","district_number":12,"fips":"10012"}},{"type":"Feature","geometry":{"type":"Polygon","coordinates":[[[-75.6254,39.7568],[-75.6212,39.7319],[-75.608,39.7107],[-75.5721,39.737],[-75.5763,39.7423],[-75.5846,39.7445],[-75.5817,39.7497],[-75.6032,39.7585],[-75.6241,39.7619],[-75.6254,39.7568]]]},"properties":{"name":"HD13","district_number":13,"fips":"10013"}},{"type":"Feature","geometry":{"type":"Polygon","coordinates":[[[-75.1968,38.731],[-75.1875,38.7246],[-75.1861,38.7158],[-75.1624,38.7037],[-75.1412,38.6828],[-75.1248,38.6804],[-75.1024,38.6632],[-75.1027,38.6445],[-75.0919,38.6431],[-75.0852,38.626],[-75.1003,38.6136],[-75.1032,38.6069],[-74.9941,38.6144],[-75.002,38.6317],[-75.0028,38.6833],[-75.0142,38.745],[-75.0134,38.7723],[-75.0174,38.7866],[-75.0151,38.7887],[-75.049,38.8479],[-75.0894,38.8095],[-75.1012,38.8084],[-75.1022,38.8007],[-75.0975,38.7943],[-75.1174,38.7874],[-75.1201,38.7831],[-75.1031,38.7866],[-75.104,38.7821],[-75.1045,38.7844],[-75.1265,38.7802],[-75.1454,38.7614],[-75.1508,38.7634],[-75.163,38.7522],[-75.173,38.7491],[-75.1968,38.731]]]},"properties":{"name":"HD14","district_number":14,"fips":"10014"}},{"type":"Feature","geometry":{"type":"Polygon","coordinates":[[[-75.7177,39.614],[-75.7144,39.6021],[-75.6996,39.5934],[-75.7141,39.5901],[-75.7099,39.5729],[-75.6967,39.5717],[-75.7031,39.5433],[-75.6827,39.5421],[-75.6676,39.5449],[-75.6424,39.555],[-75.6188,39.5528],[-75.5823,39.5582],[-75.5989,39.5571],[-75.5946,39.5602],[-75.6059,39.5702],[-75.6367,39.5701],[-75.6293,39.5804],[-75.6444,39.5805],[-75.6456,39.5909],[-75.6572,39.5977],[-75.6421,39.6206],[-75.6644,39.6084],[-75.6608,39.6278],[-75.6816,39.6165],[-75.685,39.6221],[-75.6978,39.6171],[-75.7029,39.6231],[-75.71,39.6228],[-75.7154,39.6202],[-75.7148,39.6152],[-75.7177,39.614]]]},"properties":{"name":"HD15","district_number":15,"fips":"10015"}},{"type":"Feature","geometry":{"type":"Polygon","coordinates":[[[-75.6082,39.7107],[-75.6039,39.6998],[-75.5898,39.7013],[-75.5767,39.6959],[-75.5817,39.6902],[-75.5766,39.6895],[-75.5748,39.6731],[-75.5782,39.6733],[-75.5818,39.6683],[-75.5788,39.6642],[-75.5877,39.6646],[-75.5859,39.6595],[-75.5749,39.6585],[-75.5668,39.6621],[-75.5472,39.6395],[-75.542,39.6454],[-75.5335,39.6476],[-75.5157,39.6661],[-75.5104,39.6779],[-75.5099,39.6939],[-75.4963,39.701],[-75.492,39.7089],[-75.5304,39.723],[-75.534,39.7356],[-75.5474,39.7334],[-75.5563,39.7366],[-75.5598,39.7329],[-75.5615,39.7194],[-75.5722,39.7171],[-75.5791,39.7202],[-75.6082,39.7107]]]},"properties":{"name":"HD16","district_number":16,"fips":"10016"}},{"type":"Feature","geometry":{"type":"Polygon","coordinates":[[[-75.672,39.6948],[-75.6619,39.6897],[-75.6328,39.6849],[-75.6317,39.6801],[-75.6346,39.6782],[-75.6369,39.6811],[-75.6398,39.6784],[-75.6364,39.6742],[-75.6438,39.6699],[-75.6416,39.6675],[-75.6434,39.6626],[-75.6045,39.6654],[-75.6234,39.6465],[-75.6572,39.5977],[-75.6456,39.5909],[-75.6444,39.5805],[-75.6293,39.5804],[-75.6367,39.5701],[-75.6059,39.5702],[-75.5946,39.5602],[-75.5989,39.5571],[-75.5147,39.5627],[-75.512,39.5673],[-75.5147,39.5809],[-75.5277,39.5841],[-75.5375,39.5936],[-75.5535,39.6018],[-75.557,39.6076],[-75.5588,39.63],[-75.5472,39.6395],[-75.5668,39.6621],[-75.5749,39.6585],[-75.585,39.6586],[-75.5881,39.6627],[-75.5788,39.6642],[-75.5818,39.6683],[-75.5782,39.6733],[-75.5748,39.6731],[-75.5766,39.6895],[-75.5817,39.6902],[-75.5767,39.6959],[-75.5898,39.7013],[-75.6039,39.6998],[-75.6083,39.7121],[-75.6471,39.7053],[-75.672,39.6948]]]},"properties":{"name":"HD17","district_number":17,"fips":"10017"}},{"type":"Feature","geometry":{"type":"Polygon","coordinates":[[[-75.7029,39.6856],[-75.6976,39.6794],[-75.6793,39.6752],[-75.6669,39.667],[-75.6621,39.6593],[-75.6767,39.6481],[-75.6721,39.6407],[-75.6571,39.6458],[-75.6598,39.6329],[-75.6534,39.6366],[-75.6531,39.632],[-75.6324,39.6453],[-75.6329,39.6521],[-75.6434,39.6626],[-75.6416,39.6675],[-75.6439,39.6692],[-75.6364,39.6742],[-75.6399,39.6781],[-75.6373,39.6809],[-75.6343,39.6782],[-75.6308,39.6812],[-75.6338,39.6855],[-75.6637,39.6902],[-75.6756,39.6991],[-75.6826,39.6994],[-75.6868,39.7053],[-75.6997,39.7009],[-75.6871,39.6902],[-75.7029,39.6856]]]},"properties":{"name":"HD18","district_number":18,"fips":"10018"}},{"type":"Feature","geometry":{"type":"Polygon","coordinates":[[[-75.6827,39.6994],[-75.6756,39.6991],[-75.672,39.6948],[-75.6471,39.7053],[-75.6082,39.7121],[-75.6222,39.7349],[-75.6241,39.7618],[-75.6399,39.7622],[-75.6446,39.7563],[-75.6604,39.7516],[-75.6597,39.7454],[-75.6668,39.7308],[-75.6582,39.7237],[-75.662,39.7199],[-75.6586,39.7152],[-75.674,39.7119],[-75.6714,39.7045],[-75.6827,39.6994]]]},"properties":{"name":"HD19","district_number":19,"fips":"10019"}},{"type":"Feature","geometry":{"type":"Polygon","coordinates":[[[-75.3673,38.7037],[-75.365,38.7039],[-75.3659,38.7005],[-75.2886,38.7242],[-75.2856,38.7249],[-75.2848,38.7208],[-75.2596,38.7288],[-75.2246,38.7181],[-75.2054,38.7227],[-75.2062,38.7154],[-75.1921,38.7138],[-75.1869,38.7177],[-75.1874,38.7244],[-75.197,38.7308],[-75.173,38.7491],[-75.163,38.7522],[-75.1508,38.7634],[-75.1454,38.7614],[-75.1265,38.7802],[-75.1045,38.7844],[-75.104,38.7821],[-75.1031,38.7866],[-75.1201,38.7831],[-75.1174,38.7874],[-75.0975,38.7943],[-75.1022,38.8007],[-75.1012,38.8084],[-75.0894,38.8095],[-75.049,38.8479],[-75.0641,38.8743],[-75.0985,38.8413],[-75.2264,38.8405],[-75.1897,38.8068],[-75.2043,38.8023],[-75.2074,38.8079],[-75.2147,38.8069],[-75.2123,38.8049],[-75.2145,38.8033],[-75.2138,38.8094],[-75.2174,38.8052],[-75.2291,38.8099],[-75.237,38.8015],[-75.2363,38.8051],[-75.2414,38.8059],[-75.2436,38.8016],[-75.2401,38.7997],[-75.2503,38.7983],[-75.2516,38.7947],[-75.2463,38.7928],[-75.2516,38.7906],[-75.2722,38.8046],[-75.2766,38.802],[-75.2929,38.8029],[-75.3146,38.799],[-75.3142,38.7929],[-75.3185,38.7912],[-75.3188,38.7878],[-75.3407,38.7867],[-75.3407,38.7709],[-75.3456,38.7696],[-75.3603,38.7407],[-75.3627,38.717],[-75.3673,38.7037]]]},"properties":{"name":"HD20","district_number":20,"fips":"10020"}},{"type":"Feature","geometry":{"type":"Polygon","coordinates":[[[-75.738,39.7146],[-75.7196,39.6946],[-75.6868,39.7053],[-75.6827,39.6994],[-75.6714,39.7045],[-75.674,39.7119],[-75.6586,39.7152],[-75.662,39.7199],[-75.6582,39.7237],[-75.6668,39.7308],[-75.6597,39.7454],[-75.6604,39.7516],[-75.6771,39.7527],[-75.7039,39.7383],[-75.7039,39.7412],[-75.7116,39.7405],[-75.7188,39.7358],[-75.7129,39.7287],[-75.7116,39.7195],[-75.7176,39.7201],[-75.7183,39.7138],[-75.738,39.7146]]]},"properties":{"name":"HD21","district_number":21,"fips":"10021"}},{"type":"Feature","geometry":{"type":"Polygon","coordinates":[[[-75.7587,39.7497],[-75.7476,39.7527],[-75.7408,39.7493],[-75.7402,39.7554],[-75.7282,39.7565],[-75.7186,39.7488],[-75.716,39.7415],[-75.7039,39.7412],[-75.7039,39.7383],[-75.6771,39.7527],[-75.6692,39.7504],[-75.6552,39.7523],[-75.6443,39.7565],[-75.6399,39.7622],[-75.6642,39.7711],[-75.6648,39.7785],[-75.6699,39.7836],[-75.6807,39.7859],[-75.6905,39.7926],[-75.6944,39.8068],[-75.7308,39.7811],[-75.7587,39.7497]]]},"properties":{"name":"HD22","district_number":22,"fips":"10022"}},{"type":"Feature","geometry":{"type":"Polygon","coordinates":[[[-75.789,39.6598],[-75.7889,39.6539],[-75.7562,39.6829],[-75.7366,39.6845],[-75.7339,39.6888],[-75.7196,39.6946],[-75.7382,39.7145],[-75.7183,39.7138],[-75.7176,39.7201],[-75.7116,39.7195],[-75.7129,39.7287],[-75.7188,39.7358],[-75.7116,39.7403],[-75.7162,39.7416],[-75.7186,39.7488],[-75.7282,39.7565],[-75.7402,39.7554],[-75.7408,39.7493],[-75.7476,39.7527],[-75.7593,39.7488],[-75.7738,39.7222],[-75.7886,39.7222],[-75.789,39.6598]]]},"properties":{"name":"HD23","district_number":23,"fips":"10023"}},{"type":"Feature","geometry":{"type":"Polygon","coordinates":[[[-75.7443,39.6837],[-75.7417,39.6752],[-75.7436,39.673],[-75.735,39.6483],[-75.7025,39.6551],[-75.6751,39.672],[-75.6973,39.6793],[-75.7031,39.6855],[-75.6871,39.6902],[-75.6997,39.7009],[-75.7328,39.6894],[-75.7366,39.6845],[-75.7443,39.6837]]]},"properties":{"name":"HD24","district_number":24,"fips":"10024"}},{"type":"Feature","geometry":{"type":"Polygon","coordinates":[[[-75.7889,39.6539],[-75.7851,39.6062],[-75.7693,39.6048],[-75.77,39.6111],[-75.7579,39.6127],[-75.7474,39.61],[-75.7357,39.6209],[-75.7249,39.6235],[-75.7349,39.6481],[-75.7321,39.6488],[-75.735,39.6483],[-75.7436,39.673],[-75.7417,39.6752],[-75.7443,39.6837],[-75.7565,39.6828],[-75.7889,39.6539]]]},"properties":{"name":"HD25","district_number":25,"fips":"10025"}},{"type":"Feature","geometry":{"type":"Polygon","coordinates":[[[-75.7349,39.6481],[-75.7177,39.614],[-75.7148,39.6152],[-75.7154,39.6202],[-75.71,39.6228],[-75.7029,39.6231],[-75.6978,39.6171],[-75.6838,39.6226],[-75.6871,39.6284],[-75.674,39.6444],[-75.6767,39.6487],[-75.6621,39.6593],[-75.6671,39.6673],[-75.6751,39.672],[-75.7025,39.6551],[-75.7349,39.6481]]]},"properties":{"name":"HD26","district_number":26,"fips":"10026"}},{"type":"Feature","geometry":{"type":"Polygon","coordinates":[[[-75.7851,39.6062],[-75.776,39.4943],[-75.7571,39.4974],[-75.7449,39.5065],[-75.7103,39.5112],[-75.6967,39.5717],[-75.7099,39.5729],[-75.7131,39.5789],[-75.7141,39.5901],[-75.6996,39.5934],[-75.7147,39.6025],[-75.7235,39.6253],[-75.7357,39.6209],[-75.7474,39.61],[-75.7579,39.6127],[-75.77,39.6111],[-75.7693,39.6048],[-75.7851,39.6062]]]},"properties":{"name":"HD27","district_number":27,"fips":"10027"}},{"type":"Feature","geometry":{"type":"Polygon","coordinates":[[[-75.6485,39.2952],[-75.6394,39.2895],[-75.6404,39.2874],[-75.6299,39.2849],[-75.6243,39.2919],[-75.6047,39.2829],[-75.6145,39.2738],[-75.6014,39.2644],[-75.589,39.2697],[-75.5865,39.2635],[-75.5883,39.2444],[-75.5766,39.2236],[-75.5724,39.2273],[-75.5471,39.2103],[-75.5429,39.2055],[-75.5559,39.2],[-75.5303,39.1816],[-75.5171,39.1681],[-75.5027,39.1767],[-75.4932,39.1658],[-75.4773,39.1665],[-75.4719,39.1611],[-75.4588,39.1617],[-75.453,39.1565],[-75.4488,39.1581],[-75.451,39.1539],[-75.4444,39.1507],[-75.4424,39.1604],[-75.4382,39.1608],[-75.4269,39.1584],[-75.4184,39.1613],[-75.3458,39.1571],[-75.2482,39.1578],[-75.321,39.2514],[-75.4694,39.3731],[-75.4814,39.3876],[-75.5158,39.3646],[-75.5169,39.361],[-75.5278,39.359],[-75.5284,39.3536],[-75.5326,39.3545],[-75.5358,39.3506],[-75.5408,39.3543],[-75.5451,39.3508],[-75.5528,39.3534],[-75.5547,39.3511],[-75.5511,39.3495],[-75.5512,39.3453],[-75.5573,39.3491],[-75.5605,39.3451],[-75.5568,39.3382],[-75.5656,39.339],[-75.5795,39.3304],[-75.5862,39.336],[-75.5841,39.3408],[-75.6045,39.3391],[-75.6069,39.3315],[-75.6191,39.3348],[-75.6273,39.3334],[-75.6094,39.3088],[-75.6196,39.3101],[-75.6258,39.3041],[-75.6408,39.3015],[-75.6485,39.2952]]]},"properties":{"name":"HD28","district_number":28,"fips":"10028"}},{"type":"Feature","geometry":{"type":"Polygon","coordinates":[[[-75.6538,39.271],[-75.6404,39.2522],[-75.6518,39.2384],[-75.6356,39.2382],[-75.6262,39.225],[-75.6367,39.2079],[-75.6192,39.1981],[-75.6264,39.1858],[-75.6183,39.1786],[-75.6055,39.1772],[-75.6042,39.165],[-75.6245,39.1409],[-75.6243,39.1341],[-75.6208,39.1302],[-75.6298,39.1275],[-75.6353,39.1216],[-75.6267,39.119],[-75.6274,39.1117],[-75.587,39.1139],[-75.5865,39.1397],[-75.5821,39.1413],[-75.5891,39.148],[-75.5867,39.1536],[-75.5778,39.1584],[-75.581,39.1613],[-75.5767,39.1682],[-75.5721,39.1699],[-75.5785,39.1747],[-75.5711,39.1807],[-75.5671,39.1891],[-75.5589,39.1913],[-75.5559,39.2],[-75.5429,39.2055],[-75.5724,39.2273],[-75.5766,39.2236],[-75.5883,39.2444],[-75.5865,39.2635],[-75.589,39.2697],[-75.6014,39.2644],[-75.6145,39.2738],[-75.6046,39.2828],[-75.6142,39.289],[-75.6243,39.2919],[-75.6299,39.2849],[-75.633,39.286],[-75.636,39.2813],[-75.6504,39.2762],[-75.6538,39.271]]]},"properties":{"name":"HD29","district_number":29,"fips":"10029"}},{"type":"Feature","geometry":{"type":"Polygon","coordinates":[[[-75.7423,39.0801],[-75.7228,38.8299],[-75.555,38.8356],[-75.5397,38.8435],[-75.5362,38.85],[-75.5203,38.8558],[-75.5081,38.879],[-75.4978,38.8821],[-75.4895,38.8905],[-75.485,38.9049],[-75.508,38.9102],[-75.5126,38.9058],[-75.5154,38.9124],[-75.5153,38.923],[-75.5216,38.9377],[-75.526,38.9603],[-75.5266,38.9757],[-75.5344,38.9872],[-75.5281,38.9981],[-75.5277,39.0063],[-75.5252,39.007],[-75.5558,39.0425],[-75.5763,39.0415],[-75.5754,39.046],[-75.5721,39.0457],[-75.5691,39.0689],[-75.5935,39.0851],[-75.5811,39.0943],[-75.5833,39.0993],[-75.5812,39.1026],[-75.5867,39.1077],[-75.587,39.1139],[-75.6274,39.1117],[-75.6267,39.119],[-75.6582,39.1331],[-75.6714,39.1317],[-75.6819,39.1269],[-75.6927,39.1372],[-75.7013,39.1341],[-75.7291,39.1137],[-75.7157,39.0953],[-75.7276,39.0912],[-75.7423,39.0801]]]},"properties":{"name":"HD30","district_number":30,"fips":"10030"}},{"type":"Feature","geometry":{"type":"Polygon","coordinates":[[[-75.5891,39.1479],[-75.5821,39.1413],[-75.5865,39.1397],[-75.5887,39.1239],[-75.5652,39.1249],[-75.5603,39.1216],[-75.5382,39.1405],[-75.5229,39.1403],[-75.5244,39.158],[-75.5138,39.1615],[-75.5294,39.1808],[-75.5559,39.2],[-75.5589,39.1913],[-75.5671,39.1891],[-75.5711,39.1807],[-75.5785,39.1747],[-75.5721,39.1699],[-75.5767,39.1682],[-75.581,39.1613],[-75.5778,39.1584],[-75.5867,39.1536],[-75.5891,39.1479]]]},"properties":{"name":"HD31","district_number":31,"fips":"10031"}},{"type":"Feature","geometry":{"type":"Polygon","coordinates":[[[-75.5506,39.127],[-75.5483,39.1231],[-75.5423,39.1225],[-75.5358,39.1252],[-75.5304,39.1231],[-75.5255,39.1281],[-75.5117,39.1285],[-75.5091,39.1256],[-75.5016,39.1293],[-75.4976,39.1263],[-75.5061,39.118],[-75.4996,39.113],[-75.5134,39.1004],[-75.4843,39.0793],[-75.4657,39.0875],[-75.4548,39.086],[-75.4272,39.0703],[-75.4086,39.0725],[-75.404,39.0662],[-75.3687,39.0707],[-75.2614,39.1014],[-75.2544,39.0899],[-75.2551,39.0776],[-75.1917,39.079],[-75.2482,39.1578],[-75.3458,39.1571],[-75.4184,39.1613],[-75.4269,39.1584],[-75.4382,39.1608],[-75.4424,39.1604],[-75.4444,39.1507],[-75.451,39.1539],[-75.4488,39.1581],[-75.453,39.1565],[-75.4588,39.1617],[-75.4719,39.1611],[-75.4773,39.1665],[-75.4932,39.1658],[-75.5027,39.1767],[-75.5171,39.1681],[-75.5138,39.1615],[-75.5244,39.158],[-75.5229,39.1403],[-75.5382,39.1405],[-75.5506,39.127]]]},"properties":{"name":"HD32","district_number":32,"fips":"10032"}},{"type":"Feature","geometry":{"type":"Polygon","coordinates":[[[-75.5558,39.0425],[-75.5252,39.007],[-75.5277,39.0063],[-75.5281,38.9981],[-75.5344,38.9872],[-75.5266,38.9757],[-75.5217,38.9383],[-75.5154,38.9234],[-75.5126,38.9058],[-75.508,38.9102],[-75.4848,38.9038],[-75.4653,38.9113],[-75.4606,38.9094],[-75.4408,38.9132],[-75.434,38.9108],[-75.4214,38.9156],[-75.4176,38.9143],[-75.4165,38.9181],[-75.4088,38.9168],[-75.4087,38.9201],[-75.4028,38.9174],[-75.3979,38.9362],[-75.4029,38.9375],[-75.3985,38.9408],[-75.4008,38.9475],[-75.3922,38.9565],[-75.3826,38.9558],[-75.3806,38.9619],[-75.3684,38.96],[-75.3663,38.9539],[-75.3602,38.9576],[-75.3519,38.9474],[-75.3444,38.9554],[-75.3435,38.9474],[-75.337,38.9465],[-75.3322,38.9507],[-75.3263,38.949],[-75.3204,38.9538],[-75.3138,38.9507],[-75.3121,38.9459],[-75.1385,39.0027],[-75.1685,39.0562],[-75.1917,39.079],[-75.2551,39.0776],[-75.2544,39.0899],[-75.2614,39.1014],[-75.3687,39.0707],[-75.4004,39.0661],[-75.4046,39.0666],[-75.4086,39.0725],[-75.4272,39.0703],[-75.4521,39.0852],[-75.4657,39.0875],[-75.4942,39.074],[-75.5188,39.052],[-75.5558,39.0425]]]},"properties":{"name":"HD33","district_number":33,"fips":"10033"}},{"type":"Feature","geometry":{"type":"Polygon","coordinates":[[[-75.5935,39.0851],[-75.5691,39.0689],[-75.5721,39.0457],[-75.5754,39.046],[-75.5763,39.0415],[-75.5693,39.0406],[-75.5472,39.0427],[-75.5188,39.052],[-75.4942,39.074],[-75.4838,39.079],[-75.5134,39.1004],[-75.4996,39.113],[-75.5061,39.118],[-75.4976,39.1263],[-75.5016,39.1293],[-75.5091,39.1256],[-75.5117,39.1285],[-75.5255,39.1281],[-75.5304,39.1231],[-75.5356,39.1252],[-75.5483,39.1231],[-75.5505,39.1278],[-75.5547,39.1278],[-75.5551,39.1236],[-75.5603,39.1216],[-75.5652,39.1249],[-75.5864,39.1232],[-75.5886,39.1153],[-75.5867,39.1077],[-75.5812,39.1026],[-75.5833,39.0993],[-75.5811,39.0943],[-75.5935,39.0851]]]},"properties":{"name":"HD34","district_number":34,"fips":"10034"}},{"type":"Feature","geometry":{"type":"Polygon","coordinates":[[[-75.7228,38.8299],[-75.713,38.7056],[-75.6924,38.704],[-75.6727,38.7101],[-75.6616,38.7101],[-75.6463,38.7182],[-75.6045,38.6955],[-75.571,38.6685],[-75.5538,38.6589],[-75.5504,38.6556],[-75.555,38.642],[-75.5324,38.6247],[-75.531,38.6187],[-75.5153,38.6035],[-75.4384,38.645],[-75.4012,38.6777],[-75.4213,38.681],[-75.4216,38.6899],[-75.4145,38.6906],[-75.4187,38.6923],[-75.4163,38.6977],[-75.4311,38.6983],[-75.432,38.7019],[-75.424,38.7103],[-75.4047,38.7096],[-75.4131,38.7255],[-75.4349,38.7529],[-75.4291,38.8069],[-75.4386,38.8068],[-75.4393,38.8809],[-75.473,38.8889],[-75.4905,38.8897],[-75.4978,38.8821],[-75.5081,38.879],[-75.5203,38.8558],[-75.5362,38.85],[-75.5397,38.8435],[-75.555,38.8356],[-75.7228,38.8299]]]},"properties":{"name":"HD35","district_number":35,"fips":"10035"}},{"type":"Feature","geometry":{"type":"Polygon","coordinates":[[[-75.4903,38.8899],[-75.473,38.8889],[-75.4393,38.8809],[-75.4386,38.8068],[-75.4291,38.8069],[-75.4349,38.7529],[-75.4076,38.7162],[-75.3969,38.7196],[-75.3834,38.7193],[-75.3776,38.7239],[-75.3623,38.7226],[-75.3603,38.7407],[-75.3456,38.7696],[-75.3407,38.7709],[-75.3407,38.7867],[-75.3188,38.7878],[-75.3185,38.7912],[-75.3142,38.7929],[-75.3146,38.799],[-75.2722,38.8046],[-75.2516,38.7906],[-75.2463,38.7928],[-75.2516,38.7947],[-75.2503,38.7983],[-75.2401,38.7997],[-75.2436,38.8016],[-75.2414,38.8059],[-75.2363,38.8051],[-75.237,38.8015],[-75.2291,38.8099],[-75.2174,38.8052],[-75.2138,38.8094],[-75.2145,38.8033],[-75.2123,38.8049],[-75.2147,38.8069],[-75.2074,38.8079],[-75.2043,38.8023],[-75.1897,38.8068],[-75.2264,38.8405],[-75.0985,38.8413],[-75.0641,38.8743],[-75.1385,39.0027],[-75.3121,38.9459],[-75.3138,38.9507],[-75.3204,38.9538],[-75.3263,38.949],[-75.3322,38.9507],[-75.337,38.9465],[-75.3435,38.9474],[-75.3444,38.9554],[-75.3519,38.9474],[-75.3602,38.9576],[-75.3663,38.9539],[-75.3684,38.96],[-75.3808,38.9618],[-75.3826,38.9558],[-75.3922,38.9565],[-75.4008,38.9475],[-75.3985,38.9408],[-75.4029,38.9375],[-75.3979,38.9362],[-75.4009,38.9295],[-75.3993,38.9264],[-75.4033,38.923],[-75.402,38.9178],[-75.4087,38.9201],[-75.4088,38.9168],[-75.4165,38.9181],[-75.4176,38.9143],[-75.4214,38.9156],[-75.434,38.9108],[-75.4408,38.9132],[-75.4606,38.9094],[-75.4653,38.9113],[-75.4858,38.9036],[-75.4903,38.8899]]]},"properties":{"name":"HD36","district_number":36,"fips":"10036"}},{"type":"Feature","geometry":{"type":"Polygon","coordinates":[[[-75.4844,38.6204],[-75.4117,38.5929],[-75.3751,38.6034],[-75.3594,38.603],[-75.3576,38.6059],[-75.3473,38.6065],[-75.3464,38.6105],[-75.3333,38.6112],[-75.3191,38.6008],[-75.3204,38.6037],[-75.317,38.6054],[-75.303,38.6045],[-75.3009,38.6018],[-75.2962,38.6031],[-75.3001,38.6046],[-75.2963,38.6063],[-75.2984,38.6052],[-75.2953,38.6042],[-75.2967,38.601],[-75.2914,38.5949],[-75.2819,38.6013],[-75.2762,38.6282],[-75.2556,38.6228],[-75.2475,38.6246],[-75.247,38.6328],[-75.2389,38.6467],[-75.2269,38.648],[-75.2204,38.6549],[-75.2218,38.6772],[-75.2167,38.6886],[-75.1937,38.6882],[-75.1858,38.6833],[-75.1778,38.6911],[-75.1779,38.6952],[-75.1921,38.7138],[-75.2062,38.7154],[-75.2054,38.7227],[-75.2246,38.7181],[-75.2578,38.7287],[-75.2848,38.7208],[-75.2856,38.7249],[-75.2886,38.7242],[-75.3659,38.7005],[-75.3623,38.7226],[-75.3776,38.7239],[-75.3834,38.7193],[-75.3998,38.7192],[-75.4076,38.7162],[-75.4047,38.7096],[-75.424,38.7103],[-75.432,38.702],[-75.4311,38.6983],[-75.4163,38.6977],[-75.4187,38.6923],[-75.4145,38.6906],[-75.4216,38.6899],[-75.4213,38.681],[-75.4012,38.6777],[-75.4384,38.645],[-75.4844,38.6204]]]},"properties":{"name":"HD37","district_number":37,"fips":"10037"}},{"type":"Feature","geometry":{"type":"Polygon","coordinates":[[[-75.1674,38.59],[-75.1546,38.5647],[-75.1544,38.5548],[-75.1471,38.5496],[-75.1492,38.5311],[-75.1582,38.529],[-75.1556,38.5227],[-75.1485,38.5215],[-75.1574,38.5096],[-75.1315,38.5002],[-75.1307,38.4931],[-75.1405,38.4776],[-75.1413,38.4672],[-75.1359,38.4575],[-75.142,38.4512],[-74.9863,38.4516],[-74.9852,38.5282],[-74.9941,38.6144],[-75.1106,38.6062],[-75.1674,38.59]]]},"properties":{"name":"HD38","district_number":38,"fips":"10038"}},{"type":"Feature","geometry":{"type":"Polygon","coordinates":[[[-75.713,38.7056],[-75.7016,38.5607],[-75.6993,38.5593],[-75.6917,38.5576],[-75.6794,38.5665],[-75.6694,38.5777],[-75.6695,38.5874],[-75.661,38.5903],[-75.6566,38.5997],[-75.6133,38.5805],[-75.6079,38.5841],[-75.5843,38.5857],[-75.5599,38.5868],[-75.5481,38.5839],[-75.5153,38.6035],[-75.531,38.6187],[-75.5324,38.6247],[-75.555,38.642],[-75.5504,38.6556],[-75.5538,38.6589],[-75.571,38.6685],[-75.6045,38.6955],[-75.6463,38.7182],[-75.6616,38.7101],[-75.6727,38.7101],[-75.6924,38.704],[-75.713,38.7056]]]},"properties":{"name":"HD39","district_number":39,"fips":"10039"}},{"type":"Feature","geometry":{"type":"Polygon","coordinates":[[[-75.7016,38.5607],[-75.6937,38.4601],[-75.4286,38.4528],[-75.4283,38.4747],[-75.4409,38.4988],[-75.4269,38.5127],[-75.3902,38.533],[-75.3707,38.5546],[-75.3546,38.5462],[-75.3385,38.5686],[-75.3427,38.5768],[-75.3522,38.5829],[-75.3594,38.603],[-75.3751,38.6034],[-75.4117,38.5929],[-75.4847,38.6203],[-75.5481,38.5839],[-75.5599,38.5868],[-75.5843,38.5857],[-75.6079,38.5841],[-75.6133,38.5805],[-75.6566,38.5997],[-75.661,38.5903],[-75.6695,38.5874],[-75.6694,38.5777],[-75.6794,38.5665],[-75.6917,38.5576],[-75.7016,38.5607]]]},"properties":{"name":"HD40","district_number":40,"fips":"10040"}},{"type":"Feature","geometry":{"type":"Polygon","coordinates":[[[-75.4409,38.4988],[-75.4283,38.4747],[-75.4286,38.4528],[-75.4109,38.4523],[-75.142,38.4512],[-75.1359,38.4575],[-75.1413,38.4672],[-75.1403,38.4782],[-75.1306,38.4934],[-75.1315,38.5002],[-75.1574,38.5096],[-75.1485,38.5215],[-75.1556,38.5227],[-75.1582,38.529],[-75.1492,38.5311],[-75.1471,38.5496],[-75.1544,38.5548],[-75.1534,38.5608],[-75.1604,38.5724],[-75.1616,38.5822],[-75.1728,38.5963],[-75.1961,38.5916],[-75.2044,38.5963],[-75.213,38.5911],[-75.224,38.5949],[-75.2209,38.5904],[-75.2295,38.5915],[-75.2324,38.5884],[-75.2396,38.5931],[-75.2462,38.5928],[-75.2574,38.5848],[-75.26,38.5882],[-75.2663,38.5865],[-75.2699,38.5897],[-75.2756,38.5867],[-75.2738,38.5923],[-75.2815,38.5935],[-75.2814,38.5957],[-75.2935,38.5954],[-75.2954,38.6044],[-75.2984,38.6052],[-75.2963,38.6063],[-75.3001,38.6046],[-75.2962,38.6031],[-75.3009,38.6018],[-75.303,38.6045],[-75.317,38.6054],[-75.3204,38.6037],[-75.3191,38.6008],[-75.3333,38.6112],[-75.3464,38.6105],[-75.3473,38.6065],[-75.3576,38.6059],[-75.3603,38.601],[-75.3521,38.5828],[-75.3428,38.577],[-75.3385,38.5689],[-75.3546,38.5462],[-75.3707,38.5546],[-75.3902,38.533],[-75.4269,38.5127],[-75.4409,38.4988]]]},"properties":{"name":"HD41","district_number":41,"fips":"10041"}}],"source":"U.S. Census Bureau TIGERweb, 2026 State Legislative Districts (lower)"}