{"type":"FeatureCollection","features":[{"type":"Feature","geometry":{"type":"Polygon","coordinates":[[[-75.5876,39.7699],[-75.5832,39.7658],[-75.5875,39.7581],[-75.5746,39.7528],[-75.5652,39.7515],[-75.5634,39.7543],[-75.5458,39.747],[-75.5409,39.7522],[-75.5419,39.7589],[-75.5234,39.7695],[-75.5179,39.7672],[-75.5193,39.7597],[-75.5148,39.7529],[-75.4933,39.7571],[-75.4691,39.7435],[-75.4639,39.7608],[-75.4493,39.7744],[-75.4714,39.7857],[-75.4694,39.7877],[-75.4746,39.7887],[-75.4764,39.7957],[-75.4825,39.8012],[-75.4811,39.8041],[-75.4846,39.8011],[-75.4915,39.8047],[-75.5051,39.8022],[-75.5144,39.7935],[-75.5336,39.7889],[-75.5449,39.7776],[-75.5572,39.7847],[-75.5766,39.7732],[-75.5873,39.7732],[-75.5876,39.7699]]]},"properties":{"name":"SD1","district_number":1,"fips":"10001"}},{"type":"Feature","geometry":{"type":"Polygon","coordinates":[[[-75.6044,39.6655],[-75.5691,39.6632],[-75.5658,39.6669],[-75.5607,39.6668],[-75.5564,39.6627],[-75.5611,39.6573],[-75.5472,39.6395],[-75.542,39.6454],[-75.5335,39.6476],[-75.515,39.667],[-75.51,39.6795],[-75.5099,39.6939],[-75.4963,39.701],[-75.4884,39.7147],[-75.4794,39.7137],[-75.4764,39.7162],[-75.4757,39.7337],[-75.4691,39.7435],[-75.4933,39.7571],[-75.5148,39.7529],[-75.5193,39.7597],[-75.5179,39.7672],[-75.5234,39.7695],[-75.5419,39.7589],[-75.5409,39.7522],[-75.5439,39.7503],[-75.5399,39.7485],[-75.5432,39.7449],[-75.54,39.7408],[-75.5431,39.7363],[-75.549,39.7387],[-75.551,39.7352],[-75.5585,39.7352],[-75.5608,39.7256],[-75.5558,39.7245],[-75.5566,39.7183],[-75.5789,39.6934],[-75.5886,39.6928],[-75.5946,39.6863],[-75.5905,39.6805],[-75.6044,39.6655]]]},"properties":{"name":"SD2","district_number":2,"fips":"10002"}},{"type":"Feature","geometry":{"type":"Polygon","coordinates":[[[-75.6082,39.7107],[-75.6039,39.6998],[-75.5898,39.7013],[-75.5767,39.6959],[-75.556,39.7193],[-75.5558,39.7245],[-75.5608,39.7256],[-75.5585,39.7352],[-75.551,39.7352],[-75.549,39.7387],[-75.5431,39.7363],[-75.5392,39.742],[-75.5432,39.7449],[-75.5399,39.7485],[-75.5439,39.7503],[-75.5458,39.747],[-75.5634,39.7543],[-75.5652,39.7515],[-75.5746,39.7528],[-75.5875,39.7581],[-75.5885,39.7525],[-75.6003,39.7573],[-75.5983,39.7488],[-75.5847,39.7445],[-75.5897,39.7383],[-75.5823,39.731],[-75.6082,39.7107]]]},"properties":{"name":"SD3","district_number":3,"fips":"10003"}},{"type":"Feature","geometry":{"type":"Polygon","coordinates":[[[-75.7394,39.7729],[-75.7213,39.7693],[-75.7239,39.7612],[-75.7223,39.752],[-75.6991,39.7218],[-75.6838,39.736],[-75.6736,39.7336],[-75.6741,39.7435],[-75.6798,39.7492],[-75.6787,39.7573],[-75.6837,39.763],[-75.6642,39.7706],[-75.6648,39.7785],[-75.6527,39.7653],[-75.6114,39.7609],[-75.5885,39.7525],[-75.587,39.7618],[-75.5832,39.7658],[-75.588,39.7696],[-75.5873,39.7732],[-75.5766,39.7732],[-75.5568,39.7847],[-75.5449,39.7776],[-75.5329,39.7896],[-75.5328,39.794],[-75.5366,39.7963],[-75.5471,39.7948],[-75.5492,39.8092],[-75.5429,39.8223],[-75.5345,39.8214],[-75.5329,39.8365],[-75.528,39.8379],[-75.5883,39.8382],[-75.6474,39.8267],[-75.6978,39.8048],[-75.7394,39.7729]]]},"properties":{"name":"SD4","district_number":4,"fips":"10004"}},{"type":"Feature","geometry":{"type":"Polygon","coordinates":[[[-75.5492,39.8092],[-75.5471,39.7948],[-75.5366,39.7963],[-75.5326,39.7937],[-75.5336,39.7889],[-75.5144,39.7935],[-75.5051,39.8022],[-75.4887,39.8047],[-75.4846,39.8011],[-75.4811,39.8041],[-75.4825,39.8012],[-75.4764,39.7957],[-75.4746,39.7887],[-75.4694,39.7877],[-75.4714,39.7857],[-75.4503,39.7753],[-75.4383,39.7844],[-75.4054,39.7964],[-75.4631,39.8239],[-75.528,39.8379],[-75.5329,39.8365],[-75.5345,39.8214],[-75.5429,39.8223],[-75.5492,39.8092]]]},"properties":{"name":"SD5","district_number":5,"fips":"10005"}},{"type":"Feature","geometry":{"type":"Polygon","coordinates":[[[-75.351,38.8387],[-75.3459,38.8345],[-75.3436,38.8268],[-75.3454,38.8159],[-75.3406,38.7942],[-75.3415,38.7758],[-75.3357,38.7485],[-75.3225,38.7316],[-75.2856,38.7249],[-75.2848,38.7208],[-75.2596,38.7288],[-75.2246,38.7181],[-75.2054,38.7227],[-75.2062,38.7154],[-75.2036,38.7151],[-75.1999,38.6958],[-75.1907,38.6935],[-75.1942,38.6883],[-75.1858,38.6833],[-75.183,38.6869],[-75.181,38.6853],[-75.1828,38.6775],[-75.1801,38.6757],[-75.1603,38.6751],[-75.1596,38.6806],[-75.141,38.6774],[-75.1348,38.6782],[-75.1368,38.6804],[-75.1248,38.6804],[-75.1024,38.6632],[-75.1027,38.6445],[-75.0919,38.6431],[-75.0852,38.6284],[-75.0874,38.6229],[-75.1003,38.6136],[-75.1032,38.6069],[-74.9941,38.6144],[-75.002,38.6317],[-75.0028,38.6833],[-75.0142,38.745],[-75.0134,38.7723],[-75.0174,38.7866],[-75.0151,38.7887],[-75.129,38.9874],[-75.2694,38.8801],[-75.2758,38.8768],[-75.2816,38.8791],[-75.2896,38.8771],[-75.2913,38.8733],[-75.3068,38.8654],[-75.3066,38.8604],[-75.3478,38.8558],[-75.3441,38.8472],[-75.3449,38.8395],[-75.351,38.8387]]]},"properties":{"name":"SD6","district_number":6,"fips":"10006"}},{"type":"Feature","geometry":{"type":"Polygon","coordinates":[[[-75.6837,39.763],[-75.6787,39.7573],[-75.6798,39.7492],[-75.6741,39.7435],[-75.674,39.7343],[-75.6668,39.7308],[-75.6692,39.725],[-75.651,39.7107],[-75.6532,39.7027],[-75.6322,39.708],[-75.6356,39.7094],[-75.631,39.7247],[-75.6159,39.722],[-75.608,39.7107],[-75.6046,39.711],[-75.6016,39.7137],[-75.603,39.7165],[-75.5823,39.731],[-75.5897,39.7383],[-75.5847,39.7445],[-75.5983,39.7488],[-75.6009,39.7527],[-75.5994,39.7568],[-75.6114,39.7609],[-75.6527,39.7653],[-75.6648,39.7785],[-75.6642,39.7706],[-75.6837,39.763]]]},"properties":{"name":"SD7","district_number":7,"fips":"10007"}},{"type":"Feature","geometry":{"type":"Polygon","coordinates":[[[-75.789,39.6598],[-75.7878,39.639],[-75.7601,39.6466],[-75.7321,39.6489],[-75.7389,39.6688],[-75.7357,39.6772],[-75.7367,39.6856],[-75.7196,39.6946],[-75.7225,39.7092],[-75.7179,39.7132],[-75.7176,39.7201],[-75.7107,39.7174],[-75.6991,39.7218],[-75.7223,39.752],[-75.7239,39.7612],[-75.7213,39.7693],[-75.7394,39.7729],[-75.7604,39.7474],[-75.7738,39.7222],[-75.7886,39.7222],[-75.789,39.6598]]]},"properties":{"name":"SD8","district_number":8,"fips":"10008"}},{"type":"Feature","geometry":{"type":"Polygon","coordinates":[[[-75.7389,39.6694],[-75.7347,39.6573],[-75.696,39.6789],[-75.6907,39.6784],[-75.678,39.6744],[-75.6671,39.6673],[-75.6628,39.6598],[-75.6578,39.6589],[-75.6527,39.6611],[-75.6549,39.6655],[-75.6417,39.6669],[-75.6439,39.6692],[-75.6421,39.6727],[-75.6364,39.6742],[-75.6397,39.6787],[-75.6361,39.6811],[-75.6339,39.6782],[-75.6306,39.6816],[-75.6338,39.6843],[-75.6215,39.6905],[-75.6226,39.6969],[-75.608,39.7107],[-75.6089,39.7151],[-75.6159,39.722],[-75.631,39.7247],[-75.6356,39.7094],[-75.6322,39.708],[-75.6532,39.7027],[-75.651,39.7107],[-75.6691,39.725],[-75.6671,39.7312],[-75.6838,39.736],[-75.6976,39.7223],[-75.7107,39.7174],[-75.7176,39.7201],[-75.7179,39.7132],[-75.7225,39.7092],[-75.7196,39.6946],[-75.7363,39.6862],[-75.7389,39.6694]]]},"properties":{"name":"SD9","district_number":9,"fips":"10009"}},{"type":"Feature","geometry":{"type":"Polygon","coordinates":[[[-75.7851,39.6062],[-75.7679,39.3933],[-75.7548,39.3987],[-75.7498,39.4084],[-75.7367,39.403],[-75.7345,39.4064],[-75.7297,39.4054],[-75.7291,39.4097],[-75.7052,39.4176],[-75.6991,39.4083],[-75.6845,39.3995],[-75.6752,39.4167],[-75.6665,39.4204],[-75.6831,39.4347],[-75.6804,39.4377],[-75.6727,39.4359],[-75.6719,39.44],[-75.659,39.4445],[-75.6568,39.4499],[-75.6542,39.4483],[-75.6553,39.4528],[-75.6501,39.4544],[-75.6473,39.4593],[-75.6357,39.4614],[-75.6392,39.4645],[-75.6364,39.4673],[-75.6393,39.4721],[-75.6452,39.4681],[-75.6441,39.471],[-75.6513,39.4726],[-75.6495,39.5],[-75.6815,39.5031],[-75.6986,39.511],[-75.7103,39.5112],[-75.7033,39.5424],[-75.7381,39.5404],[-75.7381,39.5665],[-75.745,39.6049],[-75.7598,39.6032],[-75.7851,39.6062]]]},"properties":{"name":"SD10","district_number":10,"fips":"10010"}},{"type":"Feature","geometry":{"type":"Polygon","coordinates":[[[-75.7878,39.639],[-75.7851,39.6062],[-75.7594,39.6032],[-75.712,39.6084],[-75.6706,39.6278],[-75.6807,39.6376],[-75.674,39.6444],[-75.6767,39.6481],[-75.6745,39.6515],[-75.6621,39.6593],[-75.6671,39.6673],[-75.679,39.675],[-75.696,39.6789],[-75.7347,39.6573],[-75.7321,39.6489],[-75.7601,39.6466],[-75.7878,39.639]]]},"properties":{"name":"SD11","district_number":11,"fips":"10011"}},{"type":"Feature","geometry":{"type":"Polygon","coordinates":[[[-75.745,39.6049],[-75.7381,39.5665],[-75.7381,39.5404],[-75.7033,39.5424],[-75.7103,39.5112],[-75.6986,39.511],[-75.6815,39.5031],[-75.6495,39.5],[-75.6513,39.4726],[-75.6441,39.471],[-75.6452,39.4681],[-75.6393,39.4721],[-75.6364,39.4673],[-75.6393,39.467],[-75.6384,39.4629],[-75.626,39.4623],[-75.625,39.4672],[-75.6166,39.4672],[-75.6088,39.4624],[-75.6118,39.4536],[-75.6062,39.4498],[-75.5947,39.4454],[-75.5909,39.448],[-75.5826,39.4467],[-75.5728,39.4535],[-75.5605,39.4568],[-75.5636,39.483],[-75.5591,39.4958],[-75.5268,39.4994],[-75.5301,39.5054],[-75.5268,39.5314],[-75.534,39.5407],[-75.5191,39.5554],[-75.512,39.5673],[-75.5128,39.5783],[-75.5182,39.5829],[-75.5277,39.5841],[-75.5375,39.5936],[-75.5535,39.6018],[-75.557,39.6076],[-75.5588,39.63],[-75.5472,39.6395],[-75.5611,39.6573],[-75.5564,39.6627],[-75.5607,39.6668],[-75.5658,39.6669],[-75.5691,39.6632],[-75.6045,39.6654],[-75.6218,39.6487],[-75.644,39.6181],[-75.6667,39.6062],[-75.6835,39.6039],[-75.6912,39.5998],[-75.7074,39.6098],[-75.745,39.6049]]]},"properties":{"name":"SD12","district_number":12,"fips":"10012"}},{"type":"Feature","geometry":{"type":"Polygon","coordinates":[[[-75.7073,39.6099],[-75.6912,39.5998],[-75.6835,39.6039],[-75.6667,39.6062],[-75.644,39.6181],[-75.6169,39.6545],[-75.5905,39.6805],[-75.5946,39.6863],[-75.5886,39.6928],[-75.5767,39.6959],[-75.5898,39.7013],[-75.6039,39.6998],[-75.6082,39.7107],[-75.611,39.7096],[-75.6226,39.6969],[-75.6215,39.6905],[-75.6338,39.6843],[-75.6306,39.6816],[-75.6339,39.6782],[-75.6361,39.6811],[-75.6397,39.6787],[-75.6364,39.6742],[-75.6421,39.6727],[-75.6439,39.6692],[-75.6417,39.6669],[-75.6549,39.6655],[-75.6527,39.6611],[-75.6666,39.6582],[-75.6682,39.6534],[-75.6764,39.6491],[-75.674,39.6444],[-75.6807,39.6376],[-75.6706,39.6278],[-75.6955,39.6183],[-75.7073,39.6099]]]},"properties":{"name":"SD13","district_number":13,"fips":"10013"}},{"type":"Feature","geometry":{"type":"Polygon","coordinates":[[[-75.7678,39.3934],[-75.7601,39.2968],[-75.7149,39.2994],[-75.6852,39.2971],[-75.6752,39.2905],[-75.6658,39.2906],[-75.6625,39.2783],[-75.6404,39.2522],[-75.6325,39.2615],[-75.6199,39.2692],[-75.598,39.2322],[-75.5771,39.2089],[-75.5709,39.2113],[-75.5766,39.2236],[-75.5724,39.2273],[-75.539,39.206],[-75.5301,39.2052],[-75.5107,39.2201],[-75.5005,39.2071],[-75.4851,39.1975],[-75.4733,39.1948],[-75.4692,39.2008],[-75.4591,39.2047],[-75.441,39.2051],[-75.4324,39.2084],[-75.4318,39.2118],[-75.4246,39.2115],[-75.4158,39.2212],[-75.4083,39.2235],[-75.3005,39.2253],[-75.321,39.2514],[-75.4694,39.3731],[-75.4814,39.3876],[-75.5605,39.4568],[-75.5728,39.4535],[-75.5826,39.4467],[-75.5909,39.448],[-75.5947,39.4454],[-75.6116,39.4532],[-75.6089,39.4617],[-75.6107,39.4643],[-75.6243,39.4675],[-75.625,39.4626],[-75.6473,39.4593],[-75.6501,39.4544],[-75.6553,39.4528],[-75.6542,39.4483],[-75.6568,39.4499],[-75.659,39.4445],[-75.6719,39.44],[-75.6727,39.4359],[-75.6807,39.4376],[-75.6821,39.4313],[-75.6665,39.4204],[-75.6752,39.4167],[-75.6845,39.3995],[-75.6991,39.4083],[-75.7052,39.4176],[-75.7291,39.4097],[-75.7297,39.4054],[-75.7345,39.4064],[-75.7367,39.403],[-75.7498,39.4084],[-75.7548,39.3987],[-75.7678,39.3934]]]},"properties":{"name":"SD14","district_number":14,"fips":"10014"}},{"type":"Feature","geometry":{"type":"Polygon","coordinates":[[[-75.76,39.2968],[-75.7228,38.8299],[-75.555,38.8356],[-75.5397,38.8435],[-75.5362,38.85],[-75.5203,38.8558],[-75.5156,38.8706],[-75.5085,38.8809],[-75.5096,38.8999],[-75.5155,38.9127],[-75.517,38.9277],[-75.5019,38.9277],[-75.4775,38.9345],[-75.471,38.9332],[-75.4671,38.9375],[-75.4596,38.9391],[-75.4828,38.9633],[-75.4938,38.9681],[-75.5252,39.007],[-75.569,39.0068],[-75.5571,39.0476],[-75.5633,39.0745],[-75.5585,39.0924],[-75.5663,39.0915],[-75.5656,39.1015],[-75.5611,39.1064],[-75.5677,39.1089],[-75.5693,39.1158],[-75.5603,39.1216],[-75.5651,39.1249],[-75.5756,39.1254],[-75.5928,39.1215],[-75.5915,39.1235],[-75.5983,39.1289],[-75.5951,39.1306],[-75.6023,39.1447],[-75.6026,39.1557],[-75.6128,39.1557],[-75.6048,39.1648],[-75.5721,39.1699],[-75.5862,39.1815],[-75.564,39.1954],[-75.598,39.2322],[-75.6199,39.2692],[-75.6325,39.2615],[-75.6404,39.2522],[-75.6625,39.2783],[-75.6658,39.2906],[-75.6752,39.2905],[-75.6852,39.2971],[-75.7149,39.2994],[-75.76,39.2968]]]},"properties":{"name":"SD15","district_number":15,"fips":"10015"}},{"type":"Feature","geometry":{"type":"Polygon","coordinates":[[[-75.5689,39.0071],[-75.5252,39.007],[-75.4938,38.9681],[-75.4828,38.9633],[-75.4596,38.9391],[-75.4349,38.953],[-75.43,38.9442],[-75.4244,38.9445],[-75.4171,38.9508],[-75.4164,38.9576],[-75.4104,38.9613],[-75.3994,38.9591],[-75.3931,38.9541],[-75.3912,38.9568],[-75.3826,38.9558],[-75.381,38.9618],[-75.372,38.9614],[-75.3679,38.9597],[-75.3663,38.954],[-75.3602,38.9576],[-75.3519,38.9474],[-75.3441,38.9553],[-75.3435,38.9475],[-75.339,38.9463],[-75.3324,38.9507],[-75.3263,38.949],[-75.3198,38.9538],[-75.3138,38.9507],[-75.3121,38.9459],[-75.1385,39.0027],[-75.1685,39.0562],[-75.1917,39.079],[-75.3005,39.2253],[-75.4083,39.2235],[-75.4158,39.2212],[-75.4246,39.2115],[-75.4318,39.2118],[-75.4324,39.2084],[-75.441,39.2051],[-75.4591,39.2047],[-75.4692,39.2008],[-75.4733,39.1948],[-75.4851,39.1975],[-75.4979,39.2055],[-75.5142,39.1945],[-75.5095,39.1905],[-75.4974,39.1898],[-75.4922,39.183],[-75.5027,39.1767],[-75.4929,39.1657],[-75.4932,39.1566],[-75.5123,39.1575],[-75.5175,39.1442],[-75.5261,39.1376],[-75.5459,39.0952],[-75.5571,39.0956],[-75.5633,39.0745],[-75.5571,39.0476],[-75.5689,39.0071]]]},"properties":{"name":"SD16","district_number":16,"fips":"10016"}},{"type":"Feature","geometry":{"type":"Polygon","coordinates":[[[-75.6126,39.156],[-75.6026,39.1557],[-75.6023,39.1447],[-75.5951,39.1306],[-75.5983,39.1289],[-75.5915,39.1235],[-75.5928,39.1215],[-75.5756,39.1254],[-75.5606,39.1222],[-75.5655,39.1159],[-75.5693,39.1158],[-75.5677,39.1089],[-75.5611,39.1064],[-75.5656,39.1015],[-75.5663,39.0915],[-75.5585,39.0924],[-75.5571,39.0956],[-75.5459,39.0952],[-75.5261,39.1376],[-75.5175,39.1442],[-75.5123,39.1575],[-75.4932,39.1566],[-75.4929,39.1657],[-75.5027,39.1767],[-75.4922,39.183],[-75.4974,39.1898],[-75.5095,39.1905],[-75.5142,39.1945],[-75.4979,39.2055],[-75.5107,39.2201],[-75.5301,39.2052],[-75.539,39.206],[-75.5724,39.2273],[-75.5766,39.2236],[-75.5709,39.2113],[-75.5771,39.2089],[-75.564,39.1948],[-75.5862,39.1815],[-75.5721,39.1699],[-75.6048,39.1648],[-75.6126,39.156]]]},"properties":{"name":"SD17","district_number":17,"fips":"10017"}},{"type":"Feature","geometry":{"type":"Polygon","coordinates":[[[-75.7228,38.8299],[-75.713,38.7056],[-75.6924,38.704],[-75.6727,38.7101],[-75.6616,38.7101],[-75.6463,38.7182],[-75.6045,38.6955],[-75.5653,38.6656],[-75.5571,38.6672],[-75.5313,38.6858],[-75.4941,38.681],[-75.4806,38.6924],[-75.4502,38.6987],[-75.4311,38.6983],[-75.4319,38.7024],[-75.4254,38.7096],[-75.4047,38.7096],[-75.4076,38.7162],[-75.3999,38.7191],[-75.3834,38.7193],[-75.3776,38.7239],[-75.3623,38.7226],[-75.3602,38.7321],[-75.3426,38.7359],[-75.3334,38.7426],[-75.3415,38.7756],[-75.3406,38.7942],[-75.3454,38.8159],[-75.3436,38.8268],[-75.3459,38.8345],[-75.351,38.8387],[-75.3449,38.8395],[-75.3441,38.8472],[-75.3478,38.8558],[-75.3066,38.8604],[-75.3068,38.8654],[-75.2913,38.8733],[-75.2896,38.8771],[-75.2816,38.8791],[-75.2758,38.8768],[-75.2694,38.8801],[-75.129,38.9874],[-75.1385,39.0027],[-75.3121,38.9459],[-75.3138,38.9507],[-75.3198,38.9538],[-75.3263,38.949],[-75.3324,38.9507],[-75.339,38.9463],[-75.3435,38.9475],[-75.3441,38.9553],[-75.3519,38.9474],[-75.3602,38.9576],[-75.3663,38.954],[-75.3679,38.9597],[-75.372,38.9614],[-75.381,38.9618],[-75.3826,38.9558],[-75.3912,38.9568],[-75.3931,38.9541],[-75.3994,38.9591],[-75.4104,38.9613],[-75.4164,38.9576],[-75.4171,38.9508],[-75.4244,38.9445],[-75.43,38.9442],[-75.4349,38.953],[-75.471,38.9332],[-75.4775,38.9345],[-75.5019,38.9277],[-75.517,38.9277],[-75.5155,38.9127],[-75.5096,38.8999],[-75.5085,38.8809],[-75.5156,38.8706],[-75.5203,38.8558],[-75.5362,38.85],[-75.5397,38.8435],[-75.555,38.8356],[-75.7228,38.8299]]]},"properties":{"name":"SD18","district_number":18,"fips":"10018"}},{"type":"Feature","geometry":{"type":"Polygon","coordinates":[[[-75.5942,38.6482],[-75.5933,38.6405],[-75.5639,38.641],[-75.5644,38.6335],[-75.5593,38.6304],[-75.5601,38.621],[-75.5454,38.6153],[-75.5424,38.6169],[-75.5153,38.6035],[-75.4847,38.6203],[-75.4117,38.5929],[-75.3751,38.6034],[-75.3594,38.603],[-75.3557,38.5903],[-75.3375,38.5963],[-75.3155,38.5806],[-75.3052,38.5833],[-75.3059,38.5888],[-75.3089,38.5894],[-75.3049,38.5912],[-75.3128,38.5955],[-75.3098,38.5986],[-75.3043,38.5961],[-75.3045,38.5983],[-75.2968,38.5988],[-75.2921,38.5941],[-75.29,38.5982],[-75.2819,38.6013],[-75.2762,38.6282],[-75.2554,38.6228],[-75.2382,38.626],[-75.2223,38.6247],[-75.2024,38.6145],[-75.1965,38.6268],[-75.1892,38.6258],[-75.1835,38.6215],[-75.1804,38.6239],[-75.1765,38.6201],[-75.1687,38.6199],[-75.1538,38.6091],[-75.1246,38.6125],[-75.1246,38.6008],[-75.1032,38.6069],[-75.1003,38.6136],[-75.0852,38.626],[-75.0919,38.6431],[-75.1027,38.6445],[-75.1024,38.6632],[-75.1248,38.6804],[-75.1368,38.6804],[-75.1348,38.6782],[-75.141,38.6774],[-75.1596,38.6806],[-75.1603,38.6751],[-75.1828,38.6775],[-75.1807,38.685],[-75.183,38.6869],[-75.1858,38.6833],[-75.1942,38.6883],[-75.1907,38.6935],[-75.1999,38.6958],[-75.2036,38.7151],[-75.2062,38.7154],[-75.2054,38.7227],[-75.2246,38.7181],[-75.2596,38.7288],[-75.2848,38.7208],[-75.2856,38.7249],[-75.3225,38.7316],[-75.3283,38.7419],[-75.3327,38.7436],[-75.3426,38.7359],[-75.3602,38.7321],[-75.3623,38.7226],[-75.3776,38.7239],[-75.3834,38.7193],[-75.3999,38.7191],[-75.4076,38.7162],[-75.4047,38.7096],[-75.4243,38.7101],[-75.4318,38.7024],[-75.4311,38.6983],[-75.4502,38.6987],[-75.4806,38.6924],[-75.4948,38.6808],[-75.5313,38.6858],[-75.5571,38.6672],[-75.5675,38.6667],[-75.5942,38.6482]]]},"properties":{"name":"SD19","district_number":19,"fips":"10019"}},{"type":"Feature","geometry":{"type":"Polygon","coordinates":[[[-75.3128,38.5955],[-75.3049,38.5912],[-75.3089,38.5894],[-75.3059,38.5888],[-75.3035,38.5797],[-75.2788,38.5665],[-75.2609,38.5458],[-75.2652,38.5453],[-75.2653,38.5423],[-75.2581,38.5423],[-75.2391,38.5155],[-75.2351,38.4752],[-75.2395,38.4713],[-75.2451,38.4735],[-75.2478,38.4795],[-75.2551,38.4778],[-75.2436,38.4689],[-75.25,38.467],[-75.2423,38.467],[-75.2393,38.4621],[-75.2529,38.4514],[-74.9863,38.4516],[-74.9852,38.5282],[-74.9941,38.6144],[-75.1106,38.6062],[-75.1246,38.6008],[-75.1246,38.6125],[-75.1538,38.6091],[-75.1687,38.6199],[-75.1765,38.6201],[-75.1804,38.6239],[-75.1835,38.6215],[-75.1892,38.6258],[-75.1965,38.6268],[-75.2024,38.6145],[-75.2223,38.6247],[-75.2382,38.626],[-75.2554,38.6228],[-75.2762,38.6282],[-75.2819,38.6013],[-75.29,38.5982],[-75.2921,38.5941],[-75.2995,38.5992],[-75.3043,38.5961],[-75.3098,38.5986],[-75.3128,38.5955]]]},"properties":{"name":"SD20","district_number":20,"fips":"10020"}},{"type":"Feature","geometry":{"type":"Polygon","coordinates":[[[-75.713,38.7056],[-75.6937,38.4601],[-75.4109,38.4523],[-75.2529,38.4514],[-75.2393,38.4621],[-75.2423,38.467],[-75.25,38.467],[-75.2436,38.4689],[-75.2551,38.4755],[-75.2551,38.4778],[-75.2478,38.4795],[-75.2451,38.4735],[-75.2395,38.4713],[-75.2351,38.4752],[-75.2396,38.5164],[-75.2581,38.5423],[-75.2653,38.5423],[-75.2652,38.5453],[-75.2609,38.5458],[-75.2788,38.5665],[-75.2972,38.575],[-75.3048,38.5834],[-75.3155,38.5806],[-75.3375,38.5963],[-75.3557,38.5903],[-75.3594,38.603],[-75.3625,38.6035],[-75.3755,38.6034],[-75.4121,38.593],[-75.4847,38.6203],[-75.5153,38.6035],[-75.5424,38.6169],[-75.5454,38.6153],[-75.5601,38.621],[-75.5593,38.6304],[-75.5644,38.6335],[-75.5639,38.641],[-75.5933,38.6405],[-75.5942,38.6482],[-75.5675,38.6667],[-75.6045,38.6955],[-75.6463,38.7182],[-75.6616,38.7101],[-75.6727,38.7101],[-75.6924,38.704],[-75.713,38.7056]]]},"properties":{"name":"SD21","district_number":21,"fips":"10021"}}],"source":"U.S. Census Bureau TIGERweb, 2026 State Legislative Districts (upper)"}