{"type":"FeatureCollection","features":[{"type":"Feature","id":"12001","properties":{"name":"Alachua","fips":"12001"},"geometry":{"type":"Polygon","coordinates":[[[-82.5565,29.512],[-82.6563,29.5648],[-82.6581,29.8281],[-82.6586,29.8301],[-82.5297,29.9409],[-82.4187,29.9231],[-82.2726,29.843],[-82.1331,29.8359],[-82.0556,29.7182],[-82.0508,29.7161],[-82.0503,29.7097],[-82.055,29.6696],[-82.0559,29.4712],[-82.1057,29.436],[-82.2132,29.4318],[-82.225,29.4843],[-82.4066,29.485],[-82.5568,29.4801],[-82.5565,29.512]]]}},{"type":"Feature","id":"12003","properties":{"name":"Baker","fips":"12003"},"geometry":{"type":"Polygon","coordinates":[[[-82.05,30.3625],[-82.0492,30.2734],[-82.0494,30.1869],[-82.0494,30.1431],[-82.1426,30.1431],[-82.4584,30.1364],[-82.4598,30.5843],[-82.4595,30.5843],[-82.4189,30.5817],[-82.3748,30.579],[-82.2873,30.5735],[-82.2581,30.5716],[-82.2498,30.5709],[-82.2148,30.567],[-82.2144,30.567],[-82.2123,30.4996],[-82.206,30.4555],[-82.2103,30.4246],[-82.2042,30.4013],[-82.1896,30.3762],[-82.1715,30.3599],[-82.1652,30.358],[-82.1248,30.3666],[-82.0501,30.3623],[-82.05,30.3625]]]}},{"type":"Feature","id":"12005","properties":{"name":"Bay","fips":"12005"},"geometry":{"type":"Polygon","coordinates":[[[-85.9961,30.2691],[-85.9946,30.2909],[-85.9947,30.3117],[-85.9927,30.3893],[-85.8535,30.4406],[-85.488,30.4367],[-85.4864,30.5676],[-85.4348,30.5676],[-85.3839,30.5669],[-85.3897,30.201],[-85.3884,29.9269],[-85.3887,29.9244],[-85.4051,29.9385],[-85.426,29.9499],[-85.4605,29.9596],[-85.4694,29.9578],[-85.4878,29.9612],[-85.5091,29.9715],[-85.5412,29.9958],[-85.5719,30.0264],[-85.5814,30.0378],[-85.5882,30.0555],[-85.6012,30.0563],[-85.6183,30.0655],[-85.6373,30.0733],[-85.6533,30.0778],[-85.6968,30.0969],[-85.7301,30.1182],[-85.7499,30.1365],[-85.7754,30.1563],[-85.8112,30.1783],[-85.8781,30.2156],[-85.9226,30.238],[-85.9961,30.2691]]]}},{"type":"Feature","id":"12007","properties":{"name":"Bradford","fips":"12007"},"geometry":{"type":"Polygon","coordinates":[[[-82.0492,29.7187],[-82.0556,29.7182],[-82.1331,29.8359],[-82.2726,29.843],[-82.4187,29.9231],[-82.3074,29.9562],[-82.1426,30.1431],[-82.0494,30.1431],[-82.0461,29.7471],[-82.0492,29.7187]]]}},{"type":"Feature","id":"12009","properties":{"name":"Brevard","fips":"12009"},"geometry":{"type":"Polygon","coordinates":[[[-80.6313,28.6552],[-80.6168,28.6346],[-80.5839,28.5977],[-80.5749,28.5852],[-80.5674,28.5624],[-80.561,28.5307],[-80.5361,28.4786],[-80.5251,28.4595],[-80.5267,28.4517],[-80.5629,28.4378],[-80.5741,28.4278],[-80.5878,28.4109],[-80.5962,28.3907],[-80.6034,28.364],[-80.6069,28.3365],[-80.6081,28.3113],[-80.6042,28.2577],[-80.59,28.178],[-80.5664,28.0956],[-80.5477,28.0488],[-80.5089,27.9705],[-80.447,27.862],[-80.4471,27.8608],[-80.5091,27.8221],[-80.8689,27.8225],[-80.8628,28.3472],[-80.8629,28.3474],[-80.8629,28.3475],[-80.8809,28.5036],[-80.9873,28.613],[-80.9645,28.613],[-80.9679,28.7902],[-80.7322,28.7912],[-80.7132,28.762],[-80.7131,28.7619],[-80.7127,28.7613],[-80.7097,28.7567],[-80.7085,28.7552],[-80.6722,28.7094],[-80.6632,28.6979],[-80.6479,28.6787],[-80.6478,28.6785],[-80.6473,28.6779],[-80.6458,28.6758],[-80.6414,28.6696],[-80.639,28.6661],[-80.6313,28.6552]]]}},{"type":"Feature","id":"12011","properties":{"name":"Broward","fips":"12011"},"geometry":{"type":"Polygon","coordinates":[[[-80.2788,25.971],[-80.2952,25.9706],[-80.295,25.9568],[-80.3267,25.9571],[-80.4405,25.9569],[-80.68,25.9569],[-80.68,25.9787],[-80.8729,25.9794],[-80.8727,26.0004],[-80.8798,26.2595],[-80.8812,26.3338],[-80.2975,26.3344],[-80.2969,26.3344],[-80.1538,26.3278],[-80.134,26.3279],[-80.1312,26.3278],[-80.1302,26.3279],[-80.1213,26.3277],[-80.1168,26.3278],[-80.0997,26.3277],[-80.0983,26.3226],[-80.0919,26.3264],[-80.089,26.3244],[-80.0879,26.3208],[-80.0748,26.321],[-80.0753,26.3187],[-80.0799,26.2644],[-80.0856,26.2493],[-80.0894,26.2319],[-80.1014,26.1478],[-80.1053,26.0963],[-80.1068,26.093],[-80.109,26.0884],[-80.1096,26.0872],[-80.1123,26.0532],[-80.1178,25.9864],[-80.1178,25.9752],[-80.1181,25.9752],[-80.1239,25.9745],[-80.1339,25.9741],[-80.1339,25.9749],[-80.1422,25.9747],[-80.1435,25.9745],[-80.2468,25.9719],[-80.2788,25.971]]]}},{"type":"Feature","id":"12013","properties":{"name":"Calhoun","fips":"12013"},"geometry":{"type":"Polygon","coordinates":[[[-85.3897,30.201],[-85.3839,30.5669],[-85.1719,30.5643],[-85.1677,30.608],[-84.9325,30.6064],[-84.99,30.5248],[-84.9832,30.4418],[-85.0591,30.2632],[-85.1157,30.2],[-85.3863,30.2014],[-85.3897,30.201]]]}},{"type":"Feature","id":"12015","properties":{"name":"Charlotte","fips":"12015"},"geometry":{"type":"Polygon","coordinates":[[[-82.3757,26.946],[-82.3402,26.9456],[-82.339,26.9459],[-82.3263,26.9458],[-82.3225,26.9456],[-82.2999,26.9456],[-82.2555,26.9453],[-82.2552,27.033],[-82.1717,27.0328],[-82.0575,27.0321],[-81.5622,27.0338],[-81.5659,26.7696],[-82.062,26.7704],[-82.0614,26.7743],[-82.0614,26.7892],[-82.0551,26.8025],[-82.058,26.822],[-82.0585,26.8387],[-82.0568,26.8588],[-82.0591,26.8766],[-82.0666,26.8824],[-82.0907,26.8887],[-82.093,26.9065],[-82.0901,26.9232],[-82.0832,26.9278],[-82.0677,26.9278],[-82.062,26.9312],[-82.0614,26.9387],[-82.0631,26.9502],[-82.0763,26.9583],[-82.108,26.9577],[-82.113,26.9558],[-82.1172,26.9542],[-82.1246,26.9456],[-82.1373,26.9261],[-82.162,26.9255],[-82.1695,26.9232],[-82.1752,26.9169],[-82.1729,26.8973],[-82.1563,26.8519],[-82.1471,26.7898],[-82.1511,26.7835],[-82.1729,26.7789],[-82.1787,26.7726],[-82.2093,26.7721],[-82.2218,26.772],[-82.2322,26.7829],[-82.2333,26.7841],[-82.234,26.7833],[-82.2419,26.7743],[-82.2511,26.7559],[-82.2599,26.7174],[-82.2638,26.7256],[-82.2647,26.7568],[-82.2695,26.7847],[-82.2717,26.7895],[-82.2816,26.8112],[-82.2891,26.8278],[-82.3017,26.8416],[-82.3516,26.9084],[-82.3757,26.946]]]}},{"type":"Feature","id":"12017","properties":{"name":"Citrus","fips":"12017"},"geometry":{"type":"Polygon","coordinates":[[[-82.5356,29.0449],[-82.427,29.0214],[-82.3117,28.9604],[-82.1708,28.7902],[-82.2631,28.6676],[-82.4177,28.6659],[-82.4184,28.6949],[-82.6464,28.6944],[-82.6455,28.6976],[-82.6529,28.7056],[-82.656,28.7124],[-82.6529,28.7193],[-82.656,28.728],[-82.6622,28.7373],[-82.6511,28.7472],[-82.6455,28.767],[-82.643,28.7825],[-82.643,28.79],[-82.6486,28.7962],[-82.6504,28.8049],[-82.6529,28.8309],[-82.6387,28.8433],[-82.643,28.8601],[-82.6399,28.8762],[-82.6449,28.8893],[-82.656,28.8992],[-82.6734,28.9004],[-82.6889,28.9056],[-82.7026,28.933],[-82.7088,28.936],[-82.7239,28.9535],[-82.7358,28.9737],[-82.7379,28.9957],[-82.7589,28.9933],[-82.6898,29.034],[-82.6127,29.0093],[-82.5356,29.0449]]]}},{"type":"Feature","id":"12019","properties":{"name":"Clay","fips":"12019"},"geometry":{"type":"Polygon","coordinates":[[[-82.0494,30.1869],[-81.7113,30.1912],[-81.6802,30.1212],[-81.6889,30.0286],[-81.601,29.956],[-81.5812,29.8402],[-81.7972,29.8366],[-81.9394,29.7475],[-82.0492,29.7187],[-82.0461,29.7471],[-82.0494,30.1431],[-82.0494,30.1869]]]}},{"type":"Feature","id":"12021","properties":{"name":"Collier","fips":"12021"},"geometry":{"type":"Polygon","coordinates":[[[-81.5638,26.5133],[-81.2718,26.5171],[-81.2717,26.4227],[-81.2686,26.253],[-80.8798,26.2595],[-80.8727,26.0004],[-80.8729,25.9794],[-80.8731,25.8054],[-81.3446,25.8033],[-81.3492,25.8168],[-81.3527,25.822],[-81.3623,25.8244],[-81.3861,25.8399],[-81.3945,25.8518],[-81.4175,25.865],[-81.4243,25.8677],[-81.4291,25.8654],[-81.4414,25.8638],[-81.4585,25.8689],[-81.4716,25.8817],[-81.474,25.8884],[-81.4875,25.8884],[-81.501,25.884],[-81.509,25.884],[-81.513,25.8864],[-81.5118,25.8968],[-81.5157,25.8999],[-81.5277,25.9015],[-81.5412,25.9003],[-81.5774,25.8892],[-81.5845,25.8888],[-81.6147,25.894],[-81.6235,25.8972],[-81.6401,25.8978],[-81.6446,25.898],[-81.6545,25.8936],[-81.6638,25.8856],[-81.6726,25.8567],[-81.6783,25.8453],[-81.6848,25.8472],[-81.6895,25.8527],[-81.7132,25.8976],[-81.7177,25.902],[-81.7271,25.9072],[-81.7319,25.9315],[-81.7381,25.942],[-81.7456,25.9496],[-81.7497,25.9605],[-81.7478,25.9943],[-81.7507,25.9984],[-81.7575,26.0004],[-81.7624,26.0061],[-81.8017,26.0882],[-81.8088,26.1522],[-81.8146,26.1732],[-81.8168,26.2072],[-81.8207,26.2367],[-81.8331,26.2945],[-81.8446,26.3277],[-81.8458,26.3304],[-81.6905,26.3173],[-81.6595,26.4211],[-81.5622,26.4226],[-81.5638,26.5133]]]}},{"type":"Feature","id":"12023","properties":{"name":"Columbia","fips":"12023"},"geometry":{"type":"Polygon","coordinates":[[[-82.584,30.5918],[-82.5692,30.591],[-82.5655,30.5906],[-82.5532,30.5899],[-82.5451,30.5894],[-82.5362,30.5889],[-82.5249,30.5882],[-82.4598,30.5843],[-82.4584,30.1364],[-82.576,29.9915],[-82.5297,29.9409],[-82.6586,29.8301],[-82.8005,29.9321],[-82.7946,30.337],[-82.6815,30.3428],[-82.6458,30.408],[-82.7266,30.5595],[-82.6895,30.5977],[-82.6893,30.5977],[-82.584,30.5918]]]}},{"type":"Feature","id":"12027","properties":{"name":"DeSoto","fips":"12027"},"geometry":{"type":"Polygon","coordinates":[[[-82.0575,27.0321],[-82.0565,27.2078],[-82.0558,27.3383],[-81.5637,27.3407],[-81.5622,27.0338],[-82.0575,27.0321]]]}},{"type":"Feature","id":"12029","properties":{"name":"Dixie","fips":"12029"},"geometry":{"type":"Polygon","coordinates":[[[-83.4123,29.6669],[-83.3734,29.666],[-83.3189,29.8226],[-82.9206,29.8241],[-82.9497,29.7544],[-82.9374,29.5913],[-82.9844,29.471],[-83.0685,29.344],[-83.1661,29.2889],[-83.1696,29.2904],[-83.1767,29.3142],[-83.1783,29.3279],[-83.1769,29.3293],[-83.1755,29.3447],[-83.1896,29.3634],[-83.2007,29.3739],[-83.2024,29.3944],[-83.2181,29.4205],[-83.2405,29.4332],[-83.264,29.4358],[-83.272,29.4323],[-83.2947,29.4379],[-83.3071,29.4597],[-83.3078,29.4689],[-83.3115,29.4757],[-83.3232,29.4768],[-83.3311,29.4756],[-83.3501,29.4894],[-83.3567,29.4999],[-83.3703,29.4999],[-83.3793,29.5036],[-83.384,29.513],[-83.4003,29.5172],[-83.4016,29.5233],[-83.3998,29.533],[-83.4053,29.5783],[-83.4051,29.5956],[-83.3995,29.613],[-83.4041,29.6408],[-83.4123,29.6669]]]}},{"type":"Feature","id":"12031","properties":{"name":"Duval","fips":"12031"},"geometry":{"type":"Polygon","coordinates":[[[-82.0492,30.2734],[-81.7917,30.5056],[-81.7216,30.572],[-81.6245,30.5862],[-81.543,30.5239],[-81.4996,30.5638],[-81.4428,30.5099],[-81.4471,30.5037],[-81.4401,30.4977],[-81.426,30.4967],[-81.4108,30.482],[-81.407,30.422],[-81.3974,30.4006],[-81.3964,30.34],[-81.3916,30.3034],[-81.3855,30.2738],[-81.3799,30.2529],[-81.4369,30.2523],[-81.4337,30.106],[-81.6012,30.1305],[-81.6238,30.1336],[-81.6505,30.1215],[-81.6802,30.1212],[-81.7113,30.1912],[-82.0494,30.1869],[-82.0492,30.2734]]]}},{"type":"Feature","id":"12033","properties":{"name":"Escambia","fips":"12033"},"geometry":{"type":"Polygon","coordinates":[[[-86.9193,30.3707],[-87.1554,30.3277],[-87.2063,30.3209],[-87.2678,30.3155],[-87.2828,30.3187],[-87.2954,30.3235],[-87.3195,30.3178],[-87.3505,30.3131],[-87.4199,30.2971],[-87.5183,30.2804],[-87.4524,30.3002],[-87.4501,30.3111],[-87.451,30.3463],[-87.4514,30.3672],[-87.4407,30.3915],[-87.4275,30.4084],[-87.4192,30.4102],[-87.4306,30.4911],[-87.4483,30.5131],[-87.4498,30.5144],[-87.4499,30.5147],[-87.3945,30.6252],[-87.3942,30.6417],[-87.397,30.6536],[-87.4071,30.6718],[-87.4494,30.6989],[-87.4812,30.7165],[-87.4975,30.7201],[-87.5029,30.7224],[-87.5326,30.7435],[-87.6241,30.8457],[-87.6349,30.8659],[-87.6222,30.8975],[-87.6014,30.9363],[-87.5941,30.9763],[-87.5989,30.9975],[-87.5989,30.9975],[-87.5713,30.9979],[-87.5485,30.9979],[-87.4802,30.9982],[-87.4797,30.9982],[-87.4787,30.9982],[-87.4669,30.9982],[-87.4668,30.9982],[-87.4618,30.9982],[-87.4616,30.9982],[-87.4587,30.9984],[-87.4557,30.9983],[-87.4498,30.9983],[-87.4323,30.9982],[-87.4258,30.9981],[-87.3678,30.9983],[-87.364,30.9982],[-87.3557,30.9982],[-87.334,30.9983],[-87.3122,30.9984],[-87.304,30.9982],[-87.3016,30.9984],[-87.291,30.9984],[-87.2889,30.9983],[-87.2656,30.9983],[-87.2605,30.9982],[-87.2597,30.9982],[-87.258,30.9983],[-87.257,30.9982],[-87.2556,30.9982],[-87.255,30.9983],[-87.1631,30.9991],[-87.2869,30.9254],[-87.3136,30.8473],[-87.3085,30.7269],[-87.2694,30.7117],[-87.2589,30.6113],[-87.125,30.5002],[-87.1344,30.4203],[-87.233,30.349],[-86.9193,30.3707]]]}},{"type":"Feature","id":"12035","properties":{"name":"Flagler","fips":"12035"},"geometry":{"type":"Polygon","coordinates":[[[-81.2129,29.6707],[-81.2116,29.6671],[-81.1636,29.5553],[-81.1239,29.4745],[-81.1019,29.4271],[-81.1559,29.411],[-81.1501,29.266],[-81.4173,29.2612],[-81.434,29.3986],[-81.4788,29.3991],[-81.5206,29.5002],[-81.5237,29.6224],[-81.3241,29.6256],[-81.2129,29.6707]]]}},{"type":"Feature","id":"12037","properties":{"name":"Franklin","fips":"12037"},"geometry":{"type":"MultiPolygon","coordinates":[[[[-84.7772,29.7074],[-84.7298,29.7389],[-84.717,29.7491],[-84.6967,29.7699],[-84.6941,29.7646],[-84.6949,29.7618],[-84.7137,29.7414],[-84.7651,29.6997],[-84.777,29.6922],[-84.7991,29.6816],[-84.8538,29.6647],[-84.8846,29.6522],[-84.9578,29.6126],[-85.0362,29.5889],[-85.051,29.5869],[-85.0546,29.5921],[-85.0695,29.6053],[-85.0952,29.6225],[-85.0971,29.6252],[-85.0949,29.6278],[-85.0665,29.61],[-85.0385,29.5996],[-85.0235,29.5971],[-85.0172,29.6044],[-84.9878,29.6103],[-84.9683,29.6172],[-84.9326,29.6372],[-84.9258,29.6449],[-84.9203,29.6486],[-84.8959,29.6574],[-84.8621,29.6726],[-84.8134,29.687],[-84.7982,29.6993],[-84.7772,29.7074]]],[[[-85.1564,29.6796],[-85.1374,29.6843],[-85.1346,29.6866],[-85.1143,29.6887],[-85.0939,29.6848],[-85.0837,29.679],[-85.0772,29.6709],[-85.0914,29.6486],[-85.0972,29.633],[-85.1249,29.6284],[-85.1427,29.6354],[-85.1625,29.6503],[-85.1845,29.664],[-85.2043,29.6727],[-85.2225,29.678],[-85.2203,29.6801],[-85.209,29.6818],[-85.1848,29.6827],[-85.1686,29.6824],[-85.1564,29.6796]]],[[[-84.5444,30.011],[-84.3413,29.9608],[-84.3394,29.946],[-84.3365,29.9425],[-84.3337,29.9237],[-84.336,29.913],[-84.3434,29.8995],[-84.3491,29.8968],[-84.3789,29.8931],[-84.405,29.9012],[-84.4238,29.903],[-84.4343,29.9063],[-84.4437,29.9138],[-84.4517,29.9291],[-84.4703,29.9245],[-84.4946,29.914],[-84.512,29.9166],[-84.5359,29.9101],[-84.5774,29.8878],[-84.6033,29.8761],[-84.6132,29.868],[-84.648,29.8471],[-84.6563,29.8379],[-84.6565,29.8343],[-84.6697,29.8289],[-84.6839,29.8313],[-84.6921,29.8291],[-84.7303,29.8069],[-84.7556,29.7885],[-84.763,29.7888],[-84.8242,29.7583],[-84.8372,29.7559],[-84.8683,29.7425],[-84.8818,29.7339],[-84.888,29.7224],[-84.8925,29.7227],[-84.9018,29.7357],[-84.8901,29.7558],[-84.8771,29.7729],[-84.894,29.7852],[-84.9041,29.7863],[-84.9151,29.7833],[-84.9209,29.7729],[-84.9384,29.7502],[-84.9466,29.745],[-84.964,29.7424],[-84.9688,29.7271],[-84.977,29.7212],[-84.9933,29.715],[-85.0372,29.7111],[-85.0721,29.719],[-85.1017,29.7187],[-85.1215,29.7159],[-85.1532,29.7082],[-85.1773,29.7002],[-85.2174,29.695],[-85.1094,29.7768],[-85.0401,29.7793],[-85.0122,29.8732],[-85.0254,29.9714],[-85.0076,30.0139],[-84.5444,30.011]]]]}},{"type":"Feature","id":"12039","properties":{"name":"Gadsden","fips":"12039"},"geometry":{"type":"Polygon","coordinates":[[[-84.8647,30.7115],[-84.8635,30.7115],[-84.6064,30.6999],[-84.6062,30.6999],[-84.5394,30.6968],[-84.535,30.6965],[-84.3807,30.6897],[-84.2826,30.6853],[-84.3784,30.5735],[-84.4205,30.4639],[-84.6464,30.3883],[-84.7811,30.4598],[-84.7818,30.5187],[-84.8826,30.5331],[-84.9325,30.6064],[-84.8647,30.7115]]]}},{"type":"Feature","id":"12041","properties":{"name":"Gilchrist","fips":"12041"},"geometry":{"type":"Polygon","coordinates":[[[-82.6586,29.8301],[-82.6581,29.8281],[-82.6563,29.5648],[-82.9374,29.5913],[-82.9497,29.7544],[-82.9206,29.8241],[-82.8929,29.8275],[-82.8756,29.8665],[-82.8798,29.8868],[-82.8642,29.9098],[-82.8005,29.9321],[-82.6586,29.8301]]]}},{"type":"Feature","id":"12043","properties":{"name":"Glades","fips":"12043"},"geometry":{"type":"Polygon","coordinates":[[[-80.9432,27.2106],[-80.8712,27.155],[-80.8856,26.9589],[-80.9454,26.769],[-81.5659,26.7696],[-81.5622,27.0338],[-81.2672,27.0325],[-81.2677,27.1211],[-81.1683,27.1217],[-81.1691,27.2096],[-80.9432,27.2106]]]}},{"type":"Feature","id":"12045","properties":{"name":"Gulf","fips":"12045"},"geometry":{"type":"Polygon","coordinates":[[[-85.1157,30.2],[-85.1538,30.0913],[-85.1137,30.0232],[-85.0254,29.9714],[-85.0122,29.8732],[-85.0401,29.7793],[-85.1094,29.7768],[-85.2174,29.695],[-85.2275,29.6936],[-85.2597,29.6813],[-85.2907,29.6841],[-85.3192,29.6815],[-85.3436,29.672],[-85.3477,29.6672],[-85.3448,29.6548],[-85.3526,29.6598],[-85.3694,29.681],[-85.3803,29.6985],[-85.3979,29.7405],[-85.414,29.7999],[-85.418,29.8289],[-85.4165,29.8426],[-85.4136,29.8529],[-85.4058,29.8658],[-85.3925,29.8709],[-85.3987,29.8593],[-85.405,29.8302],[-85.4059,29.8019],[-85.3955,29.7624],[-85.378,29.7096],[-85.3638,29.6935],[-85.3539,29.6848],[-85.345,29.685],[-85.3177,29.6913],[-85.3114,29.6976],[-85.3013,29.7971],[-85.3026,29.8081],[-85.3049,29.8111],[-85.3114,29.8144],[-85.3145,29.8223],[-85.3148,29.8306],[-85.3129,29.8323],[-85.3175,29.8389],[-85.325,29.845],[-85.3323,29.8459],[-85.3367,29.8493],[-85.347,29.872],[-85.3637,29.8989],[-85.3847,29.9209],[-85.3887,29.9244],[-85.3884,29.9269],[-85.3897,30.201],[-85.3863,30.2014],[-85.1157,30.2]]]}},{"type":"Feature","id":"12047","properties":{"name":"Hamilton","fips":"12047"},"geometry":{"type":"Polygon","coordinates":[[[-83.1874,30.6272],[-83.1744,30.6264],[-83.1633,30.6259],[-83.1562,30.6255],[-83.1366,30.6243],[-82.8788,30.6091],[-82.8773,30.609],[-82.6989,30.5983],[-82.6986,30.5982],[-82.6895,30.5977],[-82.7266,30.5595],[-82.6458,30.408],[-82.6815,30.3428],[-82.7946,30.337],[-83.0021,30.4294],[-83.0787,30.4381],[-83.171,30.3852],[-83.2438,30.4731],[-83.2726,30.6277],[-83.3093,30.6344],[-83.3092,30.6344],[-83.2562,30.6313],[-83.1874,30.6272]]]}},{"type":"Feature","id":"12049","properties":{"name":"Hardee","fips":"12049"},"geometry":{"type":"Polygon","coordinates":[[[-82.0543,27.6464],[-81.5633,27.6466],[-81.5637,27.3407],[-82.0558,27.3383],[-82.0543,27.6464]]]}},{"type":"Feature","id":"12051","properties":{"name":"Hendry","fips":"12051"},"geometry":{"type":"Polygon","coordinates":[[[-80.8798,26.2595],[-81.2686,26.253],[-81.2717,26.4227],[-81.2718,26.5171],[-81.5638,26.5133],[-81.5659,26.7696],[-80.9454,26.769],[-80.8856,26.9589],[-80.8861,26.7255],[-80.8812,26.3338],[-80.8798,26.2595]]]}},{"type":"Feature","id":"12053","properties":{"name":"Hernando","fips":"12053"},"geometry":{"type":"Polygon","coordinates":[[[-82.0547,28.4784],[-82.2533,28.4785],[-82.2534,28.4348],[-82.6006,28.4339],[-82.6787,28.4335],[-82.6778,28.4344],[-82.6748,28.442],[-82.6804,28.4572],[-82.6724,28.4647],[-82.6651,28.4844],[-82.6645,28.4888],[-82.6664,28.4973],[-82.6701,28.5008],[-82.6694,28.5199],[-82.668,28.5282],[-82.6637,28.5302],[-82.6567,28.5448],[-82.6617,28.5497],[-82.6616,28.5541],[-82.657,28.568],[-82.6541,28.5908],[-82.6641,28.6066],[-82.6566,28.6237],[-82.6585,28.6368],[-82.6542,28.6684],[-82.6464,28.6944],[-82.4184,28.6949],[-82.4177,28.6659],[-82.2631,28.6676],[-82.2082,28.5721],[-82.0545,28.5214],[-82.0547,28.4784]]]}},{"type":"Feature","id":"12055","properties":{"name":"Highlands","fips":"12055"},"geometry":{"type":"Polygon","coordinates":[[[-80.9432,27.2106],[-81.1691,27.2096],[-81.1683,27.1217],[-81.2677,27.1211],[-81.2672,27.0325],[-81.5622,27.0338],[-81.5637,27.3407],[-81.5633,27.6466],[-81.1422,27.6432],[-81.2137,27.5287],[-80.9709,27.2177],[-80.9517,27.2248],[-80.9432,27.2106]]]}},{"type":"Feature","id":"12057","properties":{"name":"Hillsborough","fips":"12057"},"geometry":{"type":"Polygon","coordinates":[[[-82.644,28.1733],[-82.1059,28.1716],[-82.0563,28.1716],[-82.0564,28.0804],[-82.054,27.8507],[-82.0543,27.6464],[-82.5247,27.6454],[-82.5249,27.6454],[-82.5495,27.6456],[-82.5545,27.6451],[-82.5371,27.6729],[-82.5143,27.7056],[-82.4949,27.719],[-82.4824,27.7199],[-82.4776,27.723],[-82.4763,27.7299],[-82.4771,27.7352],[-82.4823,27.7426],[-82.4783,27.7462],[-82.4575,27.7526],[-82.4346,27.7644],[-82.432,27.7681],[-82.434,27.7741],[-82.4191,27.7938],[-82.4184,27.8032],[-82.4108,27.8109],[-82.4029,27.8127],[-82.3934,27.8375],[-82.3975,27.8516],[-82.4026,27.8826],[-82.4139,27.9014],[-82.4323,27.9013],[-82.4516,27.9075],[-82.46,27.9116],[-82.4596,27.9169],[-82.4621,27.9201],[-82.4781,27.9277],[-82.4898,27.9196],[-82.4911,27.9145],[-82.4874,27.895],[-82.4881,27.8636],[-82.4801,27.8532],[-82.4716,27.8473],[-82.4688,27.8433],[-82.4724,27.8226],[-82.4753,27.821],[-82.4898,27.8226],[-82.5112,27.828],[-82.5539,27.8485],[-82.5529,27.8627],[-82.5386,27.8649],[-82.5332,27.8707],[-82.5299,27.8775],[-82.5393,27.885],[-82.5428,27.8906],[-82.5417,27.8937],[-82.5358,27.898],[-82.5313,27.9039],[-82.5337,27.933],[-82.5412,27.949],[-82.5539,27.967],[-82.5894,27.9709],[-82.6195,27.9697],[-82.6486,27.9663],[-82.6486,28.0386],[-82.6512,28.1733],[-82.6497,28.1733],[-82.644,28.1733]]]}},{"type":"Feature","id":"12059","properties":{"name":"Holmes","fips":"12059"},"geometry":{"type":"Polygon","coordinates":[[[-85.5999,30.8306],[-85.619,30.7439],[-85.7361,30.7464],[-85.8216,30.7908],[-85.8444,30.7031],[-86.0376,30.7046],[-86.035,30.9933],[-85.4983,30.9969],[-85.498,30.9969],[-85.5999,30.8306]]]}},{"type":"Feature","id":"12061","properties":{"name":"Indian River","fips":"12061"},"geometry":{"type":"Polygon","coordinates":[[[-80.8689,27.8225],[-80.5091,27.8221],[-80.4471,27.8608],[-80.4472,27.8597],[-80.3837,27.74],[-80.3517,27.6426],[-80.3506,27.6284],[-80.3444,27.6162],[-80.331,27.5975],[-80.3247,27.5692],[-80.3213,27.5574],[-80.6798,27.5585],[-80.7772,27.5587],[-80.778,27.6432],[-80.8731,27.6423],[-80.8689,27.8225]]]}},{"type":"Feature","id":"12063","properties":{"name":"Jackson","fips":"12063"},"geometry":{"type":"Polygon","coordinates":[[[-85.1545,31.0008],[-85.1522,31.0008],[-85.1521,31.0009],[-85.1458,31.0007],[-85.0575,31.0006],[-85.0548,31.0006],[-85.0521,31.0006],[-85.0312,31.0006],[-85.0301,31.0007],[-85.0275,31.0007],[-85.0241,31.0007],[-85.0024,31.0007],[-84.9986,30.9714],[-84.9835,30.9355],[-84.9596,30.9106],[-84.9419,30.888],[-84.8961,30.7506],[-84.8647,30.7115],[-84.9325,30.6064],[-85.1677,30.608],[-85.1719,30.5643],[-85.3839,30.5669],[-85.4348,30.5676],[-85.4323,30.7855],[-85.4823,30.8295],[-85.5999,30.8306],[-85.498,30.9969],[-85.4883,30.997],[-85.1545,31.0008]]]}},{"type":"Feature","id":"12065","properties":{"name":"Jefferson","fips":"12065"},"geometry":{"type":"Polygon","coordinates":[[[-84.0074,30.6721],[-83.8803,30.6658],[-83.8802,30.6658],[-83.8552,30.6644],[-83.8209,30.6626],[-83.8105,30.6619],[-83.7437,30.6584],[-83.6768,30.6549],[-83.6741,30.6547],[-83.6117,30.6513],[-83.6042,30.5819],[-83.7311,30.4923],[-83.7217,30.4344],[-83.8067,30.3717],[-83.8202,30.3035],[-83.8295,30.2879],[-83.857,30.2733],[-83.9155,30.2454],[-83.9916,30.0839],[-84.0007,30.0962],[-84.0243,30.1033],[-84.0487,30.1032],[-84.063,30.1014],[-84.076,30.0955],[-84.0755,30.2736],[-84.0758,30.3698],[-84.0752,30.3819],[-84.0749,30.4131],[-84.0747,30.4343],[-84.0415,30.4633],[-84.0412,30.4838],[-84.0412,30.484],[-83.9772,30.522],[-84.0075,30.6721],[-84.0074,30.6721]]]}},{"type":"Feature","id":"12067","properties":{"name":"Lafayette","fips":"12067"},"geometry":{"type":"Polygon","coordinates":[[[-83.3673,30.2604],[-83.2499,30.2604],[-83.2473,30.2607],[-83.2264,30.1146],[-83.1606,30.1098],[-82.9631,29.9931],[-82.8798,29.8868],[-82.8756,29.8665],[-82.8929,29.8275],[-82.9206,29.8241],[-83.3189,29.8226],[-83.3709,29.8879],[-83.3673,30.2604]]]}},{"type":"Feature","id":"12069","properties":{"name":"Lake","fips":"12069"},"geometry":{"type":"Polygon","coordinates":[[[-81.6573,28.3471],[-81.8189,28.3617],[-81.9576,28.3452],[-81.9536,28.8209],[-81.9542,28.9601],[-81.843,28.9599],[-81.8422,28.961],[-81.6587,28.9603],[-81.6392,29.0629],[-81.6405,29.1316],[-81.6419,29.2768],[-81.6123,29.2029],[-81.5313,29.1766],[-81.5021,29.0978],[-81.3546,28.9844],[-81.3669,28.8792],[-81.3671,28.8783],[-81.3668,28.8766],[-81.3662,28.8747],[-81.3667,28.8732],[-81.3686,28.8729],[-81.3697,28.8705],[-81.372,28.869],[-81.3735,28.8702],[-81.376,28.8659],[-81.3751,28.8634],[-81.4144,28.785],[-81.593,28.786],[-81.6247,28.7859],[-81.6581,28.6827],[-81.6574,28.5531],[-81.6573,28.3471]]]}},{"type":"Feature","id":"12071","properties":{"name":"Lee","fips":"12071"},"geometry":{"type":"MultiPolygon","coordinates":[[[[-82.2558,26.7034],[-82.2552,26.7082],[-82.2465,26.7064],[-82.2425,26.6944],[-82.246,26.6886],[-82.2465,26.6834],[-82.2374,26.662],[-82.2183,26.6264],[-82.2143,26.6029],[-82.1965,26.5598],[-82.1873,26.5276],[-82.1775,26.5023],[-82.166,26.4897],[-82.1494,26.4776],[-82.1315,26.477],[-82.12,26.4736],[-82.0884,26.4552],[-82.0769,26.4661],[-82.0626,26.4701],[-82.0384,26.4569],[-82.0156,26.4549],[-82.0137,26.4543],[-82.0139,26.4521],[-82.0631,26.4255],[-82.075,26.4221],[-82.0829,26.4221],[-82.0981,26.425],[-82.1267,26.4363],[-82.1487,26.4555],[-82.1729,26.4677],[-82.177,26.4716],[-82.1807,26.4763],[-82.1864,26.4892],[-82.2014,26.5563],[-82.2055,26.5665],[-82.2221,26.5904],[-82.2389,26.6364],[-82.2487,26.6543],[-82.263,26.6734],[-82.268,26.6828],[-82.2644,26.6985],[-82.2558,26.7034]]],[[[-81.6905,26.3173],[-81.8458,26.3304],[-81.869,26.3786],[-81.9019,26.4109],[-81.9027,26.4162],[-81.9117,26.4272],[-81.9236,26.4367],[-81.9384,26.4451],[-81.9566,26.4524],[-81.9642,26.458],[-81.9671,26.4629],[-81.9662,26.4651],[-81.9695,26.4765],[-81.9807,26.481],[-81.997,26.4849],[-82.009,26.4841],[-82.0137,26.4908],[-82.0091,26.5052],[-82.0246,26.5127],[-82.0436,26.5196],[-82.0671,26.5133],[-82.0717,26.4926],[-82.0947,26.4839],[-82.1057,26.4839],[-82.112,26.5408],[-82.1189,26.561],[-82.1223,26.5794],[-82.1379,26.6374],[-82.1499,26.6541],[-82.1816,26.6817],[-82.1798,26.6967],[-82.1735,26.7018],[-82.1517,26.7041],[-82.139,26.703],[-82.1258,26.6995],[-82.1189,26.6909],[-82.1062,26.6673],[-82.0999,26.6627],[-82.093,26.6656],[-82.0867,26.6852],[-82.085,26.7024],[-82.0798,26.7168],[-82.0666,26.7427],[-82.062,26.7704],[-81.5659,26.7696],[-81.5638,26.5133],[-81.5622,26.4226],[-81.6595,26.4211],[-81.6905,26.3173]]]]}},{"type":"Feature","id":"12073","properties":{"name":"Leon","fips":"12073"},"geometry":{"type":"Polygon","coordinates":[[[-84.0397,30.6738],[-84.0075,30.6721],[-83.9772,30.522],[-84.0412,30.484],[-84.0412,30.4838],[-84.0415,30.4633],[-84.0747,30.4343],[-84.0749,30.4131],[-84.0752,30.3819],[-84.0758,30.3698],[-84.0755,30.2736],[-84.2412,30.2742],[-84.2477,30.3035],[-84.7134,30.3002],[-84.6464,30.3883],[-84.4205,30.4639],[-84.3784,30.5735],[-84.2826,30.6853],[-84.2812,30.6853],[-84.0838,30.676],[-84.0572,30.6747],[-84.0466,30.6742],[-84.0418,30.6739],[-84.0397,30.6738]]]}},{"type":"Feature","id":"12075","properties":{"name":"Levy","fips":"12075"},"geometry":{"type":"Polygon","coordinates":[[[-82.4052,29.3303],[-82.4046,29.2789],[-82.4032,29.2156],[-82.5349,29.2147],[-82.5356,29.0449],[-82.6127,29.0093],[-82.6898,29.034],[-82.7589,28.9933],[-82.7606,28.9931],[-82.7641,28.9997],[-82.7594,29.0066],[-82.7535,29.0265],[-82.7597,29.0542],[-82.7833,29.0646],[-82.7806,29.0736],[-82.8169,29.0762],[-82.8237,29.0989],[-82.8095,29.1046],[-82.8012,29.1051],[-82.7991,29.1106],[-82.7989,29.1145],[-82.8057,29.1298],[-82.8047,29.1466],[-82.8271,29.1584],[-82.8582,29.1623],[-82.8872,29.1617],[-82.9226,29.1698],[-82.9324,29.1679],[-82.9453,29.1678],[-82.9747,29.1709],[-82.9795,29.1718],[-82.9872,29.1801],[-82.9917,29.1807],[-82.9961,29.1781],[-83.0182,29.1514],[-83.0191,29.1413],[-83.0305,29.134],[-83.0532,29.1308],[-83.0569,29.1463],[-83.0682,29.1531],[-83.0609,29.171],[-83.0612,29.1761],[-83.0652,29.1845],[-83.079,29.1969],[-83.0878,29.2164],[-83.0747,29.248],[-83.0773,29.2553],[-83.089,29.2665],[-83.1075,29.2689],[-83.1256,29.2788],[-83.128,29.2827],[-83.1464,29.2892],[-83.1498,29.2898],[-83.1607,29.2866],[-83.1661,29.2889],[-83.0685,29.344],[-82.9844,29.471],[-82.9374,29.5913],[-82.6563,29.5648],[-82.5565,29.512],[-82.5568,29.4801],[-82.4066,29.485],[-82.4052,29.3303]]]}},{"type":"Feature","id":"12077","properties":{"name":"Liberty","fips":"12077"},"geometry":{"type":"Polygon","coordinates":[[[-84.5444,30.011],[-85.0076,30.0139],[-85.0254,29.9714],[-85.1137,30.0232],[-85.1538,30.0913],[-85.1157,30.2],[-85.0591,30.2632],[-84.9832,30.4418],[-84.99,30.5248],[-84.9325,30.6064],[-84.8826,30.5331],[-84.7818,30.5187],[-84.7811,30.4598],[-84.6464,30.3883],[-84.7134,30.3002],[-84.6693,30.1252],[-84.5444,30.011]]]}},{"type":"Feature","id":"12079","properties":{"name":"Madison","fips":"12079"},"geometry":{"type":"Polygon","coordinates":[[[-83.3095,30.6344],[-83.3093,30.6344],[-83.2726,30.6277],[-83.2438,30.4731],[-83.171,30.3852],[-83.2473,30.2607],[-83.2499,30.2604],[-83.3673,30.2604],[-83.4693,30.2604],[-83.4688,30.3042],[-83.8202,30.3035],[-83.8067,30.3717],[-83.7217,30.4344],[-83.7311,30.4923],[-83.6042,30.5819],[-83.6117,30.6513],[-83.6117,30.6513],[-83.4489,30.6424],[-83.44,30.642],[-83.4296,30.6415],[-83.4295,30.6415],[-83.3901,30.6393],[-83.3795,30.6387],[-83.3577,30.6374],[-83.341,30.6363],[-83.3409,30.6363],[-83.3116,30.6346],[-83.3095,30.6344]]]}},{"type":"Feature","id":"12081","properties":{"name":"Manatee","fips":"12081"},"geometry":{"type":"Polygon","coordinates":[[[-82.6428,27.3897],[-82.6751,27.4243],[-82.6918,27.4372],[-82.691,27.4443],[-82.7078,27.4876],[-82.7145,27.5004],[-82.7245,27.5136],[-82.743,27.5311],[-82.7457,27.5388],[-82.7424,27.5394],[-82.7081,27.5235],[-82.7106,27.5017],[-82.7068,27.4984],[-82.6904,27.4964],[-82.6864,27.4972],[-82.6869,27.508],[-82.6836,27.5131],[-82.6746,27.5196],[-82.662,27.5228],[-82.6507,27.5231],[-82.646,27.5335],[-82.6321,27.5519],[-82.612,27.5712],[-82.613,27.5828],[-82.6127,27.5833],[-82.6117,27.5853],[-82.5965,27.594],[-82.5846,27.596],[-82.5706,27.6089],[-82.5657,27.6157],[-82.5585,27.6387],[-82.5545,27.6451],[-82.5495,27.6456],[-82.5249,27.6454],[-82.5247,27.6454],[-82.0543,27.6464],[-82.0558,27.3383],[-82.0565,27.2078],[-82.2536,27.2089],[-82.2523,27.3862],[-82.6428,27.3897]]]}},{"type":"Feature","id":"12083","properties":{"name":"Marion","fips":"12083"},"geometry":{"type":"Polygon","coordinates":[[[-82.3117,28.9604],[-82.427,29.0214],[-82.5356,29.0449],[-82.5349,29.2147],[-82.4032,29.2156],[-82.4046,29.2789],[-82.4052,29.3303],[-82.4066,29.485],[-82.225,29.4843],[-82.2132,29.4318],[-82.1057,29.436],[-82.0559,29.4712],[-81.843,29.521],[-81.7762,29.4874],[-81.7414,29.371],[-81.6809,29.3244],[-81.6755,29.3106],[-81.6679,29.3015],[-81.6557,29.2999],[-81.6484,29.2902],[-81.6419,29.2768],[-81.6405,29.1316],[-81.6392,29.0629],[-81.6587,28.9603],[-81.8422,28.961],[-81.843,28.9599],[-81.9542,28.9601],[-82.3117,28.9604]]]}},{"type":"Feature","id":"12085","properties":{"name":"Martin","fips":"12085"},"geometry":{"type":"Polygon","coordinates":[[[-80.3847,26.9584],[-80.8856,26.9589],[-80.6774,27.1216],[-80.6779,27.206],[-80.4815,27.2064],[-80.4814,27.2064],[-80.2855,27.206],[-80.2848,27.2637],[-80.1993,27.263],[-80.1931,27.2495],[-80.1615,27.1928],[-80.1534,27.1693],[-80.1596,27.1633],[-80.1498,27.1436],[-80.1386,27.1115],[-80.1168,27.0724],[-80.0939,27.0186],[-80.0795,26.9705],[-80.2467,26.9572],[-80.3745,26.9584],[-80.3847,26.9584]]]}},{"type":"Feature","id":"12086","properties":{"name":"Miami-Dade","fips":"12086"},"geometry":{"type":"Polygon","coordinates":[[[-80.4405,25.9569],[-80.3267,25.9571],[-80.295,25.9568],[-80.2952,25.9706],[-80.2788,25.971],[-80.2468,25.9719],[-80.1435,25.9745],[-80.1422,25.9747],[-80.1339,25.9749],[-80.1339,25.9741],[-80.1239,25.9745],[-80.1181,25.9752],[-80.1178,25.9752],[-80.1179,25.9158],[-80.1209,25.8832],[-80.1197,25.841],[-80.1221,25.8179],[-80.1274,25.7912],[-80.128,25.7722],[-80.1375,25.7503],[-80.144,25.7408],[-80.1529,25.7029],[-80.1541,25.6833],[-80.1523,25.6768],[-80.155,25.6655],[-80.1609,25.6649],[-80.1769,25.6851],[-80.1704,25.7106],[-80.1645,25.7218],[-80.1662,25.729],[-80.1728,25.7378],[-80.1846,25.7456],[-80.1977,25.7444],[-80.2291,25.7325],[-80.2404,25.7242],[-80.2445,25.7171],[-80.2505,25.688],[-80.2659,25.6584],[-80.2671,25.6518],[-80.2771,25.637],[-80.2884,25.6305],[-80.2967,25.6222],[-80.3015,25.6133],[-80.3056,25.5931],[-80.3056,25.5753],[-80.3021,25.5676],[-80.3139,25.5392],[-80.3246,25.5356],[-80.3287,25.5326],[-80.3394,25.4994],[-80.3394,25.4787],[-80.337,25.4656],[-80.3282,25.4431],[-80.3204,25.4372],[-80.3264,25.4229],[-80.3258,25.398],[-80.3204,25.3915],[-80.3104,25.3897],[-80.3068,25.3844],[-80.3104,25.3731],[-80.3353,25.3387],[-80.3525,25.3298],[-80.3617,25.3274],[-80.3741,25.3174],[-80.383,25.3013],[-80.386,25.2883],[-80.4192,25.2634],[-80.4378,25.2531],[-80.4471,25.248],[-80.4628,25.2362],[-80.4678,25.2325],[-80.4684,25.232],[-80.4698,25.2304],[-80.4832,25.2165],[-80.4876,25.2078],[-80.488,25.2069],[-80.4882,25.2068],[-80.4953,25.1995],[-80.4962,25.1996],[-80.4984,25.2001],[-80.4986,25.2002],[-80.503,25.2032],[-80.5031,25.2033],[-80.5078,25.2065],[-80.5081,25.2067],[-80.5081,25.2067],[-80.5129,25.2167],[-80.5147,25.2177],[-80.5153,25.218],[-80.5204,25.2208],[-80.5232,25.2201],[-80.5258,25.2186],[-80.5302,25.2162],[-80.5409,25.2182],[-80.542,25.2218],[-80.5409,25.2249],[-80.5408,25.2297],[-80.5485,25.2365],[-80.5582,25.239],[-80.5708,25.2394],[-80.5892,25.2238],[-80.5876,25.2077],[-80.5848,25.2007],[-80.5848,25.2007],[-80.5943,25.1934],[-80.6016,25.1879],[-80.6096,25.1819],[-80.6096,25.1819],[-80.619,25.1773],[-80.619,25.1773],[-80.634,25.1768],[-80.6399,25.1766],[-80.6403,25.1766],[-80.6408,25.1764],[-80.6425,25.1756],[-80.6457,25.1741],[-80.6458,25.174],[-80.6461,25.1736],[-80.6486,25.1698],[-80.6493,25.1687],[-80.6569,25.1682],[-80.6607,25.168],[-80.67,25.1674],[-80.6743,25.1671],[-80.6799,25.1668],[-80.6839,25.1665],[-80.6884,25.1647],[-80.695,25.1576],[-80.7013,25.1467],[-80.7037,25.1391],[-80.7151,25.1409],[-80.7219,25.1451],[-80.7286,25.1443],[-80.7347,25.1436],[-80.7383,25.1432],[-80.7429,25.1426],[-80.7464,25.1486],[-80.7463,25.1553],[-80.7519,25.1638],[-80.7576,25.1667],[-80.7955,25.1723],[-80.7962,25.1725],[-80.8152,25.165],[-80.8171,25.1642],[-80.8234,25.1617],[-80.8265,25.1605],[-80.8265,25.1605],[-80.8265,25.1605],[-80.8272,25.1619],[-80.8275,25.1626],[-80.8284,25.1646],[-80.83,25.1681],[-80.8382,25.1748],[-80.8437,25.1763],[-80.8464,25.1771],[-80.8464,25.1771],[-80.8582,25.1766],[-80.8732,25.364],[-80.8731,25.8054],[-80.8729,25.9794],[-80.68,25.9787],[-80.68,25.9569],[-80.4405,25.9569]]]}},{"type":"Feature","id":"12087","properties":{"name":"Monroe","fips":"12087"},"geometry":{"type":"MultiPolygon","coordinates":[[[[-80.2506,25.3419],[-80.2549,25.3363],[-80.2601,25.3246],[-80.2681,25.3207],[-80.2882,25.2828],[-80.3076,25.2576],[-80.3514,25.1906],[-80.354,25.1843],[-80.3499,25.1688],[-80.3586,25.1541],[-80.3771,25.1305],[-80.3998,25.1085],[-80.4283,25.0955],[-80.431,25.0892],[-80.4434,25.0761],[-80.462,25.0699],[-80.4739,25.0603],[-80.4939,25.0385],[-80.4891,25.0313],[-80.4948,25.023],[-80.538,24.9902],[-80.5658,24.9582],[-80.5717,24.9537],[-80.5883,24.9512],[-80.5961,24.9482],[-80.6117,24.9384],[-80.6356,24.913],[-80.6594,24.8974],[-80.6613,24.8997],[-80.6602,24.905],[-80.6508,24.9081],[-80.6413,24.9143],[-80.6239,24.9312],[-80.6229,24.9356],[-80.6242,24.9391],[-80.6217,24.9443],[-80.5971,24.9585],[-80.5811,24.9647],[-80.5782,24.9628],[-80.5708,24.9622],[-80.5588,24.9715],[-80.5441,24.9999],[-80.5433,25.0073],[-80.546,25.0148],[-80.5245,25.0169],[-80.5091,25.0283],[-80.5013,25.0414],[-80.4956,25.0475],[-80.4889,25.0501],[-80.4812,25.0566],[-80.4607,25.0789],[-80.4655,25.0866],[-80.4702,25.0894],[-80.4818,25.0919],[-80.4947,25.1023],[-80.4842,25.1094],[-80.4775,25.1074],[-80.4762,25.0995],[-80.464,25.0932],[-80.4504,25.0888],[-80.4449,25.093],[-80.4336,25.1063],[-80.4335,25.1147],[-80.4477,25.1477],[-80.4465,25.1513],[-80.4133,25.1371],[-80.4032,25.1418],[-80.3955,25.1507],[-80.3872,25.1709],[-80.3884,25.1827],[-80.3919,25.1922],[-80.3872,25.1981],[-80.37,25.2064],[-80.3587,25.207],[-80.3498,25.2106],[-80.3373,25.2314],[-80.3338,25.2539],[-80.3362,25.2616],[-80.3427,25.2681],[-80.3682,25.2824],[-80.364,25.2865],[-80.3394,25.2901],[-80.3347,25.2859],[-80.3287,25.2865],[-80.3157,25.2942],[-80.2926,25.3144],[-80.2896,25.3251],[-80.276,25.344],[-80.2646,25.3543],[-80.257,25.3612],[-80.2546,25.3808],[-80.2511,25.3915],[-80.2463,25.3986],[-80.2261,25.4063],[-80.219,25.4111],[-80.2143,25.417],[-80.2066,25.4342],[-80.1995,25.4585],[-80.1923,25.4733],[-80.19,25.4858],[-80.1917,25.4953],[-80.1888,25.5077],[-80.1793,25.519],[-80.1745,25.5184],[-80.174,25.4828],[-80.184,25.4686],[-80.2042,25.4122],[-80.222,25.3974],[-80.238,25.3618],[-80.2404,25.347],[-80.2499,25.3429],[-80.2506,25.3419]]],[[[-81.5829,24.6587],[-81.5805,24.6691],[-81.5629,24.6929],[-81.5576,24.6925],[-81.5421,24.681],[-81.5353,24.6795],[-81.519,24.6878],[-81.5164,24.7003],[-81.5124,24.7037],[-81.491,24.7101],[-81.4766,24.7112],[-81.4742,24.7063],[-81.4693,24.7043],[-81.459,24.7074],[-81.4541,24.7108],[-81.4519,24.7145],[-81.4527,24.7362],[-81.4566,24.7401],[-81.4513,24.7475],[-81.4408,24.7354],[-81.4386,24.727],[-81.4357,24.7239],[-81.432,24.7229],[-81.423,24.7319],[-81.4216,24.7376],[-81.4271,24.7458],[-81.4306,24.7473],[-81.431,24.7518],[-81.4255,24.753],[-81.4028,24.7491],[-81.3929,24.7434],[-81.3903,24.7385],[-81.3895,24.7313],[-81.3856,24.7262],[-81.3604,24.7088],[-81.3459,24.7076],[-81.3193,24.7012],[-81.3148,24.6918],[-81.3139,24.6807],[-81.3097,24.665],[-81.298,24.6568],[-81.2984,24.6543],[-81.3031,24.6517],[-81.3328,24.6395],[-81.3951,24.6211],[-81.4019,24.6236],[-81.4033,24.6403],[-81.4142,24.6472],[-81.4323,24.6459],[-81.4486,24.6402],[-81.4704,24.642],[-81.481,24.6451],[-81.4818,24.6474],[-81.4779,24.6499],[-81.4764,24.6532],[-81.4805,24.6598],[-81.4986,24.665],[-81.503,24.6609],[-81.5056,24.6546],[-81.5087,24.6442],[-81.509,24.6315],[-81.5112,24.6251],[-81.5186,24.6203],[-81.5464,24.6149],[-81.603,24.5864],[-81.6642,24.5731],[-81.6747,24.5644],[-81.6853,24.5587],[-81.6916,24.5599],[-81.7325,24.5564],[-81.766,24.5521],[-81.7862,24.5466],[-81.8103,24.5447],[-81.8129,24.5465],[-81.8144,24.5636],[-81.8114,24.5697],[-81.8007,24.571],[-81.7941,24.586],[-81.7738,24.585],[-81.7481,24.5902],[-81.7392,24.59],[-81.7346,24.5841],[-81.7305,24.582],[-81.7159,24.588],[-81.7155,24.5925],[-81.7054,24.5976],[-81.6993,24.5976],[-81.6942,24.5919],[-81.687,24.5925],[-81.6786,24.5976],[-81.669,24.6079],[-81.6557,24.6163],[-81.6371,24.6214],[-81.6148,24.6428],[-81.6145,24.6506],[-81.5977,24.6554],[-81.5878,24.656],[-81.5829,24.6587]]],[[[-82.1507,24.5763],[-82.1431,24.5934],[-82.1354,24.5969],[-82.1253,24.5974],[-82.1042,24.5883],[-82.1011,24.5847],[-82.0994,24.5725],[-82.1044,24.5612],[-82.1168,24.5491],[-82.1594,24.5482],[-82.1652,24.5522],[-82.1644,24.5634],[-82.1507,24.5763]]],[[[-81.2498,24.6734],[-81.2461,24.6758],[-81.2432,24.674],[-81.2448,24.6692],[-81.2818,24.6537],[-81.2783,24.6604],[-81.26,24.6748],[-81.2498,24.6734]]],[[[-80.91,24.7812],[-80.9063,24.7699],[-80.912,24.765],[-80.9385,24.7675],[-81.0159,24.7199],[-81.0238,24.7169],[-81.0286,24.7206],[-81.0324,24.7273],[-81.0343,24.7273],[-81.0646,24.7155],[-81.071,24.7117],[-81.0759,24.7043],[-81.0787,24.6966],[-81.0784,24.6924],[-81.108,24.6886],[-81.1241,24.7049],[-81.1254,24.7083],[-81.1074,24.7128],[-81.1053,24.7113],[-81.0991,24.712],[-81.0668,24.7239],[-81.0506,24.7376],[-81.0418,24.743],[-81.0367,24.7428],[-81.0352,24.74],[-81.0222,24.7331],[-81.0169,24.7347],[-80.9944,24.744],[-80.9865,24.7527],[-80.9601,24.7642],[-80.9104,24.7823],[-80.91,24.7812]]],[[[-81.3177,24.7573],[-81.3055,24.7566],[-81.2908,24.7369],[-81.2883,24.7209],[-81.303,24.7142],[-81.3107,24.7271],[-81.3185,24.7295],[-81.3268,24.7284],[-81.3502,24.7465],[-81.3574,24.7568],[-81.3427,24.7563],[-81.3276,24.7623],[-81.3246,24.7672],[-81.3177,24.7573]]],[[[-80.8905,24.7917],[-80.8846,24.7916],[-80.884,24.7904],[-80.8926,24.786],[-80.9069,24.7837],[-80.8905,24.7917]]],[[[-80.7883,24.8242],[-80.7905,24.8178],[-80.7961,24.8119],[-80.8223,24.8126],[-80.8462,24.803],[-80.8503,24.8026],[-80.8509,24.8037],[-80.8461,24.8075],[-80.8302,24.8143],[-80.8146,24.828],[-80.7928,24.8439],[-80.7806,24.8405],[-80.7883,24.8242]]],[[[-80.7293,24.8654],[-80.72,24.8646],[-80.703,24.8809],[-80.6918,24.8858],[-80.6904,24.8815],[-80.7032,24.8695],[-80.7118,24.8633],[-80.7614,24.8362],[-80.767,24.8362],[-80.7455,24.8507],[-80.7406,24.8574],[-80.7323,24.8648],[-80.7293,24.8654]]],[[[-80.8731,25.8054],[-80.8732,25.364],[-80.8582,25.1766],[-80.8588,25.1765],[-80.8743,25.1745],[-80.8748,25.1744],[-80.8755,25.1743],[-80.8757,25.1742],[-80.879,25.1726],[-80.8792,25.1724],[-80.8917,25.1662],[-80.8995,25.1623],[-80.9001,25.162],[-80.9001,25.1617],[-80.9011,25.1565],[-80.9016,25.1539],[-80.9016,25.1538],[-80.9002,25.1506],[-80.8989,25.1477],[-80.9006,25.1398],[-80.9006,25.1397],[-80.9007,25.1397],[-80.9023,25.1399],[-80.9066,25.1403],[-80.9159,25.1413],[-80.916,25.1413],[-80.9314,25.1374],[-80.9368,25.1361],[-80.9393,25.1354],[-80.941,25.135],[-80.9432,25.1345],[-80.9432,25.1344],[-80.9546,25.1354],[-80.9556,25.1355],[-80.9561,25.1356],[-80.9574,25.1357],[-80.9587,25.1355],[-80.9675,25.1345],[-80.9675,25.1345],[-80.9677,25.1344],[-80.9678,25.1344],[-80.9702,25.1342],[-80.9707,25.1341],[-80.9708,25.1341],[-80.9716,25.134],[-80.9717,25.134],[-80.9718,25.134],[-80.9731,25.1335],[-80.9772,25.132],[-80.9919,25.1268],[-80.9941,25.126],[-80.9992,25.1242],[-80.9998,25.1243],[-81.0096,25.1254],[-81.023,25.1294],[-81.0252,25.1293],[-81.0334,25.129],[-81.038,25.1288],[-81.0493,25.1283],[-81.0493,25.1283],[-81.0494,25.1283],[-81.0499,25.1283],[-81.0505,25.1283],[-81.0799,25.1188],[-81.0945,25.1271],[-81.1119,25.1455],[-81.1206,25.1523],[-81.1336,25.1563],[-81.141,25.1639],[-81.1423,25.183],[-81.1425,25.1834],[-81.1429,25.1844],[-81.1467,25.1931],[-81.1553,25.2077],[-81.1555,25.2081],[-81.1558,25.2084],[-81.168,25.2189],[-81.1713,25.2216],[-81.172,25.2223],[-81.172,25.2236],[-81.1715,25.2345],[-81.1714,25.2363],[-81.171,25.2449],[-81.1709,25.2459],[-81.1697,25.2492],[-81.1695,25.2498],[-81.1693,25.2504],[-81.1683,25.2532],[-81.1621,25.2898],[-81.1593,25.2986],[-81.1523,25.3055],[-81.1489,25.3181],[-81.1519,25.3248],[-81.1481,25.3328],[-81.1401,25.3411],[-81.1339,25.343],[-81.1214,25.3388],[-81.1182,25.3452],[-81.1173,25.355],[-81.1285,25.3805],[-81.1414,25.3814],[-81.1505,25.3873],[-81.1507,25.3992],[-81.1471,25.4043],[-81.1468,25.4076],[-81.1687,25.4638],[-81.1794,25.4754],[-81.1919,25.4847],[-81.2082,25.5049],[-81.2101,25.5169],[-81.2032,25.5342],[-81.2044,25.5389],[-81.2093,25.5486],[-81.2256,25.5585],[-81.2327,25.5734],[-81.2331,25.5866],[-81.2405,25.599],[-81.2407,25.6136],[-81.254,25.6382],[-81.2689,25.6569],[-81.2774,25.665],[-81.2903,25.6875],[-81.3289,25.7172],[-81.335,25.7156],[-81.3461,25.7215],[-81.346,25.7365],[-81.344,25.7477],[-81.3468,25.754],[-81.3551,25.7604],[-81.3595,25.7664],[-81.3619,25.7727],[-81.3448,25.7823],[-81.3404,25.7866],[-81.3416,25.7946],[-81.3446,25.8033],[-80.8731,25.8054]]]]}},{"type":"Feature","id":"12089","properties":{"name":"Nassau","fips":"12089"},"geometry":{"type":"Polygon","coordinates":[[[-81.906,30.8222],[-81.8686,30.7928],[-81.8404,30.7864],[-81.827,30.7889],[-81.8067,30.7897],[-81.7593,30.7714],[-81.7413,30.7627],[-81.7326,30.7499],[-81.7199,30.7446],[-81.6372,30.7338],[-81.6243,30.7362],[-81.6062,30.7181],[-81.5446,30.7126],[-81.4441,30.7097],[-81.4327,30.703],[-81.4274,30.698],[-81.4308,30.6694],[-81.4431,30.6009],[-81.4426,30.5552],[-81.4341,30.5226],[-81.4428,30.5099],[-81.4996,30.5638],[-81.543,30.5239],[-81.6245,30.5862],[-81.7216,30.572],[-81.7917,30.5056],[-82.0492,30.2734],[-82.05,30.3625],[-82.0161,30.4974],[-82.017,30.5194],[-82.0055,30.5635],[-82.0133,30.5957],[-82.0376,30.6333],[-82.0494,30.6553],[-82.0504,30.6763],[-82.0232,30.782],[-81.9998,30.7883],[-81.906,30.8222]]]}},{"type":"Feature","id":"12091","properties":{"name":"Okaloosa","fips":"12091"},"geometry":{"type":"Polygon","coordinates":[[[-86.3936,30.4934],[-86.3942,30.4667],[-86.3954,30.4333],[-86.3973,30.3786],[-86.4004,30.3789],[-86.4121,30.3803],[-86.4293,30.3814],[-86.4547,30.3829],[-86.4562,30.383],[-86.457,30.3831],[-86.4708,30.3839],[-86.474,30.3838],[-86.5062,30.3823],[-86.5291,30.3869],[-86.633,30.3963],[-86.7509,30.3919],[-86.8003,30.3865],[-86.7857,30.997],[-86.7284,30.9967],[-86.7273,30.9969],[-86.7254,30.9969],[-86.6883,30.995],[-86.6784,30.9945],[-86.6647,30.9945],[-86.5676,30.9951],[-86.5634,30.9952],[-86.5199,30.9932],[-86.5128,30.9937],[-86.4583,30.994],[-86.4547,30.9938],[-86.4049,30.994],[-86.3919,30.9942],[-86.3886,30.9942],[-86.3886,30.9942],[-86.3936,30.4934]]]}},{"type":"Feature","id":"12093","properties":{"name":"Okeechobee","fips":"12093"},"geometry":{"type":"Polygon","coordinates":[[[-80.6798,27.5585],[-80.6793,27.4557],[-80.6786,27.4486],[-80.6779,27.206],[-80.6774,27.1216],[-80.8856,26.9589],[-80.8712,27.155],[-80.9432,27.2106],[-80.9517,27.2248],[-80.9709,27.2177],[-81.2137,27.5287],[-81.1422,27.6432],[-80.8731,27.6423],[-80.778,27.6432],[-80.7772,27.5587],[-80.6798,27.5585]]]}},{"type":"Feature","id":"12095","properties":{"name":"Orange","fips":"12095"},"geometry":{"type":"Polygon","coordinates":[[[-81.6574,28.5531],[-81.6581,28.6827],[-81.6247,28.7859],[-81.593,28.786],[-81.4144,28.785],[-81.4597,28.6445],[-81.4595,28.6403],[-81.458,28.6403],[-81.3653,28.6405],[-81.358,28.6392],[-81.3311,28.6396],[-81.3286,28.6393],[-81.3279,28.6113],[-81.327,28.6103],[-80.9873,28.613],[-80.8809,28.5036],[-80.8629,28.3475],[-81.3096,28.3481],[-81.5139,28.3474],[-81.5318,28.3474],[-81.6573,28.3471],[-81.6574,28.5531]]]}},{"type":"Feature","id":"12097","properties":{"name":"Osceola","fips":"12097"},"geometry":{"type":"Polygon","coordinates":[[[-80.8629,28.3475],[-80.8629,28.3474],[-80.8628,28.3472],[-80.8689,27.8225],[-80.8731,27.6423],[-81.1422,27.6432],[-81.1315,27.6494],[-81.2081,27.8211],[-81.3019,27.8621],[-81.3087,27.9219],[-81.3787,28.0117],[-81.3755,28.0851],[-81.4553,28.0854],[-81.4556,28.1429],[-81.5242,28.1428],[-81.5241,28.201],[-81.5513,28.249],[-81.6572,28.2592],[-81.6573,28.3471],[-81.5318,28.3474],[-81.5139,28.3474],[-81.3096,28.3481],[-80.8629,28.3475]]]}},{"type":"Feature","id":"12099","properties":{"name":"Palm Beach","fips":"12099"},"geometry":{"type":"Polygon","coordinates":[[[-80.1168,26.3278],[-80.1213,26.3277],[-80.1302,26.3279],[-80.1312,26.3278],[-80.134,26.3279],[-80.1538,26.3278],[-80.2969,26.3344],[-80.2975,26.3344],[-80.8812,26.3338],[-80.8861,26.7255],[-80.8856,26.9589],[-80.3847,26.9584],[-80.3745,26.9584],[-80.2467,26.9572],[-80.0795,26.9705],[-80.0667,26.9276],[-80.0463,26.8592],[-80.0314,26.7963],[-80.0321,26.7715],[-80.0364,26.7712],[-80.0375,26.7663],[-80.0329,26.7152],[-80.0329,26.7008],[-80.0358,26.676],[-80.0354,26.6123],[-80.0389,26.5693],[-80.0504,26.5095],[-80.0606,26.4447],[-80.0706,26.3365],[-80.0723,26.3354],[-80.0748,26.321],[-80.0879,26.3208],[-80.089,26.3244],[-80.0919,26.3264],[-80.0983,26.3226],[-80.0997,26.3277],[-80.1168,26.3278]]]}},{"type":"Feature","id":"12101","properties":{"name":"Pasco","fips":"12101"},"geometry":{"type":"Polygon","coordinates":[[[-82.6787,28.4335],[-82.6006,28.4339],[-82.2534,28.4348],[-82.2533,28.4785],[-82.0547,28.4784],[-82.0558,28.3128],[-82.1062,28.2592],[-82.1059,28.1716],[-82.644,28.1733],[-82.6497,28.1733],[-82.6512,28.1733],[-82.8051,28.1722],[-82.7978,28.1878],[-82.7626,28.219],[-82.7645,28.2201],[-82.7641,28.2443],[-82.7591,28.254],[-82.7462,28.2612],[-82.7328,28.2919],[-82.7355,28.3004],[-82.7315,28.3251],[-82.7158,28.3455],[-82.7061,28.3681],[-82.7063,28.4013],[-82.6974,28.4202],[-82.6841,28.428],[-82.6787,28.4335]]]}},{"type":"Feature","id":"12103","properties":{"name":"Pinellas","fips":"12103"},"geometry":{"type":"MultiPolygon","coordinates":[[[[-82.8216,27.9644],[-82.8298,27.9685],[-82.8286,28.0198],[-82.823,28.0307],[-82.8231,28.0448],[-82.8263,28.0535],[-82.8318,28.0629],[-82.8363,28.0732],[-82.8332,28.0822],[-82.8305,28.0853],[-82.8261,28.0838],[-82.8231,28.0683],[-82.8183,28.0576],[-82.8134,28.0372],[-82.8152,28.0125],[-82.8214,28.0084],[-82.8218,28.0025],[-82.8172,27.9921],[-82.8152,27.9737],[-82.8216,27.9644]]],[[[-82.679,27.6961],[-82.6793,27.6947],[-82.6937,27.7002],[-82.7136,27.6987],[-82.7188,27.692],[-82.723,27.6712],[-82.7216,27.6639],[-82.7163,27.6514],[-82.7126,27.6466],[-82.6981,27.6389],[-82.705,27.6253],[-82.7331,27.613],[-82.7366,27.6173],[-82.7373,27.6231],[-82.7378,27.6268],[-82.7391,27.6369],[-82.738,27.7068],[-82.7403,27.7182],[-82.7462,27.7313],[-82.7537,27.7363],[-82.7609,27.7452],[-82.77,27.7679],[-82.7831,27.7838],[-82.7902,27.7916],[-82.8204,27.8137],[-82.8286,27.8223],[-82.8465,27.8543],[-82.8491,27.8632],[-82.8511,27.8863],[-82.8478,27.9102],[-82.8409,27.9372],[-82.8314,27.9621],[-82.8249,27.9602],[-82.822,27.9569],[-82.8308,27.9309],[-82.8385,27.9091],[-82.8322,27.9092],[-82.8207,27.9273],[-82.8087,27.9531],[-82.8055,27.9602],[-82.7978,27.9906],[-82.7926,28.0112],[-82.7926,28.0323],[-82.7827,28.0559],[-82.7838,28.1063],[-82.7822,28.1203],[-82.7813,28.1276],[-82.7866,28.145],[-82.7907,28.1525],[-82.799,28.1518],[-82.8085,28.1548],[-82.8051,28.1722],[-82.6512,28.1733],[-82.6486,28.0386],[-82.6486,27.9663],[-82.7165,27.9584],[-82.7205,27.9558],[-82.7241,27.9481],[-82.722,27.9418],[-82.7214,27.9402],[-82.7204,27.9372],[-82.7201,27.9364],[-82.71,27.9283],[-82.6916,27.9249],[-82.6851,27.9163],[-82.6712,27.913],[-82.6281,27.9104],[-82.6342,27.9037],[-82.6321,27.8911],[-82.61,27.8735],[-82.5679,27.8837],[-82.5678,27.8815],[-82.5668,27.858],[-82.5984,27.8576],[-82.5948,27.8434],[-82.5893,27.8357],[-82.5865,27.8167],[-82.6074,27.7989],[-82.6227,27.7799],[-82.6305,27.7539],[-82.625,27.7327],[-82.6257,27.727],[-82.6336,27.7106],[-82.6398,27.7039],[-82.6525,27.7003],[-82.6629,27.7023],[-82.6632,27.7024],[-82.6674,27.7042],[-82.6688,27.7047],[-82.6704,27.7054],[-82.6709,27.7056],[-82.6715,27.7059],[-82.6716,27.7059],[-82.6721,27.7059],[-82.6731,27.706],[-82.6741,27.706],[-82.6773,27.7062],[-82.679,27.6961]]]]}},{"type":"Feature","id":"12105","properties":{"name":"Polk","fips":"12105"},"geometry":{"type":"Polygon","coordinates":[[[-81.8189,28.3617],[-81.6573,28.3471],[-81.6572,28.2592],[-81.5513,28.249],[-81.5241,28.201],[-81.5242,28.1428],[-81.4556,28.1429],[-81.4553,28.0854],[-81.3755,28.0851],[-81.3787,28.0117],[-81.3087,27.9219],[-81.3019,27.8621],[-81.2081,27.8211],[-81.1315,27.6494],[-81.1422,27.6432],[-81.5633,27.6466],[-82.0543,27.6464],[-82.054,27.8507],[-82.0564,28.0804],[-82.0563,28.1716],[-82.1059,28.1716],[-82.1062,28.2592],[-82.0558,28.3128],[-81.9576,28.3452],[-81.8189,28.3617]]]}},{"type":"Feature","id":"12107","properties":{"name":"Putnam","fips":"12107"},"geometry":{"type":"Polygon","coordinates":[[[-81.5239,29.6315],[-81.5237,29.625],[-81.5237,29.6224],[-81.5206,29.5002],[-81.4788,29.3991],[-81.434,29.3986],[-81.4509,29.3785],[-81.508,29.3645],[-81.518,29.3619],[-81.5218,29.3622],[-81.5409,29.3566],[-81.5612,29.3517],[-81.6809,29.3244],[-81.7414,29.371],[-81.7762,29.4874],[-81.843,29.521],[-82.0559,29.4712],[-82.055,29.6696],[-82.0503,29.7097],[-82.0508,29.7161],[-82.0556,29.7182],[-82.0492,29.7187],[-81.9394,29.7475],[-81.7972,29.8366],[-81.5812,29.8402],[-81.5252,29.7595],[-81.5239,29.6315]]]}},{"type":"Feature","id":"12113","properties":{"name":"Santa Rosa","fips":"12113"},"geometry":{"type":"Polygon","coordinates":[[[-86.9193,30.3707],[-87.233,30.349],[-87.1344,30.4203],[-87.125,30.5002],[-87.2589,30.6113],[-87.2694,30.7117],[-87.3085,30.7269],[-87.3136,30.8473],[-87.2869,30.9254],[-87.1631,30.9991],[-87.1626,30.9991],[-87.0686,30.9991],[-87.0641,30.9992],[-87.0537,30.9991],[-87.04,30.9996],[-87.0364,30.9993],[-87.0271,30.9993],[-86.8881,30.9976],[-86.873,30.9976],[-86.8319,30.9974],[-86.8305,30.9974],[-86.7859,30.997],[-86.7857,30.997],[-86.8003,30.3865],[-86.8506,30.381],[-86.9097,30.3724],[-86.9193,30.3707]]]}},{"type":"Feature","id":"12115","properties":{"name":"Sarasota","fips":"12115"},"geometry":{"type":"Polygon","coordinates":[[[-82.1717,27.0328],[-82.2552,27.033],[-82.2555,26.9453],[-82.2999,26.9456],[-82.3225,26.9456],[-82.3263,26.9458],[-82.339,26.9459],[-82.3402,26.9456],[-82.3757,26.946],[-82.4006,26.9849],[-82.4192,27.0207],[-82.4457,27.0606],[-82.4603,27.0999],[-82.4653,27.1107],[-82.4689,27.1136],[-82.477,27.1412],[-82.5123,27.2075],[-82.5397,27.2543],[-82.5451,27.261],[-82.559,27.2688],[-82.5698,27.2795],[-82.5692,27.2986],[-82.576,27.3093],[-82.5976,27.3358],[-82.6239,27.3622],[-82.6428,27.3897],[-82.6428,27.3897],[-82.2523,27.3862],[-82.2536,27.2089],[-82.0565,27.2078],[-82.0575,27.0321],[-82.1717,27.0328]]]}},{"type":"Feature","id":"12117","properties":{"name":"Seminole","fips":"12117"},"geometry":{"type":"Polygon","coordinates":[[[-81.2105,28.8025],[-81.195,28.7923],[-81.1832,28.7975],[-81.1789,28.7819],[-81.1058,28.8285],[-80.9873,28.613],[-81.327,28.6103],[-81.3279,28.6113],[-81.3286,28.6393],[-81.3311,28.6396],[-81.358,28.6392],[-81.3653,28.6405],[-81.458,28.6403],[-81.4595,28.6403],[-81.4597,28.6445],[-81.4144,28.785],[-81.3751,28.8634],[-81.376,28.8659],[-81.3735,28.8702],[-81.372,28.869],[-81.3697,28.8705],[-81.3686,28.8729],[-81.3667,28.8732],[-81.3662,28.8747],[-81.3668,28.8766],[-81.3671,28.8783],[-81.3669,28.8792],[-81.25,28.8331],[-81.2299,28.8326],[-81.226,28.8326],[-81.2229,28.8269],[-81.2246,28.822],[-81.2159,28.8144],[-81.2163,28.8083],[-81.2105,28.8025]]]}},{"type":"Feature","id":"12109","properties":{"name":"St. Johns","fips":"12109"},"geometry":{"type":"Polygon","coordinates":[[[-81.6012,30.1305],[-81.4337,30.106],[-81.4369,30.2523],[-81.3799,30.2529],[-81.3556,30.1626],[-81.309,29.9694],[-81.2953,29.9286],[-81.289,29.9152],[-81.2765,29.9005],[-81.2704,29.8831],[-81.2647,29.8582],[-81.2634,29.8207],[-81.2567,29.7847],[-81.2409,29.7392],[-81.229,29.7147],[-81.2129,29.6707],[-81.3241,29.6256],[-81.5237,29.6224],[-81.5237,29.625],[-81.5239,29.6315],[-81.5252,29.7595],[-81.5812,29.8402],[-81.601,29.956],[-81.6889,30.0286],[-81.6802,30.1212],[-81.6505,30.1215],[-81.6238,30.1336],[-81.6012,30.1305]]]}},{"type":"Feature","id":"12111","properties":{"name":"St. Lucie","fips":"12111"},"geometry":{"type":"Polygon","coordinates":[[[-80.6779,27.206],[-80.6786,27.4486],[-80.6793,27.4557],[-80.6798,27.5585],[-80.3213,27.5574],[-80.3118,27.5246],[-80.3012,27.5003],[-80.2932,27.5003],[-80.2655,27.4205],[-80.2537,27.3798],[-80.2335,27.3413],[-80.2268,27.3227],[-80.1993,27.263],[-80.2848,27.2637],[-80.2855,27.206],[-80.4814,27.2064],[-80.4815,27.2064],[-80.6779,27.206]]]}},{"type":"Feature","id":"12119","properties":{"name":"Sumter","fips":"12119"},"geometry":{"type":"Polygon","coordinates":[[[-81.9542,28.9601],[-81.9536,28.8209],[-81.9576,28.3452],[-82.0558,28.3128],[-82.0547,28.4784],[-82.0545,28.5214],[-82.2082,28.5721],[-82.2631,28.6676],[-82.1708,28.7902],[-82.3117,28.9604],[-81.9542,28.9601]]]}},{"type":"Feature","id":"12121","properties":{"name":"Suwannee","fips":"12121"},"geometry":{"type":"Polygon","coordinates":[[[-83.2473,30.2607],[-83.171,30.3852],[-83.0787,30.4381],[-83.0021,30.4294],[-82.7946,30.337],[-82.8005,29.9321],[-82.8642,29.9098],[-82.8798,29.8868],[-82.9631,29.9931],[-83.1606,30.1098],[-83.2264,30.1146],[-83.2473,30.2607]]]}},{"type":"Feature","id":"12123","properties":{"name":"Taylor","fips":"12123"},"geometry":{"type":"Polygon","coordinates":[[[-83.857,30.2733],[-83.8295,30.2879],[-83.8202,30.3035],[-83.4688,30.3042],[-83.4693,30.2604],[-83.3673,30.2604],[-83.3709,29.8879],[-83.3189,29.8226],[-83.3734,29.666],[-83.4123,29.6669],[-83.4128,29.6685],[-83.4147,29.6705],[-83.4363,29.6774],[-83.4446,29.6772],[-83.4482,29.6753],[-83.4554,29.6764],[-83.4831,29.6905],[-83.4836,29.6985],[-83.4937,29.7084],[-83.5127,29.7165],[-83.5376,29.7231],[-83.5472,29.7322],[-83.555,29.7426],[-83.566,29.7614],[-83.579,29.7684],[-83.5847,29.7761],[-83.5861,29.7846],[-83.583,29.7873],[-83.5819,29.7921],[-83.5859,29.8118],[-83.5955,29.828],[-83.6052,29.8364],[-83.6186,29.8423],[-83.638,29.8861],[-83.66,29.8995],[-83.6792,29.9185],[-83.6864,29.9237],[-83.7572,29.9579],[-83.7887,29.977],[-83.8287,29.9832],[-83.8454,29.9981],[-83.9315,30.0391],[-83.9337,30.0412],[-83.9319,30.0442],[-83.9334,30.0463],[-83.9597,30.0649],[-83.9916,30.0839],[-83.9155,30.2454],[-83.857,30.2733]]]}},{"type":"Feature","id":"12125","properties":{"name":"Union","fips":"12125"},"geometry":{"type":"Polygon","coordinates":[[[-82.4187,29.9231],[-82.5297,29.9409],[-82.576,29.9915],[-82.4584,30.1364],[-82.1426,30.1431],[-82.3074,29.9562],[-82.4187,29.9231]]]}},{"type":"Feature","id":"12127","properties":{"name":"Volusia","fips":"12127"},"geometry":{"type":"Polygon","coordinates":[[[-81.1789,28.7819],[-81.1832,28.7975],[-81.195,28.7923],[-81.2105,28.8025],[-81.2163,28.8083],[-81.2159,28.8144],[-81.2246,28.822],[-81.2229,28.8269],[-81.226,28.8326],[-81.2299,28.8326],[-81.25,28.8331],[-81.3669,28.8792],[-81.3546,28.9844],[-81.5021,29.0978],[-81.5313,29.1766],[-81.6123,29.2029],[-81.6419,29.2768],[-81.6484,29.2902],[-81.6557,29.2999],[-81.6679,29.3015],[-81.6755,29.3106],[-81.6809,29.3244],[-81.5612,29.3517],[-81.5409,29.3566],[-81.5218,29.3622],[-81.518,29.3619],[-81.508,29.3645],[-81.4509,29.3785],[-81.434,29.3986],[-81.4173,29.2612],[-81.1501,29.266],[-81.1559,29.411],[-81.1019,29.4271],[-81.0467,29.3079],[-80.9954,29.2061],[-80.9662,29.148],[-80.9444,29.1109],[-80.9073,29.0643],[-80.8937,29.0362],[-80.8783,29.0106],[-80.787,28.8753],[-80.7322,28.7912],[-80.9679,28.7902],[-80.9645,28.613],[-80.9873,28.613],[-81.1058,28.8285],[-81.1789,28.7819]]]}},{"type":"Feature","id":"12129","properties":{"name":"Wakulla","fips":"12129"},"geometry":{"type":"Polygon","coordinates":[[[-84.0755,30.2736],[-84.076,30.0955],[-84.0831,30.0923],[-84.087,30.0921],[-84.0947,30.095],[-84.1027,30.0936],[-84.1138,30.0855],[-84.1249,30.0906],[-84.1357,30.083],[-84.1573,30.0727],[-84.1679,30.0714],[-84.1791,30.0732],[-84.1985,30.0879],[-84.2016,30.088],[-84.2033,30.0859],[-84.208,30.0848],[-84.237,30.0856],[-84.2457,30.093],[-84.2475,30.1011],[-84.2564,30.1038],[-84.2694,30.0977],[-84.2725,30.0924],[-84.274,30.0831],[-84.2704,30.0755],[-84.2708,30.0681],[-84.2772,30.0603],[-84.2897,30.0572],[-84.2978,30.0575],[-84.3153,30.0695],[-84.342,30.0639],[-84.3589,30.0582],[-84.3659,30.0246],[-84.362,29.9877],[-84.36,29.9847],[-84.3477,29.9841],[-84.343,29.9751],[-84.3413,29.9608],[-84.5444,30.011],[-84.6693,30.1252],[-84.7134,30.3002],[-84.2477,30.3035],[-84.2412,30.2742],[-84.0755,30.2736]]]}},{"type":"Feature","id":"12131","properties":{"name":"Walton","fips":"12131"},"geometry":{"type":"Polygon","coordinates":[[[-85.9927,30.3893],[-85.9947,30.3117],[-85.9946,30.2909],[-85.9961,30.2691],[-85.9999,30.2708],[-86.09,30.3036],[-86.2226,30.3436],[-86.2987,30.363],[-86.3642,30.3745],[-86.3973,30.3786],[-86.3954,30.4333],[-86.3942,30.4667],[-86.3936,30.4934],[-86.3886,30.9942],[-86.3745,30.9945],[-86.3693,30.9945],[-86.3649,30.9945],[-86.3046,30.994],[-86.2892,30.9938],[-86.1872,30.994],[-86.1802,30.994],[-86.1752,30.9938],[-86.169,30.9937],[-86.1629,30.9937],[-86.0562,30.9931],[-86.0525,30.9932],[-86.035,30.9933],[-86.0376,30.7046],[-85.8444,30.7031],[-85.9153,30.6364],[-85.858,30.4969],[-85.9927,30.3893]]]}},{"type":"Feature","id":"12133","properties":{"name":"Washington","fips":"12133"},"geometry":{"type":"Polygon","coordinates":[[[-85.4348,30.5676],[-85.4864,30.5676],[-85.488,30.4367],[-85.8535,30.4406],[-85.9927,30.3893],[-85.858,30.4969],[-85.9153,30.6364],[-85.8444,30.7031],[-85.8216,30.7908],[-85.7361,30.7464],[-85.619,30.7439],[-85.5999,30.8306],[-85.4823,30.8295],[-85.4323,30.7855],[-85.4348,30.5676]]]}}]}