{"type":"FeatureCollection","features":[{"type":"Feature","geometry":{"type":"Polygon","coordinates":[[[-86.7857,30.997],[-86.5202,30.9933],[-86.1327,30.9933],[-86.1369,30.9597],[-86.1371,30.9253],[-86.1236,30.8772],[-86.1155,30.8619],[-86.1237,30.8116],[-86.12,30.7874],[-86.143,30.7904],[-86.1433,30.7755],[-86.1496,30.7687],[-86.1549,30.7675],[-86.153,30.7624],[-86.1434,30.7606],[-86.1448,30.7566],[-86.1326,30.755],[-86.1351,30.7461],[-86.1394,30.7462],[-86.1393,30.7497],[-86.1482,30.7498],[-86.1478,30.7463],[-86.1516,30.745],[-86.1481,30.7414],[-86.1486,30.7341],[-86.1525,30.7368],[-86.1673,30.7314],[-86.1564,30.7284],[-86.1564,30.7212],[-86.1522,30.7211],[-86.1522,30.7101],[-86.1486,30.71],[-86.1486,30.7062],[-86.1557,30.701],[-86.1454,30.6946],[-86.1311,30.6929],[-86.1311,30.6769],[-86.1225,30.6767],[-86.1245,30.6706],[-86.114,30.6494],[-86.1174,30.6201],[-86.1105,30.5973],[-86.1073,30.5601],[-86.0881,30.5598],[-86.0883,30.5304],[-86.108,30.5306],[-86.1121,30.5125],[-86.1078,30.5125],[-86.1082,30.4865],[-86.1228,30.4866],[-86.12,30.4864],[-86.1225,30.4796],[-86.1168,30.4793],[-86.1183,30.4721],[-86.1235,30.4733],[-86.1253,30.4666],[-86.1307,30.4671],[-86.1327,30.4485],[-86.1519,30.4357],[-86.1798,30.3751],[-86.1804,30.172],[-86.3064,30.2094],[-86.385,30.2252],[-86.4592,30.233],[-86.5281,30.2319],[-86.6248,30.2456],[-86.6877,30.2448],[-86.8556,30.2279],[-87.1769,30.1728],[-87.2583,30.1654],[-87.3028,30.1683],[-87.5184,30.1255],[-87.5184,30.2839],[-87.4524,30.3002],[-87.4501,30.3111],[-87.4837,30.3048],[-87.5,30.3062],[-87.5056,30.3111],[-87.5047,30.324],[-87.4982,30.3295],[-87.4611,30.3353],[-87.4511,30.3456],[-87.4514,30.3672],[-87.4387,30.3808],[-87.4407,30.3915],[-87.4296,30.4065],[-87.4227,30.4101],[-87.403,30.4104],[-87.3957,30.4176],[-87.3694,30.432],[-87.3669,30.4405],[-87.3708,30.4469],[-87.3999,30.451],[-87.4251,30.4656],[-87.4356,30.4805],[-87.4339,30.4877],[-87.4284,30.4885],[-87.4317,30.4929],[-87.431,30.4983],[-87.4504,30.5145],[-87.4445,30.5143],[-87.4473,30.515],[-87.4473,30.522],[-87.4438,30.524],[-87.448,30.5266],[-87.4437,30.5281],[-87.4439,30.5315],[-87.439,30.5303],[-87.4416,30.5375],[-87.4353,30.5429],[-87.4349,30.5494],[-87.4276,30.5537],[-87.4254,30.5603],[-87.4179,30.5623],[-87.4162,30.5663],[-87.4185,30.5701],[-87.4122,30.5737],[-87.408,30.5837],[-87.4053,30.5987],[-87.4076,30.6009],[-87.4033,30.6054],[-87.3988,30.6054],[-87.3949,30.6143],[-87.3943,30.6456],[-87.3968,30.6549],[-87.4031,30.6575],[-87.4065,30.6752],[-87.419,30.6785],[-87.4301,30.6883],[-87.4404,30.6904],[-87.4496,30.699],[-87.458,30.6964],[-87.4622,30.7002],[-87.4681,30.7002],[-87.4698,30.705],[-87.4758,30.7053],[-87.4752,30.7091],[-87.4793,30.7096],[-87.478,30.7133],[-87.4813,30.717],[-87.4836,30.7153],[-87.4921,30.7204],[-87.5019,30.7213],[-87.5106,30.7329],[-87.53,30.741],[-87.5353,30.75],[-87.536,30.7612],[-87.5461,30.7721],[-87.5454,30.7794],[-87.5683,30.8001],[-87.5718,30.8002],[-87.5796,30.8109],[-87.6001,30.8205],[-87.6043,30.8314],[-87.6152,30.8342],[-87.6171,30.8403],[-87.627,30.8478],[-87.626,30.8574],[-87.6347,30.8656],[-87.6291,30.8804],[-87.6203,30.8874],[-87.6218,30.8977],[-87.6157,30.9016],[-87.6071,30.9251],[-87.5909,30.9535],[-87.5889,30.9658],[-87.5988,30.9975],[-87.2377,30.9964],[-87.0402,30.9996],[-86.7857,30.997]]]},"properties":{"name":"CD1","district_number":1,"fips":"12-CD001"}},{"type":"Feature","geometry":{"type":"Polygon","coordinates":[[[-86.1486,30.7341],[-86.1481,30.7414],[-86.1515,30.7463],[-86.1478,30.7463],[-86.1482,30.7498],[-86.1393,30.7497],[-86.1394,30.7462],[-86.1351,30.7461],[-86.1326,30.755],[-86.1448,30.7566],[-86.1434,30.7606],[-86.153,30.7624],[-86.1549,30.7675],[-86.1496,30.7687],[-86.1433,30.7755],[-86.143,30.7904],[-86.12,30.7874],[-86.1237,30.8116],[-86.1156,30.8546],[-86.1158,30.864],[-86.1236,30.8772],[-86.1373,30.9271],[-86.1327,30.9933],[-85.0019,31.0007],[-85.0057,30.9759],[-84.9811,30.9634],[-84.9795,30.9556],[-84.9831,30.9348],[-84.971,30.9282],[-84.9667,30.9173],[-84.9425,30.8885],[-84.9344,30.8836],[-84.9398,30.8726],[-84.9323,30.8643],[-84.9361,30.857],[-84.9257,30.8427],[-84.9271,30.839],[-84.9348,30.8359],[-84.9374,30.8209],[-84.9283,30.8051],[-84.9283,30.7931],[-84.918,30.7781],[-84.9201,30.766],[-84.915,30.7612],[-84.9143,30.7536],[-84.8961,30.7506],[-84.8875,30.7418],[-84.8838,30.7326],[-84.8698,30.7219],[-84.8647,30.7115],[-83.8778,30.6657],[-83.3133,30.6347],[-83.3022,30.6308],[-83.2949,30.6323],[-83.2933,30.629],[-83.2757,30.6287],[-83.2686,30.6215],[-83.2671,30.6086],[-83.2565,30.5869],[-83.2626,30.5826],[-83.2596,30.5741],[-83.262,30.5691],[-83.2558,30.5605],[-83.2609,30.553],[-83.2472,30.5408],[-83.2458,30.535],[-83.2497,30.5324],[-83.2451,30.5308],[-83.2389,30.518],[-83.2395,30.5151],[-83.2425,30.5165],[-83.2461,30.5126],[-83.2406,30.5059],[-83.2428,30.502],[-83.2406,30.4936],[-83.245,30.4921],[-83.2418,30.4779],[-83.2438,30.4731],[-83.2177,30.4641],[-83.2177,30.4555],[-83.223,30.4513],[-83.2173,30.4478],[-83.2223,30.4363],[-83.2185,30.4267],[-83.2222,30.4235],[-83.2161,30.418],[-83.2096,30.4211],[-83.2062,30.4121],[-83.1949,30.417],[-83.1803,30.4105],[-83.1745,30.3978],[-83.1783,30.3926],[-83.1731,30.391],[-83.171,30.3852],[-83.1779,30.3841],[-83.1929,30.374],[-83.1936,30.3576],[-83.1903,30.3519],[-83.1983,30.3483],[-83.2087,30.3505],[-83.2126,30.3459],[-83.2079,30.3311],[-83.2144,30.3198],[-83.2099,30.3119],[-83.2125,30.3073],[-83.2258,30.3013],[-83.233,30.292],[-83.2317,30.2838],[-83.2403,30.267],[-83.237,30.2616],[-83.2665,30.2603],[-83.2664,30.2525],[-83.2775,30.255],[-83.2831,30.2529],[-83.2832,30.2326],[-83.2913,30.2006],[-83.2926,30.1292],[-83.3685,30.1287],[-83.3709,29.8879],[-83.353,29.8879],[-83.3529,29.8222],[-83.3189,29.8226],[-83.3195,29.7783],[-83.3266,29.7736],[-83.326,29.7695],[-83.3314,29.7621],[-83.3369,29.7604],[-83.3457,29.7435],[-83.3433,29.7371],[-83.3476,29.7339],[-83.3449,29.7268],[-83.3514,29.7067],[-83.3507,29.6953],[-83.3652,29.6763],[-83.3628,29.6688],[-83.3664,29.6657],[-83.3734,29.666],[-83.3996,29.674],[-83.4154,29.6655],[-83.5754,29.527],[-83.5821,29.5633],[-83.6144,29.5884],[-83.648,29.6016],[-83.6754,29.6171],[-83.7101,29.6492],[-83.7452,29.7054],[-83.7575,29.7532],[-83.785,29.7938],[-83.8303,29.8197],[-83.8788,29.8262],[-83.919,29.8419],[-83.95,29.8628],[-83.9726,29.8864],[-84.0302,29.9131],[-84.0649,29.9401],[-84.1205,29.9255],[-84.1608,29.9213],[-84.1702,29.8713],[-84.19,29.8304],[-84.2179,29.7966],[-84.2592,29.7682],[-84.2867,29.7567],[-84.3233,29.7481],[-84.3801,29.7429],[-84.42,29.747],[-84.4428,29.7152],[-84.4745,29.6877],[-84.5453,29.6545],[-84.5887,29.6407],[-84.6594,29.5806],[-84.7106,29.5521],[-84.7973,29.5221],[-84.8728,29.481],[-84.9006,29.4698],[-85.0058,29.4406],[-85.0363,29.4365],[-85.0704,29.437],[-85.1041,29.4437],[-85.1296,29.4533],[-85.1539,29.467],[-85.1771,29.4852],[-85.2188,29.5004],[-85.2597,29.5248],[-85.3084,29.5089],[-85.3545,29.5054],[-85.4035,29.514],[-85.4482,29.5344],[-85.4709,29.5514],[-85.4936,29.5743],[-85.5227,29.6131],[-85.5427,29.6493],[-85.5648,29.704],[-85.5772,29.7459],[-85.5865,29.7909],[-85.5896,29.8376],[-85.6459,29.8759],[-85.7098,29.9358],[-85.7704,29.9605],[-85.8036,29.9782],[-85.8502,30.0092],[-85.883,30.0382],[-85.9311,30.067],[-86.0313,30.1175],[-86.1075,30.1475],[-86.1804,30.172],[-86.1798,30.3751],[-86.1519,30.4357],[-86.1327,30.4485],[-86.1307,30.4671],[-86.1253,30.4666],[-86.1235,30.4733],[-86.1183,30.4721],[-86.1168,30.4793],[-86.1225,30.4796],[-86.12,30.4864],[-86.1228,30.4866],[-86.1082,30.4865],[-86.1078,30.5125],[-86.1121,30.5125],[-86.108,30.5306],[-86.0883,30.5304],[-86.0881,30.5598],[-86.1073,30.5601],[-86.1105,30.5973],[-86.1174,30.6201],[-86.114,30.6494],[-86.1245,30.6706],[-86.1225,30.6767],[-86.1311,30.6769],[-86.1311,30.6929],[-86.1454,30.6946],[-86.1557,30.701],[-86.1486,30.7062],[-86.1486,30.71],[-86.1522,30.7101],[-86.1522,30.7211],[-86.1564,30.7212],[-86.1564,30.7284],[-86.1673,30.7314],[-86.1525,30.7368],[-86.1486,30.7341]]]},"properties":{"name":"CD2","district_number":2,"fips":"12-CD002"}},{"type":"Feature","geometry":{"type":"Polygon","coordinates":[[[-83.171,30.3852],[-83.1731,30.391],[-83.1783,30.3926],[-83.1745,30.3978],[-83.1803,30.4105],[-83.1949,30.417],[-83.2062,30.4121],[-83.2096,30.4211],[-83.2161,30.418],[-83.2222,30.4235],[-83.2185,30.4267],[-83.2223,30.4363],[-83.2173,30.4478],[-83.223,30.4513],[-83.2177,30.4555],[-83.2177,30.4641],[-83.2438,30.4731],[-83.2418,30.4779],[-83.245,30.4921],[-83.2406,30.4936],[-83.2428,30.502],[-83.2406,30.5059],[-83.2461,30.5126],[-83.2425,30.5165],[-83.2395,30.5151],[-83.2389,30.518],[-83.2451,30.5308],[-83.2497,30.5324],[-83.2458,30.535],[-83.2472,30.5408],[-83.2609,30.553],[-83.2558,30.5605],[-83.262,30.5691],[-83.2596,30.5741],[-83.2626,30.5826],[-83.2564,30.5866],[-83.2671,30.6086],[-83.2686,30.6215],[-83.275,30.6285],[-83.2933,30.629],[-83.2949,30.6323],[-83.3022,30.6308],[-83.3093,30.6344],[-82.2147,30.5686],[-82.2342,30.5577],[-82.2344,30.5488],[-82.2389,30.5455],[-82.2404,30.5378],[-82.2308,30.5266],[-82.2303,30.5173],[-82.2251,30.5077],[-82.2126,30.5006],[-82.2012,30.4851],[-82.2032,30.4822],[-82.201,30.4747],[-82.2064,30.4685],[-82.2077,30.4604],[-82.2038,30.445],[-82.2109,30.4254],[-82.1992,30.3898],[-82.1942,30.3892],[-82.1918,30.3847],[-82.1928,30.3791],[-82.1899,30.3762],[-82.1848,30.3789],[-82.1835,30.3733],[-82.1802,30.3726],[-82.181,30.3686],[-82.1737,30.3651],[-82.1702,30.359],[-82.1618,30.3571],[-82.14,30.3649],[-82.1339,30.3622],[-82.1264,30.3683],[-82.1182,30.3644],[-82.1158,30.3681],[-82.1103,30.3652],[-82.1051,30.3689],[-82.1011,30.3628],[-82.0811,30.3588],[-82.0727,30.3614],[-82.0662,30.3558],[-82.0624,30.3607],[-82.0581,30.3592],[-82.05,30.3625],[-82.0461,29.7471],[-82.0492,29.7187],[-82.0556,29.7182],[-82.0491,29.7134],[-82.0561,29.6569],[-82.0556,29.4419],[-82.063,29.4394],[-82.0672,29.4438],[-82.0713,29.4433],[-82.0705,29.4342],[-82.0809,29.4404],[-82.0889,29.4329],[-82.0861,29.4311],[-82.0883,29.4293],[-82.0865,29.4267],[-82.0901,29.4308],[-82.0945,29.4304],[-82.0956,29.4205],[-82.0999,29.4187],[-82.0957,29.4301],[-82.0989,29.4363],[-82.1029,29.4384],[-82.1098,29.4354],[-82.1099,29.4118],[-82.1144,29.3999],[-82.1244,29.3889],[-82.1514,29.3393],[-82.1521,29.2458],[-82.1484,29.2268],[-82.1427,29.2268],[-82.144,29.2231],[-82.1344,29.2231],[-82.1343,29.2267],[-82.1326,29.2231],[-82.0703,29.2229],[-82.0704,29.2119],[-82.0578,29.2119],[-82.0542,29.2059],[-82.0537,29.1937],[-82.062,29.1937],[-82.0615,29.1703],[-82.0653,29.1696],[-82.0661,29.1499],[-82.0741,29.1471],[-82.0785,29.1353],[-82.136,29.1354],[-82.1362,29.1236],[-82.1847,29.1209],[-82.184,29.0774],[-82.1625,29.0416],[-82.1503,29.005],[-82.1237,28.9602],[-82.3117,28.9604],[-82.3158,28.9733],[-82.3211,28.9735],[-82.3416,28.9879],[-82.3614,28.9935],[-82.3639,29.0019],[-82.3775,29.0007],[-82.3781,29.0048],[-82.3869,29.0093],[-82.3935,29.008],[-82.3976,29.0115],[-82.395,29.0145],[-82.4018,29.0158],[-82.4016,29.019],[-82.4187,29.0131],[-82.4197,29.018],[-82.4295,29.0212],[-82.4323,29.0277],[-82.4364,29.0272],[-82.4352,29.0296],[-82.4413,29.0324],[-82.4418,29.0355],[-82.4537,29.0398],[-82.4586,29.0477],[-82.4638,29.0447],[-82.4779,29.0526],[-82.4881,29.0515],[-82.4874,29.048],[-82.5081,29.0375],[-82.5119,29.0434],[-82.5169,29.0442],[-82.5224,29.0396],[-82.5304,29.0436],[-82.5351,29.0409],[-82.5338,29.0434],[-82.5365,29.0448],[-82.556,29.0339],[-82.5641,29.0358],[-82.577,29.0281],[-82.5952,29.0299],[-82.6017,29.0213],[-82.6021,29.0135],[-82.6127,29.0093],[-82.6385,29.018],[-82.6405,29.0215],[-82.6752,29.0261],[-82.6771,29.0306],[-82.6898,29.034],[-82.7115,29.031],[-82.72,29.0256],[-82.7281,29.0148],[-82.741,29.0121],[-82.7423,29.008],[-82.7554,29.0019],[-82.7548,28.9975],[-82.7616,28.9921],[-83.1879,28.9866],[-83.2206,29.0195],[-83.2537,29.0765],[-83.2639,29.1145],[-83.2621,29.1557],[-83.2987,29.178],[-83.3304,29.2119],[-83.3475,29.2454],[-83.3572,29.2917],[-83.4025,29.3169],[-83.4357,29.3497],[-83.5049,29.3842],[-83.5269,29.4019],[-83.5442,29.4214],[-83.5564,29.4407],[-83.5663,29.4648],[-83.5754,29.527],[-83.4154,29.6655],[-83.3996,29.674],[-83.3734,29.666],[-83.3632,29.6682],[-83.3652,29.6763],[-83.3507,29.6953],[-83.3514,29.7067],[-83.3449,29.7268],[-83.3476,29.7339],[-83.3433,29.7371],[-83.3457,29.7435],[-83.3369,29.7604],[-83.3314,29.7621],[-83.326,29.7695],[-83.3266,29.7736],[-83.3195,29.7783],[-83.3189,29.8226],[-83.3529,29.8222],[-83.353,29.8879],[-83.3709,29.8879],[-83.3685,30.1287],[-83.2926,30.1292],[-83.2913,30.2006],[-83.2832,30.2326],[-83.2831,30.2529],[-83.2775,30.255],[-83.2664,30.2525],[-83.2665,30.2603],[-83.237,30.2616],[-83.2403,30.267],[-83.2317,30.2838],[-83.233,30.292],[-83.2258,30.3013],[-83.2125,30.3073],[-83.2099,30.3119],[-83.2144,30.3198],[-83.2079,30.3311],[-83.2126,30.3459],[-83.2087,30.3505],[-83.1983,30.3483],[-83.1903,30.3519],[-83.1936,30.3576],[-83.1929,30.374],[-83.1779,30.3841],[-83.171,30.3852]]]},"properties":{"name":"CD3","district_number":3,"fips":"12-CD003"}},{"type":"Feature","geometry":{"type":"Polygon","coordinates":[[[-81.6796,30.1905],[-81.6817,30.1814],[-81.6905,30.1719],[-81.6921,30.1447],[-81.68,30.1191],[-81.6806,30.0827],[-81.6896,30.0609],[-81.6889,30.0286],[-81.6782,30.0122],[-81.6247,29.9815],[-81.6049,29.9635],[-81.5987,29.941],[-81.608,29.9176],[-81.6076,29.9057],[-81.599,29.8754],[-81.5812,29.8402],[-81.8124,29.8365],[-81.8219,29.8263],[-81.862,29.8002],[-81.8905,29.7983],[-81.9142,29.7914],[-81.9235,29.7809],[-81.9291,29.7594],[-81.9394,29.7475],[-81.9762,29.7471],[-81.9945,29.7431],[-82.0071,29.7395],[-82.0289,29.7187],[-82.0492,29.7187],[-82.0461,29.7471],[-82.0501,30.3614],[-82.0372,30.372],[-82.0382,30.3822],[-82.0358,30.385],[-82.0447,30.404],[-82.0413,30.4067],[-82.0439,30.408],[-82.0409,30.4149],[-82.0438,30.4149],[-82.0341,30.42],[-82.036,30.425],[-82.0338,30.4277],[-82.04,30.4367],[-82.0281,30.4473],[-82.0283,30.4554],[-82.0223,30.4614],[-82.0236,30.4672],[-82.0169,30.4751],[-82.0192,30.483],[-82.0156,30.484],[-82.018,30.4921],[-82.0146,30.5123],[-82.0155,30.5201],[-82.0186,30.5195],[-82.0163,30.5219],[-82.0182,30.5275],[-82.0154,30.5285],[-82.0183,30.5285],[-82.0191,30.533],[-82.0134,30.5424],[-82.0132,30.55],[-82.0084,30.5545],[-82.0107,30.5607],[-82.0054,30.5637],[-82.0084,30.5637],[-82.0058,30.5651],[-82.0082,30.5697],[-82.0061,30.5771],[-82.0122,30.5863],[-82.0151,30.6006],[-82.0272,30.6067],[-82.0283,30.622],[-82.0316,30.6195],[-82.0317,30.625],[-82.035,30.6268],[-82.0332,30.6295],[-82.0367,30.63],[-82.0405,30.6361],[-82.0386,30.641],[-82.0416,30.649],[-82.049,30.6551],[-82.0494,30.662],[-82.0465,30.6608],[-82.046,30.6664],[-82.0503,30.6757],[-82.0412,30.691],[-82.0429,30.7009],[-82.0396,30.7007],[-82.0359,30.7062],[-82.0385,30.7226],[-82.0456,30.7273],[-82.0389,30.7362],[-82.0387,30.7511],[-82.0361,30.7548],[-82.0315,30.7503],[-82.0179,30.7548],[-82.0202,30.7578],[-82.0112,30.7631],[-82.0236,30.7831],[-82.023,30.7875],[-82.0077,30.793],[-81.981,30.777],[-81.9736,30.7787],[-81.969,30.7913],[-81.9622,30.797],[-81.965,30.8068],[-81.9612,30.814],[-81.9645,30.8173],[-81.9496,30.8279],[-81.942,30.8256],[-81.9428,30.8285],[-81.9391,30.8272],[-81.9388,30.8299],[-81.9335,30.8234],[-81.9353,30.8211],[-81.9287,30.8175],[-81.9091,30.8157],[-81.9042,30.8186],[-81.907,30.8265],[-81.9012,30.8299],[-81.892,30.8249],[-81.8914,30.8166],[-81.8847,30.8114],[-81.8827,30.8003],[-81.8711,30.798],[-81.8685,30.7929],[-81.8527,30.7949],[-81.8459,30.7908],[-81.8403,30.7926],[-81.8419,30.7876],[-81.8395,30.7866],[-81.8075,30.7901],[-81.7972,30.7815],[-81.7971,30.785],[-81.7931,30.7873],[-81.7838,30.7733],[-81.7867,30.7698],[-81.7828,30.7666],[-81.7826,30.7615],[-81.7716,30.7641],[-81.7736,30.7677],[-81.7707,30.7768],[-81.7617,30.7757],[-81.7559,30.7693],[-81.7408,30.765],[-81.7422,30.7593],[-81.7319,30.755],[-81.7321,30.7498],[-81.7201,30.7447],[-81.6939,30.7485],[-81.6892,30.7416],[-81.6725,30.7388],[-81.6688,30.7425],[-81.6708,30.7474],[-81.6799,30.7447],[-81.6831,30.7485],[-81.6623,30.7542],[-81.6597,30.7497],[-81.663,30.7435],[-81.6518,30.7422],[-81.6541,30.7331],[-81.6522,30.7289],[-81.6436,30.7282],[-81.6366,30.7339],[-81.6304,30.7281],[-81.6283,30.7354],[-81.6244,30.7363],[-81.6207,30.731],[-81.623,30.7235],[-81.6142,30.7224],[-81.6099,30.7159],[-81.6061,30.7187],[-81.6058,30.7273],[-81.6019,30.7296],[-81.5965,30.7275],[-81.5962,30.7187],[-81.5877,30.7236],[-81.5742,30.7225],[-81.5635,30.7175],[-81.5614,30.7117],[-81.5484,30.7183],[-81.5384,30.7087],[-81.534,30.7115],[-81.5323,30.7241],[-81.5099,30.7226],[-81.4885,30.7263],[-81.4741,30.7139],[-81.4512,30.7095],[-81.347,30.7124],[-81.3464,30.7014],[-81.3516,30.6857],[-81.3734,30.6628],[-81.3748,30.6565],[-81.382,30.6159],[-81.3803,30.5632],[-81.375,30.5328],[-81.358,30.5002],[-81.3524,30.4821],[-81.3536,30.4467],[-81.3387,30.4382],[-81.3249,30.4247],[-81.3169,30.4077],[-81.3173,30.3961],[-81.3887,30.397],[-81.4236,30.403],[-81.439,30.3865],[-81.4503,30.3809],[-81.4708,30.392],[-81.5126,30.3927],[-81.5366,30.3887],[-81.5384,30.3857],[-81.5569,30.3851],[-81.5517,30.3715],[-81.5532,30.3619],[-81.5596,30.3669],[-81.6068,30.3639],[-81.6027,30.3527],[-81.6026,30.3368],[-81.6106,30.3328],[-81.6061,30.3285],[-81.6184,30.3273],[-81.6217,30.3187],[-81.6298,30.3141],[-81.6559,30.3218],[-81.6636,30.321],[-81.6679,30.314],[-81.6682,30.2944],[-81.6841,30.2832],[-81.6803,30.2731],[-81.653,30.2439],[-81.6491,30.2282],[-81.6796,30.1905]]]},"properties":{"name":"CD4","district_number":4,"fips":"12-CD004"}},{"type":"Feature","geometry":{"type":"Polygon","coordinates":[[[-81.2811,29.8409],[-81.2865,29.8317],[-81.2911,29.8342],[-81.2942,29.8302],[-81.3021,29.831],[-81.3029,29.8445],[-81.3181,29.8448],[-81.3201,29.841],[-81.3226,29.8431],[-81.3226,29.8217],[-81.3235,29.8241],[-81.3287,29.8234],[-81.3266,29.8205],[-81.3375,29.817],[-81.3453,29.8211],[-81.3483,29.8275],[-81.3495,29.8254],[-81.3563,29.8308],[-81.357,29.8364],[-81.366,29.8365],[-81.3676,29.8396],[-81.3791,29.8257],[-81.3949,29.8614],[-81.4921,29.8512],[-81.5206,29.8512],[-81.5403,29.8451],[-81.5835,29.8446],[-81.599,29.8754],[-81.6076,29.9057],[-81.608,29.9176],[-81.5987,29.941],[-81.6043,29.9624],[-81.6247,29.9815],[-81.6782,30.0122],[-81.6867,30.023],[-81.6904,30.04],[-81.6889,30.0649],[-81.6806,30.0827],[-81.68,30.1191],[-81.6918,30.1423],[-81.6905,30.1719],[-81.6817,30.1814],[-81.6796,30.1908],[-81.6491,30.2282],[-81.653,30.2439],[-81.6803,30.2731],[-81.6841,30.2832],[-81.6682,30.2944],[-81.6679,30.314],[-81.6636,30.321],[-81.6559,30.3218],[-81.6298,30.3141],[-81.6217,30.3187],[-81.6184,30.3273],[-81.6061,30.3285],[-81.6106,30.3328],[-81.6026,30.3368],[-81.6027,30.3527],[-81.6068,30.3639],[-81.5596,30.3669],[-81.5532,30.3619],[-81.5517,30.3715],[-81.5569,30.3851],[-81.5384,30.3857],[-81.5366,30.3887],[-81.5126,30.3927],[-81.4708,30.392],[-81.4503,30.3809],[-81.439,30.3865],[-81.4236,30.403],[-81.3887,30.397],[-81.3173,30.3961],[-81.3216,30.3786],[-81.3354,30.3613],[-81.3306,30.2995],[-81.2551,30.0003],[-81.2352,29.9423],[-81.2239,29.9216],[-81.2093,29.8753],[-81.2065,29.8556],[-81.2062,29.8385],[-81.2624,29.8221],[-81.2622,29.8195],[-81.2758,29.821],[-81.2756,29.8246],[-81.2713,29.8237],[-81.2766,29.841],[-81.2811,29.8409]]]},"properties":{"name":"CD5","district_number":5,"fips":"12-CD005"}},{"type":"Feature","geometry":{"type":"Polygon","coordinates":[[[-81.1508,29.6711],[-81.1198,29.5967],[-81.0802,29.5184],[-81.0419,29.4329],[-81.0457,29.4325],[-80.9465,29.2272],[-80.9982,29.2055],[-80.9876,29.1838],[-80.9918,29.1816],[-80.9849,29.1799],[-80.9831,29.1762],[-80.9908,29.1732],[-80.9792,29.1549],[-81.0048,29.1485],[-81.0103,29.1542],[-81.0133,29.147],[-81.0215,29.1537],[-81.024,29.1526],[-81.0269,29.1578],[-81.0323,29.1528],[-81.0449,29.1549],[-81.045,29.1417],[-81.0567,29.1399],[-81.0471,29.1307],[-81.0484,29.1201],[-81.0528,29.1175],[-81.0565,29.1209],[-81.0608,29.1176],[-81.0661,29.1248],[-81.0725,29.1248],[-81.0688,29.1044],[-81.0877,29.1059],[-81.084,29.0121],[-81.1244,29.0254],[-81.1681,29.0302],[-81.2316,29.0176],[-81.2402,29.0082],[-81.2435,28.9994],[-81.2489,28.9994],[-81.2486,28.9873],[-81.2535,28.9876],[-81.2486,28.9834],[-81.2578,28.9556],[-81.28,28.9693],[-81.2822,28.9647],[-81.2823,28.9698],[-81.2916,28.9698],[-81.2917,28.9732],[-81.2989,28.9741],[-81.3023,28.9844],[-81.3137,28.9842],[-81.3156,28.9749],[-81.327,28.9723],[-81.327,28.9748],[-81.3322,28.9748],[-81.3329,28.9196],[-81.3445,28.9195],[-81.3446,28.9231],[-81.3528,28.9231],[-81.352,28.9207],[-81.3595,28.914],[-81.3567,28.9111],[-81.3602,28.9067],[-81.3576,28.8996],[-81.3526,28.8971],[-81.3558,28.8966],[-81.3566,28.8876],[-81.3651,28.8897],[-81.363,28.8794],[-81.3668,28.8796],[-81.3663,28.8736],[-81.3739,28.8701],[-81.3749,28.8624],[-81.383,28.852],[-81.412,28.8306],[-81.4196,28.8152],[-81.4627,28.811],[-81.4757,28.8184],[-81.4895,28.8186],[-81.5032,28.8129],[-81.5245,28.8125],[-81.5335,28.8082],[-81.56,28.8077],[-81.5762,28.8043],[-81.5761,28.799],[-81.5928,28.7976],[-81.593,28.786],[-81.6467,28.7859],[-81.6511,28.7931],[-81.6594,28.794],[-81.6874,28.7879],[-81.6856,28.815],[-81.6902,28.8153],[-81.6882,28.8207],[-81.7082,28.8217],[-81.6925,28.8383],[-81.7019,28.8363],[-81.7033,28.8319],[-81.707,28.8362],[-81.751,28.8352],[-81.7507,28.8421],[-81.756,28.8505],[-81.7703,28.8572],[-81.7681,28.8616],[-81.7724,28.8665],[-81.7988,28.8811],[-81.8084,28.8817],[-81.8392,28.8947],[-81.8502,28.8815],[-81.864,28.8871],[-81.9061,28.8871],[-81.9055,28.8894],[-81.9171,28.8869],[-81.9171,28.8834],[-81.9203,28.887],[-81.9535,28.887],[-81.9542,28.9601],[-82.1237,28.9602],[-82.1503,29.005],[-82.1625,29.0416],[-82.184,29.0774],[-82.1847,29.1209],[-82.1362,29.1236],[-82.136,29.1354],[-82.0785,29.1353],[-82.0741,29.1471],[-82.0661,29.1499],[-82.0653,29.1696],[-82.0615,29.1703],[-82.062,29.1937],[-82.0537,29.1937],[-82.0542,29.2059],[-82.0578,29.2119],[-82.0704,29.2119],[-82.0703,29.2229],[-82.1326,29.2231],[-82.1343,29.2267],[-82.1344,29.2231],[-82.144,29.2231],[-82.1427,29.2268],[-82.1484,29.2268],[-82.1521,29.2422],[-82.1514,29.3393],[-82.1244,29.3889],[-82.1144,29.3999],[-82.1099,29.4118],[-82.1098,29.4354],[-82.1029,29.4384],[-82.0989,29.4363],[-82.0957,29.4301],[-82.0999,29.4187],[-82.0956,29.4205],[-82.0945,29.4304],[-82.0901,29.4308],[-82.0865,29.4267],[-82.0883,29.4293],[-82.0861,29.4311],[-82.0889,29.4329],[-82.0809,29.4404],[-82.0705,29.4342],[-82.0713,29.4433],[-82.0672,29.4438],[-82.063,29.4394],[-82.0556,29.4419],[-82.0561,29.6569],[-82.0491,29.7134],[-82.0556,29.7182],[-82.0289,29.7187],[-82.0071,29.7395],[-81.9911,29.744],[-81.9762,29.7471],[-81.9394,29.7475],[-81.9291,29.7594],[-81.9235,29.7809],[-81.9142,29.7914],[-81.8905,29.7983],[-81.862,29.8002],[-81.8219,29.8263],[-81.8124,29.8365],[-81.5812,29.8402],[-81.5835,29.8446],[-81.5403,29.8451],[-81.5206,29.8512],[-81.4921,29.8512],[-81.3949,29.8614],[-81.3791,29.8257],[-81.3676,29.8396],[-81.366,29.8365],[-81.357,29.8364],[-81.3564,29.8309],[-81.3495,29.8254],[-81.3483,29.8275],[-81.3397,29.8171],[-81.3266,29.8205],[-81.3287,29.8234],[-81.3235,29.8241],[-81.3226,29.8217],[-81.3226,29.8431],[-81.319,29.8413],[-81.3181,29.8448],[-81.3029,29.8445],[-81.3021,29.831],[-81.2942,29.8302],[-81.2911,29.8342],[-81.2865,29.8317],[-81.2856,29.8369],[-81.2766,29.841],[-81.2713,29.8237],[-81.2756,29.8246],[-81.2758,29.821],[-81.27,29.8195],[-81.2622,29.8195],[-81.2624,29.8221],[-81.2062,29.8385],[-81.2052,29.8224],[-81.1928,29.7783],[-81.1674,29.7231],[-81.1508,29.6711]]]},"properties":{"name":"CD6","district_number":6,"fips":"12-CD006"}},{"type":"Feature","geometry":{"type":"Polygon","coordinates":[[[-81.4165,28.7557],[-81.4136,28.7918],[-81.4197,28.8155],[-81.4176,28.8227],[-81.4083,28.8341],[-81.383,28.852],[-81.3749,28.8624],[-81.3741,28.8698],[-81.3663,28.8736],[-81.3665,28.8799],[-81.3631,28.8792],[-81.3651,28.8897],[-81.3566,28.8876],[-81.3558,28.8966],[-81.3526,28.8971],[-81.3576,28.8996],[-81.3602,28.9067],[-81.3567,28.9111],[-81.3595,28.914],[-81.352,28.9207],[-81.3528,28.9231],[-81.3446,28.9231],[-81.3445,28.9195],[-81.3329,28.9196],[-81.3322,28.9748],[-81.3218,28.9725],[-81.3218,28.9748],[-81.3156,28.9749],[-81.3137,28.9842],[-81.3023,28.9844],[-81.2989,28.9741],[-81.2917,28.9732],[-81.2916,28.9698],[-81.2823,28.9698],[-81.2822,28.9647],[-81.28,28.9693],[-81.2578,28.9556],[-81.2486,28.9834],[-81.2535,28.9876],[-81.2486,28.9873],[-81.2489,28.9994],[-81.2435,28.9994],[-81.2402,29.0082],[-81.2316,29.0176],[-81.2102,29.0198],[-81.1793,29.0299],[-81.1244,29.0254],[-81.084,29.0121],[-81.0877,29.1059],[-81.0688,29.1044],[-81.0725,29.1248],[-81.0661,29.1248],[-81.0608,29.1176],[-81.0565,29.1209],[-81.0528,29.1175],[-81.0484,29.1201],[-81.0471,29.1307],[-81.0567,29.1399],[-81.045,29.1417],[-81.0449,29.1549],[-81.0323,29.1528],[-81.0269,29.1578],[-81.024,29.1526],[-81.0215,29.1537],[-81.0133,29.147],[-81.0103,29.1542],[-81.0048,29.1485],[-80.9792,29.1549],[-80.9908,29.1732],[-80.9831,29.1762],[-80.9849,29.1799],[-80.9918,29.1816],[-80.9876,29.1838],[-80.9982,29.2055],[-80.9465,29.2272],[-80.9068,29.1447],[-80.8748,29.106],[-80.6635,28.7906],[-80.9679,28.7902],[-80.9645,28.613],[-80.9672,28.6127],[-81.3279,28.6105],[-81.3285,28.6396],[-81.4597,28.6402],[-81.4595,28.7133],[-81.4407,28.7158],[-81.4228,28.7369],[-81.4165,28.7557]]]},"properties":{"name":"CD7","district_number":7,"fips":"12-CD007"}},{"type":"Feature","geometry":{"type":"Polygon","coordinates":[[[-80.8616,28.2466],[-80.8629,28.3475],[-81.0947,28.3481],[-81.095,28.4517],[-81.2303,28.4515],[-81.251,28.5247],[-81.2401,28.5247],[-81.2402,28.5317],[-81.2459,28.5394],[-81.2293,28.5397],[-81.2222,28.5444],[-81.2234,28.5472],[-81.2038,28.5468],[-81.2103,28.5713],[-81.2076,28.5832],[-81.2168,28.5831],[-81.2244,28.5922],[-81.2241,28.6118],[-80.9645,28.613],[-80.9679,28.7902],[-80.6635,28.7906],[-80.6248,28.7353],[-80.523,28.6082],[-80.5113,28.5752],[-80.5036,28.5404],[-80.4781,28.4925],[-80.4706,28.4723],[-80.4694,28.4531],[-80.4812,28.4255],[-80.5194,28.3911],[-80.5342,28.3357],[-80.544,28.2711],[-80.4998,28.0772],[-80.3851,27.8614],[-80.4471,27.8608],[-80.4546,27.8547],[-80.4911,27.8546],[-80.4948,27.8509],[-80.4968,27.8385],[-80.5073,27.828],[-80.5091,27.8221],[-80.8689,27.8225],[-80.8701,28.0571],[-80.8693,28.0847],[-80.8629,28.0848],[-80.8616,28.2466]]]},"properties":{"name":"CD8","district_number":8,"fips":"12-CD008"}},{"type":"Feature","geometry":{"type":"Polygon","coordinates":[[[-80.4475,27.5578],[-80.6798,27.5585],[-80.6774,27.1216],[-80.8856,26.9589],[-80.9453,26.7691],[-81.4349,26.7688],[-81.4349,26.7835],[-81.4491,26.7835],[-81.4593,26.7835],[-81.4595,26.7689],[-81.5658,26.7696],[-81.5623,27.0715],[-81.5635,27.6467],[-81.5299,27.6464],[-81.564,27.6927],[-81.565,27.7008],[-81.5609,27.7127],[-81.5625,27.719],[-81.5728,27.7336],[-81.582,27.7337],[-81.5975,27.7518],[-81.589,27.7518],[-81.588,27.7554],[-81.5956,27.7668],[-81.5971,27.775],[-81.5932,27.7747],[-81.5941,27.7692],[-81.59,27.7647],[-81.5816,27.7663],[-81.5738,27.763],[-81.5675,27.7652],[-81.5679,27.7698],[-81.5731,27.7745],[-81.5807,27.7735],[-81.5799,27.7767],[-81.5711,27.7746],[-81.569,27.7773],[-81.5512,27.7776],[-81.5513,27.7904],[-81.5553,27.7903],[-81.5553,27.7863],[-81.5606,27.7901],[-81.5609,27.8045],[-81.5472,27.8069],[-81.5476,27.821],[-81.5231,27.821],[-81.5269,27.8154],[-81.5065,27.814],[-81.5,27.8067],[-81.449,27.8065],[-81.4443,27.8117],[-81.4409,27.8241],[-81.4383,27.824],[-81.4326,27.8492],[-81.4222,27.8522],[-81.4263,27.8597],[-81.4203,27.8615],[-81.4223,27.8682],[-81.4195,27.8788],[-81.3876,27.8696],[-81.387,27.9013],[-81.3741,27.9011],[-81.3739,27.9052],[-81.363,27.9129],[-81.3556,27.9111],[-81.3524,27.9139],[-81.3508,27.9264],[-81.34,27.9313],[-81.3475,27.9393],[-81.3444,27.9415],[-81.3382,27.9392],[-81.3365,27.9477],[-81.3376,27.9508],[-81.3498,27.9539],[-81.3498,27.9638],[-81.3687,27.9738],[-81.3706,27.9779],[-81.3765,27.9783],[-81.3798,27.9999],[-81.3754,28.009],[-81.3627,28.0055],[-81.3639,28.0178],[-81.3539,28.0261],[-81.3575,28.0271],[-81.3544,28.0282],[-81.3561,28.0331],[-81.3614,28.0312],[-81.3667,28.0356],[-81.3618,28.0437],[-81.3668,28.0619],[-81.3627,28.07],[-81.3552,28.0669],[-81.3464,28.0694],[-81.3488,28.0818],[-81.3464,28.0847],[-81.3755,28.0851],[-81.381,28.091],[-81.3906,28.0928],[-81.4007,28.1072],[-81.4038,28.1195],[-81.41,28.1249],[-81.4202,28.1276],[-81.4263,28.1365],[-81.4369,28.1399],[-81.4409,28.1501],[-81.4435,28.1473],[-81.4426,28.1537],[-81.4623,28.1724],[-81.4614,28.1773],[-81.4724,28.1893],[-81.4761,28.1986],[-81.5071,28.2183],[-81.5132,28.2309],[-81.4874,28.2308],[-81.4859,28.2589],[-81.5251,28.2676],[-81.5264,28.2732],[-81.5381,28.2826],[-81.5381,28.289],[-81.5247,28.2892],[-81.5254,28.3152],[-81.5209,28.3153],[-81.5213,28.3309],[-81.5334,28.3455],[-81.3888,28.3479],[-81.373,28.369],[-81.3755,28.4064],[-81.3637,28.4504],[-81.37,28.4752],[-81.3661,28.4753],[-81.3679,28.4827],[-81.3577,28.4927],[-81.3529,28.4918],[-81.3467,28.4967],[-81.3463,28.4941],[-81.3393,28.4945],[-81.3394,28.4894],[-81.3309,28.4806],[-81.2894,28.4803],[-81.2799,28.4719],[-81.2643,28.4487],[-81.2444,28.4515],[-81.095,28.4517],[-81.0947,28.3481],[-80.8629,28.3475],[-80.8629,28.0848],[-80.8693,28.0847],[-80.8701,28.0571],[-80.8689,27.8225],[-80.5091,27.8221],[-80.5073,27.828],[-80.4968,27.8385],[-80.4948,27.8509],[-80.4911,27.8546],[-80.4546,27.8547],[-80.4471,27.8608],[-80.3851,27.8614],[-80.3281,27.7503],[-80.2989,27.6621],[-80.2949,27.6393],[-80.2814,27.6212],[-80.2635,27.5568],[-80.4475,27.5578]]]},"properties":{"name":"CD9","district_number":9,"fips":"12-CD009"}},{"type":"Feature","geometry":{"type":"Polygon","coordinates":[[[-81.5629,28.6069],[-81.5585,28.615],[-81.5444,28.6216],[-81.5423,28.6308],[-81.5491,28.6316],[-81.5542,28.6448],[-81.5491,28.6484],[-81.5507,28.6619],[-81.5359,28.662],[-81.5322,28.6589],[-81.5274,28.661],[-81.5269,28.6829],[-81.5136,28.6767],[-81.5136,28.6743],[-81.5115,28.6767],[-81.5021,28.6749],[-81.4978,28.6803],[-81.4888,28.6803],[-81.4847,28.6731],[-81.4597,28.6727],[-81.4597,28.6402],[-81.3285,28.6396],[-81.3279,28.6105],[-81.2241,28.6118],[-81.2244,28.5922],[-81.2168,28.5831],[-81.2076,28.5832],[-81.2103,28.5713],[-81.2038,28.5468],[-81.2234,28.5472],[-81.2222,28.5444],[-81.2293,28.5397],[-81.2459,28.5394],[-81.2402,28.5317],[-81.2401,28.5247],[-81.251,28.5247],[-81.2303,28.4515],[-81.2643,28.4487],[-81.2799,28.4719],[-81.2894,28.4803],[-81.3309,28.4806],[-81.3394,28.4894],[-81.3391,28.4943],[-81.3463,28.4941],[-81.3467,28.4967],[-81.3529,28.4918],[-81.3577,28.4927],[-81.3678,28.4828],[-81.3661,28.4753],[-81.37,28.4752],[-81.3676,28.4656],[-81.397,28.4653],[-81.4009,28.4504],[-81.4779,28.45],[-81.4749,28.4587],[-81.4753,28.4937],[-81.4835,28.4937],[-81.4838,28.5028],[-81.542,28.546],[-81.5421,28.5516],[-81.532,28.5518],[-81.5271,28.5559],[-81.53,28.5737],[-81.5258,28.5736],[-81.5259,28.581],[-81.5427,28.5769],[-81.5426,28.5952],[-81.5562,28.595],[-81.5533,28.6007],[-81.5629,28.6069]]]},"properties":{"name":"CD10","district_number":10,"fips":"12-CD010"}},{"type":"Feature","geometry":{"type":"Polygon","coordinates":[[[-82.1698,28.7967],[-82.1793,28.8033],[-82.1836,28.8236],[-82.205,28.8348],[-82.2069,28.8406],[-82.2192,28.8508],[-82.232,28.8566],[-82.2401,28.8668],[-82.2425,28.8768],[-82.2736,28.8972],[-82.29,28.9356],[-82.2959,28.9384],[-82.2971,28.9484],[-82.3085,28.9553],[-82.3113,28.9604],[-81.9542,28.9601],[-81.9535,28.887],[-81.9203,28.887],[-81.9171,28.8834],[-81.9171,28.8869],[-81.9055,28.8894],[-81.9061,28.8871],[-81.864,28.8871],[-81.8502,28.8815],[-81.8392,28.8947],[-81.8084,28.8817],[-81.7988,28.8811],[-81.7696,28.8644],[-81.7703,28.8572],[-81.756,28.8505],[-81.7507,28.8421],[-81.751,28.8352],[-81.707,28.8362],[-81.7033,28.8319],[-81.7019,28.8363],[-81.6925,28.8383],[-81.7082,28.8217],[-81.6882,28.8207],[-81.6902,28.8153],[-81.6856,28.815],[-81.6874,28.7879],[-81.6594,28.794],[-81.6511,28.7931],[-81.6467,28.7859],[-81.593,28.786],[-81.5928,28.7976],[-81.5761,28.799],[-81.5762,28.8043],[-81.56,28.8077],[-81.5335,28.8082],[-81.5245,28.8125],[-81.5032,28.8129],[-81.4895,28.8186],[-81.4757,28.8184],[-81.4627,28.811],[-81.4196,28.8152],[-81.4136,28.7918],[-81.4165,28.7555],[-81.4228,28.7369],[-81.4407,28.7158],[-81.4594,28.7136],[-81.4597,28.6727],[-81.4847,28.6731],[-81.4888,28.6803],[-81.4978,28.6803],[-81.5021,28.6749],[-81.5115,28.6767],[-81.5136,28.6743],[-81.5136,28.6767],[-81.5269,28.6829],[-81.5274,28.661],[-81.5322,28.6589],[-81.5359,28.662],[-81.5507,28.6619],[-81.5491,28.6484],[-81.5542,28.6448],[-81.5491,28.6316],[-81.5423,28.6308],[-81.5444,28.6216],[-81.5585,28.615],[-81.5631,28.6067],[-81.5533,28.6007],[-81.5562,28.595],[-81.5426,28.5952],[-81.5427,28.5769],[-81.5259,28.581],[-81.5258,28.5736],[-81.53,28.5737],[-81.5271,28.5559],[-81.532,28.5518],[-81.5421,28.5516],[-81.542,28.546],[-81.4838,28.5028],[-81.4835,28.4937],[-81.4753,28.4937],[-81.4749,28.4587],[-81.4779,28.45],[-81.4009,28.4504],[-81.397,28.4653],[-81.3676,28.4656],[-81.3637,28.4502],[-81.3755,28.4064],[-81.3737,28.367],[-81.3888,28.3479],[-81.3919,28.3478],[-81.7907,28.3464],[-81.7909,28.3618],[-81.8576,28.3619],[-81.8575,28.346],[-81.9576,28.3452],[-81.9578,28.3089],[-81.9748,28.3105],[-81.9781,28.306],[-81.9857,28.3053],[-81.9957,28.3188],[-82.0204,28.3238],[-82.04,28.3203],[-82.0558,28.3128],[-82.0545,28.5214],[-82.0703,28.5319],[-82.0955,28.5238],[-82.1092,28.5437],[-82.1187,28.5406],[-82.1286,28.5449],[-82.1376,28.5653],[-82.1562,28.5734],[-82.1663,28.5637],[-82.1683,28.567],[-82.1866,28.5686],[-82.187,28.5727],[-82.1917,28.5749],[-82.207,28.5719],[-82.212,28.5741],[-82.2193,28.5827],[-82.2218,28.5936],[-82.2283,28.6005],[-82.233,28.6005],[-82.2342,28.6087],[-82.2422,28.6133],[-82.2427,28.619],[-82.2474,28.6225],[-82.246,28.6268],[-82.2602,28.635],[-82.2568,28.6489],[-82.2683,28.6486],[-82.2748,28.6562],[-82.2737,28.6609],[-82.2665,28.6607],[-82.2678,28.6628],[-82.2616,28.6693],[-82.26,28.6827],[-82.2485,28.7019],[-82.2512,28.7054],[-82.2491,28.7178],[-82.2327,28.7307],[-82.2314,28.7361],[-82.2186,28.744],[-82.2169,28.7481],[-82.2132,28.7477],[-82.2078,28.7566],[-82.1848,28.7618],[-82.1822,28.7689],[-82.1882,28.7717],[-82.1879,28.7778],[-82.1845,28.7831],[-82.1695,28.7916],[-82.1698,28.7967]]]},"properties":{"name":"CD11","district_number":11,"fips":"12-CD011"}},{"type":"Feature","geometry":{"type":"Polygon","coordinates":[[[-82.4443,27.9558],[-82.4514,27.95],[-82.4661,27.9447],[-82.4851,27.9448],[-82.4849,27.9667],[-82.5015,27.9704],[-82.501,27.996],[-82.5053,27.996],[-82.5053,27.9999],[-82.5174,28],[-82.5173,28.0108],[-82.542,28.011],[-82.5418,28.0255],[-82.5879,28.0276],[-82.6037,28.0196],[-82.6081,28.0104],[-82.6486,28.0337],[-82.6512,28.1733],[-82.6541,28.1733],[-82.6541,28.1799],[-82.665,28.1776],[-82.6662,28.1799],[-82.666,28.2171],[-82.7389,28.217],[-82.7412,28.2133],[-82.7653,28.2131],[-82.7625,28.2183],[-82.7646,28.2315],[-82.7621,28.243],[-82.7585,28.2546],[-82.7498,28.2556],[-82.7498,28.2658],[-83.0099,28.2664],[-83.0028,28.2803],[-82.9838,28.3061],[-82.9593,28.3279],[-82.9309,28.3445],[-82.8974,28.357],[-82.8776,28.4127],[-82.8749,28.4308],[-82.2812,28.4348],[-82.2836,28.4242],[-82.3191,28.3954],[-82.3267,28.2758],[-82.3312,28.2645],[-82.3546,28.237],[-82.3497,28.2364],[-82.3532,28.2229],[-82.3537,28.1713],[-82.3946,28.1713],[-82.4055,28.1552],[-82.4243,28.1136],[-82.4308,28.1077],[-82.4308,28.0804],[-82.4253,28.0798],[-82.4262,28.0436],[-82.4295,28.0326],[-82.4346,28.0326],[-82.4367,28.0276],[-82.434,28.0259],[-82.4349,28.022],[-82.4429,28.0144],[-82.4443,27.9558]]]},"properties":{"name":"CD12","district_number":12,"fips":"12-CD012"}},{"type":"Feature","geometry":{"type":"Polygon","coordinates":[[[-82.7367,27.822],[-82.7367,27.8282],[-82.743,27.8282],[-82.7433,27.8319],[-82.7527,27.8369],[-82.7519,27.8391],[-82.7913,27.8397],[-82.7981,27.8433],[-82.8117,27.8436],[-82.8115,27.8312],[-82.8181,27.8287],[-82.8347,27.837],[-82.8459,27.837],[-82.8348,27.8188],[-83.0104,27.8156],[-83.0184,27.8514],[-83.02,27.8934],[-83.0102,27.9521],[-82.9985,27.9903],[-82.9975,28.0128],[-83.0082,28.0619],[-83.0125,28.1337],[-83.0221,28.1989],[-83.0194,28.2364],[-83.0099,28.2664],[-82.7498,28.2658],[-82.7498,28.2556],[-82.7585,28.2546],[-82.7621,28.243],[-82.7646,28.2315],[-82.7625,28.2183],[-82.7653,28.2131],[-82.7412,28.2133],[-82.7389,28.217],[-82.666,28.2171],[-82.6662,28.1799],[-82.665,28.1776],[-82.6541,28.1799],[-82.6541,28.1733],[-82.6512,28.1733],[-82.6483,27.9474],[-82.6014,27.9373],[-82.5878,27.9283],[-82.5775,27.916],[-82.5687,27.8929],[-82.5658,27.8176],[-82.5584,27.7975],[-82.5972,27.7973],[-82.6041,27.7879],[-82.6195,27.7879],[-82.6288,27.7924],[-82.6636,27.792],[-82.6648,27.7993],[-82.6875,27.8162],[-82.7083,27.8137],[-82.7082,27.8082],[-82.7286,27.8063],[-82.7307,27.8104],[-82.7285,27.821],[-82.7367,27.822]]]},"properties":{"name":"CD13","district_number":13,"fips":"12-CD013"}},{"type":"Feature","geometry":{"type":"Polygon","coordinates":[[[-82.5258,28.0108],[-82.5173,28.0108],[-82.5174,28],[-82.5053,27.9999],[-82.5053,27.996],[-82.501,27.996],[-82.5015,27.9704],[-82.4849,27.9667],[-82.4851,27.9448],[-82.4661,27.9447],[-82.4514,27.95],[-82.4465,27.9558],[-82.416,27.9554],[-82.3975,27.9498],[-82.3976,27.9336],[-82.381,27.9336],[-82.381,27.9227],[-82.3687,27.9227],[-82.3687,27.8992],[-82.3543,27.8991],[-82.3482,27.8951],[-82.3317,27.9276],[-82.3261,27.9642],[-82.3269,28.0023],[-82.3024,28.0063],[-82.3031,28.0686],[-82.2985,28.0729],[-82.2852,28.0796],[-82.2852,28.0763],[-82.1376,28.0766],[-82.1404,28.0911],[-82.1114,28.0913],[-82.1094,28.0803],[-82.0564,28.0804],[-82.0544,27.6464],[-82.6058,27.6444],[-82.5406,27.785],[-82.5584,27.7975],[-82.5636,27.8069],[-82.5687,27.8929],[-82.5775,27.916],[-82.5878,27.9283],[-82.6014,27.9373],[-82.6483,27.9474],[-82.6486,28.0337],[-82.6081,28.0104],[-82.6037,28.0196],[-82.5879,28.0276],[-82.5418,28.0255],[-82.542,28.011],[-82.5258,28.0108]]]},"properties":{"name":"CD14","district_number":14,"fips":"12-CD014"}},{"type":"Feature","geometry":{"type":"Polygon","coordinates":[[[-82.2812,28.4348],[-82.8749,28.4308],[-82.868,28.4526],[-82.8554,28.4772],[-82.8582,28.499],[-82.8565,28.5277],[-82.8496,28.5529],[-82.8391,28.5746],[-82.8576,28.5971],[-82.8709,28.6216],[-82.8904,28.7],[-82.9048,28.7228],[-82.9235,28.7671],[-82.9274,28.8107],[-82.9158,28.8565],[-82.9317,28.8815],[-82.9418,28.9068],[-82.9469,28.9348],[-82.9456,28.9638],[-82.9726,28.9535],[-83.0016,28.9473],[-83.0822,28.9462],[-83.1353,28.9575],[-83.1603,28.9689],[-83.1879,28.9866],[-82.7616,28.9921],[-82.7548,28.9975],[-82.7554,29.0019],[-82.7423,29.008],[-82.741,29.0121],[-82.7281,29.0148],[-82.72,29.0256],[-82.7115,29.031],[-82.6898,29.034],[-82.6771,29.0306],[-82.6752,29.0261],[-82.6405,29.0215],[-82.6385,29.018],[-82.6127,29.0093],[-82.6021,29.0135],[-82.6017,29.0213],[-82.5952,29.0299],[-82.577,29.0281],[-82.5641,29.0358],[-82.556,29.0339],[-82.5365,29.0448],[-82.5338,29.0434],[-82.5351,29.0409],[-82.5304,29.0436],[-82.5224,29.0396],[-82.5169,29.0442],[-82.5119,29.0434],[-82.5081,29.0375],[-82.4874,29.048],[-82.4881,29.0515],[-82.4779,29.0526],[-82.4638,29.0447],[-82.4586,29.0477],[-82.4537,29.0398],[-82.4418,29.0355],[-82.4413,29.0324],[-82.4352,29.0296],[-82.4364,29.0272],[-82.4323,29.0277],[-82.4295,29.0212],[-82.4197,29.018],[-82.4187,29.0131],[-82.4016,29.019],[-82.4018,29.0158],[-82.395,29.0145],[-82.3976,29.0115],[-82.3935,29.008],[-82.3869,29.0093],[-82.3781,29.0048],[-82.3774,29.0006],[-82.3648,29.0024],[-82.3614,28.9935],[-82.3416,28.9879],[-82.3211,28.9735],[-82.3158,28.9733],[-82.3113,28.9584],[-82.2977,28.949],[-82.2959,28.9384],[-82.29,28.9356],[-82.2736,28.8972],[-82.2425,28.8768],[-82.2401,28.8668],[-82.232,28.8566],[-82.2192,28.8508],[-82.2069,28.8406],[-82.205,28.8348],[-82.1836,28.8236],[-82.1793,28.8033],[-82.1698,28.7967],[-82.1691,28.793],[-82.1879,28.7778],[-82.1882,28.7717],[-82.1822,28.7689],[-82.1834,28.7635],[-82.1887,28.7591],[-82.2078,28.7566],[-82.2132,28.7477],[-82.2169,28.7481],[-82.2186,28.744],[-82.2314,28.7361],[-82.2327,28.7307],[-82.2491,28.7178],[-82.2512,28.7054],[-82.2485,28.7019],[-82.26,28.6827],[-82.2616,28.6693],[-82.2678,28.6628],[-82.2665,28.6607],[-82.2737,28.6609],[-82.2748,28.6562],[-82.2683,28.6486],[-82.2568,28.6489],[-82.2602,28.635],[-82.246,28.6268],[-82.2474,28.6225],[-82.2427,28.619],[-82.2422,28.6133],[-82.2342,28.6087],[-82.233,28.6005],[-82.2283,28.6005],[-82.2218,28.5936],[-82.2193,28.5827],[-82.212,28.5741],[-82.207,28.5719],[-82.1917,28.5749],[-82.187,28.5727],[-82.1866,28.5686],[-82.1683,28.567],[-82.1663,28.5637],[-82.1562,28.5734],[-82.1376,28.5653],[-82.1286,28.5449],[-82.1187,28.5406],[-82.1092,28.5437],[-82.0955,28.5238],[-82.0703,28.5319],[-82.0545,28.5214],[-82.0555,28.2589],[-82.1062,28.2592],[-82.1059,28.1717],[-82.0563,28.1716],[-82.0564,28.0804],[-82.1094,28.0803],[-82.1114,28.0913],[-82.1404,28.0911],[-82.1376,28.0766],[-82.2852,28.0763],[-82.2852,28.0796],[-82.297,28.0738],[-82.3031,28.0686],[-82.3024,28.0063],[-82.3269,28.0023],[-82.3261,27.9642],[-82.3326,27.9248],[-82.3482,27.8951],[-82.3543,27.8991],[-82.3687,27.8992],[-82.3687,27.9227],[-82.381,27.9227],[-82.381,27.9336],[-82.3976,27.9336],[-82.3975,27.9498],[-82.416,27.9554],[-82.443,27.9558],[-82.4429,28.0144],[-82.4349,28.022],[-82.434,28.0259],[-82.4367,28.0276],[-82.4346,28.0326],[-82.4295,28.0326],[-82.4262,28.0436],[-82.4253,28.0798],[-82.4308,28.0804],[-82.4308,28.1077],[-82.4243,28.1136],[-82.4055,28.1552],[-82.3946,28.1713],[-82.3537,28.1713],[-82.3532,28.2229],[-82.3497,28.2364],[-82.3546,28.237],[-82.3312,28.2645],[-82.3267,28.2758],[-82.3191,28.3954],[-82.2836,28.4242],[-82.2812,28.4348]]]},"properties":{"name":"CD15","district_number":15,"fips":"12-CD015"}},{"type":"Feature","geometry":{"type":"Polygon","coordinates":[[[-82.0544,27.6464],[-82.0552,27.8798],[-82.0244,27.88],[-82.0223,27.8873],[-82.0102,27.8904],[-81.9997,27.8873],[-81.9871,27.8904],[-81.9862,27.8874],[-81.9735,27.8874],[-81.9733,27.8576],[-81.9691,27.8576],[-81.9706,27.8539],[-81.9679,27.8539],[-81.9732,27.8508],[-81.9539,27.8469],[-81.9329,27.8357],[-81.8551,27.8305],[-81.8527,27.8225],[-81.8425,27.8126],[-81.8425,27.8064],[-81.8338,27.8055],[-81.8339,27.7979],[-81.826,27.7979],[-81.8261,27.8129],[-81.8326,27.8131],[-81.8322,27.8205],[-81.7447,27.8191],[-81.7226,27.8213],[-81.7034,27.8281],[-81.7034,27.8132],[-81.6954,27.8128],[-81.6954,27.7924],[-81.6858,27.7969],[-81.6843,27.794],[-81.6774,27.7965],[-81.6774,27.7851],[-81.6628,27.7908],[-81.661,27.7811],[-81.6549,27.7776],[-81.6581,27.771],[-81.6503,27.7703],[-81.6503,27.7552],[-81.6463,27.7552],[-81.6462,27.7626],[-81.6381,27.7626],[-81.6379,27.7733],[-81.6298,27.7733],[-81.63,27.7845],[-81.6196,27.7845],[-81.6026,27.7594],[-81.5906,27.7592],[-81.589,27.7518],[-81.5975,27.7518],[-81.582,27.7337],[-81.5728,27.7336],[-81.5625,27.719],[-81.5609,27.7127],[-81.565,27.7008],[-81.564,27.6927],[-81.5299,27.6464],[-81.5635,27.6467],[-81.5626,27.0338],[-81.9832,27.0353],[-81.9925,27.0317],[-82.0575,27.0321],[-82.059,27.0369],[-82.1025,27.0758],[-82.1759,27.077],[-82.1677,27.0827],[-82.1699,27.0844],[-82.1653,27.0899],[-82.1678,27.0887],[-82.1745,27.0933],[-82.1686,27.0879],[-82.1713,27.0846],[-82.1743,27.0867],[-82.1818,27.0813],[-82.1894,27.0819],[-82.181,27.0907],[-82.18,27.0993],[-82.2783,27.1004],[-82.3191,27.1125],[-82.3764,27.1095],[-82.3888,27.1144],[-82.4309,27.1666],[-82.4404,27.2028],[-82.4515,27.2291],[-82.4464,27.3442],[-82.449,27.3886],[-82.8507,27.3914],[-82.8616,27.4237],[-82.8842,27.4486],[-82.9009,27.4774],[-82.9313,27.5533],[-82.9349,27.5837],[-82.9342,27.6078],[-82.9268,27.6394],[-82.9174,27.6628],[-82.9152,27.6841],[-82.9698,27.7394],[-82.9939,27.7777],[-83.0104,27.8156],[-82.8348,27.8188],[-82.8459,27.837],[-82.8347,27.837],[-82.8181,27.8287],[-82.8115,27.8312],[-82.8117,27.8436],[-82.799,27.8434],[-82.7916,27.8397],[-82.7519,27.8391],[-82.7527,27.8369],[-82.7433,27.8319],[-82.743,27.8282],[-82.7367,27.8282],[-82.7367,27.8209],[-82.7285,27.821],[-82.7307,27.8104],[-82.7286,27.8063],[-82.7082,27.8082],[-82.7083,27.8137],[-82.6875,27.8162],[-82.6648,27.7993],[-82.6636,27.792],[-82.6288,27.7924],[-82.6195,27.7879],[-82.6041,27.7879],[-82.5972,27.7973],[-82.5584,27.7975],[-82.5406,27.785],[-82.6058,27.6444],[-82.0544,27.6464]]]},"properties":{"name":"CD16","district_number":16,"fips":"12-CD016"}},{"type":"Feature","geometry":{"type":"Polygon","coordinates":[[[-82.0575,27.0321],[-81.9925,27.0317],[-81.9832,27.0353],[-81.5626,27.0338],[-81.5663,26.6873],[-81.568,26.684],[-81.5985,26.6834],[-81.5984,26.6798],[-81.6058,26.6797],[-81.6108,26.6797],[-81.6111,26.6869],[-81.663,26.6862],[-81.6637,26.6447],[-81.6832,26.6428],[-81.6861,26.6353],[-81.6941,26.6344],[-81.6935,26.6305],[-81.6972,26.635],[-81.6963,26.6305],[-81.6984,26.6335],[-81.7021,26.6288],[-81.7163,26.6288],[-81.7124,26.5844],[-81.7376,26.561],[-81.7625,26.5482],[-81.7864,26.5475],[-81.7866,26.5656],[-81.7927,26.5655],[-81.7917,26.5721],[-81.7988,26.572],[-81.7988,26.5764],[-81.8068,26.5764],[-81.8047,26.569],[-81.8228,26.5688],[-81.8277,26.5706],[-81.8244,26.5786],[-81.8311,26.5785],[-81.8348,26.5705],[-81.835,26.5759],[-81.839,26.5758],[-81.8411,26.5803],[-81.8392,26.5849],[-81.8313,26.5851],[-81.8313,26.5906],[-81.8353,26.5905],[-81.8384,26.5977],[-81.841,26.5977],[-81.8393,26.5904],[-81.8474,26.5902],[-81.8474,26.5865],[-81.8552,26.5878],[-81.8553,26.5935],[-81.8716,26.5936],[-81.8696,26.5917],[-81.8718,26.5809],[-81.8757,26.5809],[-81.8757,26.5754],[-81.8838,26.5754],[-81.8839,26.5826],[-81.8899,26.5825],[-81.89,26.5897],[-81.8837,26.5896],[-81.8837,26.5933],[-81.8956,26.5934],[-81.8948,26.597],[-81.9041,26.6033],[-81.9043,26.6067],[-81.9113,26.6087],[-81.9137,26.625],[-81.8942,26.6475],[-81.8819,26.6571],[-81.9009,26.6801],[-81.9007,26.7078],[-81.9068,26.7255],[-81.9313,26.7701],[-82.2056,26.7705],[-82.2215,26.7818],[-82.2647,26.7894],[-82.462,26.7874],[-82.4988,26.8357],[-82.5944,26.9902],[-82.6264,27.0587],[-82.6353,27.0877],[-82.6705,27.1544],[-82.7109,27.1949],[-82.7251,27.2188],[-82.7347,27.2468],[-82.7601,27.2742],[-82.7863,27.3107],[-82.8263,27.3478],[-82.8406,27.3688],[-82.8507,27.3914],[-82.449,27.3886],[-82.4464,27.3442],[-82.4515,27.2291],[-82.4404,27.2028],[-82.4309,27.1666],[-82.3888,27.1144],[-82.3764,27.1095],[-82.3191,27.1125],[-82.2783,27.1004],[-82.18,27.0993],[-82.181,27.0907],[-82.1894,27.0819],[-82.1818,27.0813],[-82.1743,27.0867],[-82.1713,27.0846],[-82.1686,27.0879],[-82.1745,27.0933],[-82.1678,27.0887],[-82.1653,27.0899],[-82.1699,27.0844],[-82.1677,27.0827],[-82.1759,27.077],[-82.1025,27.0758],[-82.059,27.0369],[-82.0575,27.0321]]]},"properties":{"name":"CD17","district_number":17,"fips":"12-CD017"}},{"type":"Feature","geometry":{"type":"Polygon","coordinates":[[[-81.5225,28.3327],[-81.5209,28.3153],[-81.5254,28.3152],[-81.5247,28.2892],[-81.5381,28.289],[-81.5381,28.2826],[-81.5264,28.2732],[-81.5251,28.2676],[-81.4859,28.2589],[-81.4874,28.2308],[-81.5132,28.2309],[-81.5071,28.2183],[-81.4761,28.1986],[-81.4724,28.1893],[-81.4614,28.1773],[-81.4623,28.1724],[-81.4426,28.1537],[-81.4435,28.1473],[-81.4409,28.1501],[-81.4369,28.1399],[-81.4263,28.1365],[-81.4202,28.1276],[-81.41,28.1249],[-81.4038,28.1195],[-81.4007,28.1072],[-81.3906,28.0928],[-81.381,28.091],[-81.3755,28.0851],[-81.3464,28.0847],[-81.3488,28.0818],[-81.3464,28.0694],[-81.3552,28.0669],[-81.3627,28.07],[-81.3668,28.0619],[-81.3618,28.0437],[-81.3667,28.0356],[-81.3614,28.0312],[-81.3561,28.0331],[-81.3544,28.0282],[-81.3575,28.0271],[-81.3539,28.0261],[-81.3639,28.0178],[-81.3627,28.0055],[-81.3754,28.009],[-81.3798,27.9999],[-81.3765,27.9783],[-81.3706,27.9779],[-81.3687,27.9738],[-81.3498,27.9638],[-81.3498,27.9539],[-81.3368,27.9499],[-81.3382,27.9392],[-81.3444,27.9415],[-81.3475,27.9393],[-81.34,27.9312],[-81.3508,27.9264],[-81.3533,27.9208],[-81.3512,27.9155],[-81.3556,27.9111],[-81.3613,27.9138],[-81.3739,27.9052],[-81.3741,27.9011],[-81.387,27.9013],[-81.3876,27.8696],[-81.4195,27.8788],[-81.4223,27.8682],[-81.4203,27.8615],[-81.4263,27.8597],[-81.4222,27.8522],[-81.4326,27.8492],[-81.4383,27.824],[-81.4409,27.8241],[-81.4443,27.8117],[-81.449,27.8065],[-81.5,27.8067],[-81.5065,27.814],[-81.5269,27.8154],[-81.5231,27.821],[-81.5476,27.821],[-81.5472,27.8069],[-81.5609,27.8045],[-81.5606,27.7901],[-81.5553,27.7863],[-81.5553,27.7903],[-81.5513,27.7904],[-81.5512,27.7776],[-81.5808,27.776],[-81.5801,27.7732],[-81.5698,27.7725],[-81.5686,27.7644],[-81.5753,27.7631],[-81.5816,27.7663],[-81.5867,27.7634],[-81.5941,27.7692],[-81.5932,27.7747],[-81.5971,27.775],[-81.5905,27.7593],[-81.6026,27.7594],[-81.6196,27.7845],[-81.63,27.7845],[-81.6298,27.7733],[-81.6379,27.7733],[-81.6381,27.7626],[-81.6462,27.7626],[-81.6463,27.7552],[-81.6503,27.7552],[-81.6503,27.7703],[-81.6581,27.771],[-81.6549,27.7776],[-81.661,27.7811],[-81.6628,27.7908],[-81.6774,27.7851],[-81.6774,27.7965],[-81.6843,27.794],[-81.6858,27.7969],[-81.6954,27.7924],[-81.6954,27.8128],[-81.7034,27.8132],[-81.7035,27.8281],[-81.7226,27.8213],[-81.7447,27.8191],[-81.8322,27.8205],[-81.8326,27.8131],[-81.8261,27.8129],[-81.826,27.7979],[-81.8339,27.7979],[-81.8338,27.8055],[-81.8425,27.8064],[-81.8425,27.8126],[-81.8527,27.8225],[-81.8554,27.8306],[-81.9329,27.8357],[-81.9539,27.8469],[-81.9732,27.8508],[-81.9679,27.8539],[-81.9706,27.8539],[-81.9691,27.8576],[-81.9733,27.8576],[-81.9735,27.8874],[-81.9862,27.8874],[-81.9871,27.8904],[-81.9997,27.8873],[-82.0122,27.8904],[-82.0223,27.8873],[-82.0244,27.88],[-82.0552,27.8798],[-82.0563,28.1716],[-82.1059,28.1717],[-82.1062,28.2502],[-82.1062,28.2592],[-82.0555,28.2589],[-82.0548,28.3139],[-82.04,28.3203],[-82.0156,28.3237],[-81.9957,28.3188],[-81.9857,28.3053],[-81.9781,28.306],[-81.9748,28.3105],[-81.9578,28.3089],[-81.9576,28.3452],[-81.8575,28.346],[-81.8576,28.3619],[-81.7909,28.3618],[-81.7907,28.3464],[-81.5319,28.3473],[-81.5333,28.3452],[-81.5225,28.3327]]]},"properties":{"name":"CD18","district_number":18,"fips":"12-CD018"}},{"type":"Feature","geometry":{"type":"Polygon","coordinates":[[[-81.8411,26.5803],[-81.839,26.5758],[-81.835,26.5759],[-81.8348,26.5705],[-81.8311,26.5785],[-81.8244,26.5786],[-81.8277,26.5706],[-81.8228,26.5688],[-81.8047,26.569],[-81.8068,26.5764],[-81.7988,26.5764],[-81.7988,26.572],[-81.7917,26.5721],[-81.7927,26.5655],[-81.7866,26.5656],[-81.7864,26.5475],[-81.7616,26.5485],[-81.7337,26.5636],[-81.7144,26.5804],[-81.7121,26.5885],[-81.7163,26.6288],[-81.7021,26.6288],[-81.6984,26.6335],[-81.6963,26.6305],[-81.6972,26.635],[-81.6935,26.6305],[-81.6941,26.6344],[-81.6861,26.6353],[-81.6832,26.6428],[-81.6638,26.6445],[-81.663,26.6862],[-81.6111,26.6869],[-81.6108,26.6797],[-81.6058,26.6797],[-81.5984,26.6798],[-81.5985,26.6834],[-81.568,26.684],[-81.5665,26.6875],[-81.5622,26.4226],[-81.6595,26.4211],[-81.6579,26.3176],[-81.6905,26.3173],[-81.6869,26.1217],[-81.7159,26.1237],[-81.716,26.1295],[-81.7302,26.1295],[-81.7304,26.1388],[-81.7802,26.1364],[-81.7787,26.1333],[-81.7827,26.1319],[-81.7823,26.0793],[-81.798,26.0789],[-81.8034,26.0903],[-81.8102,26.139],[-81.9732,26.125],[-81.9806,26.1556],[-81.988,26.2273],[-82.0055,26.2844],[-82.0461,26.274],[-82.0869,26.272],[-82.1275,26.2762],[-82.1693,26.2885],[-82.2081,26.3053],[-82.2306,26.3186],[-82.2894,26.3614],[-82.3184,26.3936],[-82.3446,26.4428],[-82.3592,26.5016],[-82.3796,26.5369],[-82.3903,26.5753],[-82.4067,26.5976],[-82.4244,26.6343],[-82.4328,26.6719],[-82.4316,26.7362],[-82.4451,26.7646],[-82.462,26.7874],[-82.2647,26.7894],[-82.2215,26.7818],[-82.2056,26.7705],[-81.9313,26.7701],[-81.9068,26.7255],[-81.9007,26.7078],[-81.9009,26.6801],[-81.8819,26.6571],[-81.9126,26.6277],[-81.9113,26.6087],[-81.9043,26.6067],[-81.9041,26.6033],[-81.8948,26.597],[-81.8956,26.5934],[-81.8837,26.5933],[-81.8837,26.5896],[-81.89,26.5897],[-81.8899,26.5825],[-81.8839,26.5826],[-81.8838,26.5754],[-81.8757,26.5754],[-81.8757,26.5809],[-81.8718,26.5809],[-81.8696,26.5917],[-81.8716,26.5936],[-81.8553,26.5935],[-81.8552,26.5878],[-81.8474,26.5865],[-81.8474,26.5902],[-81.8393,26.5904],[-81.841,26.5977],[-81.8384,26.5977],[-81.8353,26.5905],[-81.8313,26.5906],[-81.8313,26.5851],[-81.8392,26.5849],[-81.8411,26.5803]]]},"properties":{"name":"CD19","district_number":19,"fips":"12-CD019"}},{"type":"Feature","geometry":{"type":"Polygon","coordinates":[[[-80.2823,26.2584],[-80.2825,26.2729],[-80.169,26.2742],[-80.169,26.2891],[-80.136,26.2914],[-80.1362,26.3044],[-80.1293,26.3044],[-80.1269,26.3086],[-80.1281,26.3277],[-80.099,26.3275],[-80.1273,26.2266],[-80.1305,26.2217],[-80.1362,26.2216],[-80.1382,26.209],[-80.1326,26.2037],[-80.1199,26.2021],[-80.1198,26.1965],[-80.1229,26.1965],[-80.1224,26.1834],[-80.1189,26.1835],[-80.1194,26.1718],[-80.1158,26.1645],[-80.1175,26.1574],[-80.1152,26.1585],[-80.1141,26.1549],[-80.118,26.1496],[-80.1185,26.1341],[-80.113,26.129],[-80.1219,26.1301],[-80.1252,26.1209],[-80.1372,26.1216],[-80.1371,26.118],[-80.1427,26.1172],[-80.1415,26.1122],[-80.1455,26.1056],[-80.2323,26.1059],[-80.2292,26.1151],[-80.2249,26.1138],[-80.2262,26.1203],[-80.2216,26.1203],[-80.2272,26.1208],[-80.2276,26.1248],[-80.2343,26.1234],[-80.2342,26.1208],[-80.2853,26.1208],[-80.2875,26.1355],[-80.2977,26.1355],[-80.2987,26.1867],[-80.295,26.1937],[-80.2976,26.1937],[-80.2974,26.2586],[-80.2823,26.2584]]]},"properties":{"name":"CD20","district_number":20,"fips":"12-CD020"}},{"type":"Feature","geometry":{"type":"Polygon","coordinates":[[[-80.6779,27.206],[-80.6798,27.5585],[-80.2635,27.5568],[-80.2458,27.5102],[-80.2373,27.5014],[-80.2293,27.4856],[-80.228,27.463],[-80.2133,27.4247],[-80.1271,27.2394],[-80.0954,27.1806],[-80.0941,27.1637],[-80.081,27.1253],[-80.0634,27.0916],[-80.0391,27.0299],[-79.9939,26.8753],[-79.9754,26.8003],[-79.975,26.7729],[-80.0359,26.7731],[-80.0494,26.7693],[-80.0445,26.7808],[-80.0473,26.7925],[-80.0986,26.7942],[-80.0995,26.7745],[-80.1058,26.7788],[-80.1071,26.7834],[-80.1076,26.778],[-80.1158,26.7783],[-80.1163,26.7655],[-80.1331,26.766],[-80.1362,26.7172],[-80.1477,26.7018],[-80.1452,26.6788],[-80.2144,26.6806],[-80.2135,26.6955],[-80.2176,26.6955],[-80.2175,26.6989],[-80.2134,26.6988],[-80.2132,26.7095],[-80.2292,26.7062],[-80.2279,26.7362],[-80.2158,26.7357],[-80.2198,26.7378],[-80.2196,26.7425],[-80.2236,26.7426],[-80.2195,26.7435],[-80.2235,26.7463],[-80.2195,26.7462],[-80.2187,26.7658],[-80.3831,26.7655],[-80.4116,26.7947],[-80.5305,26.8985],[-80.5302,26.9581],[-80.8856,26.9589],[-80.6774,27.1216],[-80.6779,27.206]]]},"properties":{"name":"CD21","district_number":21,"fips":"12-CD021"}},{"type":"Feature","geometry":{"type":"Polygon","coordinates":[[[-81.5638,26.5133],[-81.5658,26.7696],[-81.4595,26.7689],[-81.4593,26.7835],[-81.4491,26.7835],[-81.4349,26.7835],[-81.4349,26.7688],[-80.9453,26.7691],[-80.8856,26.9589],[-80.5302,26.9581],[-80.5305,26.8985],[-80.4116,26.7947],[-80.3831,26.7655],[-80.2187,26.7658],[-80.2195,26.7462],[-80.2235,26.7463],[-80.2195,26.7435],[-80.2236,26.7426],[-80.2196,26.7425],[-80.2198,26.7378],[-80.2158,26.7357],[-80.2279,26.7362],[-80.2292,26.7062],[-80.2132,26.7095],[-80.2134,26.6988],[-80.2175,26.6989],[-80.2176,26.6955],[-80.2135,26.6955],[-80.2144,26.6806],[-80.1452,26.6788],[-80.1453,26.6643],[-80.1574,26.6641],[-80.1535,26.6623],[-80.1531,26.6492],[-80.1572,26.6493],[-80.1576,26.6405],[-80.1538,26.6398],[-80.153,26.6325],[-80.1576,26.6325],[-80.1574,26.6177],[-80.1736,26.6174],[-80.1733,26.5904],[-80.2056,26.5914],[-80.2029,26.3278],[-80.1698,26.3278],[-80.169,26.2742],[-80.2825,26.2729],[-80.2821,26.2584],[-80.2974,26.2586],[-80.2976,26.1937],[-80.295,26.1937],[-80.2987,26.1867],[-80.2977,26.1355],[-80.2875,26.1355],[-80.2853,26.1208],[-80.2342,26.1208],[-80.2343,26.1234],[-80.2276,26.1248],[-80.2272,26.1208],[-80.2215,26.1208],[-80.2262,26.1203],[-80.2249,26.1138],[-80.2292,26.1151],[-80.2323,26.1059],[-80.2182,26.106],[-80.2153,26.0656],[-80.442,26.0619],[-80.4433,26.1129],[-80.4498,26.1408],[-80.4475,26.1453],[-80.6991,26.1464],[-80.8791,26.1725],[-80.8728,26.0004],[-80.8731,25.8054],[-81.8482,25.8008],[-81.8752,25.8365],[-81.8904,25.8715],[-81.9092,25.904],[-81.9158,25.9274],[-81.9184,25.9527],[-81.9644,26.0536],[-81.9732,26.125],[-81.8102,26.139],[-81.8034,26.0903],[-81.798,26.0789],[-81.7823,26.0793],[-81.7827,26.1319],[-81.7787,26.1333],[-81.7802,26.1364],[-81.7304,26.1388],[-81.7302,26.1295],[-81.716,26.1295],[-81.7159,26.1237],[-81.6869,26.1217],[-81.6905,26.3173],[-81.6579,26.3176],[-81.6595,26.4211],[-81.5622,26.4226],[-81.5638,26.5133]]]},"properties":{"name":"CD22","district_number":22,"fips":"12-CD022"}},{"type":"Feature","geometry":{"type":"Polygon","coordinates":[[[-80.2051,26.5127],[-80.2056,26.5914],[-80.1733,26.5904],[-80.1736,26.6174],[-80.1574,26.6177],[-80.1576,26.6325],[-80.153,26.6325],[-80.1538,26.6398],[-80.1576,26.6405],[-80.1572,26.6493],[-80.1531,26.6492],[-80.1535,26.6623],[-80.1574,26.6641],[-80.1453,26.6643],[-80.1477,26.7018],[-80.1362,26.7172],[-80.1331,26.766],[-80.1163,26.7655],[-80.1158,26.7783],[-80.1076,26.778],[-80.1071,26.7834],[-80.1058,26.7788],[-80.0995,26.7745],[-80.0986,26.7942],[-80.0473,26.7925],[-80.0445,26.7808],[-80.0494,26.7693],[-80.0359,26.7731],[-79.975,26.7729],[-79.9797,26.7503],[-79.9747,26.7026],[-79.9809,26.6636],[-79.9825,26.5693],[-80.0025,26.4545],[-80.0539,26.4543],[-80.0514,26.4755],[-80.0632,26.4741],[-80.0627,26.4774],[-80.0668,26.4773],[-80.0738,26.4397],[-80.1057,26.4395],[-80.1058,26.4466],[-80.1225,26.4465],[-80.1221,26.4243],[-80.1341,26.4242],[-80.1343,26.4315],[-80.1465,26.4315],[-80.1466,26.4391],[-80.1648,26.4365],[-80.1714,26.439],[-80.1716,26.4537],[-80.2045,26.4538],[-80.2051,26.5127]]]},"properties":{"name":"CD23","district_number":23,"fips":"12-CD023"}},{"type":"Feature","geometry":{"type":"Polygon","coordinates":[[[-80.292,25.8986],[-80.2932,25.925],[-80.2767,25.9251],[-80.2799,26.0153],[-80.238,26.0168],[-80.2367,26.0241],[-80.2323,26.0242],[-80.2326,26.0315],[-80.1681,26.0336],[-80.1656,26.0626],[-80.1439,26.0592],[-80.1408,26.0033],[-80.1426,25.9968],[-80.1484,25.9966],[-80.1481,25.9744],[-80.1657,25.9738],[-80.1671,25.9611],[-80.1887,25.9432],[-80.1885,25.9332],[-80.1803,25.9317],[-80.176,25.9254],[-80.1543,25.9261],[-80.1656,25.8838],[-80.151,25.8809],[-80.1558,25.8726],[-80.1455,25.8727],[-80.1478,25.8595],[-80.1617,25.8595],[-80.1635,25.8557],[-80.1614,25.8558],[-80.1594,25.813],[-80.169,25.7797],[-80.1787,25.7876],[-80.1913,25.7859],[-80.2066,25.789],[-80.2305,25.7825],[-80.2396,25.7869],[-80.2478,25.7866],[-80.25,25.7933],[-80.2561,25.7924],[-80.2398,25.7943],[-80.2402,25.8086],[-80.2585,25.8072],[-80.2585,25.8104],[-80.2465,25.8135],[-80.2527,25.8184],[-80.251,25.8236],[-80.2532,25.8281],[-80.2572,25.828],[-80.2594,25.8821],[-80.2873,25.8813],[-80.2879,25.8959],[-80.2918,25.8946],[-80.292,25.8986]]]},"properties":{"name":"CD24","district_number":24,"fips":"12-CD024"}},{"type":"Feature","geometry":{"type":"Polygon","coordinates":[[[-80.2131,26.1061],[-80.1455,26.1056],[-80.1415,26.1122],[-80.1427,26.1172],[-80.1371,26.118],[-80.1372,26.1216],[-80.1252,26.1209],[-80.1219,26.1301],[-80.113,26.129],[-80.1185,26.1341],[-80.118,26.1496],[-80.1141,26.1549],[-80.1152,26.1585],[-80.1175,26.1574],[-80.1158,26.1645],[-80.1194,26.1718],[-80.1189,26.1835],[-80.1224,26.1834],[-80.1229,26.1965],[-80.1198,26.1965],[-80.1199,26.2021],[-80.1326,26.2037],[-80.1382,26.209],[-80.1362,26.2216],[-80.1305,26.2217],[-80.1273,26.2266],[-80.0983,26.3259],[-80.1281,26.3277],[-80.1269,26.3086],[-80.1293,26.3044],[-80.1362,26.3044],[-80.136,26.2914],[-80.1653,26.289],[-80.1686,26.2891],[-80.1698,26.3278],[-80.2029,26.3278],[-80.2045,26.4538],[-80.1716,26.4537],[-80.1714,26.439],[-80.1648,26.4365],[-80.1466,26.4391],[-80.1465,26.4315],[-80.1343,26.4315],[-80.1338,26.4242],[-80.1221,26.4243],[-80.1225,26.4465],[-80.1058,26.4466],[-80.1057,26.4395],[-80.0738,26.4397],[-80.0668,26.4773],[-80.0627,26.4774],[-80.0632,26.4741],[-80.0514,26.4755],[-80.0539,26.4543],[-80.0025,26.4545],[-80.0248,26.2496],[-80.0381,26.1967],[-80.0379,26.1833],[-80.0472,26.133],[-80.0498,26.0882],[-80.0545,26.0731],[-80.0634,25.9744],[-80.0657,25.8812],[-80.0629,25.8483],[-80.067,25.8024],[-80.0726,25.7793],[-80.0696,25.7557],[-80.0761,25.7373],[-80.0918,25.7211],[-80.1488,25.7624],[-80.1369,25.7652],[-80.1691,25.7792],[-80.1594,25.813],[-80.1614,25.8558],[-80.1635,25.8557],[-80.1617,25.8595],[-80.1478,25.8595],[-80.1455,25.8727],[-80.1558,25.8726],[-80.151,25.8809],[-80.1656,25.8838],[-80.1543,25.9261],[-80.176,25.9254],[-80.1803,25.9317],[-80.1885,25.9332],[-80.1887,25.9432],[-80.1671,25.9611],[-80.1657,25.9738],[-80.1481,25.9744],[-80.1484,25.9966],[-80.1426,25.9968],[-80.1408,26.0033],[-80.1439,26.0592],[-80.1656,26.0626],[-80.1681,26.0336],[-80.2133,26.0322],[-80.2182,26.106],[-80.2131,26.1061]]]},"properties":{"name":"CD25","district_number":25,"fips":"12-CD025"}},{"type":"Feature","geometry":{"type":"Polygon","coordinates":[[[-80.2585,25.8072],[-80.2402,25.8086],[-80.2398,25.7943],[-80.2625,25.794],[-80.2742,25.7837],[-80.3015,25.7845],[-80.3141,25.78],[-80.369,25.7808],[-80.3691,25.7971],[-80.3852,25.7971],[-80.3844,25.7819],[-80.4134,25.7836],[-80.4191,25.7803],[-80.417,25.7609],[-80.8295,25.763],[-80.8731,25.8054],[-80.8728,26.0004],[-80.8791,26.1725],[-80.6991,26.1464],[-80.4475,26.1453],[-80.4498,26.1408],[-80.4433,26.1129],[-80.442,26.0619],[-80.2155,26.0656],[-80.2133,26.0322],[-80.2326,26.0315],[-80.2323,26.0242],[-80.2367,26.0241],[-80.238,26.0168],[-80.2799,26.0153],[-80.2767,25.9251],[-80.2932,25.925],[-80.2918,25.8946],[-80.2879,25.8959],[-80.2873,25.8813],[-80.2594,25.8821],[-80.2572,25.828],[-80.2532,25.8281],[-80.251,25.8236],[-80.2527,25.8184],[-80.2465,25.8135],[-80.2585,25.8104],[-80.2585,25.8072]]]},"properties":{"name":"CD26","district_number":26,"fips":"12-CD026"}},{"type":"Feature","geometry":{"type":"Polygon","coordinates":[[[-80.2227,25.7827],[-80.2066,25.789],[-80.1913,25.7859],[-80.1774,25.7872],[-80.1691,25.7792],[-80.1369,25.7652],[-80.1488,25.7624],[-80.0918,25.7211],[-80.1078,25.6066],[-80.104,25.5619],[-80.1117,25.5403],[-80.1196,25.5413],[-80.1206,25.5341],[-80.1755,25.5477],[-80.2366,25.5315],[-80.3167,25.5326],[-80.3258,25.535],[-80.3317,25.5437],[-80.3404,25.5443],[-80.3589,25.5556],[-80.3622,25.5684],[-80.3723,25.57],[-80.3728,25.576],[-80.3665,25.5825],[-80.3781,25.6034],[-80.3792,25.6254],[-80.3825,25.6309],[-80.3846,25.6865],[-80.382,25.6909],[-80.3826,25.7149],[-80.381,25.718],[-80.3749,25.7151],[-80.3753,25.7226],[-80.3673,25.7227],[-80.3684,25.7613],[-80.3604,25.7616],[-80.3586,25.7643],[-80.361,25.7688],[-80.369,25.7685],[-80.369,25.7808],[-80.3144,25.78],[-80.3015,25.7845],[-80.2742,25.7837],[-80.2651,25.7932],[-80.2562,25.7944],[-80.2479,25.7919],[-80.2478,25.7866],[-80.2227,25.7827]]]},"properties":{"name":"CD27","district_number":27,"fips":"12-CD027"}},{"type":"Feature","geometry":{"type":"MultiPolygon","coordinates":[[[[-81.1704,24.9621],[-81.1738,24.9749],[-81.1886,24.9948],[-81.2143,25.0192],[-81.2391,25.0325],[-81.2623,25.0509],[-81.2811,25.073],[-81.2951,25.0979],[-81.3048,25.1324],[-81.3285,25.1764],[-81.3423,25.2248],[-81.3402,25.2641],[-81.3149,25.3516],[-81.3252,25.3906],[-81.3432,25.4076],[-81.358,25.4276],[-81.3689,25.4497],[-81.3848,25.497],[-81.407,25.5223],[-81.4254,25.5516],[-81.4598,25.5683],[-81.4876,25.5921],[-81.5087,25.6236],[-81.519,25.6569],[-81.5486,25.6696],[-81.5762,25.686],[-81.6202,25.6736],[-81.6797,25.6726],[-81.721,25.6797],[-81.7617,25.6972],[-81.7855,25.7139],[-81.8057,25.7341],[-81.8482,25.8008],[-80.8731,25.8054],[-80.8274,25.762],[-80.6491,25.7609],[-80.417,25.7609],[-80.4195,25.7789],[-80.417,25.7821],[-80.3844,25.7819],[-80.3852,25.7971],[-80.3691,25.7971],[-80.369,25.7685],[-80.361,25.7688],[-80.3586,25.7643],[-80.3604,25.7616],[-80.3684,25.7613],[-80.3673,25.7227],[-80.3753,25.7226],[-80.3749,25.7151],[-80.381,25.718],[-80.3826,25.7149],[-80.382,25.6909],[-80.3846,25.6865],[-80.3825,25.6309],[-80.3792,25.6254],[-80.3781,25.6034],[-80.3665,25.5825],[-80.3728,25.576],[-80.3723,25.57],[-80.3622,25.5684],[-80.3589,25.5556],[-80.3404,25.5443],[-80.3317,25.5437],[-80.3258,25.535],[-80.3167,25.5326],[-80.2366,25.5315],[-80.1755,25.5477],[-80.1206,25.5341],[-80.1196,25.5413],[-80.1117,25.5403],[-80.1152,25.5229],[-80.1031,25.511],[-80.0951,25.4934],[-80.097,25.4663],[-80.1054,25.4521],[-80.1146,25.4436],[-80.1391,25.4331],[-80.1544,25.3919],[-80.1766,25.3669],[-80.191,25.3253],[-80.225,25.2843],[-80.2389,25.2555],[-80.2597,25.2306],[-80.2948,25.1717],[-80.2953,25.1621],[-80.3029,25.1449],[-80.3333,25.0992],[-80.3578,25.0729],[-80.3904,25.0572],[-80.3916,25.0394],[-80.3965,25.0282],[-80.4125,25.0102],[-80.4391,24.998],[-80.4402,24.9857],[-80.4534,24.9637],[-80.4781,24.9484],[-80.5143,24.9406],[-80.5253,24.9235],[-80.5382,24.9127],[-80.5855,24.8893],[-80.5968,24.875],[-80.6404,24.8384],[-80.6523,24.8314],[-80.6748,24.8256],[-80.7088,24.8047],[-80.7451,24.7889],[-80.7565,24.7762],[-80.7711,24.766],[-80.793,24.7597],[-80.8125,24.7612],[-80.837,24.75],[-80.8522,24.7489],[-80.8786,24.7252],[-80.8933,24.7165],[-80.9189,24.7131],[-80.9339,24.7022],[-80.9571,24.6928],[-80.9998,24.6689],[-81.0226,24.6653],[-81.0301,24.6546],[-81.0477,24.6402],[-81.0762,24.6334],[-81.0972,24.633],[-81.1248,24.6366],[-81.1409,24.6431],[-81.1477,24.6491],[-81.1694,24.6346],[-81.2043,24.6312],[-81.2207,24.6216],[-81.2399,24.6171],[-81.2498,24.6066],[-81.2646,24.5992],[-81.2935,24.5967],[-81.3558,24.5797],[-81.3748,24.5715],[-81.4206,24.5706],[-81.4372,24.5609],[-81.4651,24.5529],[-81.4834,24.5556],[-81.4947,24.5625],[-81.5146,24.5648],[-81.5279,24.5533],[-81.5194,24.5306],[-81.5199,24.5126],[-81.5257,24.5004],[-81.5286,24.5004],[-81.5399,24.486],[-81.565,24.4728],[-81.5858,24.4711],[-81.5968,24.4611],[-81.6103,24.4543],[-81.6324,24.4512],[-81.6972,24.4323],[-81.7301,24.4307],[-81.7498,24.4385],[-81.7629,24.4496],[-81.7737,24.4727],[-81.7708,24.4969],[-81.7924,24.4956],[-81.7833,24.4787],[-81.7818,24.4609],[-81.789,24.4395],[-81.8007,24.4271],[-81.8135,24.4176],[-81.841,24.4076],[-81.8748,24.4031],[-81.8943,24.4057],[-81.9206,24.3963],[-81.9464,24.3994],[-81.9673,24.412],[-81.9745,24.4208],[-81.9821,24.4455],[-81.9809,24.457],[-81.9744,24.4712],[-82.0235,24.4779],[-82.0343,24.4825],[-82.0511,24.4968],[-82.0582,24.5144],[-82.0672,24.5237],[-82.0793,24.5116],[-82.1003,24.5],[-82.1541,24.4961],[-82.1695,24.4977],[-82.1949,24.507],[-82.2142,24.5274],[-82.2223,24.557],[-82.2209,24.5709],[-82.2155,24.5838],[-82.3265,24.5837],[-82.3115,24.6301],[-82.2824,24.6762],[-82.244,24.7156],[-82.2007,24.7382],[-82.155,24.7469],[-82.1098,24.7471],[-82.0653,24.7394],[-82.027,24.7257],[-82.0006,24.7405],[-81.9675,24.7528],[-81.9227,24.7615],[-81.8943,24.7637],[-81.8142,24.8064],[-81.7782,24.8154],[-81.7619,24.8288],[-81.7008,24.8578],[-81.6601,24.8833],[-81.6216,24.8972],[-81.5813,24.9238],[-81.5156,24.9563],[-81.4885,24.9664],[-81.4055,24.9785],[-81.3762,24.9766],[-81.3504,24.9705],[-81.3235,24.9734],[-81.2874,24.984],[-81.2549,24.9866],[-81.212,24.9803],[-81.1704,24.9621]]],[[[-83.1087,24.6295],[-83.1035,24.658],[-83.0885,24.6921],[-83.0668,24.7198],[-83.0411,24.7409],[-83.0048,24.7645],[-82.9791,24.7761],[-82.9455,24.785],[-82.8689,24.7981],[-82.8014,24.8005],[-82.7757,24.7982],[-82.7399,24.7884],[-82.7098,24.7731],[-82.68,24.7485],[-82.6551,24.7133],[-82.6453,24.6886],[-82.6399,24.6549],[-82.6442,24.6158],[-82.6567,24.5837],[-82.8282,24.5838],[-82.8485,24.5676],[-82.8721,24.5622],[-82.8959,24.5667],[-82.9141,24.576],[-82.9433,24.5689],[-82.9603,24.5715],[-82.982,24.5838],[-82.9997,24.5839],[-82.9999,24.477],[-83.0436,24.4986],[-83.0649,24.5162],[-83.0826,24.5369],[-83.1035,24.58],[-83.1089,24.6111],[-83.1087,24.6295]]]]},"properties":{"name":"CD28","district_number":28,"fips":"12-CD028"}}],"source":"https://services6.arcgis.com/WNLWyVVqYEXv5C4T/arcgis/rest/services/EOGPCRP2026_WFL1/FeatureServer/0"}