{"type":"FeatureCollection","features":[{"type":"Feature","id":"13001","properties":{"name":"Appling","fips":"13001"},"geometry":{"type":"Polygon","coordinates":[[[-82.5214,31.7108],[-82.5203,31.8384],[-82.4314,31.838],[-82.4315,31.9662],[-82.225,31.9131],[-82.1428,31.8993],[-82.0486,31.8271],[-82.133,31.7734],[-82.1328,31.4713],[-82.2266,31.5307],[-82.5214,31.7108]]]}},{"type":"Feature","id":"13003","properties":{"name":"Atkinson","fips":"13003"},"geometry":{"type":"Polygon","coordinates":[[[-82.9712,31.184],[-83.0469,31.1837],[-83.0335,31.2747],[-83.1405,31.4204],[-82.8441,31.4033],[-82.8175,31.3645],[-82.629,31.3639],[-82.6296,31.2747],[-82.6992,31.2781],[-82.6717,31.1837],[-82.9712,31.184]]]}},{"type":"Feature","id":"13005","properties":{"name":"Bacon","fips":"13005"},"geometry":{"type":"Polygon","coordinates":[[[-82.5214,31.7108],[-82.2266,31.5307],[-82.3448,31.4301],[-82.4172,31.4171],[-82.4947,31.4687],[-82.5975,31.4693],[-82.6273,31.6727],[-82.5214,31.6725],[-82.5214,31.7108]]]}},{"type":"Feature","id":"13007","properties":{"name":"Baker","fips":"13007"},"geometry":{"type":"Polygon","coordinates":[[[-84.6376,31.4339],[-84.4299,31.4367],[-84.1411,31.4402],[-84.2007,31.3555],[-84.3406,31.3053],[-84.4043,31.1991],[-84.4833,31.1555],[-84.5081,31.0784],[-84.5427,31.079],[-84.5371,31.2559],[-84.6417,31.259],[-84.6376,31.4339]]]}},{"type":"Feature","id":"13009","properties":{"name":"Baldwin","fips":"13009"},"geometry":{"type":"Polygon","coordinates":[[[-83.1596,33.0028],[-83.3577,32.9261],[-83.3804,32.9981],[-83.415,33.1128],[-83.4291,33.1854],[-83.2741,33.1872],[-83.0975,33.1514],[-83.1008,33.0498],[-83.0522,33.0807],[-83.0736,32.9466],[-83.1596,33.0028]]]}},{"type":"Feature","id":"13011","properties":{"name":"Banks","fips":"13011"},"geometry":{"type":"Polygon","coordinates":[[[-83.3553,34.2237],[-83.3724,34.2059],[-83.4001,34.2005],[-83.4024,34.1975],[-83.4804,34.262],[-83.6201,34.2953],[-83.6695,34.3667],[-83.6153,34.4317],[-83.5375,34.4917],[-83.4598,34.4811],[-83.4136,34.468],[-83.3984,34.4609],[-83.3939,34.3248],[-83.3553,34.2237]]]}},{"type":"Feature","id":"13013","properties":{"name":"Barrow","fips":"13013"},"geometry":{"type":"Polygon","coordinates":[[[-83.647,33.9062],[-83.7638,33.8967],[-83.7991,33.9298],[-83.8691,34.0043],[-83.8177,34.1275],[-83.7675,34.0664],[-83.5632,34.0318],[-83.5374,33.9659],[-83.647,33.9062]]]}},{"type":"Feature","id":"13015","properties":{"name":"Bartow","fips":"13015"},"geometry":{"type":"Polygon","coordinates":[[[-85.0058,34.3924],[-84.8629,34.3966],[-84.6532,34.4126],[-84.6592,34.078],[-84.6726,34.0782],[-84.6739,34.0783],[-84.6749,34.0782],[-84.6764,34.0783],[-84.6828,34.0784],[-84.6847,34.0785],[-84.6872,34.0785],[-84.7219,34.0791],[-84.7226,34.0792],[-84.7292,34.0792],[-84.7378,34.0794],[-84.9227,34.0825],[-85.0469,34.0964],[-85.0058,34.3924]]]}},{"type":"Feature","id":"13017","properties":{"name":"Ben Hill","fips":"13017"},"geometry":{"type":"Polygon","coordinates":[[[-83.1775,31.8479],[-82.9957,31.781],[-82.9984,31.6732],[-83.1764,31.6784],[-83.1772,31.6517],[-83.3256,31.6806],[-83.3253,31.7566],[-83.4536,31.7579],[-83.4802,31.8473],[-83.1775,31.8479]]]}},{"type":"Feature","id":"13019","properties":{"name":"Berrien","fips":"13019"},"geometry":{"type":"Polygon","coordinates":[[[-83.198,31.0254],[-83.2737,31.0267],[-83.2805,31.0266],[-83.2951,31.0273],[-83.3056,31.1672],[-83.4345,31.3504],[-83.3387,31.476],[-83.1461,31.4721],[-83.1456,31.4723],[-83.1459,31.4689],[-83.1508,31.4623],[-83.1505,31.4568],[-83.1449,31.4546],[-83.1386,31.4415],[-83.1394,31.4365],[-83.1359,31.4305],[-83.139,31.4278],[-83.1405,31.4204],[-83.0335,31.2747],[-83.0469,31.1837],[-83.0382,31.1467],[-83.1651,31.1472],[-83.198,31.0254]]]}},{"type":"Feature","id":"13021","properties":{"name":"Bibb","fips":"13021"},"geometry":{"type":"Polygon","coordinates":[[[-83.7107,32.9528],[-83.6582,32.8879],[-83.5135,32.8449],[-83.5026,32.8011],[-83.5977,32.6643],[-83.7012,32.6922],[-83.8244,32.7419],[-83.8919,32.8484],[-83.7107,32.9528]]]}},{"type":"Feature","id":"13023","properties":{"name":"Bleckley","fips":"13023"},"geometry":{"type":"Polygon","coordinates":[[[-83.2265,32.5842],[-83.139,32.4231],[-83.1733,32.4525],[-83.3047,32.342],[-83.3465,32.2725],[-83.498,32.4017],[-83.4826,32.4245],[-83.4979,32.4522],[-83.2265,32.5842]]]}},{"type":"Feature","id":"13025","properties":{"name":"Brantley","fips":"13025"},"geometry":{"type":"Polygon","coordinates":[[[-81.936,31.048],[-82.0609,31.0758],[-82.1317,31.0107],[-82.2083,31.0848],[-82.2087,31.1709],[-82.2846,31.2244],[-82.1948,31.2076],[-82.1001,31.2767],[-82.0068,31.2771],[-82.0411,31.3737],[-81.9232,31.3459],[-81.8011,31.3637],[-81.7317,31.33],[-81.7663,31.1696],[-81.936,31.048]]]}},{"type":"Feature","id":"13027","properties":{"name":"Brooks","fips":"13027"},"geometry":{"type":"Polygon","coordinates":[[[-83.5749,31.0781],[-83.4756,31.032],[-83.4769,31.031],[-83.4738,31.0313],[-83.4733,31.0285],[-83.4723,31.0297],[-83.4708,31.0285],[-83.4683,31.0285],[-83.4716,31.0266],[-83.4713,31.0239],[-83.4678,31.0216],[-83.4659,31.0185],[-83.4668,31.0139],[-83.4643,31.0111],[-83.4637,31.0059],[-83.4613,31.0057],[-83.4604,31.0028],[-83.4581,31.0009],[-83.359,30.8367],[-83.4493,30.818],[-83.4825,30.7569],[-83.3577,30.6374],[-83.3795,30.6387],[-83.3901,30.6393],[-83.4295,30.6415],[-83.4296,30.6415],[-83.44,30.642],[-83.4489,30.6424],[-83.6117,30.6513],[-83.6117,30.6513],[-83.6741,30.6547],[-83.6768,30.6549],[-83.7437,30.6584],[-83.7362,31.0377],[-83.574,31.0339],[-83.5749,31.0781]]]}},{"type":"Feature","id":"13029","properties":{"name":"Bryan","fips":"13029"},"geometry":{"type":"Polygon","coordinates":[[[-81.3917,32.0959],[-81.3235,32.0199],[-81.2855,31.943],[-81.1385,31.8559],[-81.177,31.8161],[-81.1547,31.7262],[-81.1607,31.7281],[-81.1928,31.7332],[-81.1984,31.7261],[-81.3558,31.8149],[-81.4077,31.9443],[-81.4758,31.9743],[-81.5934,31.9714],[-81.6044,32.0109],[-81.7187,32.0894],[-81.7809,32.1529],[-81.4358,32.2413],[-81.3917,32.0959]]]}},{"type":"Feature","id":"13031","properties":{"name":"Bulloch","fips":"13031"},"geometry":{"type":"Polygon","coordinates":[[[-81.7809,32.1529],[-81.8163,32.2375],[-81.9691,32.2688],[-81.9187,32.4154],[-82.0302,32.5388],[-82.0268,32.5552],[-82.0012,32.6069],[-81.841,32.6491],[-81.6896,32.5463],[-81.548,32.4893],[-81.5427,32.4174],[-81.4358,32.2413],[-81.7809,32.1529]]]}},{"type":"Feature","id":"13033","properties":{"name":"Burke","fips":"13033"},"geometry":{"type":"Polygon","coordinates":[[[-81.852,33.2474],[-81.7723,33.1801],[-81.6969,33.1166],[-81.6203,33.0954],[-81.6158,33.0925],[-81.5418,33.0457],[-81.7676,32.9094],[-81.858,32.9539],[-82.0813,32.9168],[-82.145,32.8127],[-82.3165,32.8358],[-82.2724,32.9378],[-82.2912,33.0628],[-82.2326,33.2312],[-82.2676,33.2674],[-82.1742,33.2968],[-82.0882,33.2302],[-81.852,33.2474]]]}},{"type":"Feature","id":"13035","properties":{"name":"Butts","fips":"13035"},"geometry":{"type":"Polygon","coordinates":[[[-83.8631,33.3683],[-83.8141,33.2421],[-83.8223,33.1802],[-84.0415,33.2026],[-84.1238,33.2028],[-84.1026,33.2982],[-84.0427,33.3335],[-84.0446,33.3335],[-84.0446,33.3337],[-83.9239,33.4442],[-83.8631,33.3683]]]}},{"type":"Feature","id":"13037","properties":{"name":"Calhoun","fips":"13037"},"geometry":{"type":"Polygon","coordinates":[[[-84.5469,31.6212],[-84.4504,31.6213],[-84.4504,31.6219],[-84.4299,31.4367],[-84.6376,31.4339],[-84.789,31.4364],[-84.8198,31.5012],[-84.8178,31.6198],[-84.5469,31.6212]]]}},{"type":"Feature","id":"13039","properties":{"name":"Camden","fips":"13039"},"geometry":{"type":"Polygon","coordinates":[[[-81.906,30.8222],[-81.892,30.9605],[-81.936,31.048],[-81.7663,31.1696],[-81.5727,31.0973],[-81.4432,31.0167],[-81.4514,31.0155],[-81.4578,31.0103],[-81.4592,31.0057],[-81.4693,30.996],[-81.4906,30.985],[-81.4937,30.9775],[-81.487,30.9696],[-81.4758,30.966],[-81.4723,30.9699],[-81.4668,30.9709],[-81.4536,30.9656],[-81.4474,30.9567],[-81.4269,30.9566],[-81.4201,30.9741],[-81.4158,30.9772],[-81.4085,30.9777],[-81.4034,30.9579],[-81.4052,30.9082],[-81.4286,30.8363],[-81.4308,30.8312],[-81.4401,30.8214],[-81.4469,30.8104],[-81.4553,30.7909],[-81.4601,30.7699],[-81.4611,30.7537],[-81.4595,30.742],[-81.4494,30.7156],[-81.4441,30.7097],[-81.5446,30.7126],[-81.6062,30.7181],[-81.6243,30.7362],[-81.6372,30.7338],[-81.7199,30.7446],[-81.7326,30.7499],[-81.7413,30.7627],[-81.7593,30.7714],[-81.8067,30.7897],[-81.827,30.7889],[-81.8404,30.7864],[-81.8686,30.7928],[-81.906,30.8222]]]}},{"type":"Feature","id":"13043","properties":{"name":"Candler","fips":"13043"},"geometry":{"type":"Polygon","coordinates":[[[-81.9691,32.2688],[-81.9998,32.2762],[-82.0253,32.2789],[-82.2328,32.3188],[-82.2528,32.3533],[-82.1483,32.5204],[-82.0302,32.5388],[-81.9187,32.4154],[-81.9691,32.2688]]]}},{"type":"Feature","id":"13045","properties":{"name":"Carroll","fips":"13045"},"geometry":{"type":"Polygon","coordinates":[[[-85.338,33.6531],[-85.0509,33.7146],[-85.0379,33.8119],[-84.9186,33.7863],[-84.9017,33.7807],[-84.9025,33.6611],[-84.9058,33.5734],[-84.8089,33.5741],[-84.8507,33.5115],[-85.0154,33.4255],[-85.2939,33.4281],[-85.3044,33.4829],[-85.314,33.5298],[-85.3141,33.5302],[-85.315,33.5359],[-85.3225,33.5742],[-85.338,33.6531]]]}},{"type":"Feature","id":"13047","properties":{"name":"Catoosa","fips":"13047"},"geometry":{"type":"Polygon","coordinates":[[[-85.1448,34.7676],[-85.2019,34.7751],[-85.2022,34.8545],[-85.2648,34.8543],[-85.2651,34.9851],[-85.255,34.9852],[-85.2356,34.9855],[-85.2304,34.9855],[-85.2219,34.9855],[-85.2206,34.9856],[-85.2179,34.9857],[-85.2166,34.9857],[-85.1859,34.986],[-85.1806,34.9861],[-85.0452,34.9869],[-85.0451,34.9869],[-84.9799,34.9876],[-85.0616,34.8195],[-85.1448,34.7676]]]}},{"type":"Feature","id":"13049","properties":{"name":"Charlton","fips":"13049"},"geometry":{"type":"Polygon","coordinates":[[[-82.1317,31.0107],[-82.0609,31.0758],[-81.936,31.048],[-81.892,30.9605],[-81.906,30.8222],[-81.9998,30.7883],[-82.0232,30.782],[-82.0504,30.6763],[-82.0494,30.6553],[-82.0376,30.6333],[-82.0133,30.5957],[-82.0055,30.5635],[-82.017,30.5194],[-82.0161,30.4974],[-82.05,30.3625],[-82.0501,30.3623],[-82.1248,30.3666],[-82.1652,30.358],[-82.1715,30.3599],[-82.1896,30.3762],[-82.2042,30.4013],[-82.2103,30.4246],[-82.206,30.4555],[-82.2123,30.4996],[-82.2144,30.567],[-82.2148,30.567],[-82.1499,30.7843],[-82.4204,30.7952],[-82.4156,31.0136],[-82.1317,31.0107]]]}},{"type":"Feature","id":"13051","properties":{"name":"Chatham","fips":"13051"},"geometry":{"type":"Polygon","coordinates":[[[-81.0041,32.0722],[-80.8855,32.0346],[-80.8591,32.0237],[-80.8523,32.0267],[-80.8431,32.0242],[-80.8405,32.0113],[-80.8419,32.0026],[-80.8484,31.9883],[-80.8628,31.9693],[-80.8828,31.9591],[-80.8977,31.9491],[-80.9112,31.9438],[-80.9291,31.945],[-80.9303,31.9567],[-80.9485,31.9572],[-80.9724,31.9413],[-80.9757,31.9236],[-80.9685,31.9158],[-80.9545,31.9118],[-80.9414,31.913],[-80.9345,31.9092],[-80.9473,31.8962],[-80.9714,31.8779],[-80.9927,31.8576],[-81.0003,31.8567],[-81.0145,31.8675],[-81.0415,31.8762],[-81.0653,31.8771],[-81.0586,31.8578],[-81.0591,31.8501],[-81.0628,31.8447],[-81.0762,31.8361],[-81.0758,31.829],[-81.0572,31.8227],[-81.0509,31.8224],[-81.0479,31.8249],[-81.0398,31.823],[-81.037,31.8196],[-81.0369,31.8127],[-81.0473,31.8029],[-81.0681,31.7687],[-81.0771,31.7613],[-81.0974,31.7531],[-81.1306,31.7227],[-81.1384,31.7209],[-81.1547,31.7262],[-81.177,31.8161],[-81.1385,31.8559],[-81.2855,31.943],[-81.3235,32.0199],[-81.3917,32.0959],[-81.1956,32.2375],[-81.1255,32.2271],[-81.122,32.1618],[-81.1172,32.1176],[-81.1133,32.1132],[-81.0619,32.0879],[-81.0428,32.0845],[-81.0041,32.0722]]]}},{"type":"Feature","id":"13053","properties":{"name":"Chattahoochee","fips":"13053"},"geometry":{"type":"Polygon","coordinates":[[[-84.9236,32.2315],[-84.9216,32.2333],[-84.9091,32.2635],[-84.9166,32.2812],[-84.9387,32.3007],[-85.0019,32.322],[-85.0071,32.3284],[-85.0081,32.3367],[-84.9874,32.3812],[-84.9873,32.3816],[-84.8487,32.4146],[-84.8442,32.4132],[-84.8344,32.4132],[-84.824,32.414],[-84.8146,32.4144],[-84.8114,32.4186],[-84.8094,32.4209],[-84.8052,32.4189],[-84.7986,32.416],[-84.7915,32.4148],[-84.7885,32.418],[-84.783,32.4217],[-84.7816,32.4229],[-84.7784,32.4231],[-84.7746,32.4218],[-84.7694,32.4223],[-84.6945,32.5187],[-84.6863,32.5196],[-84.6782,32.5189],[-84.6617,32.5291],[-84.658,32.5288],[-84.649,32.535],[-84.6373,32.5349],[-84.6573,32.4949],[-84.6589,32.2329],[-84.9236,32.2315]]]}},{"type":"Feature","id":"13055","properties":{"name":"Chattooga","fips":"13055"},"geometry":{"type":"Polygon","coordinates":[[[-85.5137,34.5241],[-85.5137,34.5242],[-85.5139,34.5252],[-85.5271,34.5887],[-85.1077,34.5875],[-85.1805,34.436],[-85.3349,34.3697],[-85.3874,34.2861],[-85.4623,34.2864],[-85.5023,34.474],[-85.5025,34.4745],[-85.5084,34.5012],[-85.5121,34.5183],[-85.5137,34.5241]]]}},{"type":"Feature","id":"13057","properties":{"name":"Cherokee","fips":"13057"},"geometry":{"type":"Polygon","coordinates":[[[-84.2581,34.3352],[-84.2587,34.1859],[-84.3283,34.1861],[-84.4189,34.0733],[-84.522,34.0754],[-84.6592,34.078],[-84.6532,34.4126],[-84.5826,34.3815],[-84.2576,34.381],[-84.2577,34.3751],[-84.2578,34.3726],[-84.2581,34.3352]]]}},{"type":"Feature","id":"13059","properties":{"name":"Clarke","fips":"13059"},"geometry":{"type":"Polygon","coordinates":[[[-83.36,34.0406],[-83.2584,33.9991],[-83.2409,33.9044],[-83.2759,33.848],[-83.5374,33.9659],[-83.36,34.0406]]]}},{"type":"Feature","id":"13061","properties":{"name":"Clay","fips":"13061"},"geometry":{"type":"Polygon","coordinates":[[[-84.8178,31.6198],[-84.8198,31.5012],[-85.0292,31.4861],[-85.0469,31.5175],[-85.0413,31.541],[-85.0575,31.6186],[-85.0595,31.6217],[-85.0652,31.6244],[-85.087,31.641],[-85.1255,31.695],[-85.1265,31.7168],[-85.1222,31.7228],[-85.1189,31.7327],[-85.1245,31.7631],[-85.1252,31.7671],[-85.1307,31.7723],[-85.1387,31.7804],[-84.9586,31.7779],[-84.9424,31.6187],[-84.8178,31.6198]]]}},{"type":"Feature","id":"13063","properties":{"name":"Clayton","fips":"13063"},"geometry":{"type":"Polygon","coordinates":[[[-84.3881,33.3525],[-84.3818,33.4634],[-84.4587,33.5509],[-84.4586,33.5562],[-84.4589,33.5598],[-84.4589,33.5659],[-84.4586,33.5721],[-84.4584,33.5727],[-84.4586,33.5865],[-84.4585,33.6086],[-84.4577,33.6489],[-84.3653,33.6478],[-84.3602,33.6479],[-84.3502,33.6479],[-84.2826,33.647],[-84.2813,33.6474],[-84.2835,33.5025],[-84.3536,33.4362],[-84.3544,33.3525],[-84.3881,33.3525]]]}},{"type":"Feature","id":"13065","properties":{"name":"Clinch","fips":"13065"},"geometry":{"type":"Polygon","coordinates":[[[-82.4598,30.5843],[-82.5249,30.5882],[-82.5362,30.5889],[-82.5451,30.5894],[-82.5532,30.5899],[-82.5655,30.5906],[-82.5692,30.591],[-82.584,30.5918],[-82.604,30.7137],[-82.7662,30.7324],[-82.8464,30.835],[-82.9713,30.8694],[-82.9712,31.184],[-82.6717,31.1837],[-82.5921,31.0185],[-82.4906,30.9632],[-82.4955,30.8196],[-82.4359,30.8201],[-82.4189,30.5817],[-82.4595,30.5843],[-82.4598,30.5843]]]}},{"type":"Feature","id":"13067","properties":{"name":"Cobb","fips":"13067"},"geometry":{"type":"Polygon","coordinates":[[[-84.7244,33.8819],[-84.7378,34.0794],[-84.7292,34.0792],[-84.7226,34.0792],[-84.7219,34.0791],[-84.6872,34.0785],[-84.6847,34.0785],[-84.6828,34.0784],[-84.6764,34.0783],[-84.6749,34.0782],[-84.6739,34.0783],[-84.6726,34.0782],[-84.6592,34.078],[-84.522,34.0754],[-84.4189,34.0733],[-84.383,33.9638],[-84.4427,33.9015],[-84.4801,33.8173],[-84.5781,33.7435],[-84.6199,33.805],[-84.7241,33.8062],[-84.724,33.8153],[-84.7252,33.817],[-84.725,33.8199],[-84.7244,33.8819]]]}},{"type":"Feature","id":"13069","properties":{"name":"Coffee","fips":"13069"},"geometry":{"type":"Polygon","coordinates":[[[-82.6273,31.6727],[-82.5975,31.4693],[-82.6282,31.4694],[-82.629,31.3639],[-82.8175,31.3645],[-82.8441,31.4033],[-83.1405,31.4204],[-83.139,31.4278],[-83.1359,31.4305],[-83.1394,31.4365],[-83.1386,31.4415],[-83.1449,31.4546],[-83.1505,31.4568],[-83.1508,31.4623],[-83.1459,31.4689],[-83.1456,31.4723],[-82.9984,31.6732],[-82.9957,31.781],[-82.8631,31.783],[-82.8364,31.8162],[-82.8366,31.6714],[-82.6273,31.6727]]]}},{"type":"Feature","id":"13071","properties":{"name":"Colquitt","fips":"13071"},"geometry":{"type":"Polygon","coordinates":[[[-83.9994,31.335],[-83.6541,31.3307],[-83.5126,31.3274],[-83.5098,31.2062],[-83.5749,31.0781],[-83.574,31.0339],[-83.7362,31.0377],[-84.0039,31.0416],[-84.0036,31.0773],[-83.9994,31.335]]]}},{"type":"Feature","id":"13073","properties":{"name":"Columbia","fips":"13073"},"geometry":{"type":"Polygon","coordinates":[[[-82.1166,33.5897],[-82.0988,33.5864],[-82.069,33.5754],[-82.0463,33.5638],[-82.0282,33.5449],[-82.2942,33.3546],[-82.4368,33.5497],[-82.4253,33.6506],[-82.3064,33.7006],[-82.2186,33.6863],[-82.1966,33.6306],[-82.1799,33.6159],[-82.135,33.591],[-82.1291,33.5899],[-82.1248,33.5913],[-82.1166,33.5897]]]}},{"type":"Feature","id":"13075","properties":{"name":"Cook","fips":"13075"},"geometry":{"type":"Polygon","coordinates":[[[-83.2951,31.0273],[-83.4756,31.032],[-83.5749,31.0781],[-83.5098,31.2062],[-83.5126,31.3274],[-83.4606,31.3263],[-83.4345,31.3504],[-83.3056,31.1672],[-83.2951,31.0273]]]}},{"type":"Feature","id":"13077","properties":{"name":"Coweta","fips":"13077"},"geometry":{"type":"Polygon","coordinates":[[[-84.939,33.2247],[-85.0154,33.4255],[-84.8507,33.5115],[-84.6095,33.5025],[-84.6272,33.4401],[-84.4975,33.2574],[-84.5089,33.2452],[-84.5003,33.2334],[-84.5024,33.2211],[-84.8524,33.2236],[-84.8624,33.1912],[-84.939,33.2247]]]}},{"type":"Feature","id":"13079","properties":{"name":"Crawford","fips":"13079"},"geometry":{"type":"Polygon","coordinates":[[[-83.7011,32.6916],[-83.7668,32.6926],[-84.0034,32.5299],[-84.105,32.6734],[-84.2026,32.69],[-84.1243,32.8496],[-83.8919,32.8484],[-83.8244,32.7419],[-83.7012,32.6922],[-83.7011,32.6916]]]}},{"type":"Feature","id":"13081","properties":{"name":"Crisp","fips":"13081"},"geometry":{"type":"Polygon","coordinates":[[[-83.9613,32.0306],[-83.6097,32.0279],[-83.6123,31.8541],[-83.6126,31.8041],[-83.8022,31.8035],[-83.9394,31.8479],[-83.9382,31.8495],[-83.9378,31.8548],[-83.9367,31.858],[-83.9323,31.8592],[-83.9265,31.8633],[-83.9287,31.8718],[-83.9312,31.877],[-83.9341,31.8814],[-83.9321,31.8846],[-83.9287,31.8869],[-83.9323,31.8938],[-83.932,31.8988],[-83.9274,31.9041],[-83.9251,31.9057],[-83.9225,31.9097],[-83.9613,32.0306]]]}},{"type":"Feature","id":"13083","properties":{"name":"Dade","fips":"13083"},"geometry":{"type":"Polygon","coordinates":[[[-85.6052,34.9847],[-85.4745,34.984],[-85.3639,34.9834],[-85.4506,34.8317],[-85.4504,34.7592],[-85.5344,34.6238],[-85.5413,34.6567],[-85.5413,34.6568],[-85.5525,34.7081],[-85.5525,34.7083],[-85.5831,34.8604],[-85.5952,34.9242],[-85.5952,34.9243],[-85.6052,34.9847]]]}},{"type":"Feature","id":"13085","properties":{"name":"Dawson","fips":"13085"},"geometry":{"type":"Polygon","coordinates":[[[-84.2581,34.3352],[-84.2578,34.3726],[-84.2577,34.3751],[-84.2576,34.381],[-84.2569,34.4673],[-84.3197,34.4679],[-84.3456,34.5627],[-84.2551,34.5683],[-84.1968,34.6179],[-84.189,34.6081],[-84.1886,34.6027],[-84.191,34.5392],[-84.102,34.4645],[-83.9806,34.4184],[-83.9571,34.334],[-84.2581,34.3352]]]}},{"type":"Feature","id":"13089","properties":{"name":"DeKalb","fips":"13089"},"geometry":{"type":"Polygon","coordinates":[[[-84.2541,33.647],[-84.2813,33.6474],[-84.2826,33.647],[-84.3502,33.6479],[-84.3498,33.664],[-84.3483,33.8525],[-84.3481,33.8577],[-84.3482,33.8595],[-84.3485,33.8619],[-84.3481,33.8649],[-84.3483,33.8679],[-84.3481,33.8792],[-84.3484,33.8819],[-84.3482,33.8929],[-84.3482,33.9048],[-84.348,33.9183],[-84.3478,33.9189],[-84.3479,33.927],[-84.3478,33.938],[-84.2768,33.9577],[-84.2757,33.9542],[-84.2719,33.9559],[-84.2663,33.9476],[-84.2722,33.9449],[-84.2653,33.9326],[-84.259,33.9188],[-84.256,33.9144],[-84.2504,33.9108],[-84.2322,33.902],[-84.2166,33.885],[-84.2047,33.877],[-84.2035,33.873],[-84.187,33.8655],[-84.1794,33.8644],[-84.1721,33.8575],[-84.0237,33.7528],[-84.0566,33.7266],[-84.1043,33.636],[-84.1841,33.6462],[-84.224,33.6466],[-84.2242,33.6307],[-84.2455,33.6307],[-84.2541,33.647]]]}},{"type":"Feature","id":"13087","properties":{"name":"Decatur","fips":"13087"},"geometry":{"type":"Polygon","coordinates":[[[-84.5081,31.0784],[-84.3766,31.0789],[-84.3807,30.6897],[-84.535,30.6965],[-84.5394,30.6968],[-84.6062,30.6999],[-84.6064,30.6999],[-84.8635,30.7115],[-84.7559,30.8853],[-84.7309,31.0692],[-84.5427,31.079],[-84.5081,31.0784]]]}},{"type":"Feature","id":"13091","properties":{"name":"Dodge","fips":"13091"},"geometry":{"type":"Polygon","coordinates":[[[-83.3465,32.2725],[-83.3047,32.342],[-83.1733,32.4525],[-83.139,32.4231],[-82.991,32.1473],[-82.8848,32.1961],[-82.8718,32.1827],[-82.9279,32.1353],[-82.9346,32.1533],[-82.9555,32.1353],[-82.9421,32.1241],[-83.2057,31.9003],[-83.2921,31.9845],[-83.3373,32.1059],[-83.2911,32.1788],[-83.3465,32.2725]]]}},{"type":"Feature","id":"13093","properties":{"name":"Dooly","fips":"13093"},"geometry":{"type":"Polygon","coordinates":[[[-84.0279,32.1711],[-83.9651,32.248],[-83.8484,32.291],[-83.6156,32.2886],[-83.6085,32.1184],[-83.6084,32.1165],[-83.6097,32.0279],[-83.9613,32.0306],[-84.0279,32.1711]]]}},{"type":"Feature","id":"13095","properties":{"name":"Dougherty","fips":"13095"},"geometry":{"type":"Polygon","coordinates":[[[-84.4504,31.6219],[-84.2978,31.622],[-84.0432,31.6236],[-84.0184,31.6503],[-83.9826,31.4635],[-83.9977,31.4628],[-83.9978,31.4438],[-84.1411,31.4402],[-84.4299,31.4367],[-84.4504,31.6219]]]}},{"type":"Feature","id":"13097","properties":{"name":"Douglas","fips":"13097"},"geometry":{"type":"Polygon","coordinates":[[[-84.7699,33.7847],[-84.7413,33.7886],[-84.7255,33.7886],[-84.7241,33.7914],[-84.7241,33.8062],[-84.6199,33.805],[-84.5781,33.7435],[-84.5868,33.7291],[-84.5943,33.729],[-84.6017,33.7244],[-84.608,33.7129],[-84.6212,33.7045],[-84.6321,33.7003],[-84.6301,33.6931],[-84.7527,33.6302],[-84.7631,33.6142],[-84.7756,33.6097],[-84.8057,33.5864],[-84.8089,33.5741],[-84.9058,33.5734],[-84.9025,33.6611],[-84.9017,33.7807],[-84.8792,33.7748],[-84.8327,33.776],[-84.8327,33.7785],[-84.7999,33.7799],[-84.7951,33.7798],[-84.792,33.7812],[-84.7699,33.7847]]]}},{"type":"Feature","id":"13099","properties":{"name":"Early","fips":"13099"},"geometry":{"type":"Polygon","coordinates":[[[-85.0469,31.5175],[-85.0292,31.4861],[-84.8198,31.5012],[-84.789,31.4364],[-84.6376,31.4339],[-84.6417,31.259],[-84.9174,31.256],[-84.9224,31.0726],[-84.9999,31.0747],[-85.0019,31.075],[-85.0221,31.0755],[-85.0297,31.0962],[-85.0356,31.1082],[-85.0766,31.1569],[-85.0836,31.1596],[-85.0921,31.1603],[-85.1002,31.1655],[-85.1075,31.1865],[-85.1119,31.2584],[-85.1016,31.2834],[-85.0877,31.3087],[-85.0681,31.4276],[-85.0469,31.5175]]]}},{"type":"Feature","id":"13101","properties":{"name":"Echols","fips":"13101"},"geometry":{"type":"Polygon","coordinates":[[[-83.1366,30.6243],[-83.1362,30.7752],[-83.0881,30.8487],[-83.0194,30.8495],[-83.014,30.8447],[-83.0066,30.8595],[-82.9939,30.8608],[-82.9822,30.8722],[-82.9713,30.8694],[-82.8464,30.835],[-82.7662,30.7324],[-82.604,30.7137],[-82.584,30.5918],[-82.6893,30.5977],[-82.6895,30.5977],[-82.6986,30.5982],[-82.6989,30.5983],[-82.8773,30.609],[-82.8788,30.6091],[-83.1366,30.6243]]]}},{"type":"Feature","id":"13103","properties":{"name":"Effingham","fips":"13103"},"geometry":{"type":"Polygon","coordinates":[[[-81.3482,32.5693],[-81.3288,32.5612],[-81.3183,32.5597],[-81.2868,32.5448],[-81.2754,32.5395],[-81.199,32.4673],[-81.168,32.3684],[-81.1409,32.3494],[-81.1343,32.3417],[-81.1223,32.3054],[-81.1203,32.2858],[-81.128,32.2763],[-81.1255,32.2271],[-81.1956,32.2375],[-81.3917,32.0959],[-81.4358,32.2413],[-81.5427,32.4174],[-81.548,32.4893],[-81.5386,32.5091],[-81.3893,32.5954],[-81.3482,32.5693]]]}},{"type":"Feature","id":"13105","properties":{"name":"Elbert","fips":"13105"},"geometry":{"type":"Polygon","coordinates":[[[-82.7415,34.2087],[-82.7319,34.1784],[-82.7175,34.1505],[-82.7041,34.141],[-82.6773,34.1317],[-82.6681,34.1202],[-82.6591,34.1035],[-82.6586,34.1031],[-82.654,34.1003],[-82.6522,34.0997],[-82.6413,34.0889],[-82.6407,34.0883],[-82.5971,34.0124],[-82.5646,33.9558],[-82.5645,33.9557],[-82.6455,33.9842],[-82.7795,33.9711],[-82.9763,34.0432],[-83.1021,34.1738],[-83.078,34.2236],[-82.9809,34.2115],[-82.7661,34.2935],[-82.755,34.2761],[-82.742,34.2302],[-82.7435,34.2273],[-82.7444,34.2249],[-82.7419,34.2101],[-82.7415,34.2087]]]}},{"type":"Feature","id":"13107","properties":{"name":"Emanuel","fips":"13107"},"geometry":{"type":"Polygon","coordinates":[[[-82.6477,32.5125],[-82.5944,32.5792],[-82.4651,32.6468],[-82.4994,32.6863],[-82.4341,32.7623],[-82.3165,32.8358],[-82.145,32.8127],[-82.0824,32.6631],[-82.0012,32.6069],[-82.0268,32.5552],[-82.0302,32.5388],[-82.1483,32.5204],[-82.2528,32.3533],[-82.2328,32.3188],[-82.3545,32.2922],[-82.4091,32.3538],[-82.3819,32.4406],[-82.4889,32.4918],[-82.6477,32.5125]]]}},{"type":"Feature","id":"13109","properties":{"name":"Evans","fips":"13109"},"geometry":{"type":"Polygon","coordinates":[[[-81.9691,32.2688],[-81.8163,32.2375],[-81.7809,32.1529],[-81.7187,32.0894],[-81.7617,32.0479],[-81.98,32.0815],[-82.0253,32.2789],[-81.9998,32.2762],[-81.9691,32.2688]]]}},{"type":"Feature","id":"13111","properties":{"name":"Fannin","fips":"13111"},"geometry":{"type":"Polygon","coordinates":[[[-84.6215,34.9883],[-84.5099,34.988],[-84.5091,34.988],[-84.3949,34.988],[-84.3939,34.9881],[-84.3219,34.9884],[-84.1296,34.9875],[-84.1295,34.9875],[-84.1787,34.9465],[-84.1074,34.8869],[-84.0932,34.8014],[-84.158,34.6482],[-84.1886,34.6027],[-84.189,34.6081],[-84.1968,34.6179],[-84.3147,34.8073],[-84.4291,34.855],[-84.6186,34.8554],[-84.6215,34.9883]]]}},{"type":"Feature","id":"13113","properties":{"name":"Fayette","fips":"13113"},"geometry":{"type":"Polygon","coordinates":[[[-84.4975,33.2574],[-84.6272,33.4401],[-84.6095,33.5025],[-84.4587,33.5509],[-84.3818,33.4634],[-84.3881,33.3525],[-84.4329,33.2565],[-84.4975,33.2574]]]}},{"type":"Feature","id":"13115","properties":{"name":"Floyd","fips":"13115"},"geometry":{"type":"Polygon","coordinates":[[[-85.0692,34.5872],[-85.0868,34.4013],[-85.0058,34.3924],[-85.0469,34.0964],[-85.2576,34.1007],[-85.4217,34.0808],[-85.4551,34.2507],[-85.4554,34.2529],[-85.4581,34.2657],[-85.4587,34.2694],[-85.4623,34.2864],[-85.3874,34.2861],[-85.3349,34.3697],[-85.1805,34.436],[-85.1077,34.5875],[-85.0692,34.5872]]]}},{"type":"Feature","id":"13117","properties":{"name":"Forsyth","fips":"13117"},"geometry":{"type":"Polygon","coordinates":[[[-84.2581,34.3352],[-83.9571,34.334],[-83.9273,34.2794],[-83.9891,34.1957],[-84.0628,34.1679],[-84.0746,34.1637],[-84.0948,34.1317],[-84.1013,34.1063],[-84.1026,34.1038],[-84.1054,34.1022],[-84.1071,34.1],[-84.1099,34.0984],[-84.1178,34.0653],[-84.0977,34.0507],[-84.2004,34.0901],[-84.2589,34.1095],[-84.2587,34.1859],[-84.2581,34.3352]]]}},{"type":"Feature","id":"13119","properties":{"name":"Franklin","fips":"13119"},"geometry":{"type":"Polygon","coordinates":[[[-83.3553,34.2237],[-83.3939,34.3248],[-83.3984,34.4609],[-83.1778,34.477],[-83.1069,34.5341],[-83.0872,34.5159],[-83.0727,34.5043],[-83.0522,34.4931],[-83.0942,34.4159],[-83.1134,34.2735],[-83.1727,34.2385],[-83.2973,34.2646],[-83.3553,34.2237]]]}},{"type":"Feature","id":"13121","properties":{"name":"Fulton","fips":"13121"},"geometry":{"type":"Polygon","coordinates":[[[-84.7527,33.6302],[-84.6301,33.6931],[-84.6321,33.7003],[-84.6212,33.7045],[-84.608,33.7129],[-84.6017,33.7244],[-84.5943,33.729],[-84.5868,33.7291],[-84.5781,33.7435],[-84.4801,33.8173],[-84.4427,33.9015],[-84.383,33.9638],[-84.4189,34.0733],[-84.3283,34.1861],[-84.2587,34.1859],[-84.2589,34.1095],[-84.2004,34.0901],[-84.0977,34.0507],[-84.2768,33.9577],[-84.3478,33.938],[-84.3479,33.927],[-84.3478,33.9189],[-84.348,33.9183],[-84.3482,33.9048],[-84.3482,33.8929],[-84.3484,33.8819],[-84.3481,33.8792],[-84.3483,33.8679],[-84.3481,33.8649],[-84.3485,33.8619],[-84.3482,33.8595],[-84.3481,33.8577],[-84.3483,33.8525],[-84.3498,33.664],[-84.3502,33.6479],[-84.3602,33.6479],[-84.3653,33.6478],[-84.4577,33.6489],[-84.4585,33.6086],[-84.4586,33.5865],[-84.4584,33.5727],[-84.4586,33.5721],[-84.4589,33.5659],[-84.4589,33.5598],[-84.4586,33.5562],[-84.4587,33.5509],[-84.6095,33.5025],[-84.8507,33.5115],[-84.8089,33.5741],[-84.8057,33.5864],[-84.7756,33.6097],[-84.7631,33.6142],[-84.7527,33.6302]]]}},{"type":"Feature","id":"13123","properties":{"name":"Gilmer","fips":"13123"},"geometry":{"type":"Polygon","coordinates":[[[-84.6544,34.5489],[-84.6545,34.5832],[-84.6571,34.7289],[-84.5823,34.8251],[-84.6186,34.8554],[-84.4291,34.855],[-84.3147,34.8073],[-84.1968,34.6179],[-84.2551,34.5683],[-84.3456,34.5627],[-84.6544,34.5489]]]}},{"type":"Feature","id":"13125","properties":{"name":"Glascock","fips":"13125"},"geometry":{"type":"Polygon","coordinates":[[[-82.432,33.2748],[-82.6619,33.1263],[-82.7483,33.2383],[-82.7472,33.2477],[-82.7558,33.2534],[-82.5598,33.3273],[-82.432,33.2748]]]}},{"type":"Feature","id":"13127","properties":{"name":"Glynn","fips":"13127"},"geometry":{"type":"Polygon","coordinates":[[[-81.4432,31.0167],[-81.5727,31.0973],[-81.7663,31.1696],[-81.7317,31.33],[-81.692,31.4005],[-81.6243,31.453],[-81.4359,31.3133],[-81.2699,31.2945],[-81.2747,31.2895],[-81.2769,31.2547],[-81.2828,31.2443],[-81.2891,31.2255],[-81.2884,31.2111],[-81.2934,31.2063],[-81.305,31.2062],[-81.3142,31.2079],[-81.339,31.1869],[-81.3549,31.1672],[-81.3608,31.1559],[-81.3593,31.1492],[-81.3682,31.1365],[-81.3868,31.1332],[-81.3997,31.1341],[-81.4021,31.1254],[-81.4037,31.1071],[-81.4012,31.0861],[-81.4013,31.0728],[-81.4151,31.0267],[-81.4205,31.0167],[-81.4247,31.0137],[-81.4325,31.013],[-81.4347,31.0146],[-81.4349,31.0178],[-81.4432,31.0167]]]}},{"type":"Feature","id":"13129","properties":{"name":"Gordon","fips":"13129"},"geometry":{"type":"Polygon","coordinates":[[[-84.6545,34.5832],[-84.6544,34.5489],[-84.6532,34.4126],[-84.8629,34.3966],[-85.0058,34.3924],[-85.0868,34.4013],[-85.0692,34.5872],[-85.0605,34.5872],[-85.0604,34.6225],[-85.0552,34.6224],[-85.0551,34.6224],[-85.0504,34.6225],[-84.9135,34.6341],[-84.8638,34.6086],[-84.7165,34.6229],[-84.6545,34.5832]]]}},{"type":"Feature","id":"13131","properties":{"name":"Grady","fips":"13131"},"geometry":{"type":"Polygon","coordinates":[[[-84.3807,30.6897],[-84.3766,31.0789],[-84.1166,31.078],[-84.1191,30.981],[-84.077,30.9156],[-84.0838,30.676],[-84.2812,30.6853],[-84.2826,30.6853],[-84.3807,30.6897]]]}},{"type":"Feature","id":"13133","properties":{"name":"Greene","fips":"13133"},"geometry":{"type":"Polygon","coordinates":[[[-83.1642,33.355],[-83.2799,33.4834],[-83.2692,33.5332],[-83.4062,33.6983],[-83.2803,33.7618],[-83.1187,33.6988],[-82.9956,33.6936],[-82.9511,33.658],[-83.014,33.5804],[-83.0129,33.4692],[-83.1642,33.355]]]}},{"type":"Feature","id":"13135","properties":{"name":"Gwinnett","fips":"13135"},"geometry":{"type":"Polygon","coordinates":[[[-84.1099,34.0984],[-84.1071,34.1],[-84.1054,34.1022],[-84.1026,34.1038],[-84.1013,34.1063],[-84.0948,34.1317],[-84.0746,34.1637],[-84.0628,34.1679],[-83.868,34.0983],[-83.8177,34.1275],[-83.8691,34.0043],[-83.7991,33.9298],[-83.982,33.7861],[-83.9846,33.7843],[-84.0237,33.7528],[-84.1721,33.8575],[-84.1794,33.8644],[-84.187,33.8655],[-84.2035,33.873],[-84.2047,33.877],[-84.2166,33.885],[-84.2322,33.902],[-84.2504,33.9108],[-84.256,33.9144],[-84.259,33.9188],[-84.2653,33.9326],[-84.2722,33.9449],[-84.2663,33.9476],[-84.2719,33.9559],[-84.2757,33.9542],[-84.2768,33.9577],[-84.0977,34.0507],[-84.1178,34.0653],[-84.1099,34.0984]]]}},{"type":"Feature","id":"13137","properties":{"name":"Habersham","fips":"13137"},"geometry":{"type":"Polygon","coordinates":[[[-83.3525,34.716],[-83.3514,34.7145],[-83.351,34.7132],[-83.3513,34.7017],[-83.3382,34.6879],[-83.3379,34.6877],[-83.4598,34.4811],[-83.5375,34.4917],[-83.6153,34.4317],[-83.6664,34.5036],[-83.6155,34.5529],[-83.6628,34.6598],[-83.6233,34.7322],[-83.6816,34.8006],[-83.6669,34.8065],[-83.6579,34.8137],[-83.6522,34.823],[-83.5869,34.82],[-83.549,34.7495],[-83.3524,34.7161],[-83.3525,34.716]]]}},{"type":"Feature","id":"13139","properties":{"name":"Hall","fips":"13139"},"geometry":{"type":"Polygon","coordinates":[[[-84.0628,34.1679],[-83.9891,34.1957],[-83.9273,34.2794],[-83.9571,34.334],[-83.9806,34.4184],[-83.8434,34.5055],[-83.6664,34.5036],[-83.6153,34.4317],[-83.6695,34.3667],[-83.6201,34.2953],[-83.8177,34.1275],[-83.868,34.0983],[-84.0628,34.1679]]]}},{"type":"Feature","id":"13141","properties":{"name":"Hancock","fips":"13141"},"geometry":{"type":"Polygon","coordinates":[[[-83.0522,33.0807],[-83.1008,33.0498],[-83.0975,33.1514],[-83.2741,33.1872],[-83.2535,33.2593],[-83.1458,33.3121],[-83.1642,33.355],[-83.0129,33.4692],[-82.852,33.4435],[-82.7558,33.2534],[-82.7472,33.2477],[-82.7483,33.2383],[-82.855,33.1964],[-82.8889,33.1386],[-83.0522,33.0807]]]}},{"type":"Feature","id":"13143","properties":{"name":"Haralson","fips":"13143"},"geometry":{"type":"Polygon","coordinates":[[[-85.3867,33.9017],[-85.0503,33.9045],[-85.0367,33.9043],[-85.0379,33.8119],[-85.0509,33.7146],[-85.338,33.6531],[-85.3605,33.768],[-85.3618,33.774],[-85.3867,33.9017]]]}},{"type":"Feature","id":"13145","properties":{"name":"Harris","fips":"13145"},"geometry":{"type":"Polygon","coordinates":[[[-85.132,32.7642],[-85.1234,32.7722],[-85.1841,32.8705],[-84.8618,32.8725],[-84.7005,32.8446],[-84.6946,32.5839],[-84.9079,32.5834],[-84.9077,32.6076],[-85.0825,32.607],[-85.1048,32.6425],[-85.1147,32.6856],[-85.1371,32.7452],[-85.1368,32.7465],[-85.132,32.7642]]]}},{"type":"Feature","id":"13147","properties":{"name":"Hart","fips":"13147"},"geometry":{"type":"Polygon","coordinates":[[[-82.9922,34.4792],[-82.9796,34.4827],[-82.9391,34.4862],[-82.9027,34.4859],[-82.8829,34.479],[-82.8738,34.4715],[-82.8749,34.4689],[-82.8487,34.4238],[-82.7661,34.2935],[-82.9809,34.2115],[-83.078,34.2236],[-83.1156,34.2621],[-83.1134,34.2735],[-83.0942,34.4159],[-83.0522,34.4931],[-83.0347,34.4835],[-83.0068,34.4744],[-82.9953,34.4745],[-82.9927,34.4791],[-82.9922,34.4792]]]}},{"type":"Feature","id":"13149","properties":{"name":"Heard","fips":"13149"},"geometry":{"type":"Polygon","coordinates":[[[-85.2939,33.4281],[-85.0154,33.4255],[-84.939,33.2247],[-85.2365,33.1296],[-85.2939,33.4281]]]}},{"type":"Feature","id":"13151","properties":{"name":"Henry","fips":"13151"},"geometry":{"type":"Polygon","coordinates":[[[-84.2835,33.5025],[-84.2813,33.6474],[-84.2541,33.647],[-84.2455,33.6307],[-84.2242,33.6307],[-84.224,33.6466],[-84.1841,33.6462],[-84.1816,33.6292],[-84.1721,33.6219],[-84.1363,33.5723],[-84.0445,33.5258],[-83.9239,33.4442],[-84.0446,33.3337],[-84.0446,33.3335],[-84.0427,33.3335],[-84.1026,33.2982],[-84.1506,33.3356],[-84.3544,33.3525],[-84.3536,33.4362],[-84.2835,33.5025]]]}},{"type":"Feature","id":"13153","properties":{"name":"Houston","fips":"13153"},"geometry":{"type":"Polygon","coordinates":[[[-83.8484,32.291],[-83.8467,32.4685],[-83.7199,32.5318],[-83.7011,32.6916],[-83.7012,32.6922],[-83.5977,32.6643],[-83.5662,32.6608],[-83.4979,32.4522],[-83.4826,32.4245],[-83.498,32.4017],[-83.6156,32.2886],[-83.8484,32.291]]]}},{"type":"Feature","id":"13155","properties":{"name":"Irwin","fips":"13155"},"geometry":{"type":"Polygon","coordinates":[[[-83.5007,31.594],[-83.4536,31.7579],[-83.3253,31.7566],[-83.3256,31.6806],[-83.1772,31.6517],[-83.1764,31.6784],[-82.9984,31.6732],[-83.1456,31.4723],[-83.1461,31.4721],[-83.3387,31.476],[-83.5007,31.594]]]}},{"type":"Feature","id":"13157","properties":{"name":"Jackson","fips":"13157"},"geometry":{"type":"Polygon","coordinates":[[[-83.36,34.0406],[-83.5374,33.9659],[-83.5632,34.0318],[-83.7675,34.0664],[-83.8177,34.1275],[-83.6201,34.2953],[-83.4804,34.262],[-83.4024,34.1975],[-83.36,34.0406]]]}},{"type":"Feature","id":"13159","properties":{"name":"Jasper","fips":"13159"},"geometry":{"type":"Polygon","coordinates":[[[-83.816,33.1318],[-83.8173,33.1415],[-83.8141,33.1485],[-83.8229,33.1579],[-83.8246,33.1756],[-83.8223,33.1802],[-83.8141,33.2421],[-83.8631,33.3683],[-83.8249,33.4373],[-83.6746,33.4872],[-83.6822,33.5262],[-83.5868,33.4656],[-83.5337,33.4345],[-83.5378,33.3938],[-83.5459,33.1719],[-83.816,33.1318]]]}},{"type":"Feature","id":"13161","properties":{"name":"Jeff Davis","fips":"13161"},"geometry":{"type":"Polygon","coordinates":[[[-82.5214,31.7108],[-82.5214,31.6725],[-82.6273,31.6727],[-82.8366,31.6714],[-82.8364,31.8162],[-82.6457,31.9189],[-82.5437,31.9589],[-82.4831,31.969],[-82.4796,31.9717],[-82.4582,31.9639],[-82.4521,31.9646],[-82.4445,31.9675],[-82.4394,31.9678],[-82.4315,31.9662],[-82.4314,31.838],[-82.5203,31.8384],[-82.5214,31.7108]]]}},{"type":"Feature","id":"13163","properties":{"name":"Jefferson","fips":"13163"},"geometry":{"type":"Polygon","coordinates":[[[-82.4341,32.7623],[-82.5211,32.8224],[-82.5109,32.9178],[-82.5502,33.0192],[-82.6619,33.1263],[-82.432,33.2748],[-82.3838,33.3121],[-82.372,33.3109],[-82.3576,33.3127],[-82.3535,33.3123],[-82.3115,33.2971],[-82.2969,33.2773],[-82.2865,33.2741],[-82.2785,33.2692],[-82.2676,33.2674],[-82.2326,33.2312],[-82.2912,33.0628],[-82.2724,32.9378],[-82.3165,32.8358],[-82.4341,32.7623]]]}},{"type":"Feature","id":"13165","properties":{"name":"Jenkins","fips":"13165"},"geometry":{"type":"Polygon","coordinates":[[[-81.7676,32.9094],[-81.8679,32.6812],[-81.841,32.6491],[-82.0012,32.6069],[-82.0824,32.6631],[-82.145,32.8127],[-82.0813,32.9168],[-81.858,32.9539],[-81.7676,32.9094]]]}},{"type":"Feature","id":"13167","properties":{"name":"Johnson","fips":"13167"},"geometry":{"type":"Polygon","coordinates":[[[-82.947,32.7594],[-82.8025,32.8098],[-82.7684,32.7691],[-82.5211,32.8224],[-82.4341,32.7623],[-82.4994,32.6863],[-82.4651,32.6468],[-82.5944,32.5792],[-82.6477,32.5125],[-82.6686,32.6122],[-82.8628,32.7158],[-82.9571,32.7083],[-82.9464,32.7413],[-82.947,32.7594]]]}},{"type":"Feature","id":"13169","properties":{"name":"Jones","fips":"13169"},"geometry":{"type":"Polygon","coordinates":[[[-83.3577,32.9261],[-83.4068,32.8984],[-83.407,32.8982],[-83.4077,32.8978],[-83.5135,32.8449],[-83.6582,32.8879],[-83.7107,32.9528],[-83.747,33.0634],[-83.816,33.1318],[-83.5459,33.1719],[-83.4291,33.1854],[-83.415,33.1128],[-83.3804,32.9981],[-83.3577,32.9261]]]}},{"type":"Feature","id":"13171","properties":{"name":"Lamar","fips":"13171"},"geometry":{"type":"Polygon","coordinates":[[[-84.2701,32.991],[-84.2482,33.189],[-84.1238,33.2028],[-84.0415,33.2026],[-84.0441,32.9479],[-84.1233,32.9322],[-84.1224,32.9896],[-84.2701,32.991]]]}},{"type":"Feature","id":"13173","properties":{"name":"Lanier","fips":"13173"},"geometry":{"type":"Polygon","coordinates":[[[-83.0194,30.8495],[-83.0429,30.9473],[-83.1795,30.9501],[-83.198,31.0254],[-83.1651,31.1472],[-83.0382,31.1467],[-83.0469,31.1837],[-82.9712,31.184],[-82.9713,30.8694],[-82.9822,30.8722],[-82.9939,30.8608],[-83.0066,30.8595],[-83.014,30.8447],[-83.0194,30.8495]]]}},{"type":"Feature","id":"13175","properties":{"name":"Laurens","fips":"13175"},"geometry":{"type":"Polygon","coordinates":[[[-83.2265,32.5842],[-82.9576,32.7082],[-82.9571,32.7083],[-82.8628,32.7158],[-82.6686,32.6122],[-82.6477,32.5125],[-82.7371,32.338],[-82.722,32.3093],[-82.8848,32.1961],[-82.991,32.1473],[-83.139,32.4231],[-83.2265,32.5842]]]}},{"type":"Feature","id":"13177","properties":{"name":"Lee","fips":"13177"},"geometry":{"type":"Polygon","coordinates":[[[-83.9225,31.9097],[-83.9251,31.9057],[-83.9274,31.9041],[-83.932,31.8988],[-83.9323,31.8938],[-83.9287,31.8869],[-83.9321,31.8846],[-83.9341,31.8814],[-83.9312,31.877],[-83.9287,31.8718],[-83.9265,31.8633],[-83.9323,31.8592],[-83.9367,31.858],[-83.9378,31.8548],[-83.9382,31.8495],[-83.9394,31.8479],[-84.0323,31.7168],[-84.0184,31.6503],[-84.0432,31.6236],[-84.2978,31.622],[-84.2865,31.7912],[-84.3382,31.8736],[-84.3381,31.9162],[-83.9225,31.9097]]]}},{"type":"Feature","id":"13179","properties":{"name":"Liberty","fips":"13179"},"geometry":{"type":"Polygon","coordinates":[[[-81.1944,31.5681],[-81.2619,31.6501],[-81.4358,31.6421],[-81.4918,31.6996],[-81.6418,31.7655],[-81.7654,31.8745],[-81.7503,31.9732],[-81.8244,32.0149],[-81.8099,32.0197],[-81.7617,32.0479],[-81.7187,32.0894],[-81.6044,32.0109],[-81.5934,31.9714],[-81.4758,31.9743],[-81.4077,31.9443],[-81.3558,31.8149],[-81.1984,31.7261],[-81.2036,31.7194],[-81.1863,31.7015],[-81.1611,31.6914],[-81.1546,31.6939],[-81.1519,31.6984],[-81.1494,31.6993],[-81.1394,31.6999],[-81.1311,31.6958],[-81.1356,31.6835],[-81.1364,31.6748],[-81.1317,31.6545],[-81.1335,31.6233],[-81.15,31.5935],[-81.1604,31.5704],[-81.1731,31.5559],[-81.1788,31.5555],[-81.1833,31.5601],[-81.1861,31.568],[-81.1944,31.5681]]]}},{"type":"Feature","id":"13181","properties":{"name":"Lincoln","fips":"13181"},"geometry":{"type":"Polygon","coordinates":[[[-82.4253,33.6506],[-82.4309,33.6551],[-82.436,33.652],[-82.4517,33.6496],[-82.4582,33.6375],[-82.4699,33.6386],[-82.477,33.6443],[-82.4795,33.6395],[-82.5935,33.8273],[-82.6455,33.9842],[-82.5645,33.9557],[-82.4292,33.8658],[-82.4228,33.8638],[-82.4084,33.8663],[-82.4039,33.8655],[-82.3245,33.82],[-82.3015,33.8019],[-82.2475,33.7526],[-82.2186,33.6863],[-82.3064,33.7006],[-82.4253,33.6506]]]}},{"type":"Feature","id":"13183","properties":{"name":"Long","fips":"13183"},"geometry":{"type":"Polygon","coordinates":[[[-81.4918,31.6996],[-81.566,31.5765],[-81.6632,31.5387],[-81.8506,31.6677],[-81.9691,31.7893],[-81.8244,32.0149],[-81.7503,31.9732],[-81.7654,31.8745],[-81.6418,31.7655],[-81.4918,31.6996]]]}},{"type":"Feature","id":"13185","properties":{"name":"Lowndes","fips":"13185"},"geometry":{"type":"Polygon","coordinates":[[[-83.4756,31.032],[-83.2951,31.0273],[-83.2805,31.0266],[-83.2737,31.0267],[-83.198,31.0254],[-83.1795,30.9501],[-83.0429,30.9473],[-83.0194,30.8495],[-83.0881,30.8487],[-83.1362,30.7752],[-83.1366,30.6243],[-83.1562,30.6255],[-83.1633,30.6259],[-83.1744,30.6264],[-83.1874,30.6272],[-83.2562,30.6313],[-83.3092,30.6344],[-83.3093,30.6344],[-83.3095,30.6344],[-83.3116,30.6346],[-83.3409,30.6363],[-83.341,30.6363],[-83.3577,30.6374],[-83.4825,30.7569],[-83.4493,30.818],[-83.359,30.8367],[-83.4581,31.0009],[-83.4604,31.0028],[-83.4613,31.0057],[-83.4637,31.0059],[-83.4643,31.0111],[-83.4668,31.0139],[-83.4659,31.0185],[-83.4678,31.0216],[-83.4713,31.0239],[-83.4716,31.0266],[-83.4683,31.0285],[-83.4708,31.0285],[-83.4723,31.0297],[-83.4733,31.0285],[-83.4738,31.0313],[-83.4769,31.031],[-83.4756,31.032]]]}},{"type":"Feature","id":"13187","properties":{"name":"Lumpkin","fips":"13187"},"geometry":{"type":"Polygon","coordinates":[[[-83.8434,34.5055],[-83.9806,34.4184],[-84.102,34.4645],[-84.191,34.5392],[-84.1886,34.6027],[-84.158,34.6482],[-84.0365,34.6419],[-83.939,34.7409],[-83.8565,34.7222],[-83.8773,34.6296],[-83.8434,34.5055]]]}},{"type":"Feature","id":"13193","properties":{"name":"Macon","fips":"13193"},"geometry":{"type":"Polygon","coordinates":[[[-84.1817,32.2297],[-84.2559,32.2962],[-84.2546,32.3721],[-84.1223,32.5059],[-84.0085,32.5218],[-83.8467,32.4685],[-83.8484,32.291],[-83.9651,32.248],[-84.0279,32.1711],[-84.1817,32.2297]]]}},{"type":"Feature","id":"13195","properties":{"name":"Madison","fips":"13195"},"geometry":{"type":"Polygon","coordinates":[[[-83.2584,33.9991],[-83.36,34.0406],[-83.4024,34.1975],[-83.4001,34.2005],[-83.3724,34.2059],[-83.3553,34.2237],[-83.2973,34.2646],[-83.1727,34.2385],[-83.1134,34.2735],[-83.1156,34.2621],[-83.078,34.2236],[-83.1021,34.1738],[-82.9763,34.0432],[-83.0493,34.0161],[-83.1239,34.0476],[-83.2584,33.9991]]]}},{"type":"Feature","id":"13197","properties":{"name":"Marion","fips":"13197"},"geometry":{"type":"Polygon","coordinates":[[[-84.6493,32.233],[-84.6589,32.2329],[-84.6573,32.4949],[-84.6373,32.5349],[-84.4444,32.5621],[-84.3923,32.414],[-84.4302,32.1663],[-84.4312,32.1341],[-84.5271,32.1346],[-84.6493,32.233]]]}},{"type":"Feature","id":"13189","properties":{"name":"McDuffie","fips":"13189"},"geometry":{"type":"Polygon","coordinates":[[[-82.4253,33.6506],[-82.4368,33.5497],[-82.2942,33.3546],[-82.3503,33.3148],[-82.3535,33.3123],[-82.3576,33.3127],[-82.372,33.3109],[-82.3838,33.3121],[-82.5494,33.3577],[-82.6497,33.6088],[-82.4795,33.6395],[-82.477,33.6443],[-82.4699,33.6386],[-82.4582,33.6375],[-82.4517,33.6496],[-82.436,33.652],[-82.4309,33.6551],[-82.4253,33.6506]]]}},{"type":"Feature","id":"13191","properties":{"name":"McIntosh","fips":"13191"},"geometry":{"type":"Polygon","coordinates":[[[-81.6632,31.5387],[-81.566,31.5765],[-81.4918,31.6996],[-81.4358,31.6421],[-81.2619,31.6501],[-81.1944,31.5681],[-81.2043,31.5682],[-81.2145,31.5576],[-81.2407,31.5523],[-81.2542,31.5559],[-81.2601,31.5483],[-81.2639,31.5326],[-81.2634,31.5309],[-81.2588,31.5291],[-81.2179,31.5273],[-81.2135,31.5282],[-81.1995,31.5376],[-81.193,31.5358],[-81.1816,31.5277],[-81.1783,31.5224],[-81.1773,31.5171],[-81.1896,31.5036],[-81.2049,31.4731],[-81.2469,31.4228],[-81.2586,31.4044],[-81.2788,31.3672],[-81.2793,31.3511],[-81.2829,31.3265],[-81.2745,31.3262],[-81.268,31.3242],[-81.2548,31.3155],[-81.261,31.3039],[-81.2699,31.2945],[-81.4359,31.3133],[-81.6243,31.453],[-81.6632,31.5387]]]}},{"type":"Feature","id":"13199","properties":{"name":"Meriwether","fips":"13199"},"geometry":{"type":"Polygon","coordinates":[[[-84.8624,33.1912],[-84.8524,33.2236],[-84.5024,33.2211],[-84.4929,33.2],[-84.4968,33.1839],[-84.527,32.9705],[-84.5069,32.8818],[-84.5707,32.8452],[-84.7005,32.8446],[-84.8618,32.8725],[-84.8624,33.1912]]]}},{"type":"Feature","id":"13201","properties":{"name":"Miller","fips":"13201"},"geometry":{"type":"Polygon","coordinates":[[[-84.9224,31.0726],[-84.9174,31.256],[-84.6417,31.259],[-84.5371,31.2559],[-84.5427,31.079],[-84.7309,31.0692],[-84.9224,31.0726]]]}},{"type":"Feature","id":"13205","properties":{"name":"Mitchell","fips":"13205"},"geometry":{"type":"Polygon","coordinates":[[[-84.3766,31.0789],[-84.5081,31.0784],[-84.4833,31.1555],[-84.4043,31.1991],[-84.3406,31.3053],[-84.2007,31.3555],[-84.1411,31.4402],[-83.9978,31.4438],[-83.9994,31.335],[-84.0036,31.0773],[-84.0045,31.0772],[-84.1166,31.078],[-84.3766,31.0789]]]}},{"type":"Feature","id":"13207","properties":{"name":"Monroe","fips":"13207"},"geometry":{"type":"Polygon","coordinates":[[[-83.8223,33.1802],[-83.8246,33.1756],[-83.8229,33.1579],[-83.8141,33.1485],[-83.8173,33.1415],[-83.816,33.1318],[-83.747,33.0634],[-83.7107,32.9528],[-83.8919,32.8484],[-84.1243,32.8496],[-84.1233,32.9322],[-84.0441,32.9479],[-84.0415,33.2026],[-83.8223,33.1802]]]}},{"type":"Feature","id":"13209","properties":{"name":"Montgomery","fips":"13209"},"geometry":{"type":"Polygon","coordinates":[[[-82.4091,32.3537],[-82.4831,31.969],[-82.5437,31.9589],[-82.5981,32.0144],[-82.6129,32.1615],[-82.6555,32.2976],[-82.4091,32.3537]]]}},{"type":"Feature","id":"13211","properties":{"name":"Morgan","fips":"13211"},"geometry":{"type":"Polygon","coordinates":[[[-83.2799,33.4834],[-83.5337,33.4345],[-83.5868,33.4656],[-83.6822,33.5262],[-83.6777,33.5712],[-83.6814,33.5779],[-83.6871,33.5824],[-83.6874,33.5886],[-83.6809,33.5969],[-83.5059,33.8178],[-83.4062,33.6983],[-83.2692,33.5332],[-83.2799,33.4834]]]}},{"type":"Feature","id":"13213","properties":{"name":"Murray","fips":"13213"},"geometry":{"type":"Polygon","coordinates":[[[-84.7759,34.9878],[-84.731,34.9881],[-84.7274,34.988],[-84.6215,34.9883],[-84.6186,34.8554],[-84.5823,34.8251],[-84.6571,34.7289],[-84.6545,34.5832],[-84.7165,34.6229],[-84.8638,34.6086],[-84.9135,34.6341],[-84.9337,34.7068],[-84.8649,34.7074],[-84.8785,34.7796],[-84.8187,34.877],[-84.8105,34.9876],[-84.8092,34.9876],[-84.8081,34.9876],[-84.7759,34.9878]]]}},{"type":"Feature","id":"13215","properties":{"name":"Muscogee","fips":"13215"},"geometry":{"type":"Polygon","coordinates":[[[-85.0011,32.5105],[-85.0013,32.513],[-85.0071,32.5239],[-85.0225,32.5429],[-85.0446,32.5595],[-85.0696,32.5839],[-85.0799,32.6029],[-85.0803,32.6036],[-85.0825,32.607],[-84.9077,32.6076],[-84.9079,32.5834],[-84.6946,32.5839],[-84.6945,32.5187],[-84.7694,32.4223],[-84.7746,32.4218],[-84.7784,32.4231],[-84.7816,32.4229],[-84.783,32.4217],[-84.7885,32.418],[-84.7915,32.4148],[-84.7986,32.416],[-84.8052,32.4189],[-84.8094,32.4209],[-84.8114,32.4186],[-84.8146,32.4144],[-84.824,32.414],[-84.8344,32.4132],[-84.8442,32.4132],[-84.8487,32.4146],[-84.9873,32.3816],[-84.9794,32.4122],[-84.9838,32.4456],[-84.9982,32.4698],[-85.0008,32.5065],[-85.001,32.5102],[-85.0011,32.5105]]]}},{"type":"Feature","id":"13217","properties":{"name":"Newton","fips":"13217"},"geometry":{"type":"Polygon","coordinates":[[[-83.6822,33.5262],[-83.6746,33.4872],[-83.8249,33.4373],[-83.8631,33.3683],[-83.9239,33.4442],[-84.0445,33.5258],[-84.0249,33.5475],[-84.0243,33.5482],[-83.9727,33.6055],[-83.9148,33.7442],[-83.7773,33.6583],[-83.6809,33.5969],[-83.6874,33.5886],[-83.6871,33.5824],[-83.6814,33.5779],[-83.6777,33.5712],[-83.6822,33.5262]]]}},{"type":"Feature","id":"13219","properties":{"name":"Oconee","fips":"13219"},"geometry":{"type":"Polygon","coordinates":[[[-83.5059,33.8178],[-83.647,33.9062],[-83.5374,33.9659],[-83.2759,33.848],[-83.2803,33.7618],[-83.4062,33.6983],[-83.5059,33.8178]]]}},{"type":"Feature","id":"13221","properties":{"name":"Oglethorpe","fips":"13221"},"geometry":{"type":"Polygon","coordinates":[[[-82.7795,33.9711],[-82.8746,33.9218],[-82.9873,33.7807],[-82.949,33.7333],[-82.9889,33.7063],[-82.9956,33.6936],[-83.1187,33.6988],[-83.2803,33.7618],[-83.2759,33.848],[-83.2409,33.9044],[-83.2584,33.9991],[-83.1239,34.0476],[-83.0493,34.0161],[-82.9763,34.0432],[-82.7795,33.9711]]]}},{"type":"Feature","id":"13223","properties":{"name":"Paulding","fips":"13223"},"geometry":{"type":"Polygon","coordinates":[[[-85.0503,33.9045],[-84.9787,33.9514],[-84.9227,34.0825],[-84.7378,34.0794],[-84.7244,33.8819],[-84.725,33.8199],[-84.7252,33.817],[-84.724,33.8153],[-84.7241,33.8062],[-84.7241,33.7914],[-84.7255,33.7886],[-84.7413,33.7886],[-84.7699,33.7847],[-84.792,33.7812],[-84.7951,33.7798],[-84.7999,33.7799],[-84.8327,33.7785],[-84.8327,33.776],[-84.8792,33.7748],[-84.9017,33.7807],[-84.9186,33.7863],[-85.0379,33.8119],[-85.0367,33.9043],[-85.0503,33.9045]]]}},{"type":"Feature","id":"13225","properties":{"name":"Peach","fips":"13225"},"geometry":{"type":"Polygon","coordinates":[[[-83.8467,32.4685],[-84.0085,32.5218],[-84.0011,32.5206],[-84.0034,32.5299],[-83.7668,32.6926],[-83.7011,32.6916],[-83.7199,32.5318],[-83.8467,32.4685]]]}},{"type":"Feature","id":"13227","properties":{"name":"Pickens","fips":"13227"},"geometry":{"type":"Polygon","coordinates":[[[-84.6544,34.5489],[-84.3456,34.5627],[-84.3197,34.4679],[-84.2569,34.4673],[-84.2576,34.381],[-84.5826,34.3815],[-84.6532,34.4126],[-84.6544,34.5489]]]}},{"type":"Feature","id":"13229","properties":{"name":"Pierce","fips":"13229"},"geometry":{"type":"Polygon","coordinates":[[[-82.4172,31.4171],[-82.3448,31.4301],[-82.2266,31.5307],[-82.1328,31.4713],[-82.0528,31.4546],[-82.0411,31.3737],[-82.0068,31.2771],[-82.1001,31.2767],[-82.1948,31.2076],[-82.2846,31.2244],[-82.3837,31.2911],[-82.4172,31.4171]]]}},{"type":"Feature","id":"13231","properties":{"name":"Pike","fips":"13231"},"geometry":{"type":"Polygon","coordinates":[[[-84.2482,33.189],[-84.2701,32.991],[-84.4897,32.9937],[-84.527,32.9705],[-84.4968,33.1839],[-84.4513,33.2089],[-84.2482,33.189]]]}},{"type":"Feature","id":"13233","properties":{"name":"Polk","fips":"13233"},"geometry":{"type":"Polygon","coordinates":[[[-84.9227,34.0825],[-84.9787,33.9514],[-85.0503,33.9045],[-85.3867,33.9017],[-85.3988,33.9641],[-85.4217,34.0808],[-85.2576,34.1007],[-85.0469,34.0964],[-84.9227,34.0825]]]}},{"type":"Feature","id":"13235","properties":{"name":"Pulaski","fips":"13235"},"geometry":{"type":"Polygon","coordinates":[[[-83.498,32.4017],[-83.3465,32.2725],[-83.2911,32.1788],[-83.3373,32.1059],[-83.6085,32.1184],[-83.6156,32.2886],[-83.498,32.4017]]]}},{"type":"Feature","id":"13237","properties":{"name":"Putnam","fips":"13237"},"geometry":{"type":"Polygon","coordinates":[[[-83.5459,33.1719],[-83.5378,33.3938],[-83.5337,33.4345],[-83.2799,33.4834],[-83.1642,33.355],[-83.1458,33.3121],[-83.2535,33.2593],[-83.2741,33.1872],[-83.4291,33.1854],[-83.5459,33.1719]]]}},{"type":"Feature","id":"13239","properties":{"name":"Quitman","fips":"13239"},"geometry":{"type":"Polygon","coordinates":[[[-85.0622,31.9919],[-84.907,31.9245],[-84.9103,31.7768],[-84.9586,31.7779],[-85.1387,31.7804],[-85.1413,31.7832],[-85.1418,31.8399],[-85.1329,31.8883],[-85.1066,31.9152],[-85.0821,31.9447],[-85.0723,31.9648],[-85.0622,31.9919]]]}},{"type":"Feature","id":"13241","properties":{"name":"Rabun","fips":"13241"},"geometry":{"type":"Polygon","coordinates":[[[-83.1085,35.0008],[-83.1433,34.9248],[-83.243,34.8777],[-83.2673,34.8327],[-83.2832,34.8213],[-83.3241,34.7887],[-83.3391,34.7413],[-83.3524,34.7161],[-83.549,34.7495],[-83.5869,34.82],[-83.6522,34.823],[-83.6568,34.8785],[-83.5494,34.9925],[-83.4831,34.9937],[-83.1087,35.0008],[-83.1085,35.0008]]]}},{"type":"Feature","id":"13243","properties":{"name":"Randolph","fips":"13243"},"geometry":{"type":"Polygon","coordinates":[[[-84.9586,31.7779],[-84.9103,31.7768],[-84.907,31.9245],[-84.6558,31.9203],[-84.5998,31.9202],[-84.6031,31.772],[-84.5355,31.6818],[-84.5469,31.6212],[-84.8178,31.6198],[-84.9424,31.6187],[-84.9586,31.7779]]]}},{"type":"Feature","id":"13245","properties":{"name":"Richmond","fips":"13245"},"geometry":{"type":"Polygon","coordinates":[[[-82.0282,33.5449],[-82.0143,33.5303],[-82.0076,33.5233],[-82.0071,33.5228],[-81.967,33.4806],[-81.9579,33.4686],[-81.9126,33.4088],[-81.9027,33.3312],[-81.8521,33.2475],[-81.852,33.2474],[-82.0882,33.2302],[-82.1742,33.2968],[-82.2676,33.2674],[-82.2785,33.2692],[-82.2865,33.2741],[-82.2969,33.2773],[-82.3115,33.2971],[-82.3535,33.3123],[-82.3503,33.3148],[-82.2942,33.3546],[-82.0282,33.5449]]]}},{"type":"Feature","id":"13247","properties":{"name":"Rockdale","fips":"13247"},"geometry":{"type":"Polygon","coordinates":[[[-84.0237,33.7528],[-83.9846,33.7843],[-83.982,33.7861],[-83.9545,33.7689],[-83.9533,33.768],[-83.9148,33.7442],[-83.9727,33.6055],[-84.0243,33.5482],[-84.0249,33.5475],[-84.0445,33.5258],[-84.1363,33.5723],[-84.1721,33.6219],[-84.1816,33.6292],[-84.1841,33.6462],[-84.1043,33.636],[-84.0566,33.7266],[-84.0237,33.7528]]]}},{"type":"Feature","id":"13249","properties":{"name":"Schley","fips":"13249"},"geometry":{"type":"Polygon","coordinates":[[[-84.2546,32.3721],[-84.2559,32.2962],[-84.1817,32.2297],[-84.1836,32.1585],[-84.4302,32.1663],[-84.3923,32.414],[-84.2546,32.3721]]]}},{"type":"Feature","id":"13251","properties":{"name":"Screven","fips":"13251"},"geometry":{"type":"Polygon","coordinates":[[[-81.4051,32.745],[-81.4148,32.6374],[-81.4184,32.6347],[-81.4187,32.6294],[-81.4119,32.6184],[-81.3893,32.5954],[-81.3893,32.5954],[-81.5386,32.5091],[-81.548,32.4893],[-81.6896,32.5463],[-81.841,32.6491],[-81.8679,32.6812],[-81.7676,32.9094],[-81.5418,33.0457],[-81.5117,33.0245],[-81.4966,33.0102],[-81.4915,32.9986],[-81.4947,32.979],[-81.4998,32.9638],[-81.4238,32.8105],[-81.4049,32.747],[-81.4051,32.745]]]}},{"type":"Feature","id":"13253","properties":{"name":"Seminole","fips":"13253"},"geometry":{"type":"Polygon","coordinates":[[[-85.0221,31.0755],[-85.0019,31.075],[-84.9999,31.0747],[-84.9224,31.0726],[-84.7309,31.0692],[-84.7559,30.8853],[-84.8635,30.7115],[-84.8647,30.7115],[-84.8961,30.7506],[-84.9419,30.888],[-84.9596,30.9106],[-84.9835,30.9355],[-84.9986,30.9714],[-85.0024,31.0007],[-84.9994,31.0138],[-85.0221,31.0755]]]}},{"type":"Feature","id":"13255","properties":{"name":"Spalding","fips":"13255"},"geometry":{"type":"Polygon","coordinates":[[[-84.5024,33.2211],[-84.5003,33.2334],[-84.5089,33.2452],[-84.4975,33.2574],[-84.4329,33.2565],[-84.3881,33.3525],[-84.3544,33.3525],[-84.1506,33.3356],[-84.1026,33.2982],[-84.1238,33.2028],[-84.2482,33.189],[-84.4513,33.2089],[-84.4968,33.1839],[-84.4929,33.2],[-84.5024,33.2211]]]}},{"type":"Feature","id":"13257","properties":{"name":"Stephens","fips":"13257"},"geometry":{"type":"Polygon","coordinates":[[[-83.3379,34.6877],[-83.2917,34.6534],[-83.2407,34.6245],[-83.2407,34.6243],[-83.1675,34.6004],[-83.171,34.5988],[-83.1703,34.5924],[-83.1069,34.5341],[-83.1778,34.477],[-83.3984,34.4609],[-83.4136,34.468],[-83.4598,34.4811],[-83.3379,34.6877]]]}},{"type":"Feature","id":"13259","properties":{"name":"Stewart","fips":"13259"},"geometry":{"type":"Polygon","coordinates":[[[-84.9236,32.2315],[-84.6589,32.2329],[-84.6493,32.233],[-84.6558,31.9203],[-84.907,31.9245],[-85.0622,31.9919],[-85.0502,32.0242],[-85.056,32.0631],[-85.0479,32.142],[-84.9959,32.1849],[-84.9648,32.195],[-84.9236,32.2315]]]}},{"type":"Feature","id":"13261","properties":{"name":"Sumter","fips":"13261"},"geometry":{"type":"Polygon","coordinates":[[[-84.4302,32.1663],[-84.1836,32.1585],[-84.1817,32.2297],[-84.0279,32.1711],[-83.9613,32.0306],[-83.9225,31.9097],[-84.3381,31.9162],[-84.3382,31.8736],[-84.4438,31.9675],[-84.4312,32.1341],[-84.4302,32.1663]]]}},{"type":"Feature","id":"13263","properties":{"name":"Talbot","fips":"13263"},"geometry":{"type":"Polygon","coordinates":[[[-84.4444,32.5621],[-84.6373,32.5349],[-84.649,32.535],[-84.658,32.5288],[-84.6617,32.5291],[-84.6782,32.5189],[-84.6863,32.5196],[-84.6945,32.5187],[-84.6946,32.5839],[-84.7005,32.8446],[-84.5707,32.8452],[-84.5069,32.8818],[-84.391,32.787],[-84.2862,32.7476],[-84.3379,32.7206],[-84.4089,32.5619],[-84.4444,32.5621]]]}},{"type":"Feature","id":"13265","properties":{"name":"Taliaferro","fips":"13265"},"geometry":{"type":"Polygon","coordinates":[[[-82.68,33.5998],[-82.7513,33.5101],[-82.8153,33.5211],[-82.852,33.4435],[-83.0129,33.4692],[-83.014,33.5804],[-82.9511,33.658],[-82.9956,33.6936],[-82.9889,33.7063],[-82.949,33.7333],[-82.8906,33.6329],[-82.813,33.6558],[-82.68,33.5998]]]}},{"type":"Feature","id":"13267","properties":{"name":"Tattnall","fips":"13267"},"geometry":{"type":"Polygon","coordinates":[[[-81.7617,32.0479],[-81.8099,32.0197],[-81.8244,32.0149],[-81.9691,31.7893],[-81.9819,31.7844],[-82.0068,31.8],[-82.0146,31.8218],[-82.0283,31.8155],[-82.0486,31.8271],[-82.1428,31.8993],[-82.225,31.9131],[-82.182,32.1656],[-82.2328,32.3188],[-82.0253,32.2789],[-81.98,32.0815],[-81.7617,32.0479]]]}},{"type":"Feature","id":"13269","properties":{"name":"Taylor","fips":"13269"},"geometry":{"type":"Polygon","coordinates":[[[-84.2546,32.3721],[-84.3923,32.414],[-84.4444,32.5621],[-84.4089,32.5619],[-84.3379,32.7206],[-84.2862,32.7476],[-84.2026,32.69],[-84.105,32.6734],[-84.0034,32.5299],[-84.0011,32.5206],[-84.0085,32.5218],[-84.1223,32.5059],[-84.2546,32.3721]]]}},{"type":"Feature","id":"13271","properties":{"name":"Telfair","fips":"13271"},"geometry":{"type":"Polygon","coordinates":[[[-82.9957,31.781],[-83.1775,31.8479],[-83.2057,31.9003],[-82.9421,32.1241],[-82.9555,32.1353],[-82.9346,32.1533],[-82.9279,32.1353],[-82.8877,32.0799],[-82.7291,32.0069],[-82.6457,31.9189],[-82.8364,31.8162],[-82.8631,31.783],[-82.9957,31.781]]]}},{"type":"Feature","id":"13273","properties":{"name":"Terrell","fips":"13273"},"geometry":{"type":"Polygon","coordinates":[[[-84.2978,31.622],[-84.4504,31.6219],[-84.4504,31.6213],[-84.5469,31.6212],[-84.5355,31.6818],[-84.6031,31.772],[-84.5998,31.9202],[-84.4533,31.9192],[-84.4438,31.9675],[-84.3382,31.8736],[-84.2865,31.7912],[-84.2978,31.622]]]}},{"type":"Feature","id":"13275","properties":{"name":"Thomas","fips":"13275"},"geometry":{"type":"Polygon","coordinates":[[[-84.0838,30.676],[-84.077,30.9156],[-84.1191,30.981],[-84.1166,31.078],[-84.0045,31.0772],[-84.0036,31.0773],[-84.0039,31.0416],[-83.7362,31.0377],[-83.7437,30.6584],[-83.8105,30.6619],[-83.8209,30.6626],[-83.8552,30.6644],[-83.8802,30.6658],[-83.8803,30.6658],[-84.0074,30.6721],[-84.0075,30.6721],[-84.0397,30.6738],[-84.0418,30.6739],[-84.0466,30.6742],[-84.0572,30.6747],[-84.0838,30.676]]]}},{"type":"Feature","id":"13277","properties":{"name":"Tift","fips":"13277"},"geometry":{"type":"Polygon","coordinates":[[[-83.3387,31.476],[-83.4345,31.3504],[-83.4606,31.3263],[-83.5126,31.3274],[-83.6541,31.3307],[-83.6494,31.568],[-83.649,31.5965],[-83.5007,31.594],[-83.3387,31.476]]]}},{"type":"Feature","id":"13279","properties":{"name":"Toombs","fips":"13279"},"geometry":{"type":"Polygon","coordinates":[[[-82.4315,31.9662],[-82.4394,31.9678],[-82.4445,31.9675],[-82.4521,31.9646],[-82.4582,31.9639],[-82.4796,31.9717],[-82.4831,31.969],[-82.4091,32.3537],[-82.4091,32.3538],[-82.4091,32.3538],[-82.4091,32.3538],[-82.3545,32.2922],[-82.2328,32.3188],[-82.182,32.1656],[-82.225,31.9131],[-82.4315,31.9662]]]}},{"type":"Feature","id":"13281","properties":{"name":"Towns","fips":"13281"},"geometry":{"type":"Polygon","coordinates":[[[-83.7804,34.7929],[-83.8191,34.9137],[-83.9151,34.9269],[-83.9364,34.9875],[-83.6736,34.9871],[-83.6202,34.9921],[-83.5494,34.9925],[-83.6568,34.8785],[-83.6522,34.823],[-83.6579,34.8137],[-83.6669,34.8065],[-83.6816,34.8006],[-83.6857,34.801],[-83.6932,34.7973],[-83.696,34.7935],[-83.7018,34.7925],[-83.7041,34.791],[-83.7078,34.7917],[-83.7118,34.7905],[-83.7142,34.7931],[-83.721,34.7961],[-83.722,34.7973],[-83.7269,34.7977],[-83.736,34.8001],[-83.7431,34.8012],[-83.7804,34.7929]]]}},{"type":"Feature","id":"13283","properties":{"name":"Treutlen","fips":"13283"},"geometry":{"type":"Polygon","coordinates":[[[-82.4091,32.3538],[-82.4091,32.3538],[-82.4091,32.3538],[-82.4091,32.3537],[-82.6555,32.2976],[-82.722,32.3093],[-82.7371,32.338],[-82.6477,32.5125],[-82.4889,32.4918],[-82.3819,32.4406],[-82.4091,32.3538]]]}},{"type":"Feature","id":"13285","properties":{"name":"Troup","fips":"13285"},"geometry":{"type":"Polygon","coordinates":[[[-85.2365,33.1296],[-84.939,33.2247],[-84.8624,33.1912],[-84.8618,32.8725],[-85.1841,32.8705],[-85.2219,33.0555],[-85.2233,33.0626],[-85.2324,33.1081],[-85.2365,33.1296]]]}},{"type":"Feature","id":"13287","properties":{"name":"Turner","fips":"13287"},"geometry":{"type":"Polygon","coordinates":[[[-83.4802,31.8473],[-83.4536,31.7579],[-83.5007,31.594],[-83.649,31.5965],[-83.6494,31.568],[-83.7869,31.6228],[-83.8022,31.8035],[-83.6126,31.8041],[-83.6123,31.8541],[-83.4802,31.8473]]]}},{"type":"Feature","id":"13289","properties":{"name":"Twiggs","fips":"13289"},"geometry":{"type":"Polygon","coordinates":[[[-83.407,32.8982],[-83.2265,32.5842],[-83.4979,32.4522],[-83.5662,32.6608],[-83.5977,32.6643],[-83.5026,32.8011],[-83.5135,32.8449],[-83.4077,32.8978],[-83.407,32.8982]]]}},{"type":"Feature","id":"13291","properties":{"name":"Union","fips":"13291"},"geometry":{"type":"Polygon","coordinates":[[[-84.0055,34.9874],[-83.9366,34.9875],[-83.9364,34.9875],[-83.9151,34.9269],[-83.8191,34.9137],[-83.7804,34.7929],[-83.8565,34.7222],[-83.939,34.7409],[-84.0365,34.6419],[-84.158,34.6482],[-84.0932,34.8014],[-84.1074,34.8869],[-84.1787,34.9465],[-84.1295,34.9875],[-84.03,34.9873],[-84.0214,34.9874],[-84.0055,34.9874]]]}},{"type":"Feature","id":"13293","properties":{"name":"Upson","fips":"13293"},"geometry":{"type":"Polygon","coordinates":[[[-84.2026,32.69],[-84.2862,32.7476],[-84.391,32.787],[-84.5069,32.8818],[-84.527,32.9705],[-84.4897,32.9937],[-84.2701,32.991],[-84.1224,32.9896],[-84.1233,32.9322],[-84.1243,32.8496],[-84.2026,32.69]]]}},{"type":"Feature","id":"13295","properties":{"name":"Walker","fips":"13295"},"geometry":{"type":"Polygon","coordinates":[[[-85.0692,34.5872],[-85.1077,34.5875],[-85.5271,34.5887],[-85.5344,34.6238],[-85.4504,34.7592],[-85.4506,34.8317],[-85.3639,34.9834],[-85.3083,34.9844],[-85.3055,34.9845],[-85.3015,34.9845],[-85.2945,34.9847],[-85.2776,34.985],[-85.2759,34.985],[-85.2651,34.9851],[-85.2648,34.8543],[-85.2022,34.8545],[-85.2019,34.7751],[-85.1448,34.7676],[-85.1689,34.7203],[-85.0508,34.72],[-85.0504,34.6225],[-85.0551,34.6224],[-85.0552,34.6224],[-85.0604,34.6225],[-85.0605,34.5872],[-85.0692,34.5872]]]}},{"type":"Feature","id":"13297","properties":{"name":"Walton","fips":"13297"},"geometry":{"type":"Polygon","coordinates":[[[-83.9148,33.7442],[-83.9533,33.768],[-83.9545,33.7689],[-83.982,33.7861],[-83.7991,33.9298],[-83.7638,33.8967],[-83.647,33.9062],[-83.5059,33.8178],[-83.6809,33.5969],[-83.7773,33.6583],[-83.9148,33.7442]]]}},{"type":"Feature","id":"13299","properties":{"name":"Ware","fips":"13299"},"geometry":{"type":"Polygon","coordinates":[[[-82.2846,31.2244],[-82.2087,31.1709],[-82.2083,31.0848],[-82.1317,31.0107],[-82.4156,31.0136],[-82.4204,30.7952],[-82.1499,30.7843],[-82.2148,30.567],[-82.2498,30.5709],[-82.2581,30.5716],[-82.2873,30.5735],[-82.3748,30.579],[-82.4189,30.5817],[-82.4359,30.8201],[-82.4955,30.8196],[-82.4906,30.9632],[-82.5921,31.0185],[-82.6717,31.1837],[-82.6992,31.2781],[-82.6296,31.2747],[-82.629,31.3639],[-82.6282,31.4694],[-82.5975,31.4693],[-82.4947,31.4687],[-82.4172,31.4171],[-82.3837,31.2911],[-82.2846,31.2244]]]}},{"type":"Feature","id":"13301","properties":{"name":"Warren","fips":"13301"},"geometry":{"type":"Polygon","coordinates":[[[-82.3838,33.3121],[-82.432,33.2748],[-82.5598,33.3273],[-82.7558,33.2534],[-82.852,33.4435],[-82.8153,33.5211],[-82.7513,33.5101],[-82.68,33.5998],[-82.6703,33.6041],[-82.6591,33.603],[-82.6566,33.5968],[-82.6522,33.5967],[-82.6559,33.6066],[-82.6524,33.6112],[-82.6497,33.6088],[-82.5494,33.3577],[-82.3838,33.3121]]]}},{"type":"Feature","id":"13303","properties":{"name":"Washington","fips":"13303"},"geometry":{"type":"Polygon","coordinates":[[[-82.6619,33.1263],[-82.5502,33.0192],[-82.5109,32.9178],[-82.5211,32.8224],[-82.7684,32.7691],[-82.8025,32.8098],[-82.947,32.7594],[-83.0736,32.9466],[-83.0522,33.0807],[-82.8889,33.1386],[-82.855,33.1964],[-82.7483,33.2383],[-82.6619,33.1263]]]}},{"type":"Feature","id":"13305","properties":{"name":"Wayne","fips":"13305"},"geometry":{"type":"Polygon","coordinates":[[[-81.9691,31.7893],[-81.8506,31.6677],[-81.6632,31.5387],[-81.6243,31.453],[-81.692,31.4005],[-81.7317,31.33],[-81.8011,31.3637],[-81.9232,31.3459],[-82.0411,31.3737],[-82.0528,31.4546],[-82.1328,31.4713],[-82.133,31.7734],[-82.0486,31.8271],[-82.0283,31.8155],[-82.0146,31.8218],[-82.0068,31.8],[-81.9819,31.7844],[-81.9691,31.7893]]]}},{"type":"Feature","id":"13307","properties":{"name":"Webster","fips":"13307"},"geometry":{"type":"Polygon","coordinates":[[[-84.6558,31.9203],[-84.6493,32.233],[-84.5271,32.1346],[-84.4312,32.1341],[-84.4438,31.9675],[-84.4533,31.9192],[-84.5998,31.9202],[-84.6558,31.9203]]]}},{"type":"Feature","id":"13309","properties":{"name":"Wheeler","fips":"13309"},"geometry":{"type":"Polygon","coordinates":[[[-82.6555,32.2976],[-82.6129,32.1615],[-82.5981,32.0144],[-82.5437,31.9589],[-82.6457,31.9189],[-82.7291,32.0069],[-82.8877,32.0799],[-82.9279,32.1353],[-82.8718,32.1827],[-82.8848,32.1961],[-82.722,32.3093],[-82.6555,32.2976]]]}},{"type":"Feature","id":"13311","properties":{"name":"White","fips":"13311"},"geometry":{"type":"Polygon","coordinates":[[[-83.8565,34.7222],[-83.7804,34.7929],[-83.7431,34.8012],[-83.736,34.8001],[-83.7269,34.7977],[-83.722,34.7973],[-83.721,34.7961],[-83.7142,34.7931],[-83.7118,34.7905],[-83.7078,34.7917],[-83.7041,34.791],[-83.7018,34.7925],[-83.696,34.7935],[-83.6932,34.7973],[-83.6857,34.801],[-83.6816,34.8006],[-83.6233,34.7322],[-83.6628,34.6598],[-83.6155,34.5529],[-83.6664,34.5036],[-83.8434,34.5055],[-83.8773,34.6296],[-83.8565,34.7222]]]}},{"type":"Feature","id":"13313","properties":{"name":"Whitfield","fips":"13313"},"geometry":{"type":"Polygon","coordinates":[[[-84.9799,34.9876],[-84.977,34.9877],[-84.9556,34.9878],[-84.9444,34.9879],[-84.9393,34.9879],[-84.8613,34.9878],[-84.858,34.9877],[-84.8318,34.988],[-84.824,34.9877],[-84.8205,34.9879],[-84.8173,34.9878],[-84.8107,34.9876],[-84.8105,34.9876],[-84.8187,34.877],[-84.8785,34.7796],[-84.8649,34.7074],[-84.9337,34.7068],[-84.9135,34.6341],[-85.0504,34.6225],[-85.0508,34.72],[-85.1689,34.7203],[-85.1448,34.7676],[-85.0616,34.8195],[-84.9799,34.9876]]]}},{"type":"Feature","id":"13315","properties":{"name":"Wilcox","fips":"13315"},"geometry":{"type":"Polygon","coordinates":[[[-83.1775,31.8479],[-83.4802,31.8473],[-83.6123,31.8541],[-83.6097,32.0279],[-83.6084,32.1165],[-83.6085,32.1184],[-83.3373,32.1059],[-83.2921,31.9845],[-83.2057,31.9003],[-83.1775,31.8479]]]}},{"type":"Feature","id":"13317","properties":{"name":"Wilkes","fips":"13317"},"geometry":{"type":"Polygon","coordinates":[[[-82.6455,33.9842],[-82.5935,33.8273],[-82.4795,33.6395],[-82.6497,33.6088],[-82.6524,33.6112],[-82.6559,33.6066],[-82.6522,33.5967],[-82.6566,33.5968],[-82.6591,33.603],[-82.6703,33.6041],[-82.68,33.5998],[-82.813,33.6558],[-82.8906,33.6329],[-82.949,33.7333],[-82.9873,33.7807],[-82.8746,33.9218],[-82.7795,33.9711],[-82.6455,33.9842]]]}},{"type":"Feature","id":"13319","properties":{"name":"Wilkinson","fips":"13319"},"geometry":{"type":"Polygon","coordinates":[[[-83.3577,32.9261],[-83.1596,33.0028],[-83.0736,32.9466],[-82.947,32.7594],[-82.9464,32.7413],[-82.9571,32.7083],[-82.9576,32.7082],[-83.2265,32.5842],[-83.407,32.8982],[-83.4068,32.8984],[-83.3577,32.9261]]]}},{"type":"Feature","id":"13321","properties":{"name":"Worth","fips":"13321"},"geometry":{"type":"Polygon","coordinates":[[[-83.9394,31.8479],[-83.8022,31.8035],[-83.7869,31.6228],[-83.6494,31.568],[-83.6541,31.3307],[-83.9994,31.335],[-83.9978,31.4438],[-83.9977,31.4628],[-83.9826,31.4635],[-84.0184,31.6503],[-84.0323,31.7168],[-83.9394,31.8479]]]}}]}