{"type":"FeatureCollection","features":[{"type":"Feature","geometry":{"type":"Polygon","coordinates":[[[-82.701,31.2239],[-82.6897,31.2214],[-82.5921,31.0185],[-82.5506,31.0009],[-82.5458,30.9897],[-82.537,30.9857],[-82.5201,30.9631],[-82.4906,30.9632],[-82.4955,30.8196],[-82.4359,30.8201],[-82.4352,30.7291],[-82.4201,30.7292],[-82.42,30.7166],[-82.4351,30.7166],[-82.4289,30.6903],[-82.4309,30.6128],[-82.4188,30.6131],[-82.4189,30.5818],[-82.2147,30.5686],[-82.2342,30.5577],[-82.2404,30.5378],[-82.2308,30.5266],[-82.2251,30.5077],[-82.2126,30.5005],[-82.2012,30.4851],[-82.2077,30.4604],[-82.2038,30.445],[-82.2109,30.4254],[-82.1928,30.3791],[-82.1848,30.3789],[-82.181,30.3686],[-82.1618,30.3571],[-82.14,30.3649],[-82.1339,30.3622],[-82.1269,30.3683],[-82.1181,30.3644],[-82.1052,30.3689],[-82.0947,30.3607],[-82.0727,30.3614],[-82.0656,30.3559],[-82.0624,30.3606],[-82.0421,30.3654],[-82.0445,30.3677],[-82.0372,30.372],[-82.0358,30.385],[-82.0447,30.404],[-82.0413,30.4067],[-82.0438,30.4149],[-82.0341,30.42],[-82.04,30.4367],[-82.0281,30.4473],[-82.0236,30.4672],[-82.0169,30.4751],[-82.0146,30.5123],[-82.019,30.533],[-82.0084,30.5545],[-82.0107,30.5607],[-82.0054,30.5636],[-82.0151,30.6006],[-82.0272,30.6067],[-82.0283,30.622],[-82.0316,30.6195],[-82.0332,30.6295],[-82.0405,30.6361],[-82.0416,30.649],[-82.049,30.6553],[-82.046,30.6664],[-82.0503,30.6761],[-82.0412,30.691],[-82.0429,30.7009],[-82.0359,30.7062],[-82.0385,30.7226],[-82.0456,30.7276],[-82.0389,30.7362],[-82.0368,30.7544],[-82.0277,30.7509],[-82.0116,30.7619],[-82.0229,30.7877],[-82.0077,30.793],[-81.981,30.777],[-81.9736,30.7787],[-81.9622,30.797],[-81.9645,30.8173],[-81.9498,30.8278],[-81.942,30.8256],[-81.9388,30.8298],[-81.9287,30.8175],[-81.9091,30.8157],[-81.9042,30.8186],[-81.907,30.8265],[-81.9012,30.8299],[-81.892,30.8249],[-81.8827,30.8003],[-81.8711,30.798],[-81.8685,30.7929],[-81.8403,30.7926],[-81.8395,30.7866],[-81.8074,30.7901],[-81.7972,30.7815],[-81.7931,30.7873],[-81.7838,30.7733],[-81.7867,30.7698],[-81.7826,30.7615],[-81.7716,30.7641],[-81.7707,30.7768],[-81.7617,30.7757],[-81.7559,30.7693],[-81.7408,30.765],[-81.7422,30.7593],[-81.7201,30.7447],[-81.6939,30.7485],[-81.6892,30.7416],[-81.6725,30.7388],[-81.6708,30.7474],[-81.6799,30.7447],[-81.6831,30.7485],[-81.6623,30.7542],[-81.663,30.7435],[-81.6518,30.7422],[-81.6522,30.7289],[-81.6436,30.7282],[-81.6366,30.7339],[-81.6304,30.7281],[-81.6244,30.7363],[-81.6207,30.731],[-81.623,30.7235],[-81.6142,30.7224],[-81.6099,30.7159],[-81.6019,30.7296],[-81.5965,30.7275],[-81.5962,30.7187],[-81.5877,30.7236],[-81.5742,30.7225],[-81.5635,30.7175],[-81.5614,30.7117],[-81.5484,30.7183],[-81.5384,30.7087],[-81.534,30.7114],[-81.5323,30.7241],[-81.4885,30.7263],[-81.4741,30.7139],[-81.4512,30.7095],[-81.347,30.7124],[-81.3591,30.7443],[-81.3748,30.7575],[-81.4005,30.7664],[-81.3627,30.8459],[-81.3502,30.8891],[-81.3452,30.9315],[-81.3175,30.9485],[-81.3048,30.9708],[-81.3048,30.9857],[-81.3107,30.9973],[-81.3445,31.0181],[-81.3534,31.0371],[-81.3453,31.0594],[-81.318,31.0658],[-81.2979,31.081],[-81.2859,31.1094],[-81.2964,31.1519],[-81.2479,31.1608],[-81.2343,31.1703],[-81.1877,31.2463],[-81.1826,31.269],[-81.1861,31.3268],[-81.1771,31.3393],[-81.1711,31.3703],[-81.1908,31.3999],[-81.1669,31.4234],[-81.1636,31.442],[-81.1438,31.4715],[-81.1254,31.4775],[-81.115,31.487],[-81.0997,31.5185],[-81.0871,31.5292],[-81.0767,31.5979],[-81.0658,31.6252],[-81.0696,31.6424],[-81.0666,31.6573],[-81.0498,31.6886],[-81.0566,31.7149],[-81.0258,31.7202],[-81.0138,31.7286],[-80.9972,31.7485],[-80.9962,31.7621],[-80.977,31.7809],[-80.9707,31.7984],[-80.9496,31.803],[-80.9286,31.817],[-80.9168,31.8384],[-80.897,31.8528],[-80.8553,31.9108],[-80.7963,31.9535],[-80.783,31.996],[-80.8228,32.0342],[-80.8502,32.0414],[-80.8921,32.0354],[-80.9251,32.0419],[-80.954,32.0703],[-80.9835,32.0795],[-80.9921,32.0949],[-81.0043,32.1024],[-81.0124,32.1017],[-81.0263,32.0881],[-81.0381,32.0837],[-81.0883,32.0999],[-81.0916,32.1112],[-81.1067,32.1097],[-81.1154,32.1147],[-81.1199,32.1353],[-81.1122,32.1508],[-81.12,32.1533],[-81.122,32.1618],[-81.1298,32.1658],[-81.1211,32.1749],[-81.1111,32.1727],[-81.1119,32.178],[-81.1204,32.1787],[-81.1182,32.1892],[-81.1218,32.1918],[-81.114,32.1957],[-81.1219,32.1955],[-81.1389,32.2198],[-81.1521,32.222],[-81.1436,32.2293],[-81.1566,32.2433],[-81.1459,32.2507],[-81.1463,32.2633],[-81.1369,32.2661],[-81.1421,32.2716],[-81.1332,32.2697],[-81.1295,32.2762],[-81.1235,32.2751],[-81.1271,32.2823],[-81.1196,32.2868],[-81.1239,32.2952],[-81.1226,32.307],[-81.133,32.3085],[-81.1307,32.3258],[-81.138,32.3282],[-81.1291,32.3409],[-81.1439,32.3515],[-81.1473,32.3501],[-81.1453,32.3452],[-81.1597,32.3402],[-81.1546,32.3501],[-81.1609,32.3495],[-81.161,32.3559],[-81.1738,32.3627],[-81.168,32.369],[-81.1811,32.3788],[-81.1824,32.3733],[-81.2183,32.352],[-81.2577,32.3356],[-81.2676,32.3459],[-81.3107,32.3528],[-81.3157,32.3588],[-81.3246,32.3569],[-81.326,32.363],[-81.3369,32.3567],[-81.3305,32.3495],[-81.3445,32.3397],[-81.3429,32.33],[-81.3522,32.3256],[-81.3683,32.3343],[-81.3926,32.3303],[-81.3894,32.2937],[-81.4067,32.2952],[-81.4218,32.3045],[-81.419,32.3078],[-81.4533,32.2946],[-81.4477,32.2894],[-81.4499,32.2829],[-81.4454,32.2754],[-81.4382,32.2716],[-81.4417,32.2684],[-81.4351,32.2597],[-81.439,32.2554],[-81.4331,32.2456],[-81.4358,32.2413],[-81.7815,32.1525],[-81.7774,32.1322],[-81.7712,32.1314],[-81.7612,32.1196],[-81.7641,32.1163],[-81.7541,32.1117],[-81.7568,32.1048],[-81.7413,32.1046],[-81.7317,32.0962],[-81.7271,32.099],[-81.7187,32.0894],[-81.7617,32.0479],[-81.8134,32.0162],[-81.8244,32.0149],[-81.8546,31.9883],[-81.8628,31.9731],[-81.8761,31.9684],[-81.8896,31.949],[-81.8829,31.9412],[-81.882,31.9182],[-81.8949,31.9031],[-81.8925,31.895],[-81.9125,31.887],[-81.9201,31.871],[-81.9223,31.8515],[-81.945,31.8357],[-81.9551,31.8099],[-81.9799,31.8045],[-81.981,31.7914],[-81.9691,31.7893],[-81.9755,31.7827],[-81.9986,31.7941],[-81.9971,31.8004],[-82.0068,31.8],[-82.0164,31.8237],[-82.0211,31.8237],[-82.0261,31.8151],[-82.0415,31.8204],[-82.0661,31.8382],[-82.0813,31.8428],[-82.1063,31.8633],[-82.1155,31.8628],[-82.1078,31.8837],[-82.1129,31.9009],[-82.1195,31.886],[-82.1355,31.8917],[-82.1311,31.9038],[-82.1342,31.908],[-82.1451,31.8981],[-82.16,31.904],[-82.1913,31.9005],[-82.192,31.9065],[-82.2302,31.912],[-82.2358,31.9204],[-82.2468,31.9151],[-82.256,31.9321],[-82.2668,31.9284],[-82.2703,31.9359],[-82.2864,31.9424],[-82.3011,31.9333],[-82.3139,31.9471],[-82.3153,31.9428],[-82.3077,31.9373],[-82.3145,31.9308],[-82.3623,31.9437],[-82.3776,31.9419],[-82.3715,31.9535],[-82.3845,31.96],[-82.389,31.9578],[-82.3871,31.9482],[-82.4008,31.9603],[-82.4044,31.9579],[-82.402,31.9517],[-82.4072,31.9495],[-82.4084,31.9561],[-82.4315,31.9662],[-82.4314,31.838],[-82.5203,31.8384],[-82.5202,31.7492],[-82.5507,31.7491],[-82.5507,31.7363],[-82.5206,31.7362],[-82.5214,31.6725],[-82.6273,31.6727],[-82.6283,31.5583],[-82.5963,31.5579],[-82.5975,31.4693],[-82.6282,31.4694],[-82.6296,31.2747],[-82.6388,31.2745],[-82.6379,31.2777],[-82.6638,31.2881],[-82.6992,31.2781],[-82.701,31.2239]]]},"properties":{"name":"CD1","district_number":1,"fips":"13-01"}},{"type":"Feature","geometry":{"type":"Polygon","coordinates":[[[-85.1419,31.7822],[-85.1252,31.7671],[-85.1292,31.7587],[-85.1189,31.7327],[-85.1265,31.7168],[-85.1255,31.695],[-85.0924,31.66],[-85.0791,31.6548],[-85.0862,31.6386],[-85.0582,31.6202],[-85.058,31.5708],[-85.0414,31.5425],[-85.0483,31.526],[-85.045,31.5182],[-85.0716,31.4684],[-85.066,31.4305],[-85.0759,31.4249],[-85.08,31.4105],[-85.0776,31.3989],[-85.0923,31.364],[-85.0918,31.3552],[-85.0859,31.3531],[-85.0894,31.336],[-85.0837,31.3238],[-85.0898,31.295],[-85.0987,31.2845],[-85.1146,31.2773],[-85.1124,31.2596],[-85.0968,31.2257],[-85.0987,31.2113],[-85.107,31.2027],[-85.1075,31.1865],[-85.0985,31.1802],[-85.1002,31.1655],[-85.0766,31.1569],[-85.064,31.1425],[-85.0547,31.1208],[-85.0356,31.1082],[-85.0261,31.0842],[-85.0286,31.0746],[-85.0114,31.0535],[-85.0094,31.0324],[-84.9994,31.0138],[-85.0057,30.9759],[-84.9825,30.9656],[-84.9795,30.9556],[-84.9831,30.9348],[-84.971,30.9282],[-84.9667,30.9173],[-84.9344,30.8836],[-84.9398,30.8726],[-84.9323,30.8643],[-84.9361,30.857],[-84.9257,30.8427],[-84.9348,30.8359],[-84.9374,30.8209],[-84.9283,30.8051],[-84.9283,30.7931],[-84.918,30.7781],[-84.9201,30.766],[-84.9135,30.7523],[-84.8961,30.7506],[-84.8647,30.7115],[-83.7437,30.6584],[-83.7423,30.742],[-83.739,30.742],[-83.7362,31.0377],[-83.7808,31.0385],[-83.7811,31.0258],[-83.7931,31.026],[-83.7957,31.0387],[-84.0039,31.0416],[-84.0032,31.1023],[-84.0139,31.1024],[-84.0137,31.1118],[-84.003,31.1119],[-83.9977,31.4628],[-83.9826,31.4627],[-83.9824,31.4735],[-83.9975,31.476],[-83.9967,31.5517],[-83.9817,31.5516],[-83.9816,31.5633],[-83.9966,31.5635],[-83.9962,31.6252],[-84.0127,31.6246],[-84.0125,31.6336],[-84.0031,31.6336],[-84.0029,31.6417],[-83.9935,31.6414],[-83.9934,31.65],[-84.0184,31.6503],[-84.0125,31.6635],[-84.0221,31.6838],[-84.0197,31.693],[-84.0256,31.71],[-84.0329,31.7153],[-84.0078,31.7351],[-84.0035,31.7546],[-83.993,31.7576],[-83.9864,31.7654],[-83.9943,31.7782],[-83.9916,31.7849],[-84.008,31.7923],[-84.0084,31.8016],[-83.989,31.8069],[-83.9769,31.8033],[-83.9798,31.8124],[-83.9684,31.8335],[-83.9591,31.8344],[-83.9466,31.8491],[-83.9388,31.8481],[-83.9367,31.858],[-83.9265,31.8633],[-83.9341,31.8814],[-83.9285,31.8862],[-83.9324,31.8971],[-83.9225,31.9097],[-83.9193,31.9246],[-83.9264,31.937],[-83.9251,31.9484],[-83.9483,31.9915],[-83.9447,31.9962],[-83.9504,31.9972],[-83.9503,32.0154],[-83.9582,32.0203],[-83.9613,32.0306],[-83.6097,32.0279],[-83.6069,32.2378],[-83.6158,32.2417],[-83.6158,32.2512],[-83.6064,32.2513],[-83.6064,32.2884],[-83.7004,32.29],[-83.7003,32.2826],[-83.7188,32.2831],[-83.7184,32.2902],[-83.8484,32.291],[-83.8468,32.3577],[-83.8566,32.3578],[-83.8565,32.3824],[-83.837,32.3822],[-83.8367,32.4147],[-83.8367,32.4393],[-83.8462,32.4394],[-83.8467,32.4685],[-83.8417,32.4604],[-83.8278,32.4576],[-83.8276,32.4391],[-83.8171,32.4399],[-83.8171,32.4467],[-83.7977,32.447],[-83.7977,32.4966],[-83.7878,32.4965],[-83.7873,32.5128],[-83.7779,32.5129],[-83.778,32.5055],[-83.749,32.5052],[-83.7487,32.5342],[-83.7231,32.5211],[-83.7191,32.5982],[-83.7127,32.6106],[-83.7187,32.6106],[-83.7186,32.6314],[-83.709,32.6314],[-83.7091,32.6212],[-83.6897,32.6239],[-83.6898,32.6176],[-83.6449,32.6183],[-83.6525,32.6129],[-83.621,32.5978],[-83.6221,32.5832],[-83.6029,32.5839],[-83.5982,32.5767],[-83.5796,32.5736],[-83.5713,32.5786],[-83.5569,32.5785],[-83.5486,32.5718],[-83.5413,32.5774],[-83.5367,32.5746],[-83.5341,32.5857],[-83.54,32.5848],[-83.5372,32.5884],[-83.5417,32.5993],[-83.538,32.6029],[-83.549,32.6164],[-83.5415,32.6203],[-83.5451,32.6322],[-83.551,32.6348],[-83.5493,32.6421],[-83.5575,32.6448],[-83.5558,32.6525],[-83.5662,32.6608],[-83.5814,32.655],[-83.5858,32.6627],[-83.5977,32.6643],[-83.5998,32.6718],[-83.6068,32.6737],[-83.6058,32.6824],[-83.6111,32.6885],[-83.6064,32.691],[-83.6116,32.6949],[-83.6069,32.7015],[-83.6024,32.6996],[-83.605,32.7017],[-83.5968,32.7129],[-83.6042,32.7173],[-83.5989,32.7184],[-83.6008,32.7251],[-83.5965,32.7285],[-83.6001,32.7298],[-83.5951,32.7318],[-83.6024,32.7413],[-83.593,32.7389],[-83.5856,32.7448],[-83.5787,32.7381],[-83.4929,32.8051],[-83.4985,32.8151],[-83.4894,32.8241],[-83.5164,32.8472],[-83.5234,32.8413],[-83.5651,32.8772],[-83.5786,32.8651],[-83.5982,32.8878],[-83.6586,32.8878],[-83.6559,32.8775],[-83.648,32.8792],[-83.6447,32.8752],[-83.657,32.868],[-83.6625,32.8732],[-83.6624,32.8538],[-83.6819,32.8594],[-83.7114,32.8582],[-83.7145,32.8515],[-83.7048,32.8334],[-83.7248,32.8509],[-83.7406,32.8535],[-83.7445,32.861],[-83.7451,32.8345],[-83.7698,32.8294],[-83.7669,32.8194],[-83.7798,32.8242],[-83.7895,32.8179],[-83.7952,32.8223],[-83.8006,32.8185],[-83.8007,32.8225],[-83.813,32.8222],[-83.8169,32.8299],[-83.8375,32.8329],[-83.8728,32.8595],[-83.8919,32.8484],[-83.9684,32.8489],[-83.9683,32.8571],[-83.9781,32.8571],[-83.9784,32.8489],[-84.1243,32.8496],[-84.1243,32.8009],[-84.1493,32.8012],[-84.2026,32.69],[-84.2032,32.6975],[-84.2114,32.7013],[-84.2194,32.7203],[-84.2363,32.721],[-84.2292,32.7323],[-84.2358,32.7383],[-84.2564,32.7227],[-84.2627,32.7393],[-84.2843,32.7445],[-84.3014,32.7613],[-84.3161,32.7555],[-84.3251,32.7624],[-84.3361,32.7597],[-84.3536,32.7836],[-84.3574,32.7821],[-84.3556,32.7736],[-84.3825,32.7803],[-84.391,32.787],[-84.4084,32.8264],[-84.4212,32.8388],[-84.4342,32.8381],[-84.4427,32.8252],[-84.4566,32.8287],[-84.4588,32.8412],[-84.4673,32.853],[-84.4765,32.8561],[-84.4831,32.8523],[-84.4901,32.8569],[-84.4892,32.8623],[-84.4753,32.8725],[-84.4774,32.8777],[-84.4976,32.8836],[-84.5069,32.8818],[-84.5071,32.8775],[-84.5707,32.8452],[-84.7005,32.8446],[-84.6924,32.8294],[-84.6931,32.7388],[-84.6879,32.7388],[-84.688,32.7304],[-84.6829,32.7303],[-84.6829,32.7228],[-84.6932,32.7226],[-84.6934,32.7081],[-84.6997,32.7082],[-84.6996,32.7009],[-84.7032,32.7007],[-84.7032,32.6862],[-84.6938,32.6857],[-84.6946,32.5839],[-84.9079,32.5834],[-84.9077,32.6076],[-84.9818,32.6077],[-84.9777,32.5862],[-84.969,32.5717],[-84.9734,32.5566],[-84.9669,32.542],[-84.9511,32.5482],[-84.9373,32.5629],[-84.9277,32.5566],[-84.924,32.5397],[-84.9338,32.5396],[-84.9313,32.5303],[-84.9351,32.5197],[-84.9289,32.5239],[-84.9225,32.5221],[-84.9331,32.5171],[-84.9363,32.5085],[-84.9501,32.5064],[-84.9597,32.4992],[-84.9569,32.4849],[-84.9673,32.4822],[-84.9674,32.4918],[-84.9761,32.4862],[-84.9837,32.4905],[-84.9701,32.5165],[-84.989,32.5215],[-84.9923,32.5104],[-84.9993,32.5073],[-84.9953,32.4532],[-84.9718,32.4428],[-84.963,32.4242],[-84.9794,32.4122],[-84.981,32.4061],[-84.9799,32.4001],[-84.9687,32.3915],[-84.983,32.392],[-84.9884,32.3852],[-84.9863,32.3803],[-84.9722,32.3769],[-84.9853,32.3725],[-84.9835,32.3632],[-85.0046,32.3452],[-85.0071,32.3284],[-85.0019,32.322],[-84.9346,32.2989],[-84.8883,32.2593],[-84.9012,32.2584],[-84.9072,32.249],[-84.9244,32.2501],[-84.9232,32.2446],[-84.9127,32.2434],[-84.9282,32.2199],[-84.9733,32.2177],[-84.9802,32.2078],[-84.9646,32.2036],[-84.9637,32.1959],[-85.0113,32.1805],[-85.0456,32.1438],[-85.0619,32.1329],[-85.0448,32.0858],[-85.0558,32.0744],[-85.0588,32.047],[-85.0535,32.0378],[-85.0571,32.0299],[-85.0488,32.0217],[-85.0537,32.0207],[-85.0551,32.0107],[-85.0673,31.9956],[-85.0709,31.9817],[-85.0678,31.9674],[-85.0867,31.9592],[-85.0789,31.9402],[-85.1131,31.9119],[-85.108,31.9052],[-85.1122,31.9028],[-85.112,31.8948],[-85.1341,31.8922],[-85.1284,31.8776],[-85.1407,31.8575],[-85.1377,31.8459],[-85.1418,31.8393],[-85.1319,31.8271],[-85.1322,31.7952],[-85.1419,31.7822]]]},"properties":{"name":"CD2","district_number":2,"fips":"13-02"}},{"type":"Feature","geometry":{"type":"Polygon","coordinates":[[[-85.3866,33.9017],[-85.1844,32.8613],[-85.1771,32.8539],[-85.1623,32.8565],[-85.1563,32.8505],[-85.154,32.8407],[-85.1683,32.8285],[-85.1648,32.8198],[-85.168,32.8118],[-85.152,32.7942],[-85.1422,32.7921],[-85.1397,32.7852],[-85.1223,32.7744],[-85.1367,32.7712],[-85.143,32.7599],[-85.1331,32.7446],[-85.1133,32.7358],[-85.1227,32.716],[-85.117,32.692],[-85.1126,32.6834],[-85.0935,32.6697],[-85.0885,32.6578],[-85.1043,32.6464],[-85.1045,32.641],[-85.1001,32.6346],[-85.0831,32.6362],[-85.0909,32.6251],[-85.0822,32.6163],[-85.0675,32.5795],[-85.0357,32.554],[-85.0314,32.5442],[-85.0208,32.5428],[-85.0202,32.5347],[-85.0071,32.5239],[-84.9993,32.5073],[-84.9923,32.5104],[-84.989,32.5215],[-84.9701,32.5165],[-84.9836,32.4887],[-84.9761,32.4862],[-84.9674,32.4918],[-84.9673,32.4822],[-84.9569,32.4849],[-84.9597,32.4992],[-84.9501,32.5064],[-84.9363,32.5085],[-84.9331,32.5171],[-84.9225,32.5234],[-84.9351,32.5197],[-84.9313,32.5303],[-84.9338,32.5396],[-84.924,32.5397],[-84.9277,32.5566],[-84.9373,32.5629],[-84.9511,32.5482],[-84.9669,32.542],[-84.9734,32.5566],[-84.969,32.5717],[-84.9777,32.5862],[-84.9818,32.6077],[-84.9077,32.6076],[-84.9079,32.5834],[-84.6946,32.5839],[-84.6938,32.6857],[-84.7032,32.6862],[-84.7032,32.7007],[-84.6996,32.7009],[-84.6997,32.7082],[-84.6934,32.7081],[-84.6932,32.7226],[-84.6829,32.7228],[-84.6829,32.7303],[-84.688,32.7304],[-84.6879,32.7388],[-84.6931,32.7388],[-84.6924,32.8294],[-84.7005,32.8446],[-84.5707,32.8452],[-84.5071,32.8775],[-84.5069,32.8818],[-84.4976,32.8836],[-84.4774,32.8777],[-84.4753,32.8725],[-84.4892,32.8623],[-84.4901,32.8569],[-84.4831,32.8523],[-84.4765,32.8561],[-84.4673,32.853],[-84.4588,32.8412],[-84.4566,32.8287],[-84.4427,32.8252],[-84.4342,32.8381],[-84.4212,32.8388],[-84.4084,32.8264],[-84.391,32.787],[-84.3825,32.7803],[-84.3556,32.7736],[-84.3574,32.7821],[-84.3536,32.7836],[-84.3361,32.7597],[-84.3251,32.7624],[-84.3161,32.7555],[-84.3014,32.7613],[-84.2843,32.7445],[-84.2627,32.7393],[-84.2564,32.7227],[-84.2358,32.7383],[-84.2292,32.7323],[-84.2363,32.721],[-84.2194,32.7203],[-84.2114,32.7013],[-84.2032,32.6975],[-84.2026,32.69],[-84.1493,32.8012],[-84.1243,32.8009],[-84.1233,32.9322],[-84.0542,32.9315],[-84.0536,32.948],[-84.0441,32.9479],[-84.0409,33.1676],[-84.0415,33.2026],[-84.1238,33.2028],[-84.123,33.2445],[-84.1181,33.2444],[-84.1226,33.2527],[-84.089,33.2856],[-84.1029,33.2989],[-84.1312,33.3023],[-84.145,33.3165],[-84.1509,33.313],[-84.1506,33.3356],[-84.2473,33.3358],[-84.2469,33.371],[-84.2395,33.3764],[-84.2194,33.3776],[-84.2125,33.3931],[-84.2155,33.4059],[-84.1969,33.4137],[-84.1814,33.4275],[-84.2034,33.4519],[-84.2727,33.4357],[-84.3043,33.4357],[-84.3042,33.4274],[-84.3234,33.428],[-84.3232,33.4359],[-84.3536,33.4362],[-84.3544,33.3525],[-84.3881,33.3525],[-84.3951,33.3605],[-84.3925,33.3666],[-84.3963,33.3734],[-84.3865,33.3765],[-84.3948,33.3944],[-84.3841,33.4025],[-84.3881,33.4117],[-84.3931,33.412],[-84.3931,33.42],[-84.4023,33.4201],[-84.4022,33.4364],[-84.3926,33.4365],[-84.3925,33.4445],[-84.3837,33.4444],[-84.3888,33.4503],[-84.3816,33.463],[-84.3871,33.4766],[-84.3975,33.4857],[-84.4107,33.4778],[-84.4224,33.456],[-84.441,33.469],[-84.4469,33.4683],[-84.4415,33.4744],[-84.4694,33.4881],[-84.4735,33.474],[-84.4858,33.4743],[-84.4846,33.4486],[-84.4958,33.4484],[-84.4946,33.4639],[-84.5095,33.4941],[-84.5573,33.5148],[-84.5569,33.5285],[-84.5942,33.5194],[-84.6066,33.5105],[-84.6094,33.5026],[-84.6211,33.5031],[-84.6213,33.5113],[-84.8512,33.5111],[-84.8445,33.5148],[-84.8281,33.5134],[-84.8155,33.5211],[-84.8331,33.5457],[-84.8256,33.5623],[-84.8102,33.5719],[-84.8062,33.5859],[-84.7968,33.5955],[-84.7623,33.6152],[-84.7529,33.6287],[-84.7639,33.633],[-84.7678,33.6438],[-84.7524,33.6586],[-84.7607,33.6635],[-84.7636,33.6722],[-84.7588,33.6822],[-84.7474,33.6712],[-84.7492,33.6883],[-84.7653,33.703],[-84.7475,33.7085],[-84.766,33.7166],[-84.7621,33.7279],[-84.7768,33.7232],[-84.7771,33.7454],[-84.7812,33.7506],[-84.7675,33.7869],[-84.8327,33.776],[-84.8792,33.7748],[-84.9712,33.7996],[-85.0379,33.8119],[-85.0367,33.9043],[-85.2128,33.9063],[-85.2128,33.8992],[-85.3866,33.9017]]]},"properties":{"name":"CD3","district_number":3,"fips":"13-03"}},{"type":"Feature","geometry":{"type":"Polygon","coordinates":[[[-84.3482,33.8861],[-84.3467,33.8815],[-84.33,33.8804],[-84.3302,33.8738],[-84.3202,33.8792],[-84.3094,33.8768],[-84.3097,33.8616],[-84.3155,33.8502],[-84.3132,33.8406],[-84.2894,33.8568],[-84.2644,33.8557],[-84.2535,33.8465],[-84.247,33.8464],[-84.2524,33.8273],[-84.2508,33.8162],[-84.2467,33.8183],[-84.2501,33.8032],[-84.2639,33.7936],[-84.2557,33.7987],[-84.2489,33.7958],[-84.2474,33.8025],[-84.2485,33.7832],[-84.2413,33.778],[-84.2516,33.7686],[-84.2497,33.7501],[-84.2597,33.7445],[-84.252,33.7379],[-84.2695,33.7382],[-84.2671,33.7317],[-84.2832,33.7318],[-84.2921,33.7267],[-84.2952,33.7164],[-84.3056,33.7153],[-84.2994,33.7063],[-84.3028,33.6959],[-84.307,33.6893],[-84.3216,33.6868],[-84.321,33.6817],[-84.3079,33.6796],[-84.306,33.6624],[-84.2839,33.6657],[-84.2826,33.6599],[-84.2726,33.6614],[-84.2687,33.6675],[-84.2568,33.6677],[-84.2576,33.6793],[-84.2439,33.6798],[-84.2411,33.6778],[-84.2447,33.6744],[-84.2398,33.6738],[-84.2439,33.671],[-84.2368,33.6639],[-84.222,33.6666],[-84.2101,33.6583],[-84.2113,33.6657],[-84.1972,33.6654],[-84.1892,33.6584],[-84.1874,33.6462],[-84.1702,33.6459],[-84.1731,33.641],[-84.1616,33.6378],[-84.1545,33.6457],[-84.1512,33.6388],[-84.1383,33.6377],[-84.1405,33.6315],[-84.1292,33.6314],[-84.1158,33.6147],[-84.0566,33.7266],[-84.0237,33.7528],[-84.0403,33.7577],[-84.0582,33.7728],[-84.0759,33.7775],[-84.0979,33.7995],[-84.1134,33.8075],[-84.1334,33.8335],[-84.158,33.8533],[-84.2077,33.8779],[-84.1812,33.8817],[-84.1672,33.894],[-84.1723,33.8996],[-84.1628,33.8958],[-84.1534,33.9049],[-84.1325,33.9122],[-84.139,33.9218],[-84.1129,33.9237],[-84.1011,33.9166],[-84.1079,33.9411],[-84.0903,33.9387],[-84.0874,33.9411],[-84.0927,33.9523],[-84.0826,33.9534],[-84.0795,33.9625],[-84.0606,33.9605],[-84.084,33.9874],[-84.074,34.0012],[-84.0839,34.003],[-84.0967,34.0167],[-84.0986,34.0271],[-84.0892,34.0326],[-84.1043,34.0341],[-84.1193,34.028],[-84.1212,34.0343],[-84.1688,34.0285],[-84.1809,33.9987],[-84.1927,33.9908],[-84.2044,33.9897],[-84.2021,33.997],[-84.2129,34.0039],[-84.2475,33.9986],[-84.2541,33.9864],[-84.2632,33.9864],[-84.2627,33.9735],[-84.2581,33.9682],[-84.2804,33.956],[-84.3368,33.9709],[-84.3474,33.9681],[-84.3482,33.8861]]]},"properties":{"name":"CD4","district_number":4,"fips":"13-04"}},{"type":"Feature","geometry":{"type":"Polygon","coordinates":[[[-84.5228,33.6644],[-84.5216,33.6558],[-84.4978,33.6566],[-84.4903,33.6333],[-84.4773,33.6332],[-84.479,33.6241],[-84.4724,33.6284],[-84.4724,33.6359],[-84.458,33.6292],[-84.4587,33.5509],[-84.4394,33.5507],[-84.4335,33.5243],[-84.4204,33.5096],[-84.4206,33.494],[-84.3954,33.4868],[-84.3863,33.499],[-84.3882,33.5037],[-84.3817,33.5081],[-84.3908,33.5107],[-84.3907,33.517],[-84.38,33.518],[-84.3807,33.5353],[-84.3751,33.5391],[-84.3756,33.5465],[-84.386,33.5581],[-84.3334,33.553],[-84.3201,33.5649],[-84.3285,33.573],[-84.3079,33.5722],[-84.3031,33.5761],[-84.3019,33.5935],[-84.2942,33.5916],[-84.3129,33.6286],[-84.3096,33.6376],[-84.3156,33.6434],[-84.2964,33.6475],[-84.3234,33.6477],[-84.3173,33.6559],[-84.302,33.6605],[-84.3064,33.6629],[-84.3079,33.6796],[-84.321,33.6817],[-84.3215,33.6889],[-84.3062,33.6899],[-84.2994,33.7063],[-84.3056,33.7153],[-84.2952,33.7164],[-84.2913,33.7274],[-84.2671,33.7317],[-84.2695,33.7382],[-84.252,33.7379],[-84.2597,33.7445],[-84.2497,33.7501],[-84.2516,33.7686],[-84.2413,33.778],[-84.2485,33.7832],[-84.2474,33.8025],[-84.2489,33.7958],[-84.2557,33.7987],[-84.2639,33.7936],[-84.2501,33.8032],[-84.2467,33.8183],[-84.2508,33.8162],[-84.2524,33.8273],[-84.247,33.8464],[-84.2535,33.8465],[-84.2644,33.8557],[-84.2894,33.8568],[-84.3132,33.8406],[-84.3155,33.8502],[-84.3097,33.8616],[-84.3094,33.8768],[-84.3202,33.8792],[-84.3302,33.8738],[-84.33,33.8804],[-84.3481,33.8821],[-84.3485,33.8251],[-84.386,33.8118],[-84.3922,33.8116],[-84.3901,33.8181],[-84.4005,33.8157],[-84.4076,33.8203],[-84.4078,33.8031],[-84.4241,33.8011],[-84.4173,33.7941],[-84.4199,33.7871],[-84.4326,33.7863],[-84.4517,33.7936],[-84.4597,33.7892],[-84.457,33.7832],[-84.4645,33.7875],[-84.4667,33.7774],[-84.4737,33.7763],[-84.473,33.7703],[-84.4827,33.7665],[-84.4819,33.7548],[-84.5018,33.7495],[-84.5084,33.7396],[-84.5058,33.7316],[-84.5018,33.7316],[-84.5019,33.7239],[-84.4964,33.725],[-84.4964,33.7191],[-84.5059,33.7154],[-84.5116,33.6825],[-84.5228,33.6644]]]},"properties":{"name":"CD5","district_number":5,"fips":"13-05"}},{"type":"Feature","geometry":{"type":"Polygon","coordinates":[[[-84.8506,33.5119],[-84.6213,33.5113],[-84.6211,33.5031],[-84.6094,33.5026],[-84.6066,33.5105],[-84.5942,33.5194],[-84.5569,33.5285],[-84.5573,33.5148],[-84.5095,33.4941],[-84.4946,33.4639],[-84.4958,33.4484],[-84.4846,33.4486],[-84.4858,33.4743],[-84.4735,33.474],[-84.4694,33.4881],[-84.4415,33.4744],[-84.4469,33.4683],[-84.441,33.469],[-84.4224,33.456],[-84.4107,33.4778],[-84.3975,33.4857],[-84.4097,33.4939],[-84.4206,33.494],[-84.4204,33.5096],[-84.4335,33.5243],[-84.4394,33.5507],[-84.4587,33.5509],[-84.458,33.6292],[-84.4724,33.6359],[-84.4724,33.6284],[-84.479,33.6241],[-84.4773,33.6332],[-84.4903,33.6333],[-84.4978,33.6566],[-84.5216,33.6558],[-84.5228,33.6649],[-84.5116,33.6825],[-84.5059,33.7154],[-84.4964,33.7191],[-84.4964,33.725],[-84.5019,33.7239],[-84.5018,33.7316],[-84.5058,33.7316],[-84.5084,33.7396],[-84.5007,33.7504],[-84.4819,33.7548],[-84.4827,33.7665],[-84.473,33.7703],[-84.4737,33.7763],[-84.4667,33.7774],[-84.4645,33.7875],[-84.4574,33.7829],[-84.4597,33.7892],[-84.4491,33.7945],[-84.4326,33.7863],[-84.4208,33.7866],[-84.4173,33.7938],[-84.4241,33.8011],[-84.4078,33.8031],[-84.4076,33.8203],[-84.4005,33.8157],[-84.3901,33.8181],[-84.3922,33.8116],[-84.386,33.8118],[-84.3485,33.8251],[-84.3478,33.9298],[-84.3521,33.9326],[-84.3734,33.9244],[-84.4034,33.9281],[-84.408,33.9244],[-84.4067,33.9158],[-84.4204,33.9149],[-84.447,33.8998],[-84.4639,33.9054],[-84.4668,33.918],[-84.4747,33.912],[-84.4875,33.9172],[-84.4904,33.91],[-84.4962,33.9125],[-84.5008,33.9086],[-84.5035,33.8993],[-84.515,33.8986],[-84.5182,33.9054],[-84.5258,33.904],[-84.5398,33.9168],[-84.5448,33.9163],[-84.5443,33.9216],[-84.5582,33.9108],[-84.5576,33.9022],[-84.5672,33.9031],[-84.5729,33.8985],[-84.5819,33.9035],[-84.5937,33.9019],[-84.5968,33.9111],[-84.604,33.9053],[-84.6458,33.8967],[-84.6665,33.9022],[-84.7241,33.9036],[-84.7241,33.7886],[-84.7675,33.7869],[-84.774,33.7658],[-84.7808,33.7595],[-84.7768,33.7232],[-84.7621,33.7279],[-84.766,33.7166],[-84.7475,33.7085],[-84.7653,33.703],[-84.7492,33.6883],[-84.7474,33.6712],[-84.7588,33.6822],[-84.7636,33.6722],[-84.7607,33.6635],[-84.7524,33.6586],[-84.7678,33.6438],[-84.7639,33.633],[-84.7529,33.6287],[-84.7623,33.6152],[-84.7968,33.5955],[-84.8062,33.5859],[-84.8102,33.5719],[-84.8256,33.5623],[-84.8331,33.5457],[-84.8155,33.5211],[-84.8281,33.5134],[-84.8506,33.5119]]]},"properties":{"name":"CD6","district_number":6,"fips":"13-06"}},{"type":"Feature","geometry":{"type":"Polygon","coordinates":[[[-84.4477,33.9088],[-84.4426,33.9016],[-84.4204,33.9149],[-84.4067,33.9158],[-84.408,33.9244],[-84.4034,33.9281],[-84.3734,33.9244],[-84.3521,33.9326],[-84.3478,33.9298],[-84.3474,33.9681],[-84.3368,33.9709],[-84.2804,33.956],[-84.2581,33.9682],[-84.2627,33.9735],[-84.2632,33.9864],[-84.2541,33.9864],[-84.2483,33.9983],[-84.2129,34.0039],[-84.2021,33.997],[-84.2044,33.9897],[-84.1927,33.9908],[-84.1809,33.9987],[-84.169,34.0284],[-84.1166,34.0362],[-84.0976,34.0503],[-84.1179,34.0656],[-84.1101,34.098],[-84.1016,34.1051],[-84.1016,34.1164],[-84.0935,34.1258],[-84.0948,34.1322],[-84.0855,34.1424],[-84.0858,34.1483],[-84.0746,34.1637],[-84.0622,34.1685],[-83.9021,34.1107],[-83.8918,34.1226],[-83.878,34.1234],[-83.8857,34.1444],[-83.8656,34.1518],[-83.8545,34.1868],[-83.8585,34.1935],[-83.876,34.1914],[-83.8884,34.1964],[-83.898,34.1913],[-83.9187,34.2],[-83.9059,34.2249],[-83.8935,34.2372],[-83.8913,34.2548],[-83.873,34.2574],[-83.8685,34.269],[-83.8598,34.2744],[-83.8774,34.28],[-83.8651,34.2834],[-83.8645,34.2954],[-83.8838,34.3016],[-83.8796,34.3041],[-83.8799,34.3219],[-83.9056,34.3351],[-83.8969,34.3562],[-83.8793,34.3604],[-83.8787,34.3678],[-83.8711,34.3725],[-83.8765,34.3925],[-83.8937,34.4009],[-83.9068,34.421],[-83.9351,34.449],[-83.9207,34.4511],[-83.9207,34.4601],[-83.9319,34.4605],[-83.9319,34.4693],[-83.9098,34.4692],[-83.91,34.4598],[-83.8876,34.4599],[-83.8876,34.4688],[-83.8433,34.497],[-83.8431,34.5154],[-83.8376,34.5153],[-83.8378,34.5213],[-83.8329,34.5235],[-83.8328,34.5323],[-83.8438,34.5324],[-83.8438,34.5414],[-83.8537,34.5415],[-83.8537,34.5507],[-83.8644,34.5506],[-83.8645,34.6156],[-83.8728,34.6156],[-83.8774,34.6287],[-83.8711,34.6399],[-83.8755,34.6431],[-83.8717,34.6569],[-83.8764,34.661],[-83.8709,34.6686],[-83.8746,34.6746],[-83.8605,34.6962],[-83.8575,34.723],[-83.8698,34.7274],[-83.8774,34.7233],[-83.8931,34.7258],[-83.9001,34.7322],[-83.9182,34.7349],[-83.9213,34.7345],[-83.9166,34.727],[-83.9643,34.7271],[-83.9895,34.7076],[-83.9864,34.7002],[-83.9921,34.6959],[-83.9947,34.6782],[-84.0246,34.6702],[-84.0304,34.6526],[-84.0385,34.6517],[-84.0365,34.6419],[-84.0482,34.6409],[-84.0677,34.648],[-84.0715,34.657],[-84.0885,34.6513],[-84.128,34.6642],[-84.1377,34.6605],[-84.138,34.6529],[-84.1463,34.6466],[-84.1518,34.6513],[-84.158,34.6482],[-84.1886,34.6027],[-84.1968,34.6179],[-84.2141,34.6101],[-84.2239,34.597],[-84.2547,34.5975],[-84.2551,34.5683],[-84.2758,34.5737],[-84.2789,34.5696],[-84.2922,34.569],[-84.3071,34.5814],[-84.3132,34.5777],[-84.3287,34.5836],[-84.3366,34.5792],[-84.3315,34.5725],[-84.3464,34.5665],[-84.3457,34.5484],[-84.3197,34.4679],[-84.2569,34.4673],[-84.2576,34.381],[-84.3921,34.3807],[-84.3922,34.3733],[-84.4008,34.3733],[-84.4007,34.3805],[-84.4138,34.3778],[-84.3989,34.3713],[-84.4048,34.3644],[-84.3996,34.3647],[-84.4031,34.3594],[-84.3981,34.3551],[-84.406,34.3593],[-84.4065,34.3555],[-84.4095,34.3614],[-84.4184,34.354],[-84.4019,34.3312],[-84.411,34.3362],[-84.4097,34.3308],[-84.4195,34.3245],[-84.3934,34.302],[-84.3977,34.2983],[-84.4098,34.2996],[-84.3975,34.2919],[-84.4067,34.285],[-84.407,34.2778],[-84.4313,34.2771],[-84.4177,34.268],[-84.4231,34.2624],[-84.4184,34.2532],[-84.4065,34.2479],[-84.4112,34.2384],[-84.4061,34.2232],[-84.3965,34.2121],[-84.422,34.1957],[-84.4301,34.1996],[-84.4456,34.1946],[-84.4351,34.1822],[-84.4423,34.1679],[-84.4157,34.1692],[-84.4232,34.1397],[-84.4309,34.1398],[-84.4268,34.1249],[-84.4216,34.1218],[-84.4101,34.1258],[-84.3883,34.1182],[-84.3995,34.1097],[-84.4184,34.109],[-84.4191,34.0552],[-84.4021,34.0351],[-84.3982,34.022],[-84.4008,34.0083],[-84.3963,34.0081],[-84.3898,33.9948],[-84.3758,33.9885],[-84.3751,33.9785],[-84.3845,33.9711],[-84.3829,33.9641],[-84.3891,33.9574],[-84.4172,33.9325],[-84.4367,33.9228],[-84.4477,33.9088]]]},"properties":{"name":"CD7","district_number":7,"fips":"13-07"}},{"type":"Feature","geometry":{"type":"Polygon","coordinates":[[[-84.1243,32.8525],[-83.9784,32.8489],[-83.9781,32.8571],[-83.9683,32.8571],[-83.9684,32.8489],[-83.8919,32.8484],[-83.8728,32.8595],[-83.8372,32.8328],[-83.817,32.83],[-83.813,32.8222],[-83.8007,32.8225],[-83.8006,32.8185],[-83.7952,32.8223],[-83.7895,32.8179],[-83.7816,32.8203],[-83.7832,32.8242],[-83.7664,32.8195],[-83.7698,32.8294],[-83.7451,32.8345],[-83.7445,32.8611],[-83.7406,32.8535],[-83.7248,32.8509],[-83.7048,32.8334],[-83.7145,32.8515],[-83.7114,32.8582],[-83.6819,32.8594],[-83.6624,32.8538],[-83.6625,32.8732],[-83.657,32.868],[-83.6447,32.8752],[-83.648,32.8792],[-83.6559,32.8775],[-83.6586,32.8878],[-83.5982,32.8878],[-83.5786,32.8651],[-83.5651,32.8772],[-83.5234,32.8413],[-83.5164,32.8472],[-83.4894,32.8241],[-83.4985,32.8151],[-83.4929,32.8051],[-83.5787,32.7381],[-83.5856,32.7448],[-83.593,32.7389],[-83.6024,32.7413],[-83.5951,32.7318],[-83.6001,32.7298],[-83.5965,32.7285],[-83.6008,32.7251],[-83.5989,32.7184],[-83.6042,32.7173],[-83.5968,32.7129],[-83.605,32.7017],[-83.6024,32.6996],[-83.6069,32.7015],[-83.6116,32.6949],[-83.6064,32.691],[-83.6111,32.6885],[-83.6058,32.6824],[-83.6068,32.6737],[-83.5998,32.6718],[-83.5977,32.6643],[-83.5858,32.6627],[-83.5814,32.655],[-83.5662,32.6608],[-83.5558,32.6525],[-83.5575,32.6448],[-83.5493,32.6421],[-83.551,32.6348],[-83.5451,32.6322],[-83.5415,32.6203],[-83.549,32.6164],[-83.538,32.6029],[-83.5417,32.5993],[-83.5372,32.5884],[-83.54,32.5848],[-83.5341,32.5857],[-83.5367,32.5746],[-83.5413,32.5774],[-83.5486,32.5718],[-83.5569,32.5785],[-83.5713,32.5786],[-83.5796,32.5736],[-83.5982,32.5767],[-83.6029,32.5839],[-83.6221,32.5832],[-83.621,32.5978],[-83.6525,32.6129],[-83.6449,32.6183],[-83.6898,32.6176],[-83.6897,32.6239],[-83.7091,32.6212],[-83.709,32.6314],[-83.7186,32.6314],[-83.7187,32.6106],[-83.7127,32.6106],[-83.7191,32.5982],[-83.7231,32.5211],[-83.7487,32.5342],[-83.749,32.5052],[-83.778,32.5055],[-83.7779,32.5129],[-83.7873,32.5128],[-83.7878,32.4965],[-83.7977,32.4966],[-83.7977,32.447],[-83.8171,32.4467],[-83.8171,32.4399],[-83.8276,32.4391],[-83.8278,32.4576],[-83.8417,32.4604],[-83.8467,32.4685],[-83.8462,32.4394],[-83.8367,32.4393],[-83.8367,32.4147],[-83.837,32.3822],[-83.8565,32.3824],[-83.8566,32.3578],[-83.8468,32.3577],[-83.8484,32.291],[-83.7184,32.2902],[-83.7188,32.2831],[-83.7003,32.2826],[-83.7004,32.29],[-83.6064,32.2884],[-83.6064,32.2513],[-83.6158,32.2512],[-83.6158,32.2417],[-83.6069,32.2378],[-83.6097,32.0279],[-83.9613,32.0306],[-83.9582,32.0203],[-83.9503,32.0154],[-83.9504,31.9972],[-83.9447,31.9962],[-83.9483,31.9915],[-83.9251,31.9484],[-83.9264,31.937],[-83.9193,31.9246],[-83.9225,31.9097],[-83.9324,31.8971],[-83.9285,31.8862],[-83.9341,31.8814],[-83.9265,31.8633],[-83.9367,31.858],[-83.9388,31.8481],[-83.9466,31.8491],[-83.9591,31.8344],[-83.9684,31.8335],[-83.9798,31.8124],[-83.9769,31.8033],[-83.989,31.8069],[-84.0084,31.8016],[-84.008,31.7923],[-83.9916,31.7849],[-83.9943,31.7782],[-83.9864,31.7654],[-83.993,31.7576],[-84.0035,31.7546],[-84.0078,31.7351],[-84.0329,31.7153],[-84.0256,31.71],[-84.0197,31.693],[-84.0221,31.6838],[-84.0125,31.6635],[-84.0184,31.6503],[-83.9934,31.65],[-83.9935,31.6414],[-84.0029,31.6417],[-84.0031,31.6336],[-84.0125,31.6336],[-84.0127,31.6246],[-83.9962,31.6252],[-83.9966,31.5635],[-83.9816,31.5633],[-83.9817,31.5516],[-83.9967,31.5517],[-83.9975,31.476],[-83.9824,31.4735],[-83.9826,31.4627],[-83.9977,31.4628],[-84.003,31.1119],[-84.0137,31.1118],[-84.0139,31.1024],[-84.0032,31.1023],[-84.0039,31.0416],[-83.7957,31.0387],[-83.7931,31.026],[-83.7811,31.0258],[-83.7808,31.0385],[-83.7362,31.0377],[-83.739,30.742],[-83.7423,30.742],[-83.7437,30.6584],[-82.4189,30.5818],[-82.4188,30.6131],[-82.4309,30.6128],[-82.4289,30.6903],[-82.4351,30.7166],[-82.42,30.7166],[-82.4201,30.7292],[-82.4352,30.7291],[-82.4359,30.8201],[-82.4955,30.8196],[-82.4906,30.9632],[-82.5201,30.9631],[-82.537,30.9857],[-82.5458,30.9897],[-82.5506,31.0009],[-82.5921,31.0185],[-82.6897,31.2214],[-82.7011,31.2232],[-82.6992,31.2781],[-82.6638,31.2881],[-82.6379,31.2777],[-82.6388,31.2745],[-82.6296,31.2747],[-82.6282,31.4694],[-82.5975,31.4693],[-82.5963,31.5579],[-82.6283,31.5583],[-82.6273,31.6727],[-82.5214,31.6725],[-82.5206,31.7362],[-82.5507,31.7363],[-82.5507,31.7491],[-82.5202,31.7492],[-82.5203,31.8384],[-82.4314,31.838],[-82.4315,31.9662],[-82.4576,31.9638],[-82.4785,31.9717],[-82.4919,31.9685],[-82.4991,31.9572],[-82.4799,31.9558],[-82.4923,31.9486],[-82.5331,31.9614],[-82.5452,31.9554],[-82.5634,31.9576],[-82.5948,31.9316],[-82.6025,31.9381],[-82.6146,31.9267],[-82.6221,31.9292],[-82.6242,31.9236],[-82.6351,31.9251],[-82.6457,31.9189],[-82.6548,31.924],[-82.6528,31.9289],[-82.6698,31.9342],[-82.6952,31.9569],[-82.697,31.9673],[-82.7104,31.9759],[-82.7254,32.0045],[-82.7614,32.01],[-82.7829,32.0198],[-82.8081,32.0495],[-82.8327,32.0596],[-82.8559,32.0618],[-82.8665,32.0725],[-82.8877,32.0799],[-82.9005,32.0952],[-82.902,32.1103],[-82.9147,32.1232],[-82.9402,32.1249],[-82.8718,32.1827],[-82.887,32.198],[-82.991,32.1473],[-82.9941,32.1528],[-83.2265,32.5842],[-83.0408,32.6733],[-82.9571,32.7083],[-82.9473,32.7366],[-82.947,32.7595],[-82.9503,32.762],[-82.9487,32.7582],[-82.9539,32.7563],[-82.9602,32.76],[-82.9583,32.7968],[-82.9543,32.8016],[-82.9719,32.8231],[-82.9671,32.8276],[-82.9735,32.8305],[-82.9706,32.8352],[-82.9794,32.8396],[-82.9787,32.8443],[-82.9905,32.8485],[-82.989,32.8527],[-83.027,32.8561],[-83.0302,32.8665],[-83.0367,32.8683],[-83.0378,32.8805],[-83.0489,32.8828],[-83.0439,32.8857],[-83.0486,32.8878],[-83.0516,32.9018],[-83.0464,32.9054],[-83.0483,32.9101],[-83.0551,32.9095],[-83.0524,32.9139],[-83.056,32.92],[-83.0629,32.9197],[-83.0569,32.926],[-83.064,32.9297],[-83.0597,32.9306],[-83.0611,32.9346],[-83.0713,32.9331],[-83.067,32.9365],[-83.0736,32.9466],[-83.0691,32.9524],[-83.0693,32.9721],[-83.0578,32.9746],[-83.0488,32.9864],[-83.0516,33.0039],[-83.0677,33.0274],[-83.0552,33.0372],[-83.0556,33.0463],[-83.0443,33.064],[-83.0522,33.0807],[-83.0725,33.0645],[-83.084,33.0637],[-83.1028,33.0514],[-83.1188,33.0871],[-83.108,33.119],[-83.1106,33.1273],[-83.0986,33.1331],[-83.0955,33.1409],[-83.0975,33.1514],[-83.1954,33.1763],[-83.2911,33.1904],[-83.3038,33.1808],[-83.3187,33.1834],[-83.3152,33.1759],[-83.3182,33.1696],[-83.3283,33.1751],[-83.3306,33.1675],[-83.3462,33.1711],[-83.3544,33.1798],[-83.3636,33.1799],[-83.3632,33.1691],[-83.3743,33.172],[-83.3881,33.1856],[-83.4023,33.182],[-83.4064,33.1853],[-83.4181,33.1773],[-83.4368,33.1858],[-83.816,33.1318],[-83.814,33.1483],[-83.8243,33.1623],[-83.8223,33.1802],[-83.8326,33.1847],[-83.8429,33.1969],[-83.8523,33.1948],[-83.8596,33.2006],[-83.877,33.2024],[-84.0415,33.2026],[-84.0441,32.9479],[-84.0536,32.948],[-84.0542,32.9315],[-84.1233,32.9322],[-84.1243,32.8525]]]},"properties":{"name":"CD8","district_number":8,"fips":"13-08"}},{"type":"Feature","geometry":{"type":"Polygon","coordinates":[[[-84.6571,34.7289],[-84.6541,34.549],[-84.5214,34.5505],[-84.5205,34.5567],[-84.5117,34.5567],[-84.5115,34.5636],[-84.5026,34.5637],[-84.5028,34.5505],[-84.4767,34.5501],[-84.4765,34.5567],[-84.4857,34.5567],[-84.4858,34.5633],[-84.468,34.5635],[-84.4679,34.55],[-84.4324,34.5494],[-84.4287,34.5575],[-84.4244,34.5574],[-84.4246,34.5493],[-84.3714,34.5485],[-84.3715,34.5629],[-84.3456,34.5627],[-84.3461,34.5668],[-84.3315,34.5725],[-84.3366,34.5792],[-84.3287,34.5836],[-84.3132,34.5777],[-84.3071,34.5814],[-84.2922,34.569],[-84.2789,34.5696],[-84.2758,34.5737],[-84.2551,34.5683],[-84.2547,34.5975],[-84.2239,34.597],[-84.2141,34.6101],[-84.1968,34.6179],[-84.1886,34.6027],[-84.158,34.6482],[-84.1518,34.6513],[-84.1458,34.6468],[-84.138,34.6529],[-84.1364,34.6613],[-84.1249,34.6644],[-84.1173,34.6584],[-84.0885,34.6513],[-84.0715,34.657],[-84.0677,34.648],[-84.0482,34.6409],[-84.0365,34.6419],[-84.0385,34.6517],[-84.0304,34.6526],[-84.0246,34.6702],[-83.9947,34.6782],[-83.9921,34.6959],[-83.9864,34.7002],[-83.9895,34.7076],[-83.9643,34.7271],[-83.9166,34.727],[-83.9213,34.7345],[-83.9182,34.7349],[-83.9001,34.7322],[-83.8931,34.7258],[-83.8774,34.7233],[-83.8698,34.7274],[-83.8575,34.723],[-83.8605,34.6962],[-83.8746,34.6746],[-83.8709,34.6686],[-83.8764,34.661],[-83.8717,34.6569],[-83.8755,34.6431],[-83.8711,34.6399],[-83.8774,34.6287],[-83.8728,34.6156],[-83.8645,34.6156],[-83.8644,34.5506],[-83.8537,34.5507],[-83.8537,34.5415],[-83.8438,34.5414],[-83.8438,34.5324],[-83.8328,34.5323],[-83.8329,34.5235],[-83.8378,34.5213],[-83.8376,34.5153],[-83.8431,34.5154],[-83.8433,34.497],[-83.8876,34.4688],[-83.8876,34.4599],[-83.91,34.4598],[-83.9098,34.4692],[-83.9319,34.4693],[-83.9319,34.4605],[-83.9207,34.4601],[-83.9207,34.4511],[-83.9351,34.449],[-83.9068,34.421],[-83.8937,34.4009],[-83.8802,34.3964],[-83.8744,34.3871],[-83.8759,34.3801],[-83.8711,34.3725],[-83.8787,34.3678],[-83.8793,34.3604],[-83.8969,34.3562],[-83.9056,34.3351],[-83.8799,34.3219],[-83.8796,34.3041],[-83.8838,34.3016],[-83.8645,34.2954],[-83.8651,34.2834],[-83.8774,34.28],[-83.8598,34.2745],[-83.8685,34.269],[-83.873,34.2574],[-83.8913,34.2548],[-83.8935,34.2372],[-83.9059,34.2249],[-83.9187,34.2],[-83.898,34.1913],[-83.8884,34.1964],[-83.876,34.1914],[-83.8585,34.1935],[-83.8548,34.1844],[-83.8646,34.1636],[-83.8639,34.1558],[-83.8701,34.148],[-83.8857,34.1444],[-83.878,34.1234],[-83.8918,34.1226],[-83.9021,34.1107],[-84.054,34.1662],[-84.0622,34.1685],[-84.074,34.164],[-84.0948,34.1322],[-84.0935,34.1259],[-84.1016,34.1164],[-84.1019,34.1046],[-84.1101,34.098],[-84.1179,34.0674],[-84.0977,34.05],[-84.1212,34.0343],[-84.1202,34.0289],[-84.1043,34.0341],[-84.0892,34.0326],[-84.0986,34.0271],[-84.0967,34.0167],[-84.0839,34.003],[-84.074,34.0012],[-84.084,33.9874],[-84.0606,33.9605],[-84.0371,33.9591],[-84.0072,33.9728],[-84.0078,33.9656],[-83.99,33.9608],[-83.9555,33.9321],[-83.9335,33.9351],[-83.9283,33.9274],[-83.9166,33.9233],[-83.9141,33.9348],[-83.9199,33.9436],[-83.9056,33.9424],[-83.9116,33.9491],[-83.9084,33.9656],[-83.9269,33.9624],[-83.9219,33.9674],[-83.9285,33.9713],[-83.9255,33.9748],[-83.9392,33.9786],[-83.908,33.9963],[-83.9157,34.0096],[-83.9106,34.0148],[-83.8985,34.0101],[-83.8907,34.0164],[-83.8843,34.0125],[-83.8649,34.0135],[-83.8169,34.1274],[-83.8108,34.116],[-83.8151,34.1136],[-83.7923,34.1004],[-83.7908,34.0869],[-83.7638,34.0647],[-83.7336,34.0673],[-83.7323,34.0603],[-83.7231,34.0634],[-83.7188,34.0535],[-83.7131,34.0562],[-83.7144,34.0499],[-83.7092,34.0451],[-83.6946,34.0563],[-83.6921,34.0517],[-83.6855,34.0534],[-83.6851,34.0469],[-83.6759,34.0538],[-83.6676,34.048],[-83.6573,34.0534],[-83.6488,34.0459],[-83.645,34.0509],[-83.6302,34.0446],[-83.6146,34.0472],[-83.6101,34.0385],[-83.6005,34.0353],[-83.5842,34.0411],[-83.5737,34.0393],[-83.5711,34.0314],[-83.5633,34.0319],[-83.5369,33.9662],[-83.4982,33.9875],[-83.5031,33.9996],[-83.4845,33.9928],[-83.384,34.031],[-83.393,34.0337],[-83.3844,34.0385],[-83.3777,34.0334],[-83.3595,34.0403],[-83.3869,34.0502],[-83.3823,34.0669],[-83.3749,34.0713],[-83.3814,34.0785],[-83.3741,34.0824],[-83.3739,34.0905],[-83.3571,34.1162],[-83.3615,34.1583],[-83.3638,34.1641],[-83.3794,34.1713],[-83.4024,34.1975],[-83.3649,34.2114],[-83.3507,34.2348],[-83.3432,34.2391],[-83.3379,34.2614],[-83.3939,34.3248],[-83.3828,34.3927],[-83.3826,34.429],[-83.398,34.461],[-83.3731,34.4702],[-83.1778,34.477],[-83.1037,34.5366],[-83.1123,34.5494],[-83.1235,34.5533],[-83.1229,34.5601],[-83.1399,34.5618],[-83.1432,34.5734],[-83.159,34.5793],[-83.1546,34.5882],[-83.1703,34.5924],[-83.171,34.5988],[-83.1606,34.5995],[-83.1597,34.6033],[-83.1726,34.6078],[-83.1969,34.6031],[-83.2038,34.6096],[-83.2326,34.6116],[-83.2434,34.618],[-83.2407,34.6245],[-83.2539,34.6367],[-83.2932,34.6543],[-83.3046,34.6696],[-83.3164,34.6693],[-83.329,34.6811],[-83.3405,34.6807],[-83.3401,34.6915],[-83.3539,34.6995],[-83.3466,34.7042],[-83.3533,34.7287],[-83.3486,34.737],[-83.3392,34.7383],[-83.3264,34.7507],[-83.3262,34.7563],[-83.3187,34.7576],[-83.3233,34.7607],[-83.319,34.7713],[-83.3241,34.7892],[-83.3142,34.7996],[-83.3008,34.8043],[-83.2994,34.8095],[-83.3061,34.816],[-83.3006,34.8187],[-83.2951,34.8132],[-83.289,34.8246],[-83.2771,34.817],[-83.2709,34.8186],[-83.2672,34.8313],[-83.2726,34.8355],[-83.2672,34.8485],[-83.2489,34.8451],[-83.2539,34.8488],[-83.2533,34.8559],[-83.2464,34.8555],[-83.2481,34.8656],[-83.2391,34.8651],[-83.2347,34.8707],[-83.243,34.8775],[-83.2201,34.878],[-83.214,34.8886],[-83.2146,34.8836],[-83.2053,34.8802],[-83.201,34.8844],[-83.2035,34.8935],[-83.1972,34.8906],[-83.1945,34.8994],[-83.1881,34.8981],[-83.1686,34.9194],[-83.157,34.9151],[-83.1569,34.9308],[-83.1415,34.9245],[-83.13,34.9313],[-83.1317,34.9357],[-83.1273,34.9386],[-83.1205,34.9329],[-83.1118,34.935],[-83.1274,34.9493],[-83.1271,34.9542],[-83.1141,34.9502],[-83.1203,34.958],[-83.1158,34.9602],[-83.122,34.9648],[-83.1165,34.9757],[-83.1112,34.9757],[-83.1113,34.981],[-83.1077,34.9798],[-83.0982,34.9909],[-83.1106,35.0013],[-83.6201,34.992],[-83.62,34.9867],[-84.6215,34.9883],[-84.6228,34.8571],[-84.6023,34.8385],[-84.5929,34.8402],[-84.5905,34.8311],[-84.5822,34.8246],[-84.596,34.8058],[-84.6014,34.8064],[-84.6097,34.7909],[-84.622,34.7891],[-84.6414,34.7777],[-84.6353,34.7709],[-84.639,34.7544],[-84.6483,34.7477],[-84.6571,34.7289]]]},"properties":{"name":"CD9","district_number":9,"fips":"13-09"}},{"type":"Feature","geometry":{"type":"Polygon","coordinates":[[[-84.2492,33.3529],[-84.2473,33.3358],[-84.1506,33.3356],[-84.1509,33.313],[-84.145,33.3165],[-84.1312,33.3023],[-84.1031,33.299],[-84.089,33.2856],[-84.1226,33.2527],[-84.1181,33.2444],[-84.123,33.2445],[-84.1238,33.2028],[-83.877,33.2024],[-83.8596,33.2006],[-83.8523,33.1948],[-83.8429,33.1969],[-83.8326,33.1847],[-83.8223,33.1802],[-83.8243,33.1623],[-83.814,33.1483],[-83.816,33.1318],[-83.4391,33.1856],[-83.4298,33.1858],[-83.4181,33.1773],[-83.4064,33.1853],[-83.4023,33.182],[-83.3881,33.1856],[-83.3743,33.172],[-83.3632,33.1691],[-83.3636,33.1799],[-83.3544,33.1798],[-83.3462,33.1711],[-83.3306,33.1675],[-83.3283,33.1751],[-83.3182,33.1696],[-83.3182,33.1835],[-83.305,33.1805],[-83.2911,33.1904],[-83.2627,33.1891],[-83.0976,33.1515],[-83.0955,33.1409],[-83.0986,33.1331],[-83.1106,33.1273],[-83.108,33.119],[-83.1188,33.0871],[-83.1008,33.0498],[-83.0517,33.0809],[-83.0087,33.0808],[-82.9701,33.1093],[-82.9499,33.1078],[-82.9267,33.1163],[-82.9147,33.1267],[-82.901,33.1285],[-82.8889,33.1386],[-82.8674,33.1811],[-82.8545,33.1968],[-82.832,33.202],[-82.8243,33.212],[-82.7989,33.2217],[-82.778,33.2384],[-82.7483,33.2383],[-82.747,33.2475],[-82.7856,33.268],[-82.7808,33.2813],[-82.7816,33.3057],[-82.7935,33.3097],[-82.7958,33.3154],[-82.7959,33.3189],[-82.789,33.3191],[-82.7995,33.3308],[-82.797,33.3403],[-82.8016,33.3488],[-82.7975,33.3563],[-82.803,33.3652],[-82.8124,33.3637],[-82.8163,33.3725],[-82.8218,33.3738],[-82.8172,33.3773],[-82.8179,33.3873],[-82.828,33.393],[-82.8243,33.3937],[-82.8279,33.3982],[-82.8225,33.3999],[-82.8265,33.4131],[-82.8226,33.4259],[-82.8346,33.4317],[-82.8342,33.4355],[-82.8399,33.4309],[-82.8464,33.4359],[-82.8666,33.4666],[-82.839,33.4885],[-82.8356,33.4985],[-82.8246,33.5022],[-82.8234,33.5154],[-82.8153,33.5211],[-82.7876,33.5107],[-82.7673,33.5146],[-82.7473,33.5117],[-82.7407,33.5284],[-82.7224,33.5388],[-82.7195,33.5521],[-82.7239,33.5554],[-82.7039,33.5793],[-82.7042,33.5892],[-82.6952,33.5931],[-82.6887,33.5902],[-82.68,33.5998],[-82.6879,33.6027],[-82.6923,33.62],[-82.7023,33.6143],[-82.7076,33.6178],[-82.7084,33.6118],[-82.7171,33.607],[-82.7193,33.6152],[-82.7453,33.6113],[-82.7488,33.6183],[-82.756,33.6163],[-82.813,33.6558],[-82.8326,33.651],[-82.8491,33.6398],[-82.8693,33.6424],[-82.8804,33.6265],[-82.8736,33.6226],[-82.8794,33.6204],[-82.9382,33.7147],[-82.9285,33.7231],[-82.9028,33.7253],[-82.8944,33.7344],[-82.8849,33.7224],[-82.8655,33.726],[-82.8701,33.7372],[-82.8658,33.7456],[-82.828,33.7579],[-82.827,33.7638],[-82.812,33.7761],[-82.8239,33.7829],[-82.8126,33.798],[-82.8114,33.8287],[-82.8037,33.8347],[-82.7925,33.8105],[-82.7796,33.8128],[-82.7597,33.8327],[-82.7506,33.8332],[-82.7428,33.8534],[-82.7287,33.8599],[-82.7269,33.8739],[-82.7414,33.8809],[-82.7515,33.9182],[-82.7678,33.9402],[-82.7709,33.9726],[-82.7544,33.9719],[-82.7264,33.9842],[-82.7005,33.9814],[-82.6683,33.9856],[-82.6562,33.9914],[-82.6414,33.9828],[-82.6394,33.9728],[-82.6266,33.982],[-82.6097,33.9815],[-82.5645,33.9557],[-82.5676,33.9679],[-82.5803,33.9813],[-82.5754,33.9919],[-82.589,34.0005],[-82.5955,34.0159],[-82.5947,34.0297],[-82.6094,34.0399],[-82.6268,34.0635],[-82.6429,34.0708],[-82.6424,34.0933],[-82.6587,34.1038],[-82.677,34.1314],[-82.7175,34.1505],[-82.7419,34.2102],[-82.7468,34.2666],[-82.7821,34.2983],[-82.7945,34.3404],[-82.8345,34.3652],[-82.8588,34.4552],[-82.8806,34.469],[-82.8874,34.481],[-82.9016,34.4868],[-82.9253,34.4815],[-82.937,34.4865],[-82.9556,34.4789],[-82.9642,34.4846],[-82.9749,34.4794],[-82.9795,34.483],[-82.9907,34.48],[-82.9992,34.4724],[-83.0346,34.4836],[-83.0516,34.4937],[-83.0551,34.5032],[-83.0715,34.5033],[-83.0792,34.5141],[-83.0872,34.5162],[-83.0783,34.5252],[-83.0878,34.5321],[-83.1021,34.5321],[-83.1037,34.5366],[-83.1778,34.477],[-83.3731,34.4702],[-83.398,34.461],[-83.3826,34.429],[-83.3828,34.3927],[-83.3939,34.3248],[-83.3379,34.2614],[-83.3432,34.2391],[-83.3507,34.2348],[-83.3649,34.2114],[-83.4024,34.1975],[-83.3794,34.1713],[-83.3638,34.1641],[-83.3615,34.1583],[-83.3571,34.1162],[-83.3739,34.0905],[-83.3741,34.0824],[-83.3814,34.0785],[-83.3749,34.0713],[-83.3823,34.0669],[-83.3869,34.0502],[-83.3595,34.0403],[-83.3777,34.0334],[-83.3844,34.0385],[-83.393,34.0337],[-83.384,34.031],[-83.4845,33.9928],[-83.5031,33.9996],[-83.4982,33.9875],[-83.5369,33.9662],[-83.5633,34.0319],[-83.5711,34.0314],[-83.5737,34.0393],[-83.5842,34.0411],[-83.6005,34.0353],[-83.6101,34.0385],[-83.6146,34.0472],[-83.6302,34.0446],[-83.645,34.0509],[-83.6488,34.0459],[-83.6573,34.0534],[-83.6676,34.048],[-83.6759,34.0538],[-83.6851,34.0469],[-83.6855,34.0534],[-83.6921,34.0517],[-83.6946,34.0563],[-83.7092,34.0451],[-83.7144,34.0499],[-83.7131,34.0562],[-83.7188,34.0535],[-83.7231,34.0634],[-83.7323,34.0603],[-83.7336,34.0673],[-83.7638,34.0647],[-83.7908,34.0869],[-83.7923,34.1004],[-83.8151,34.1136],[-83.8108,34.1161],[-83.8177,34.1275],[-83.8649,34.0135],[-83.8843,34.0125],[-83.8907,34.0164],[-83.8985,34.0101],[-83.9106,34.0148],[-83.9157,34.0096],[-83.908,33.9963],[-83.9392,33.9786],[-83.9255,33.9748],[-83.9285,33.9713],[-83.9219,33.9674],[-83.9269,33.9624],[-83.9084,33.9656],[-83.911,33.9457],[-83.9061,33.9446],[-83.8813,33.9075],[-83.8432,33.8948],[-83.9822,33.7862],[-83.9148,33.7442],[-83.9187,33.7238],[-83.9132,33.7126],[-83.9176,33.7083],[-83.9252,33.7102],[-83.9181,33.6895],[-83.9246,33.6809],[-83.9231,33.6739],[-83.9314,33.6504],[-83.9249,33.6329],[-83.9217,33.631],[-83.9149,33.6425],[-83.91,33.63],[-83.9025,33.627],[-83.9072,33.6409],[-83.8878,33.66],[-83.886,33.6307],[-83.8757,33.6304],[-83.8757,33.6339],[-83.8585,33.6389],[-83.8566,33.6489],[-83.8486,33.6543],[-83.8359,33.6473],[-83.8352,33.6277],[-83.8254,33.6218],[-83.8252,33.6126],[-83.8041,33.6106],[-83.804,33.605],[-83.8126,33.5981],[-83.8076,33.5939],[-83.809,33.5865],[-83.8164,33.5832],[-83.8221,33.5726],[-83.8226,33.5574],[-83.83,33.5546],[-83.8308,33.5491],[-83.8393,33.557],[-83.8472,33.5519],[-83.8445,33.5432],[-83.8521,33.5279],[-83.8608,33.5276],[-83.8734,33.5383],[-83.8764,33.5298],[-83.8911,33.5178],[-83.9106,33.5274],[-83.9511,33.5306],[-83.9502,33.5407],[-83.9548,33.5478],[-83.9895,33.5479],[-84.0087,33.5391],[-84.0321,33.5394],[-84.0445,33.5258],[-84.0467,33.5307],[-84.0556,33.5262],[-84.0499,33.5413],[-84.0587,33.5402],[-84.0657,33.5495],[-84.0702,33.5471],[-84.0975,33.56],[-84.0989,33.5323],[-84.1065,33.5249],[-84.1104,33.5257],[-84.1065,33.5284],[-84.1099,33.5342],[-84.1389,33.5332],[-84.1442,33.4912],[-84.1766,33.4914],[-84.1745,33.489],[-84.1847,33.4835],[-84.2171,33.4823],[-84.2077,33.4573],[-84.1814,33.4275],[-84.1969,33.4137],[-84.2155,33.4059],[-84.2125,33.3931],[-84.2194,33.3776],[-84.2453,33.3725],[-84.2492,33.3529]]]},"properties":{"name":"CD10","district_number":10,"fips":"13-10"}},{"type":"Feature","geometry":{"type":"Polygon","coordinates":[[[-85.1123,34.4619],[-85.1022,34.4531],[-85.1019,34.4444],[-85.0944,34.4401],[-85.0883,34.4272],[-85.1069,34.4161],[-85.1044,34.4043],[-85.0317,34.4014],[-85.0239,34.3918],[-85.0058,34.3924],[-85.0052,34.3471],[-85.0231,34.3471],[-85.0239,34.2583],[-85.0155,34.2582],[-85.0156,34.2511],[-85.0239,34.2512],[-85.0238,34.2134],[-85.0447,34.2136],[-85.047,34.0829],[-84.9391,34.0826],[-84.939,34.0784],[-84.93,34.0782],[-84.9299,34.0826],[-84.9143,34.0826],[-84.9144,34.0753],[-84.8969,34.0787],[-84.8968,34.0825],[-84.6365,34.0779],[-84.6377,34.0741],[-84.6247,34.0651],[-84.6181,34.0655],[-84.6146,34.0196],[-84.6184,34.018],[-84.6129,34.0132],[-84.6171,33.9977],[-84.6276,33.9978],[-84.6321,33.9854],[-84.6441,33.9786],[-84.6393,33.9676],[-84.6323,33.9672],[-84.6327,33.9613],[-84.6491,33.9532],[-84.6053,33.942],[-84.6013,33.9207],[-84.5883,33.9303],[-84.5882,33.9165],[-84.5968,33.9111],[-84.5937,33.9019],[-84.5819,33.9035],[-84.5729,33.8985],[-84.5672,33.9031],[-84.5576,33.9022],[-84.5582,33.9108],[-84.5443,33.9216],[-84.5448,33.9163],[-84.5398,33.9168],[-84.5258,33.904],[-84.5182,33.9054],[-84.515,33.8986],[-84.5035,33.8993],[-84.5008,33.9086],[-84.4962,33.9125],[-84.4904,33.91],[-84.4875,33.9172],[-84.4747,33.912],[-84.4668,33.918],[-84.4639,33.9054],[-84.447,33.8998],[-84.4427,33.9017],[-84.4473,33.9111],[-84.4369,33.9226],[-84.4172,33.9325],[-84.3832,33.9634],[-84.3845,33.971],[-84.3764,33.9752],[-84.3749,33.987],[-84.3898,33.9948],[-84.3963,34.0081],[-84.4008,34.0083],[-84.3982,34.022],[-84.4021,34.0351],[-84.4191,34.0552],[-84.4184,34.109],[-84.3995,34.1097],[-84.3883,34.1182],[-84.4101,34.1258],[-84.4216,34.1218],[-84.4268,34.1249],[-84.4309,34.1398],[-84.4232,34.1397],[-84.4157,34.1692],[-84.4423,34.1679],[-84.4351,34.1822],[-84.4456,34.1946],[-84.4301,34.1996],[-84.422,34.1957],[-84.3965,34.2121],[-84.4061,34.2232],[-84.4112,34.2384],[-84.4065,34.2479],[-84.4184,34.2532],[-84.4231,34.2624],[-84.4177,34.268],[-84.4313,34.2771],[-84.407,34.2778],[-84.4067,34.285],[-84.3975,34.2919],[-84.4098,34.2996],[-84.3977,34.2983],[-84.3934,34.302],[-84.4195,34.3245],[-84.4097,34.3308],[-84.411,34.3362],[-84.4019,34.3312],[-84.4184,34.354],[-84.4095,34.3614],[-84.4065,34.3555],[-84.406,34.3593],[-84.3981,34.3551],[-84.4031,34.3594],[-84.3996,34.3647],[-84.4048,34.3644],[-84.3989,34.3713],[-84.4138,34.3778],[-84.4007,34.3805],[-84.4008,34.3733],[-84.3922,34.3733],[-84.3921,34.3807],[-84.2576,34.381],[-84.2569,34.4673],[-84.3197,34.4679],[-84.3457,34.5484],[-84.3456,34.5627],[-84.3715,34.5629],[-84.3714,34.5485],[-84.4246,34.5493],[-84.4244,34.5574],[-84.4287,34.5575],[-84.4324,34.5494],[-84.4679,34.55],[-84.468,34.5635],[-84.4858,34.5633],[-84.4857,34.5567],[-84.4765,34.5567],[-84.4767,34.5501],[-84.5028,34.5505],[-84.5026,34.5637],[-84.5115,34.5636],[-84.5117,34.5567],[-84.5205,34.5567],[-84.5214,34.5505],[-84.6541,34.549],[-84.6545,34.5832],[-84.682,34.5833],[-84.682,34.5898],[-84.7053,34.5908],[-84.7055,34.5985],[-84.7312,34.5986],[-84.7313,34.6127],[-84.7231,34.6128],[-84.7228,34.605],[-84.7144,34.6051],[-84.7158,34.6229],[-84.7443,34.6239],[-84.7483,34.6091],[-84.7663,34.6155],[-84.7851,34.6083],[-84.8638,34.6086],[-84.8639,34.6158],[-84.9082,34.6158],[-84.9083,34.6341],[-84.9275,34.626],[-84.9264,34.6157],[-85.0504,34.616],[-85.0504,34.6225],[-85.0593,34.6226],[-85.0605,34.5872],[-85.0692,34.5872],[-85.0693,34.575],[-85.0642,34.5749],[-85.0635,34.5425],[-85.09,34.5419],[-85.0901,34.4635],[-85.1123,34.4619]]]},"properties":{"name":"CD11","district_number":11,"fips":"13-11"}},{"type":"Feature","geometry":{"type":"Polygon","coordinates":[[[-83.2263,32.5843],[-82.991,32.1473],[-82.887,32.198],[-82.8718,32.1827],[-82.9402,32.1249],[-82.9147,32.1232],[-82.902,32.1103],[-82.9005,32.0952],[-82.8877,32.0799],[-82.8665,32.0725],[-82.8559,32.0618],[-82.8327,32.0596],[-82.8081,32.0495],[-82.7829,32.0198],[-82.7614,32.01],[-82.7254,32.0045],[-82.7104,31.9759],[-82.697,31.9673],[-82.6952,31.9569],[-82.6698,31.9342],[-82.6528,31.9289],[-82.6546,31.9239],[-82.6457,31.9189],[-82.6351,31.9251],[-82.6242,31.9236],[-82.6221,31.9292],[-82.6146,31.9267],[-82.6016,31.9383],[-82.5948,31.9316],[-82.5704,31.954],[-82.5558,31.9554],[-82.5553,31.9593],[-82.5452,31.9554],[-82.5331,31.9614],[-82.4914,31.9487],[-82.4803,31.9569],[-82.4989,31.9571],[-82.4995,31.9606],[-82.4943,31.9674],[-82.4796,31.9717],[-82.4576,31.9638],[-82.4302,31.966],[-82.4084,31.9561],[-82.4056,31.9492],[-82.4008,31.9603],[-82.3871,31.9482],[-82.389,31.9578],[-82.3845,31.96],[-82.3715,31.9535],[-82.3776,31.9419],[-82.3623,31.9437],[-82.3145,31.9308],[-82.3077,31.9373],[-82.3153,31.9428],[-82.3139,31.9471],[-82.3011,31.9333],[-82.2864,31.9424],[-82.2703,31.9359],[-82.2668,31.9284],[-82.256,31.9321],[-82.2468,31.9151],[-82.2358,31.9204],[-82.2302,31.912],[-82.192,31.9065],[-82.1913,31.9005],[-82.16,31.904],[-82.1451,31.8981],[-82.1342,31.908],[-82.1311,31.9038],[-82.1355,31.8917],[-82.1195,31.886],[-82.1154,31.8888],[-82.1166,31.8997],[-82.1118,31.9005],[-82.1078,31.8837],[-82.1155,31.8628],[-82.1063,31.8633],[-82.0813,31.8428],[-82.0661,31.8382],[-82.0415,31.8204],[-82.0261,31.8151],[-82.0211,31.8237],[-82.0164,31.8237],[-82.0068,31.8],[-81.9971,31.8004],[-81.9986,31.7941],[-81.9765,31.7826],[-81.9691,31.7893],[-81.981,31.7914],[-81.9799,31.8045],[-81.9551,31.8099],[-81.945,31.8357],[-81.9223,31.8515],[-81.9201,31.871],[-81.9125,31.887],[-81.8925,31.895],[-81.8949,31.9031],[-81.882,31.9182],[-81.8829,31.9412],[-81.8896,31.949],[-81.8761,31.9684],[-81.8628,31.9731],[-81.8546,31.9883],[-81.8244,32.0149],[-81.8134,32.0162],[-81.7617,32.0479],[-81.7187,32.0894],[-81.7271,32.099],[-81.7317,32.0962],[-81.7413,32.1046],[-81.7568,32.1048],[-81.7541,32.1117],[-81.7641,32.1163],[-81.7612,32.1196],[-81.7712,32.1314],[-81.7774,32.1322],[-81.7815,32.1525],[-81.4358,32.2413],[-81.4331,32.2456],[-81.439,32.2554],[-81.4351,32.2597],[-81.4417,32.2684],[-81.4398,32.2749],[-81.4452,32.2752],[-81.4499,32.2829],[-81.4463,32.2849],[-81.4531,32.2914],[-81.4503,32.2974],[-81.419,32.3078],[-81.4218,32.3045],[-81.4067,32.2952],[-81.3894,32.2937],[-81.3926,32.3303],[-81.3683,32.3343],[-81.3522,32.3256],[-81.3429,32.33],[-81.3445,32.3397],[-81.3305,32.3495],[-81.3369,32.3567],[-81.326,32.363],[-81.3246,32.3569],[-81.3157,32.3588],[-81.3107,32.3528],[-81.2676,32.3459],[-81.2577,32.3356],[-81.2204,32.3508],[-81.1824,32.3733],[-81.1773,32.3891],[-81.2053,32.4231],[-81.2085,32.4363],[-81.1994,32.4424],[-81.2065,32.4474],[-81.2046,32.4527],[-81.1979,32.4485],[-81.1977,32.4546],[-81.192,32.4538],[-81.1944,32.4589],[-81.187,32.4638],[-81.2004,32.4683],[-81.2331,32.4981],[-81.2388,32.5084],[-81.2323,32.5121],[-81.2336,32.5182],[-81.2512,32.5178],[-81.2719,32.53],[-81.2801,32.537],[-81.2748,32.5413],[-81.281,32.5482],[-81.2794,32.5549],[-81.2836,32.5567],[-81.2893,32.5514],[-81.2906,32.5625],[-81.2915,32.5557],[-81.2967,32.5534],[-81.2977,32.5629],[-81.3228,32.5597],[-81.3557,32.5714],[-81.3583,32.5745],[-81.3535,32.5788],[-81.3577,32.5821],[-81.3668,32.5769],[-81.3636,32.583],[-81.3698,32.585],[-81.3693,32.5907],[-81.3789,32.5889],[-81.3892,32.5954],[-81.4187,32.6294],[-81.4148,32.6374],[-81.4073,32.6317],[-81.4027,32.637],[-81.4126,32.6415],[-81.393,32.6515],[-81.4072,32.6605],[-81.3972,32.6614],[-81.4043,32.6678],[-81.4012,32.6799],[-81.409,32.6966],[-81.4124,32.6921],[-81.4275,32.7019],[-81.4259,32.71],[-81.4151,32.7137],[-81.4203,32.7211],[-81.41,32.7219],[-81.4178,32.7251],[-81.4185,32.7326],[-81.4121,32.7326],[-81.4137,32.738],[-81.4049,32.7456],[-81.4059,32.7491],[-81.4197,32.7492],[-81.4082,32.7558],[-81.414,32.7554],[-81.4121,32.7639],[-81.4178,32.7602],[-81.4189,32.7676],[-81.4319,32.7689],[-81.4145,32.7781],[-81.4312,32.7841],[-81.4222,32.784],[-81.4277,32.7876],[-81.4199,32.7949],[-81.4252,32.7942],[-81.4283,32.8008],[-81.4224,32.8025],[-81.4264,32.8107],[-81.418,32.8182],[-81.4282,32.8186],[-81.422,32.8215],[-81.4299,32.8282],[-81.4206,32.8312],[-81.4265,32.8408],[-81.4336,32.8437],[-81.4387,32.8401],[-81.4449,32.851],[-81.4527,32.8441],[-81.4607,32.846],[-81.4556,32.8465],[-81.4529,32.873],[-81.4651,32.8809],[-81.4704,32.8763],[-81.4794,32.8811],[-81.4764,32.888],[-81.4662,32.8891],[-81.4644,32.8986],[-81.4708,32.9009],[-81.4718,32.8938],[-81.4808,32.8986],[-81.48,32.9134],[-81.4876,32.9164],[-81.4832,32.9218],[-81.5024,32.9354],[-81.4994,32.945],[-81.5086,32.9526],[-81.5113,32.9667],[-81.5088,32.9694],[-81.5061,32.9641],[-81.4998,32.9638],[-81.4947,32.979],[-81.4963,32.9902],[-81.4912,32.9978],[-81.5006,33.0025],[-81.492,33.0091],[-81.5041,33.0163],[-81.5107,33.0103],[-81.5103,33.0212],[-81.5191,33.0232],[-81.5112,33.0278],[-81.5227,33.0308],[-81.5291,33.0408],[-81.5388,33.0392],[-81.5454,33.049],[-81.5518,33.0434],[-81.5619,33.0458],[-81.5661,33.0488],[-81.5592,33.0518],[-81.5634,33.0602],[-81.567,33.0604],[-81.5628,33.0561],[-81.5663,33.0534],[-81.5729,33.0542],[-81.5718,33.0581],[-81.5781,33.0578],[-81.5749,33.0618],[-81.581,33.0627],[-81.5772,33.0659],[-81.6022,33.0735],[-81.5965,33.0799],[-81.6013,33.087],[-81.6121,33.08],[-81.6083,33.089],[-81.6117,33.0943],[-81.6423,33.0932],[-81.6794,33.1118],[-81.7046,33.1164],[-81.7627,33.1588],[-81.7724,33.1812],[-81.7654,33.1783],[-81.767,33.1865],[-81.7568,33.1979],[-81.7689,33.2174],[-81.7801,33.2211],[-81.7775,33.2113],[-81.7845,33.2081],[-81.8052,33.2114],[-81.8096,33.2226],[-81.8279,33.2287],[-81.8528,33.2485],[-81.8396,33.2552],[-81.8463,33.2584],[-81.8468,33.2666],[-81.8345,33.2583],[-81.8283,33.263],[-81.8358,33.2628],[-81.8326,33.2758],[-81.8388,33.2737],[-81.8456,33.2842],[-81.8632,33.2888],[-81.86,33.2991],[-81.8487,33.2967],[-81.8473,33.3068],[-81.8552,33.3104],[-81.8639,33.302],[-81.8679,33.314],[-81.8807,33.3022],[-81.8846,33.3089],[-81.8816,33.3158],[-81.8925,33.3153],[-81.8891,33.321],[-81.899,33.3233],[-81.8965,33.3295],[-81.9014,33.3358],[-81.9061,33.3216],[-81.9137,33.32],[-81.9081,33.3271],[-81.9191,33.3344],[-81.9091,33.3466],[-81.9188,33.3402],[-81.9247,33.3453],[-81.9397,33.3449],[-81.9348,33.356],[-81.9463,33.3706],[-81.9306,33.3682],[-81.9248,33.3741],[-81.9309,33.3801],[-81.9355,33.3979],[-81.9452,33.4075],[-81.9314,33.407],[-81.9245,33.4125],[-81.9164,33.4073],[-81.9097,33.412],[-81.9324,33.4257],[-81.9131,33.4383],[-81.9263,33.4629],[-81.9859,33.4865],[-82.0013,33.5201],[-82.033,33.5465],[-82.0463,33.5638],[-82.0941,33.5827],[-82.1078,33.5963],[-82.1291,33.5899],[-82.138,33.5922],[-82.1563,33.6086],[-82.1862,33.6209],[-82.1969,33.6314],[-82.1999,33.6617],[-82.2346,33.7002],[-82.2475,33.7526],[-82.2858,33.7801],[-82.2983,33.7835],[-82.3015,33.8019],[-82.3469,33.8343],[-82.3718,33.8438],[-82.4022,33.8647],[-82.4249,33.8641],[-82.4551,33.8817],[-82.4929,33.9098],[-82.5114,33.9356],[-82.5245,33.9434],[-82.5544,33.9438],[-82.5781,33.9659],[-82.6032,33.9799],[-82.6259,33.9822],[-82.6394,33.9728],[-82.6414,33.9828],[-82.6562,33.9914],[-82.6683,33.9856],[-82.7005,33.9814],[-82.7264,33.9842],[-82.7544,33.9719],[-82.7709,33.9726],[-82.7678,33.9402],[-82.7515,33.9182],[-82.7414,33.8809],[-82.7269,33.8739],[-82.7287,33.8599],[-82.7428,33.8534],[-82.7506,33.8332],[-82.7597,33.8327],[-82.7796,33.8128],[-82.7925,33.8105],[-82.8037,33.8347],[-82.8114,33.8287],[-82.8126,33.798],[-82.8239,33.7829],[-82.812,33.7761],[-82.827,33.7638],[-82.828,33.7579],[-82.8658,33.7456],[-82.8701,33.7372],[-82.8655,33.726],[-82.8849,33.7224],[-82.8944,33.7344],[-82.9028,33.7253],[-82.9285,33.7231],[-82.9382,33.7147],[-82.8794,33.6204],[-82.8736,33.6226],[-82.8804,33.6265],[-82.8693,33.6424],[-82.8491,33.6398],[-82.8326,33.651],[-82.813,33.6558],[-82.756,33.6163],[-82.7488,33.6183],[-82.7453,33.6113],[-82.7193,33.6152],[-82.7171,33.607],[-82.7084,33.6118],[-82.7076,33.6178],[-82.7023,33.6143],[-82.6923,33.62],[-82.6879,33.6027],[-82.68,33.5998],[-82.6887,33.5902],[-82.6952,33.5931],[-82.7042,33.5892],[-82.7039,33.5793],[-82.7239,33.5554],[-82.7195,33.5521],[-82.7224,33.5388],[-82.7407,33.5284],[-82.7473,33.5117],[-82.7673,33.5146],[-82.7876,33.5107],[-82.8153,33.5211],[-82.8234,33.5154],[-82.8246,33.5022],[-82.8356,33.4985],[-82.839,33.4885],[-82.8666,33.4666],[-82.8464,33.4359],[-82.8399,33.4309],[-82.8342,33.4355],[-82.8346,33.4317],[-82.8226,33.4259],[-82.8265,33.4131],[-82.8225,33.3999],[-82.8279,33.3982],[-82.8243,33.3937],[-82.828,33.393],[-82.8179,33.3873],[-82.8172,33.3773],[-82.8218,33.3738],[-82.8163,33.3725],[-82.8124,33.3637],[-82.803,33.3652],[-82.7975,33.3563],[-82.8016,33.3488],[-82.797,33.3403],[-82.7995,33.3308],[-82.789,33.3191],[-82.7959,33.3189],[-82.7958,33.3154],[-82.7935,33.3097],[-82.7816,33.3057],[-82.7808,33.2813],[-82.7856,33.268],[-82.747,33.2475],[-82.7483,33.2383],[-82.778,33.2384],[-82.7989,33.2217],[-82.8243,33.212],[-82.832,33.202],[-82.8545,33.1968],[-82.8674,33.1811],[-82.8889,33.1386],[-82.901,33.1285],[-82.9147,33.1267],[-82.9267,33.1163],[-82.9499,33.1078],[-82.9701,33.1093],[-83.0087,33.0808],[-83.0522,33.0807],[-83.0448,33.0607],[-83.0554,33.0467],[-83.0552,33.0372],[-83.0679,33.0248],[-83.0516,33.0039],[-83.0489,32.986],[-83.0578,32.9746],[-83.0693,32.9721],[-83.0691,32.9524],[-83.0736,32.9466],[-83.067,32.9365],[-83.0713,32.9331],[-83.0611,32.9346],[-83.0597,32.9306],[-83.064,32.9297],[-83.0569,32.926],[-83.0629,32.9197],[-83.056,32.92],[-83.0524,32.9139],[-83.0551,32.9095],[-83.0483,32.9101],[-83.0464,32.9054],[-83.0516,32.9018],[-83.0486,32.8878],[-83.0439,32.8857],[-83.0489,32.8828],[-83.0378,32.8805],[-83.0367,32.8683],[-83.0302,32.8665],[-83.027,32.8561],[-82.989,32.8527],[-82.9905,32.8485],[-82.9787,32.8443],[-82.9794,32.8396],[-82.97,32.8342],[-82.9735,32.8305],[-82.9671,32.8276],[-82.9719,32.8231],[-82.9543,32.8016],[-82.9583,32.7968],[-82.9602,32.76],[-82.9539,32.7563],[-82.9495,32.7617],[-82.9451,32.7518],[-82.9571,32.7083],[-83.0408,32.6733],[-83.2263,32.5843]]]},"properties":{"name":"CD12","district_number":12,"fips":"13-12"}},{"type":"Feature","geometry":{"type":"Polygon","coordinates":[[[-84.4023,33.4267],[-84.4023,33.4201],[-84.3931,33.42],[-84.3931,33.412],[-84.3881,33.4117],[-84.3841,33.4025],[-84.3948,33.3945],[-84.3865,33.3765],[-84.3963,33.3734],[-84.3925,33.3666],[-84.3951,33.3603],[-84.3881,33.3525],[-84.3544,33.3525],[-84.3536,33.4362],[-84.3232,33.4359],[-84.3234,33.428],[-84.3042,33.4274],[-84.3043,33.4357],[-84.2727,33.4357],[-84.207,33.4496],[-84.2034,33.4519],[-84.2171,33.4823],[-84.1847,33.4835],[-84.1745,33.489],[-84.1766,33.4914],[-84.1442,33.4912],[-84.1389,33.5332],[-84.1099,33.5342],[-84.1065,33.5284],[-84.1104,33.5257],[-84.1065,33.5249],[-84.0989,33.5323],[-84.0975,33.56],[-84.0702,33.5471],[-84.0657,33.5495],[-84.0587,33.5402],[-84.0499,33.5413],[-84.0547,33.526],[-84.0467,33.5307],[-84.0445,33.5258],[-84.0321,33.5394],[-84.0087,33.5391],[-83.9891,33.548],[-83.9521,33.5473],[-83.9511,33.5306],[-83.9106,33.5274],[-83.8911,33.5178],[-83.8764,33.5298],[-83.8734,33.5383],[-83.8608,33.5276],[-83.8521,33.5279],[-83.8445,33.5432],[-83.8472,33.5519],[-83.8393,33.557],[-83.8308,33.5491],[-83.83,33.5546],[-83.8227,33.5572],[-83.8221,33.5726],[-83.8164,33.5832],[-83.809,33.5865],[-83.8076,33.5939],[-83.8126,33.5981],[-83.804,33.605],[-83.8041,33.6106],[-83.8252,33.6126],[-83.8254,33.6218],[-83.8352,33.6277],[-83.8359,33.6473],[-83.8486,33.6543],[-83.8566,33.6489],[-83.8585,33.6389],[-83.8757,33.6339],[-83.8757,33.6304],[-83.886,33.6307],[-83.8878,33.66],[-83.9072,33.6409],[-83.9025,33.627],[-83.91,33.63],[-83.9149,33.6425],[-83.9217,33.631],[-83.9249,33.6329],[-83.9314,33.6504],[-83.9231,33.6739],[-83.9246,33.6809],[-83.9181,33.6895],[-83.9252,33.7102],[-83.9176,33.7083],[-83.9132,33.7126],[-83.9187,33.7238],[-83.9148,33.7442],[-83.9822,33.7862],[-83.8432,33.8948],[-83.8804,33.9069],[-83.9078,33.9417],[-83.9199,33.9436],[-83.9141,33.9348],[-83.9166,33.9233],[-83.9283,33.9274],[-83.9335,33.9351],[-83.9552,33.9319],[-83.99,33.9608],[-84.0078,33.9656],[-84.0072,33.9728],[-84.0381,33.9589],[-84.0795,33.9625],[-84.0826,33.9534],[-84.0927,33.9523],[-84.0874,33.9411],[-84.0903,33.9387],[-84.1079,33.9411],[-84.1011,33.9166],[-84.1129,33.9237],[-84.139,33.9218],[-84.1325,33.9122],[-84.1534,33.9049],[-84.1628,33.8958],[-84.1723,33.8996],[-84.1672,33.894],[-84.1812,33.8817],[-84.2077,33.8779],[-84.158,33.8533],[-84.1334,33.8335],[-84.1134,33.8075],[-84.0979,33.7995],[-84.0759,33.7775],[-84.0582,33.7728],[-84.0403,33.7577],[-84.0237,33.7528],[-84.0566,33.7266],[-84.1158,33.6147],[-84.1292,33.6314],[-84.1405,33.6315],[-84.1383,33.6377],[-84.1512,33.6388],[-84.1545,33.6457],[-84.1616,33.6378],[-84.1731,33.641],[-84.1702,33.6459],[-84.1874,33.6462],[-84.1892,33.6584],[-84.1972,33.6654],[-84.2113,33.6657],[-84.2101,33.6583],[-84.222,33.6666],[-84.2368,33.6639],[-84.2439,33.671],[-84.2398,33.6738],[-84.2447,33.6744],[-84.2411,33.6778],[-84.2439,33.6798],[-84.2576,33.6793],[-84.2568,33.6677],[-84.2687,33.6675],[-84.2726,33.6614],[-84.2826,33.6599],[-84.2815,33.6645],[-84.2901,33.6658],[-84.3173,33.6559],[-84.3234,33.6477],[-84.2964,33.6475],[-84.3156,33.6434],[-84.3096,33.6376],[-84.3129,33.6286],[-84.2942,33.5916],[-84.3019,33.5935],[-84.3031,33.5761],[-84.3079,33.5722],[-84.3285,33.573],[-84.3201,33.5649],[-84.3334,33.553],[-84.386,33.5581],[-84.3756,33.5465],[-84.3751,33.5391],[-84.3807,33.5353],[-84.38,33.518],[-84.3907,33.517],[-84.3908,33.5107],[-84.3817,33.508],[-84.3975,33.4857],[-84.3871,33.4766],[-84.3817,33.4633],[-84.3888,33.4503],[-84.3836,33.4455],[-84.3925,33.4445],[-84.3926,33.4365],[-84.4022,33.4364],[-84.4023,33.4267]]]},"properties":{"name":"CD13","district_number":13,"fips":"13-13"}},{"type":"Feature","geometry":{"type":"Polygon","coordinates":[[[-85.6049,34.9847],[-85.5614,34.7501],[-85.4705,34.3282],[-85.3866,33.9017],[-85.2128,33.8992],[-85.2128,33.9063],[-85.0367,33.9043],[-85.0379,33.8119],[-84.9712,33.7996],[-84.8792,33.7748],[-84.7241,33.7886],[-84.7241,33.9036],[-84.6665,33.9022],[-84.6458,33.8967],[-84.604,33.9053],[-84.5882,33.9165],[-84.5883,33.9303],[-84.6013,33.9207],[-84.6053,33.942],[-84.6491,33.9532],[-84.6325,33.9617],[-84.6323,33.9672],[-84.6393,33.9676],[-84.6441,33.9786],[-84.6321,33.9854],[-84.6276,33.9978],[-84.6171,33.9977],[-84.6129,34.0132],[-84.6184,34.018],[-84.6146,34.0196],[-84.6181,34.0655],[-84.6247,34.0651],[-84.6377,34.0741],[-84.6365,34.0779],[-84.7378,34.0823],[-84.8968,34.0825],[-84.8969,34.0787],[-84.9144,34.0753],[-84.9143,34.0826],[-84.9299,34.0826],[-84.93,34.0782],[-84.939,34.0784],[-84.9391,34.0826],[-85.047,34.0829],[-85.0447,34.2136],[-85.0238,34.2134],[-85.0239,34.2512],[-85.0156,34.2511],[-85.0155,34.2582],[-85.0239,34.2583],[-85.0231,34.3471],[-85.0052,34.3471],[-85.0058,34.3924],[-85.0239,34.3918],[-85.0317,34.4014],[-85.1044,34.4043],[-85.1069,34.4161],[-85.0883,34.4272],[-85.0944,34.4401],[-85.1019,34.4444],[-85.1022,34.4531],[-85.1123,34.4619],[-85.0901,34.4635],[-85.09,34.5419],[-85.0635,34.5425],[-85.0642,34.5749],[-85.0693,34.575],[-85.0692,34.5872],[-85.0605,34.5872],[-85.0604,34.6225],[-85.0504,34.6225],[-85.0504,34.616],[-84.9264,34.6157],[-84.9275,34.626],[-84.9083,34.6341],[-84.9082,34.6158],[-84.8639,34.6158],[-84.8638,34.6086],[-84.7851,34.6083],[-84.7663,34.6155],[-84.7483,34.6091],[-84.7443,34.6239],[-84.7159,34.6229],[-84.7144,34.6051],[-84.7228,34.605],[-84.7231,34.6128],[-84.7313,34.6127],[-84.7312,34.5986],[-84.7055,34.5985],[-84.7053,34.5908],[-84.682,34.5898],[-84.682,34.5833],[-84.6545,34.5832],[-84.6571,34.7289],[-84.6483,34.7477],[-84.639,34.7544],[-84.6353,34.7709],[-84.6414,34.7777],[-84.622,34.7891],[-84.6097,34.7909],[-84.6014,34.8064],[-84.596,34.8058],[-84.5822,34.8246],[-84.5905,34.8311],[-84.5929,34.8402],[-84.6023,34.8385],[-84.6228,34.8571],[-84.6215,34.9883],[-85.6049,34.9847]]]},"properties":{"name":"CD14","district_number":14,"fips":"13-14"}}],"source":"U.S. Census Bureau TIGERweb, 120th Congressional Districts (January 1, 2026 vintage)"}