{"type":"FeatureCollection","features":[{"type":"Feature","id":"15001","properties":{"name":"Hawaii","fips":"15001"},"geometry":{"type":"Polygon","coordinates":[[[-155.7782,20.2457],[-155.7727,20.2454],[-155.7469,20.2323],[-155.737,20.2228],[-155.7358,20.2124],[-155.7327,20.2054],[-155.654,20.1674],[-155.6304,20.1469],[-155.6246,20.1459],[-155.6078,20.138],[-155.6009,20.1266],[-155.598,20.1245],[-155.5909,20.1225],[-155.5817,20.1236],[-155.5684,20.1305],[-155.5589,20.1316],[-155.5237,20.12],[-155.5168,20.1152],[-155.5026,20.1142],[-155.4682,20.1043],[-155.444,20.0953],[-155.4055,20.0788],[-155.4024,20.0755],[-155.3876,20.0671],[-155.3302,20.0385],[-155.2955,20.0244],[-155.2826,20.022],[-155.2703,20.0145],[-155.2409,19.9902],[-155.2045,19.9694],[-155.1946,19.9584],[-155.1799,19.9494],[-155.1492,19.9229],[-155.1444,19.9205],[-155.1312,19.9068],[-155.1246,19.8973],[-155.1217,19.8861],[-155.1075,19.8725],[-155.0987,19.8678],[-155.095,19.8679],[-155.0863,19.8554],[-155.0844,19.8497],[-155.0857,19.8386],[-155.089,19.8267],[-155.0944,19.8149],[-155.0921,19.7994],[-155.0912,19.7764],[-155.0935,19.7718],[-155.0934,19.7378],[-155.0871,19.728],[-155.0794,19.7262],[-155.064,19.7289],[-155.0454,19.7398],[-155.0064,19.7393],[-154.9973,19.7286],[-154.9872,19.7085],[-154.9811,19.6907],[-154.9847,19.6722],[-154.9838,19.6416],[-154.9743,19.6332],[-154.9639,19.6276],[-154.9504,19.6265],[-154.9479,19.6242],[-154.9477,19.6219],[-154.951,19.6136],[-154.9471,19.6049],[-154.9339,19.5975],[-154.9282,19.5927],[-154.9244,19.5866],[-154.9035,19.5706],[-154.875,19.5568],[-154.8526,19.5492],[-154.8374,19.5384],[-154.8267,19.5376],[-154.8144,19.5301],[-154.8096,19.5224],[-154.8094,19.5191],[-154.823,19.4813],[-154.8385,19.4636],[-154.8685,19.4381],[-154.8878,19.4264],[-154.9288,19.3976],[-154.9442,19.3819],[-154.9646,19.3656],[-154.9809,19.3493],[-155.0205,19.3313],[-155.0617,19.3166],[-155.1133,19.2906],[-155.1337,19.2761],[-155.1596,19.2684],[-155.1724,19.2691],[-155.1874,19.2662],[-155.1963,19.2613],[-155.2059,19.2609],[-155.244,19.2713],[-155.2646,19.2742],[-155.2968,19.2663],[-155.3038,19.2618],[-155.3134,19.2507],[-155.3413,19.234],[-155.3491,19.2178],[-155.3606,19.2089],[-155.3786,19.2024],[-155.3907,19.2012],[-155.4174,19.1879],[-155.4271,19.1795],[-155.4325,19.1706],[-155.4535,19.152],[-155.4657,19.147],[-155.5053,19.1379],[-155.5147,19.1325],[-155.5121,19.1282],[-155.5121,19.1243],[-155.5197,19.117],[-155.5261,19.1159],[-155.5289,19.1137],[-155.5448,19.0911],[-155.5511,19.0888],[-155.5578,19.0821],[-155.5553,19.0694],[-155.5552,19.0539],[-155.5574,19.0466],[-155.5664,19.0325],[-155.5766,19.0274],[-155.5819,19.0222],[-155.596,18.9988],[-155.5965,18.9807],[-155.6019,18.9716],[-155.614,18.9704],[-155.6253,18.962],[-155.625,18.9599],[-155.6381,18.9417],[-155.6585,18.9248],[-155.672,18.9175],[-155.6818,18.9187],[-155.6877,18.9234],[-155.6902,18.9322],[-155.6931,18.9405],[-155.726,18.9694],[-155.7636,18.9818],[-155.8061,19.014],[-155.8539,19.0238],[-155.8816,19.0366],[-155.8841,19.0393],[-155.8863,19.0558],[-155.9037,19.0808],[-155.9084,19.0811],[-155.9214,19.1212],[-155.9173,19.156],[-155.9033,19.2178],[-155.9049,19.2301],[-155.9026,19.2584],[-155.8954,19.2746],[-155.8908,19.2989],[-155.8874,19.3371],[-155.8887,19.348],[-155.8988,19.378],[-155.9138,19.4011],[-155.9091,19.4155],[-155.9217,19.4306],[-155.9243,19.4388],[-155.9252,19.4681],[-155.9226,19.4786],[-155.9241,19.4814],[-155.9305,19.4849],[-155.9356,19.4856],[-155.9364,19.4819],[-155.9391,19.4816],[-155.9515,19.4866],[-155.9529,19.4888],[-155.9537,19.51],[-155.9605,19.5466],[-155.9623,19.5518],[-155.9652,19.5547],[-155.9693,19.556],[-155.971,19.5863],[-155.9782,19.6082],[-155.9977,19.6428],[-156.029,19.6501],[-156.0329,19.6539],[-156.035,19.6594],[-156.0333,19.6692],[-156.0274,19.6722],[-156.0293,19.6789],[-156.0361,19.6903],[-156.048,19.6989],[-156.0517,19.7036],[-156.0525,19.7187],[-156.0644,19.7308],[-156.0572,19.7425],[-156.0523,19.7568],[-156.0497,19.7805],[-156.0217,19.8022],[-156.0063,19.8176],[-155.9828,19.8457],[-155.9767,19.8505],[-155.9648,19.8552],[-155.9493,19.857],[-155.9453,19.8534],[-155.9403,19.8523],[-155.9258,19.8589],[-155.9269,19.8702],[-155.9255,19.875],[-155.9157,19.8871],[-155.902,19.9121],[-155.8941,19.9231],[-155.8945,19.9269],[-155.8925,19.9322],[-155.8669,19.9542],[-155.8566,19.9689],[-155.8407,19.977],[-155.8387,19.9755],[-155.8353,19.9761],[-155.8319,19.9828],[-155.829,19.9955],[-155.8255,20.0259],[-155.8282,20.0354],[-155.8504,20.0625],[-155.8669,20.0787],[-155.8842,20.1068],[-155.8991,20.1457],[-155.906,20.2052],[-155.9015,20.2358],[-155.8907,20.2552],[-155.8826,20.263],[-155.8739,20.2677],[-155.8533,20.2715],[-155.8115,20.2603],[-155.7832,20.2464],[-155.7782,20.2457]]]}},{"type":"Feature","id":"15003","properties":{"name":"Honolulu","fips":"15003"},"geometry":{"type":"Polygon","coordinates":[[[-158.0445,21.306],[-158.0883,21.2988],[-158.1033,21.2979],[-158.1127,21.3019],[-158.1211,21.3169],[-158.1225,21.3224],[-158.1119,21.3266],[-158.1142,21.3311],[-158.1194,21.3346],[-158.1255,21.3303],[-158.1332,21.3592],[-158.1403,21.3738],[-158.1497,21.3852],[-158.1617,21.3963],[-158.1792,21.4043],[-158.1813,21.4096],[-158.181,21.4209],[-158.1826,21.4301],[-158.1924,21.448],[-158.2054,21.4598],[-158.2194,21.4698],[-158.233,21.4876],[-158.2312,21.5239],[-158.2318,21.533],[-158.2343,21.5401],[-158.2507,21.5574],[-158.2795,21.5758],[-158.2777,21.5788],[-158.2544,21.5827],[-158.1907,21.5859],[-158.17,21.5823],[-158.1256,21.5867],[-158.1067,21.5966],[-158.1067,21.603],[-158.1095,21.6057],[-158.1082,21.6075],[-158.0799,21.6281],[-158.0668,21.6437],[-158.0667,21.6523],[-158.0639,21.6584],[-158.0372,21.6843],[-158.0181,21.7],[-157.9923,21.708],[-157.987,21.7125],[-157.9686,21.7127],[-157.9472,21.6896],[-157.939,21.669],[-157.9301,21.6552],[-157.9246,21.6512],[-157.9228,21.6361],[-157.9238,21.6293],[-157.9108,21.6112],[-157.9006,21.6059],[-157.8774,21.5753],[-157.8786,21.5602],[-157.8725,21.5576],[-157.8669,21.5637],[-157.8561,21.5607],[-157.8526,21.5575],[-157.8369,21.5299],[-157.8374,21.5121],[-157.8496,21.5096],[-157.8526,21.5],[-157.8455,21.4667],[-157.841,21.4595],[-157.8249,21.4554],[-157.8163,21.4502],[-157.8139,21.4403],[-157.8059,21.4301],[-157.7865,21.4156],[-157.7798,21.4173],[-157.7745,21.4214],[-157.7722,21.4312],[-157.7749,21.4537],[-157.7722,21.4577],[-157.7646,21.4613],[-157.7542,21.4613],[-157.7376,21.4591],[-157.7318,21.4559],[-157.7313,21.4447],[-157.7358,21.4384],[-157.7408,21.424],[-157.7412,21.4146],[-157.7386,21.4043],[-157.7302,21.4019],[-157.7282,21.4021],[-157.7264,21.4028],[-157.7243,21.4033],[-157.7238,21.4033],[-157.7233,21.4032],[-157.7227,21.4031],[-157.7225,21.403],[-157.7218,21.4016],[-157.7211,21.3995],[-157.7189,21.3961],[-157.7089,21.3833],[-157.7087,21.3793],[-157.7126,21.3689],[-157.7106,21.3585],[-157.7088,21.3534],[-157.6971,21.3364],[-157.6938,21.3329],[-157.6619,21.3131],[-157.6518,21.3139],[-157.6526,21.3087],[-157.6537,21.302],[-157.6946,21.2739],[-157.6944,21.2665],[-157.7001,21.264],[-157.7097,21.2621],[-157.7139,21.2638],[-157.7142,21.2665],[-157.7114,21.272],[-157.7122,21.2814],[-157.7143,21.2845],[-157.7213,21.2869],[-157.7572,21.278],[-157.765,21.2789],[-157.7782,21.2735],[-157.7931,21.2604],[-157.8096,21.2577],[-157.8211,21.2606],[-157.8241,21.2646],[-157.8253,21.2714],[-157.8319,21.2795],[-157.8457,21.29],[-157.89,21.3065],[-157.8945,21.3196],[-157.899,21.3274],[-157.9048,21.3292],[-157.9189,21.3186],[-157.9179,21.3138],[-157.9135,21.311],[-157.9109,21.3058],[-157.9523,21.3065],[-157.9507,21.3125],[-157.9519,21.3187],[-157.968,21.328],[-157.9733,21.3274],[-157.9894,21.318],[-158.0245,21.3093],[-158.0445,21.306]]]}},{"type":"Feature","id":"15005","properties":{"name":"Kalawao","fips":"15005"},"geometry":{"type":"Polygon","coordinates":[[[-157.0146,21.1855],[-156.9991,21.1822],[-156.9913,21.1855],[-156.9878,21.1894],[-156.9823,21.2078],[-156.9845,21.2101],[-156.984,21.2122],[-156.974,21.2185],[-156.9691,21.217],[-156.9628,21.2121],[-156.9517,21.1917],[-156.9508,21.1826],[-156.9462,21.176],[-156.9182,21.1683],[-156.8989,21.1476],[-156.9181,21.1295],[-156.9421,21.1602],[-157.0146,21.1855]]]}},{"type":"Feature","id":"15007","properties":{"name":"Kauai","fips":"15007"},"geometry":{"type":"MultiPolygon","coordinates":[[[[-160.5558,21.6683],[-160.551,21.6701],[-160.5433,21.6671],[-160.5424,21.6481],[-160.5493,21.6454],[-160.5541,21.6495],[-160.5558,21.6683]]],[[[-160.125,21.9591],[-160.1223,21.9629],[-160.1127,21.9952],[-160.0965,22.0015],[-160.0721,22.0033],[-160.0585,21.9964],[-160.052,21.9837],[-160.0527,21.9803],[-160.0563,21.9779],[-160.0605,21.9767],[-160.0633,21.9784],[-160.0658,21.9766],[-160.0784,21.9552],[-160.0858,21.9273],[-160.08,21.9108],[-160.0791,21.8961],[-160.0989,21.8847],[-160.1243,21.8768],[-160.1476,21.8728],[-160.1616,21.8647],[-160.1748,21.8469],[-160.1898,21.8224],[-160.2052,21.7891],[-160.2004,21.7865],[-160.2059,21.7795],[-160.218,21.7838],[-160.2348,21.7954],[-160.2496,21.8151],[-160.2449,21.8489],[-160.231,21.8863],[-160.229,21.8891],[-160.2138,21.8992],[-160.2055,21.9075],[-160.2027,21.9124],[-160.1902,21.9236],[-160.1675,21.9329],[-160.137,21.9486],[-160.1273,21.9555],[-160.125,21.9591]]],[[[-159.4317,22.22],[-159.4073,22.2306],[-159.3881,22.2233],[-159.386,22.22],[-159.3676,22.2149],[-159.3598,22.2148],[-159.3572,22.2177],[-159.3538,22.2177],[-159.34,22.2085],[-159.3156,22.1868],[-159.3089,22.1556],[-159.2978,22.1497],[-159.2959,22.1445],[-159.2953,22.1304],[-159.2971,22.1138],[-159.3175,22.0809],[-159.3217,22.0634],[-159.3248,22.0587],[-159.3333,22.0546],[-159.338,22.0466],[-159.3414,22.029],[-159.3332,21.973],[-159.3331,21.9642],[-159.3347,21.9611],[-159.3508,21.9508],[-159.3566,21.9395],[-159.3823,21.9245],[-159.4083,21.8978],[-159.4259,21.8845],[-159.4466,21.8716],[-159.472,21.8829],[-159.4909,21.8889],[-159.518,21.891],[-159.5554,21.8914],[-159.575,21.8966],[-159.5778,21.9005],[-159.5843,21.899],[-159.6102,21.8984],[-159.6378,21.9172],[-159.6481,21.933],[-159.6719,21.957],[-159.6815,21.9601],[-159.7053,21.9634],[-159.7201,21.9708],[-159.7582,21.9807],[-159.7657,21.9866],[-159.7881,22.0184],[-159.7909,22.0312],[-159.7865,22.0637],[-159.7801,22.0726],[-159.7482,22.1004],[-159.7412,22.1157],[-159.7335,22.1428],[-159.726,22.1522],[-159.7,22.1653],[-159.6698,22.1708],[-159.6088,22.2079],[-159.5916,22.2195],[-159.584,22.2267],[-159.5596,22.2292],[-159.5542,22.2282],[-159.5486,22.2263],[-159.5411,22.2168],[-159.5346,22.2194],[-159.5238,22.2176],[-159.5194,22.2156],[-159.5183,22.2112],[-159.5156,22.208],[-159.5078,22.206],[-159.5011,22.2111],[-159.5008,22.2255],[-159.4886,22.2332],[-159.4802,22.2327],[-159.467,22.2265],[-159.4562,22.2288],[-159.4418,22.2263],[-159.4317,22.22]]]]}},{"type":"Feature","id":"15009","properties":{"name":"Maui","fips":"15009"},"geometry":{"type":"MultiPolygon","coordinates":[[[[-157.0146,21.1855],[-156.9421,21.1602],[-156.9181,21.1295],[-156.8989,21.1476],[-156.9182,21.1683],[-156.9035,21.1642],[-156.8982,21.1659],[-156.8961,21.1696],[-156.8965,21.1722],[-156.8679,21.1645],[-156.8416,21.1679],[-156.8219,21.1747],[-156.7715,21.1801],[-156.7422,21.1762],[-156.7383,21.172],[-156.7366,21.1619],[-156.7194,21.1639],[-156.7127,21.1615],[-156.7142,21.1522],[-156.726,21.1324],[-156.7489,21.1086],[-156.776,21.0898],[-156.7908,21.0817],[-156.7941,21.0758],[-156.8354,21.0634],[-156.8658,21.0578],[-156.8771,21.0493],[-156.8919,21.0518],[-156.8952,21.0558],[-156.9537,21.0678],[-157.0029,21.0833],[-157.0262,21.089],[-157.032,21.0911],[-157.0377,21.0979],[-157.0797,21.1058],[-157.0954,21.1064],[-157.125,21.1026],[-157.1435,21.0966],[-157.2541,21.0906],[-157.2981,21.0969],[-157.3133,21.1058],[-157.2992,21.1325],[-157.2995,21.136],[-157.2938,21.1461],[-157.2843,21.1578],[-157.2765,21.1632],[-157.2745,21.1628],[-157.2599,21.1749],[-157.2547,21.1814],[-157.251,21.191],[-157.2503,21.2077],[-157.2569,21.2157],[-157.2615,21.2177],[-157.2632,21.2209],[-157.2607,21.2257],[-157.2571,21.2273],[-157.2415,21.221],[-157.2264,21.2202],[-157.2121,21.2218],[-157.2021,21.2193],[-157.1924,21.2076],[-157.1856,21.2056],[-157.1571,21.2007],[-157.1481,21.2007],[-157.1446,21.2026],[-157.1282,21.2015],[-157.1134,21.1974],[-157.098,21.198],[-157.0643,21.1891],[-157.0531,21.1888],[-157.0478,21.1907],[-157.04,21.1909],[-157.0146,21.1855]]],[[[-156.5442,20.5228],[-156.55,20.5203],[-156.56,20.5219],[-156.5862,20.5117],[-156.6038,20.5244],[-156.6311,20.5149],[-156.6423,20.5083],[-156.6475,20.512],[-156.6688,20.5047],[-156.6829,20.5068],[-156.7037,20.5272],[-156.7023,20.5325],[-156.6967,20.5416],[-156.6801,20.557],[-156.6516,20.5656],[-156.6146,20.5871],[-156.6107,20.5938],[-156.5769,20.6066],[-156.5671,20.6049],[-156.5536,20.5947],[-156.543,20.5801],[-156.5428,20.5737],[-156.5489,20.5686],[-156.556,20.5427],[-156.553,20.5394],[-156.5402,20.5347],[-156.5396,20.5276],[-156.5442,20.5228]]],[[[-156.612,21.0248],[-156.6121,21.0273],[-156.6062,21.0344],[-156.5923,21.0329],[-156.5804,21.0202],[-156.5628,21.0162],[-156.5498,21.0049],[-156.5463,21.0051],[-156.5282,20.9678],[-156.5187,20.9547],[-156.5122,20.9513],[-156.5104,20.9404],[-156.5079,20.9379],[-156.4995,20.9346],[-156.4959,20.928],[-156.4933,20.916],[-156.4811,20.8982],[-156.4748,20.8945],[-156.4227,20.9116],[-156.386,20.9196],[-156.3743,20.9276],[-156.3707,20.9327],[-156.3526,20.9414],[-156.3457,20.9416],[-156.3424,20.9387],[-156.3328,20.9464],[-156.3246,20.9502],[-156.3072,20.9427],[-156.2863,20.9477],[-156.2751,20.9374],[-156.2631,20.9409],[-156.2426,20.9378],[-156.2302,20.9319],[-156.2301,20.9179],[-156.2268,20.9167],[-156.2221,20.9183],[-156.218,20.9166],[-156.2163,20.907],[-156.1731,20.8769],[-156.1705,20.8746],[-156.1667,20.8656],[-156.1327,20.8614],[-156.1294,20.8475],[-156.1157,20.8273],[-156.1001,20.8285],[-156.0903,20.8319],[-156.0598,20.8105],[-156.0333,20.8082],[-156.0035,20.7955],[-156.0029,20.7894],[-155.9879,20.7766],[-155.9846,20.7675],[-155.9869,20.7586],[-155.9854,20.7442],[-155.9872,20.7227],[-155.9915,20.7137],[-156.0019,20.6981],[-156.0142,20.6857],[-156.02,20.6869],[-156.0307,20.6825],[-156.0403,20.6727],[-156.0438,20.6649],[-156.0534,20.6543],[-156.0598,20.652],[-156.0815,20.6544],[-156.0894,20.6485],[-156.121,20.6337],[-156.1299,20.6275],[-156.1427,20.6236],[-156.1446,20.624],[-156.1481,20.6291],[-156.1568,20.6296],[-156.1697,20.6274],[-156.1734,20.6241],[-156.1846,20.6297],[-156.1929,20.6318],[-156.2103,20.6285],[-156.2253,20.6229],[-156.2361,20.616],[-156.2659,20.6016],[-156.2844,20.5965],[-156.288,20.592],[-156.2935,20.5888],[-156.3027,20.5862],[-156.3229,20.5883],[-156.3517,20.587],[-156.3596,20.582],[-156.3707,20.5788],[-156.3776,20.5784],[-156.4153,20.5861],[-156.4175,20.5897],[-156.4157,20.594],[-156.4178,20.5987],[-156.4231,20.6021],[-156.4277,20.5989],[-156.4319,20.5981],[-156.4384,20.6013],[-156.4442,20.6079],[-156.4429,20.6138],[-156.4507,20.6422],[-156.4459,20.6493],[-156.4437,20.656],[-156.4487,20.7047],[-156.451,20.7255],[-156.4529,20.7313],[-156.4584,20.7367],[-156.4622,20.754],[-156.4621,20.7726],[-156.464,20.7817],[-156.4736,20.7908],[-156.4895,20.7983],[-156.5017,20.7999],[-156.506,20.7995],[-156.516,20.7942],[-156.5252,20.7808],[-156.5378,20.7784],[-156.6318,20.8212],[-156.6786,20.8705],[-156.689,20.8887],[-156.6878,20.8907],[-156.6881,20.9063],[-156.6913,20.9124],[-156.6974,20.9164],[-156.6999,20.9206],[-156.6941,20.9527],[-156.6809,20.9803],[-156.6655,21.0071],[-156.6524,21.009],[-156.646,21.0144],[-156.6426,21.0199],[-156.6442,21.0223],[-156.6428,21.0276],[-156.6196,21.0278],[-156.612,21.0248]]],[[[-157.01,20.9298],[-156.9898,20.9321],[-156.9716,20.9263],[-156.9375,20.9253],[-156.9185,20.9225],[-156.8972,20.9154],[-156.837,20.8636],[-156.8252,20.8507],[-156.8096,20.826],[-156.8085,20.8204],[-156.8095,20.8092],[-156.8174,20.7946],[-156.8383,20.7646],[-156.8464,20.7602],[-156.8515,20.7601],[-156.8698,20.7547],[-156.8903,20.7449],[-156.9091,20.7395],[-156.949,20.739],[-156.9679,20.7351],[-156.9847,20.7567],[-156.994,20.7867],[-156.9889,20.8155],[-156.9918,20.8266],[-157.0062,20.8496],[-157.0109,20.8545],[-157.0546,20.8772],[-157.0597,20.8846],[-157.0611,20.8906],[-157.0625,20.9044],[-157.0591,20.9134],[-157.0358,20.9271],[-157.0256,20.9295],[-157.01,20.9298]]]]}}]}