{"type":"FeatureCollection","features":[{"type":"Feature","geometry":{"type":"Polygon","coordinates":[[[-93.7908,41.3949],[-93.7892,41.162],[-92.18,41.1627],[-92.1798,40.6005],[-91.7291,40.6136],[-91.7168,40.5985],[-91.6864,40.5809],[-91.6916,40.5649],[-91.6887,40.5574],[-91.6201,40.5408],[-91.6214,40.5101],[-91.5908,40.4923],[-91.5747,40.4657],[-91.5527,40.4588],[-91.5251,40.4578],[-91.5233,40.4501],[-91.5336,40.4383],[-91.5191,40.4328],[-91.527,40.4182],[-91.5246,40.4108],[-91.4981,40.4019],[-91.4885,40.4043],[-91.4909,40.393],[-91.4853,40.3847],[-91.4803,40.3818],[-91.4636,40.3855],[-91.4639,40.3757],[-91.4487,40.3768],[-91.4412,40.3863],[-91.4194,40.3783],[-91.3842,40.3864],[-91.3757,40.3919],[-91.3726,40.4012],[-91.3818,40.4426],[-91.3665,40.4789],[-91.3642,40.5],[-91.3845,40.5309],[-91.4041,40.5391],[-91.4064,40.5518],[-91.4015,40.5595],[-91.3798,40.5745],[-91.3599,40.6018],[-91.3397,40.6135],[-91.3066,40.6262],[-91.2531,40.638],[-91.187,40.6373],[-91.1239,40.6692],[-91.1119,40.697],[-91.1157,40.7252],[-91.1104,40.7455],[-91.0917,40.7797],[-91.0976,40.8056],[-91.093,40.8211],[-91.0564,40.8484],[-91.0447,40.8684],[-91.0216,40.884],[-91.0095,40.9006],[-90.9653,40.9216],[-90.9522,40.954],[-90.9581,40.9798],[-90.9459,41.0065],[-90.9423,41.0347],[-90.9494,41.0728],[-90.9466,41.0966],[-90.995,41.1606],[-91.0076,41.1662],[-91.0416,41.1662],[-91.073,41.2072],[-91.1137,41.2414],[-91.1142,41.25],[-91.092,41.2869],[-91.0748,41.3056],[-91.0662,41.3664],[-91.0516,41.3853],[-91.0459,41.4141],[-91.0278,41.4236],[-90.9829,41.4342],[-90.9293,41.4215],[-90.8466,41.4551],[-90.7459,41.4497],[-90.6558,41.4621],[-90.6059,41.4942],[-90.6021,41.506],[-90.591,41.5128],[-90.5409,41.5261],[-90.5006,41.518],[-90.4614,41.5235],[-90.4128,41.5653],[-90.3432,41.5878],[-90.3395,41.5986],[-90.3435,41.647],[-90.3345,41.6796],[-90.3134,41.6981],[-90.3177,41.7227],[-90.3109,41.7423],[-90.2786,41.7674],[-90.182,41.8071],[-90.1819,41.8432],[-90.1536,41.9066],[-90.1516,41.931],[-90.1638,41.9449],[-90.1641,41.9562],[-90.1462,41.9813],[-90.1401,42.0033],[-90.1516,42.0306],[-90.1645,42.0421],[-90.1684,42.0758],[-90.1612,42.1064],[-90.1675,42.1225],[-90.2014,42.1309],[-90.2083,42.151],[-90.2161,42.1567],[-90.2501,42.1715],[-90.2822,42.1788],[-90.3283,42.201],[-90.357,42.2054],[-90.3932,42.2272],[-90.4193,42.2545],[-90.4309,42.2782],[-90.4165,42.3251],[-90.4738,42.3815],[-90.665,42.3822],[-90.6656,42.2947],[-91.3633,42.2964],[-91.3662,41.8601],[-92.2982,41.8628],[-92.2975,41.5098],[-92.7565,41.5088],[-92.7571,41.6014],[-92.7668,41.6014],[-92.766,41.8624],[-93.3479,41.8631],[-93.3487,41.601],[-93.3287,41.6011],[-93.3284,41.4908],[-93.3454,41.4822],[-93.3562,41.4982],[-93.3626,41.4867],[-93.3724,41.4862],[-93.3748,41.4933],[-93.3838,41.4948],[-93.4038,41.4865],[-93.4055,41.4898],[-93.3966,41.4963],[-93.3995,41.5018],[-93.4143,41.4924],[-93.4223,41.4942],[-93.4138,41.5074],[-93.4381,41.5021],[-93.4413,41.5076],[-93.5482,41.5113],[-93.7906,41.5119],[-93.7908,41.3949]]]},"properties":{"name":"CD1","district_number":1,"fips":"19-01"}},{"type":"Feature","geometry":{"type":"Polygon","coordinates":[[[-93.4996,42.5441],[-93.4991,42.471],[-93.4626,42.4708],[-93.463,42.2093],[-92.7675,42.2101],[-92.7668,41.6014],[-92.7571,41.6014],[-92.7565,41.5088],[-92.2975,41.5098],[-92.2982,41.8628],[-91.3662,41.8601],[-91.3633,42.2964],[-90.6656,42.2947],[-90.665,42.3822],[-90.4738,42.3815],[-90.555,42.4161],[-90.5604,42.4329],[-90.568,42.4404],[-90.6243,42.4589],[-90.6514,42.4755],[-90.6565,42.491],[-90.6361,42.5189],[-90.6615,42.568],[-90.687,42.5918],[-90.694,42.6145],[-90.7092,42.6361],[-90.8874,42.6725],[-90.9212,42.6854],[-90.9492,42.6856],[-90.9777,42.6968],[-91.0001,42.7162],[-91.0268,42.7242],[-91.0354,42.7373],[-91.0537,42.7382],[-91.0563,42.7473],[-91.0651,42.7513],[-91.0603,42.7618],[-91.0695,42.7696],[-91.0787,42.8277],[-91.0941,42.8308],[-91.0914,42.8499],[-91.0977,42.8599],[-91.1006,42.8831],[-91.1174,42.8958],[-91.1456,42.908],[-91.1438,42.9229],[-91.1499,42.942],[-91.1459,42.9608],[-91.1566,42.9782],[-91.1795,43.0674],[-91.1753,43.1347],[-91.1462,43.1524],[-91.1222,43.1973],[-91.0664,43.2393],[-91.0579,43.2554],[-91.0726,43.2621],[-91.0737,43.2747],[-91.1072,43.3136],[-91.1328,43.328],[-91.2066,43.3525],[-91.215,43.368],[-91.2061,43.375],[-91.199,43.3898],[-91.2004,43.4127],[-91.2334,43.4552],[-91.216,43.4811],[-91.2177,43.5006],[-93.4974,43.4996],[-93.4986,42.9085],[-93.0251,42.9075],[-93.027,42.5568],[-93.4995,42.5577],[-93.4996,42.5441]]]},"properties":{"name":"CD2","district_number":2,"fips":"19-02"}},{"type":"Feature","geometry":{"type":"Polygon","coordinates":[[[-95.3855,40.7318],[-95.3853,40.7284],[-95.3706,40.7282],[-95.3739,40.5805],[-94.5942,40.571],[-94.2705,40.5715],[-93.2506,40.5809],[-92.1798,40.6005],[-92.18,41.1627],[-93.7892,41.162],[-93.7906,41.5119],[-93.5482,41.5113],[-93.4413,41.5076],[-93.4381,41.5021],[-93.4138,41.5074],[-93.4223,41.4942],[-93.4143,41.4924],[-93.3995,41.5018],[-93.3966,41.4963],[-93.4055,41.4898],[-93.4038,41.4865],[-93.3838,41.4948],[-93.3748,41.4933],[-93.3724,41.4862],[-93.3626,41.4867],[-93.3562,41.4982],[-93.3454,41.4822],[-93.3284,41.4908],[-93.3287,41.6011],[-93.3487,41.601],[-93.3479,41.8631],[-94.1644,41.8632],[-94.1647,42.2099],[-94.6287,42.2096],[-94.6287,41.8628],[-94.7449,41.8624],[-94.7442,41.6022],[-94.7007,41.6022],[-94.7006,41.5041],[-95.1547,41.5052],[-95.1559,41.1592],[-95.3843,41.16],[-95.3855,40.7318]]]},"properties":{"name":"CD3","district_number":3,"fips":"19-03"}},{"type":"Feature","geometry":{"type":"Polygon","coordinates":[[[-96.6395,42.737],[-96.6305,42.7302],[-96.6342,42.7243],[-96.6244,42.7252],[-96.628,42.7178],[-96.6244,42.714],[-96.6302,42.7054],[-96.624,42.7076],[-96.6151,42.6984],[-96.6056,42.702],[-96.6046,42.6985],[-96.6121,42.6956],[-96.5996,42.6989],[-96.5936,42.6898],[-96.5996,42.6869],[-96.5898,42.691],[-96.5862,42.6832],[-96.5752,42.6828],[-96.5788,42.6781],[-96.5721,42.6767],[-96.5784,42.6718],[-96.5716,42.6709],[-96.567,42.6764],[-96.5558,42.6642],[-96.5598,42.6629],[-96.559,42.6577],[-96.5424,42.6609],[-96.5375,42.646],[-96.5157,42.6297],[-96.5181,42.6198],[-96.5299,42.6179],[-96.5313,42.6136],[-96.5278,42.609],[-96.5187,42.6164],[-96.5095,42.6127],[-96.5011,42.5893],[-96.4913,42.5868],[-96.4957,42.5795],[-96.4858,42.575],[-96.4985,42.5581],[-96.477,42.556],[-96.479,42.5264],[-96.4937,42.5167],[-96.476,42.5078],[-96.4765,42.4901],[-96.4559,42.4926],[-96.402,42.4864],[-96.386,42.4745],[-96.3807,42.4464],[-96.3876,42.4325],[-96.4152,42.4042],[-96.4084,42.3761],[-96.4178,42.3514],[-96.408,42.3374],[-96.3753,42.3183],[-96.3692,42.3083],[-96.3658,42.2858],[-96.336,42.2648],[-96.3289,42.2547],[-96.33,42.2402],[-96.3237,42.2299],[-96.337,42.2175],[-96.3566,42.2152],[-96.3599,42.2106],[-96.3474,42.1931],[-96.3497,42.1707],[-96.3416,42.1591],[-96.3207,42.1479],[-96.3098,42.1321],[-96.283,42.125],[-96.2695,42.1142],[-96.2677,42.0971],[-96.2795,42.0709],[-96.2725,42.0462],[-96.2581,42.0383],[-96.2344,42.0407],[-96.2238,42.0333],[-96.2236,42.0227],[-96.2419,42.007],[-96.2365,41.9964],[-96.2255,41.9947],[-96.2152,42.0067],[-96.1946,42.0087],[-96.184,42.0031],[-96.1921,41.9845],[-96.1872,41.9779],[-96.1521,41.9797],[-96.1295,41.9717],[-96.1333,41.9557],[-96.1446,41.9415],[-96.1367,41.9208],[-96.1591,41.9101],[-96.1618,41.9018],[-96.1488,41.8882],[-96.1419,41.869],[-96.1105,41.8492],[-96.1076,41.8404],[-96.111,41.8288],[-96.1066,41.8196],[-96.0754,41.8077],[-96.0648,41.7944],[-96.0775,41.7778],[-96.0812,41.7571],[-96.101,41.7476],[-96.1064,41.738],[-96.1022,41.7276],[-96.0766,41.7157],[-96.0732,41.7041],[-96.0846,41.6977],[-96.1135,41.6976],[-96.1226,41.683],[-96.118,41.6733],[-96.1001,41.6611],[-96.0952,41.6501],[-96.0978,41.6396],[-96.1183,41.615],[-96.1095,41.5968],[-96.0872,41.5866],[-96.0814,41.5779],[-96.095,41.5548],[-96.0951,41.5411],[-96.0827,41.526],[-96.0528,41.5084],[-96.0406,41.5069],[-96.0344,41.5128],[-96.0267,41.5404],[-96.0191,41.5451],[-96.0051,41.5433],[-96.0,41.5395],[-95.9928,41.5146],[-96.0006,41.5025],[-96.0195,41.4916],[-96.0136,41.4785],[-96.0049,41.4724],[-95.9843,41.4709],[-95.9667,41.4634],[-95.9363,41.4653],[-95.9212,41.4551],[-95.9208,41.4434],[-95.9328,41.4308],[-95.9297,41.4111],[-95.9377,41.3948],[-95.9297,41.3671],[-95.9369,41.3592],[-95.954,41.3538],[-95.9571,41.3459],[-95.9465,41.3331],[-95.9258,41.3216],[-95.8829,41.3166],[-95.8742,41.3079],[-95.8711,41.2967],[-95.8775,41.2846],[-95.9028,41.2744],[-95.9126,41.2795],[-95.9061,41.2875],[-95.9059,41.301],[-95.9276,41.2984],[-95.9286,41.2813],[-95.9141,41.2724],[-95.9223,41.263],[-95.9106,41.2346],[-95.9267,41.2103],[-95.9273,41.1971],[-95.9161,41.1853],[-95.8617,41.188],[-95.8472,41.1834],[-95.8416,41.1755],[-95.8479,41.1662],[-95.8737,41.1666],[-95.8825,41.1559],[-95.8815,41.1421],[-95.8672,41.1215],[-95.8624,41.0897],[-95.8823,41.0594],[-95.8597,41.0357],[-95.8599,41.0254],[-95.8695,41.0094],[-95.867,41.0011],[-95.8354,40.9842],[-95.8291,40.9757],[-95.8397,40.9328],[-95.8364,40.9216],[-95.8143,40.9029],[-95.8095,40.8912],[-95.8159,40.8798],[-95.8425,40.8703],[-95.8486,40.8611],[-95.8372,40.8353],[-95.8453,40.8113],[-95.8345,40.7878],[-95.8352,40.7792],[-95.8466,40.7686],[-95.879,40.7531],[-95.8889,40.7319],[-95.8832,40.7176],[-95.8526,40.7023],[-95.8428,40.6775],[-95.8229,40.6672],[-95.7955,40.6624],[-95.7763,40.6475],[-95.7689,40.6213],[-95.7486,40.6034],[-95.7531,40.5928],[-95.7656,40.5852],[-95.3739,40.5805],[-95.3706,40.7282],[-95.3853,40.7284],[-95.3855,40.7318],[-95.3843,41.16],[-95.1559,41.1592],[-95.1547,41.5052],[-94.7006,41.5041],[-94.7007,41.6022],[-94.7442,41.6022],[-94.7449,41.8624],[-94.6287,41.8628],[-94.6287,42.2095],[-94.1647,42.2099],[-94.1644,41.8632],[-92.766,41.8624],[-92.7675,42.2101],[-93.463,42.2093],[-93.4626,42.4708],[-93.4991,42.471],[-93.4995,42.5577],[-93.027,42.5568],[-93.0251,42.9075],[-93.4986,42.9085],[-93.4974,43.4996],[-96.5992,43.5005],[-96.599,43.4953],[-96.5902,43.4941],[-96.5846,43.4891],[-96.5868,43.4838],[-96.5811,43.4815],[-96.5869,43.4779],[-96.5824,43.4667],[-96.5894,43.4665],[-96.6031,43.4508],[-96.5941,43.4338],[-96.5703,43.4285],[-96.5736,43.419],[-96.5484,43.4037],[-96.5444,43.3962],[-96.5252,43.3961],[-96.5217,43.3859],[-96.5221,43.3722],[-96.531,43.3684],[-96.5251,43.3536],[-96.5277,43.3483],[-96.5243,43.3474],[-96.5351,43.3365],[-96.531,43.3207],[-96.5256,43.3186],[-96.529,43.3164],[-96.5241,43.3114],[-96.5292,43.3091],[-96.527,43.3052],[-96.5319,43.3042],[-96.5304,43.2998],[-96.5521,43.2929],[-96.5737,43.299],[-96.5885,43.2962],[-96.588,43.2924],[-96.5795,43.2957],[-96.5776,43.2792],[-96.5861,43.2745],[-96.5857,43.2694],[-96.5527,43.2581],[-96.5492,43.2468],[-96.5652,43.2445],[-96.5715,43.2388],[-96.5593,43.2229],[-96.5359,43.2276],[-96.5207,43.218],[-96.5091,43.2172],[-96.5086,43.2211],[-96.4966,43.2237],[-96.4767,43.2219],[-96.4765,43.213],[-96.4707,43.2073],[-96.475,43.2026],[-96.474,43.1896],[-96.4649,43.182],[-96.4696,43.1584],[-96.464,43.1555],[-96.4685,43.1519],[-96.4592,43.1475],[-96.4604,43.1436],[-96.4504,43.1424],[-96.4365,43.1202],[-96.4524,43.0982],[-96.4623,43.0929],[-96.4541,43.0838],[-96.4607,43.0643],[-96.4767,43.0627],[-96.4909,43.0508],[-96.5105,43.0499],[-96.5148,43.0452],[-96.5125,43.0411],[-96.5213,43.0397],[-96.511,43.0397],[-96.512,43.0262],[-96.492,43.0102],[-96.497,42.9985],[-96.5099,42.9952],[-96.5124,42.9857],[-96.5208,42.9803],[-96.5158,42.9728],[-96.5052,42.9711],[-96.499,42.9578],[-96.5089,42.9537],[-96.5093,42.9452],[-96.5199,42.94],[-96.5168,42.9323],[-96.5253,42.9356],[-96.5341,42.9237],[-96.5413,42.9239],[-96.5365,42.9056],[-96.5429,42.9038],[-96.5253,42.8919],[-96.5398,42.8898],[-96.5377,42.8867],[-96.5435,42.8838],[-96.5377,42.8785],[-96.5471,42.874],[-96.5466,42.8639],[-96.5505,42.8635],[-96.5415,42.8569],[-96.5453,42.8499],[-96.5561,42.8492],[-96.5486,42.8409],[-96.5503,42.8375],[-96.5609,42.8391],[-96.5636,42.8282],[-96.5684,42.8378],[-96.5782,42.8347],[-96.5815,42.8377],[-96.5777,42.8278],[-96.5858,42.8238],[-96.5841,42.819],[-96.5959,42.815],[-96.5905,42.8083],[-96.5941,42.7982],[-96.5997,42.7984],[-96.5952,42.7929],[-96.605,42.7917],[-96.6044,42.7831],[-96.6195,42.784],[-96.6264,42.7714],[-96.6364,42.7697],[-96.6272,42.7544],[-96.6228,42.7584],[-96.6193,42.7546],[-96.63,42.7507],[-96.6294,42.7436],[-96.6356,42.7419],[-96.6306,42.7353],[-96.6395,42.737]]]},"properties":{"name":"CD4","district_number":4,"fips":"19-04"}}],"source":"U.S. Census Bureau TIGERweb, 120th Congressional Districts (January 1, 2026 vintage)"}