{"type":"FeatureCollection","features":[{"type":"Feature","id":"19001","properties":{"name":"Adair","fips":"19001"},"geometry":{"type":"Polygon","coordinates":[[[-94.2416,41.1571],[-94.4706,41.1576],[-94.7006,41.1581],[-94.7006,41.5041],[-94.2416,41.5037],[-94.2416,41.1571]]]}},{"type":"Feature","id":"19003","properties":{"name":"Adams","fips":"19003"},"geometry":{"type":"Polygon","coordinates":[[[-94.9276,41.1585],[-94.705,41.1579],[-94.7006,41.1581],[-94.4706,41.1576],[-94.4708,40.8995],[-94.9285,40.9007],[-94.9276,41.1585]]]}},{"type":"Feature","id":"19005","properties":{"name":"Allamakee","fips":"19005"},"geometry":{"type":"Polygon","coordinates":[[[-91.2177,43.5005],[-91.2056,43.4229],[-91.2102,43.3721],[-91.1072,43.3136],[-91.0857,43.2919],[-91.0579,43.2554],[-91.0626,43.2432],[-91.1462,43.1524],[-91.1562,43.1429],[-91.1753,43.1347],[-91.1783,43.125],[-91.1772,43.0802],[-91.6053,43.0817],[-91.6108,43.5005],[-91.5911,43.5005],[-91.551,43.5005],[-91.5412,43.5005],[-91.5338,43.5006],[-91.491,43.5007],[-91.4651,43.5006],[-91.4614,43.5006],[-91.4459,43.5006],[-91.4418,43.5004],[-91.3769,43.5005],[-91.3716,43.5009],[-91.3693,43.5008],[-91.2177,43.5005]]]}},{"type":"Feature","id":"19007","properties":{"name":"Appanoose","fips":"19007"},"geometry":{"type":"Polygon","coordinates":[[[-92.6379,40.5909],[-92.6392,40.5908],[-92.6867,40.5898],[-92.6899,40.5899],[-92.7146,40.5896],[-92.7422,40.5892],[-92.7574,40.5889],[-92.8281,40.5886],[-92.828,40.5885],[-92.8351,40.5885],[-92.8574,40.5884],[-92.863,40.5882],[-92.8792,40.5883],[-92.8898,40.588],[-92.9035,40.5879],[-92.9416,40.5877],[-92.9577,40.5874],[-93.0855,40.5844],[-93.0973,40.584],[-93.0976,40.8985],[-92.6391,40.8989],[-92.6379,40.5909]]]}},{"type":"Feature","id":"19009","properties":{"name":"Audubon","fips":"19009"},"geometry":{"type":"Polygon","coordinates":[[[-94.7006,41.5041],[-95.0408,41.5047],[-95.0407,41.6022],[-95.0925,41.6021],[-95.0929,41.8634],[-94.7449,41.8624],[-94.7442,41.6022],[-94.7006,41.5041]]]}},{"type":"Feature","id":"19011","properties":{"name":"Benton","fips":"19011"},"geometry":{"type":"Polygon","coordinates":[[[-91.8311,42.2991],[-91.8314,41.8619],[-92.2982,41.8628],[-92.2988,42.2975],[-92.0648,42.2973],[-91.8311,42.2991]]]}},{"type":"Feature","id":"19013","properties":{"name":"Black Hawk","fips":"19013"},"geometry":{"type":"Polygon","coordinates":[[[-92.0648,42.2973],[-92.2988,42.2975],[-92.5335,42.297],[-92.5543,42.5559],[-92.5546,42.5594],[-92.5545,42.6423],[-92.0817,42.6421],[-92.0648,42.2973]]]}},{"type":"Feature","id":"19015","properties":{"name":"Boone","fips":"19015"},"geometry":{"type":"Polygon","coordinates":[[[-93.6984,42.2093],[-93.698,41.8634],[-93.8155,41.8634],[-94.1641,41.8632],[-94.1647,42.2099],[-93.9316,42.2101],[-93.6984,42.2093]]]}},{"type":"Feature","id":"19017","properties":{"name":"Bremer","fips":"19017"},"geometry":{"type":"Polygon","coordinates":[[[-92.5542,42.9071],[-92.0816,42.907],[-92.0817,42.6421],[-92.5545,42.6423],[-92.5542,42.9071]]]}},{"type":"Feature","id":"19019","properties":{"name":"Buchanan","fips":"19019"},"geometry":{"type":"Polygon","coordinates":[[[-91.597,42.2964],[-91.8311,42.2991],[-92.0648,42.2973],[-92.0817,42.6421],[-91.6071,42.644],[-91.597,42.2964]]]}},{"type":"Feature","id":"19021","properties":{"name":"Buena Vista","fips":"19021"},"geometry":{"type":"Polygon","coordinates":[[[-94.9139,42.9097],[-94.9145,42.5603],[-95.388,42.5617],[-95.3882,42.9099],[-94.9139,42.9097]]]}},{"type":"Feature","id":"19023","properties":{"name":"Butler","fips":"19023"},"geometry":{"type":"Polygon","coordinates":[[[-93.0251,42.9075],[-92.5542,42.9071],[-92.5545,42.6423],[-92.5546,42.5594],[-92.5543,42.5559],[-93.027,42.5568],[-93.0251,42.9075]]]}},{"type":"Feature","id":"19025","properties":{"name":"Calhoun","fips":"19025"},"geometry":{"type":"Polygon","coordinates":[[[-94.9145,42.5603],[-94.443,42.5588],[-94.3977,42.4733],[-94.3975,42.2092],[-94.6288,42.2094],[-94.8584,42.2097],[-94.8567,42.474],[-94.9145,42.4742],[-94.9145,42.5603]]]}},{"type":"Feature","id":"19027","properties":{"name":"Carroll","fips":"19027"},"geometry":{"type":"Polygon","coordinates":[[[-94.8584,42.2097],[-94.6288,42.2094],[-94.6287,41.8628],[-94.668,41.8627],[-94.6717,41.8628],[-94.6724,41.8629],[-94.6731,41.8627],[-94.6743,41.8627],[-94.6754,41.8629],[-94.6769,41.863],[-94.7449,41.8624],[-95.0929,41.8634],[-95.0909,42.2104],[-94.8584,42.2097]]]}},{"type":"Feature","id":"19029","properties":{"name":"Cass","fips":"19029"},"geometry":{"type":"Polygon","coordinates":[[[-95.1547,41.5052],[-95.0408,41.5047],[-94.7006,41.5041],[-94.7006,41.1581],[-94.705,41.1579],[-94.9276,41.1585],[-95.1541,41.1591],[-95.1559,41.1592],[-95.1547,41.5052]]]}},{"type":"Feature","id":"19031","properties":{"name":"Cedar","fips":"19031"},"geometry":{"type":"Polygon","coordinates":[[[-91.3661,41.8601],[-91.3658,41.9474],[-90.8985,41.9462],[-90.8984,41.7714],[-90.8999,41.5971],[-91.3664,41.5984],[-91.3661,41.8601]]]}},{"type":"Feature","id":"19033","properties":{"name":"Cerro Gordo","fips":"19033"},"geometry":{"type":"Polygon","coordinates":[[[-93.0241,43.2555],[-93.0241,43.2128],[-93.0251,42.9075],[-93.4986,42.9085],[-93.4976,43.2555],[-93.0241,43.2555]]]}},{"type":"Feature","id":"19035","properties":{"name":"Cherokee","fips":"19035"},"geometry":{"type":"Polygon","coordinates":[[[-95.8594,42.9091],[-95.3882,42.9099],[-95.388,42.5617],[-95.7416,42.5613],[-95.7503,42.5611],[-95.8599,42.5606],[-95.8594,42.9091]]]}},{"type":"Feature","id":"19037","properties":{"name":"Chickasaw","fips":"19037"},"geometry":{"type":"Polygon","coordinates":[[[-92.0816,42.907],[-92.5542,42.9071],[-92.5544,43.2128],[-92.081,43.2129],[-92.0811,43.0828],[-92.0816,42.907]]]}},{"type":"Feature","id":"19039","properties":{"name":"Clarke","fips":"19039"},"geometry":{"type":"Polygon","coordinates":[[[-94.0142,41.1568],[-93.8988,41.1566],[-93.7892,41.162],[-93.5576,41.1613],[-93.5565,40.8983],[-94.0148,40.897],[-94.0142,41.1568]]]}},{"type":"Feature","id":"19041","properties":{"name":"Clay","fips":"19041"},"geometry":{"type":"Polygon","coordinates":[[[-95.3881,43.2552],[-94.9137,43.2551],[-94.9139,42.9097],[-95.3882,42.9099],[-95.3881,43.2552]]]}},{"type":"Feature","id":"19043","properties":{"name":"Clayton","fips":"19043"},"geometry":{"type":"Polygon","coordinates":[[[-91.1631,42.9868],[-91.1456,42.908],[-91.1434,42.9047],[-91.1174,42.8958],[-91.1006,42.8831],[-91.0776,42.8038],[-91.0695,42.7696],[-91.0649,42.7573],[-91.0537,42.7382],[-90.9763,42.696],[-90.9492,42.6856],[-90.897,42.6744],[-90.8974,42.6457],[-91.1328,42.6458],[-91.6071,42.644],[-91.6053,43.0817],[-91.1772,43.0802],[-91.1781,43.062],[-91.1752,43.0413],[-91.1631,42.9868]]]}},{"type":"Feature","id":"19045","properties":{"name":"Clinton","fips":"19045"},"geometry":{"type":"Polygon","coordinates":[[[-90.1521,41.9289],[-90.182,41.8071],[-90.188,41.8032],[-90.2084,41.7972],[-90.2223,41.7931],[-90.2427,41.7838],[-90.2786,41.7674],[-90.3028,41.75],[-90.3098,41.7433],[-90.3152,41.7343],[-90.317,41.7291],[-90.4736,41.7735],[-90.8984,41.7714],[-90.8985,41.9462],[-90.8984,42.0335],[-90.1542,42.0331],[-90.1509,42.0294],[-90.1412,42.0089],[-90.1406,41.996],[-90.1516,41.931],[-90.1521,41.9289]]]}},{"type":"Feature","id":"19047","properties":{"name":"Crawford","fips":"19047"},"geometry":{"type":"Polygon","coordinates":[[[-95.0929,41.8634],[-95.5573,41.8634],[-95.6728,41.8631],[-95.6708,42.2114],[-95.3235,42.2109],[-95.0909,42.2104],[-95.0929,41.8634]]]}},{"type":"Feature","id":"19049","properties":{"name":"Dallas","fips":"19049"},"geometry":{"type":"Polygon","coordinates":[[[-94.2803,41.863],[-94.1641,41.8632],[-93.8155,41.8634],[-93.8143,41.6004],[-93.7906,41.5119],[-93.8968,41.5031],[-94.2416,41.5037],[-94.2801,41.6013],[-94.2803,41.863]]]}},{"type":"Feature","id":"19051","properties":{"name":"Davis","fips":"19051"},"geometry":{"type":"Polygon","coordinates":[[[-92.1798,40.6005],[-92.1962,40.6001],[-92.2017,40.6],[-92.2176,40.5998],[-92.2365,40.5995],[-92.2988,40.5985],[-92.3312,40.5978],[-92.3314,40.5977],[-92.3508,40.5973],[-92.3508,40.5973],[-92.3797,40.5965],[-92.4537,40.5953],[-92.4616,40.5954],[-92.4817,40.5949],[-92.4824,40.5949],[-92.4846,40.5949],[-92.5803,40.5922],[-92.6379,40.5909],[-92.6391,40.8989],[-92.1791,40.8997],[-92.179,40.8983],[-92.1798,40.6005]]]}},{"type":"Feature","id":"19053","properties":{"name":"Decatur","fips":"19053"},"geometry":{"type":"Polygon","coordinates":[[[-93.5569,40.5802],[-93.5589,40.5802],[-93.5608,40.5803],[-93.5652,40.5801],[-93.5658,40.5801],[-93.5662,40.5801],[-93.5974,40.5795],[-93.6562,40.5784],[-93.6593,40.5783],[-93.6619,40.5784],[-93.6688,40.5782],[-93.6771,40.5781],[-93.6903,40.5779],[-93.7224,40.5776],[-93.7284,40.5775],[-93.7373,40.5775],[-93.7428,40.5775],[-93.7502,40.5777],[-93.7702,40.5776],[-93.7743,40.5776],[-93.8155,40.5773],[-93.8187,40.5771],[-93.8409,40.5768],[-93.8537,40.5766],[-93.8983,40.576],[-93.8993,40.5759],[-93.9009,40.5759],[-93.914,40.5757],[-93.9357,40.5753],[-93.9363,40.5753],[-93.9371,40.5754],[-93.9386,40.5753],[-93.9399,40.5752],[-93.9639,40.5748],[-93.9768,40.5746],[-94.0155,40.5739],[-94.0148,40.897],[-93.5565,40.8983],[-93.5569,40.5802]]]}},{"type":"Feature","id":"19055","properties":{"name":"Delaware","fips":"19055"},"geometry":{"type":"Polygon","coordinates":[[[-91.3633,42.2964],[-91.597,42.2964],[-91.6071,42.644],[-91.1328,42.6458],[-91.1301,42.2958],[-91.3633,42.2964]]]}},{"type":"Feature","id":"19057","properties":{"name":"Des Moines","fips":"19057"},"geometry":{"type":"Polygon","coordinates":[[[-91.3707,41.0741],[-90.9494,41.0727],[-90.9485,41.0702],[-90.9455,41.0617],[-90.9423,41.0347],[-90.9522,40.954],[-90.9629,40.925],[-90.969,40.9191],[-90.9985,40.9081],[-91.0095,40.9006],[-91.093,40.8211],[-91.0976,40.8084],[-91.097,40.8025],[-91.0947,40.7978],[-91.1119,40.697],[-91.1123,40.6962],[-91.1826,40.7081],[-91.4093,40.8127],[-91.3721,40.8126],[-91.3707,41.0741]]]}},{"type":"Feature","id":"19059","properties":{"name":"Dickinson","fips":"19059"},"geometry":{"type":"Polygon","coordinates":[[[-95.3878,43.5002],[-95.3753,43.5003],[-95.3747,43.5003],[-95.251,43.5005],[-95.2508,43.5004],[-95.2149,43.5009],[-95.1804,43.5008],[-95.1679,43.5009],[-95.1673,43.5008],[-95.1226,43.5008],[-95.1149,43.5007],[-95.0543,43.5009],[-95.0535,43.5008],[-95.034,43.5008],[-95.0142,43.5009],[-94.9945,43.5005],[-94.9744,43.5005],[-94.9545,43.5005],[-94.9346,43.5005],[-94.915,43.5005],[-94.9149,43.5005],[-94.9146,43.5005],[-94.9148,43.4991],[-94.9137,43.2551],[-95.3881,43.2552],[-95.3878,43.5002]]]}},{"type":"Feature","id":"19061","properties":{"name":"Dubuque","fips":"19061"},"geometry":{"type":"Polygon","coordinates":[[[-90.897,42.6744],[-90.8439,42.6631],[-90.7695,42.6514],[-90.7202,42.6408],[-90.7092,42.6361],[-90.7027,42.6308],[-90.6456,42.5441],[-90.6367,42.5187],[-90.6369,42.5132],[-90.6409,42.5083],[-90.6559,42.4917],[-90.6565,42.4892],[-90.6563,42.4836],[-90.654,42.4785],[-90.6467,42.4719],[-90.6243,42.4589],[-90.5595,42.4307],[-90.4773,42.3838],[-90.4748,42.3815],[-90.665,42.3822],[-90.6656,42.2947],[-90.898,42.2952],[-91.1301,42.2958],[-91.1328,42.6458],[-90.8974,42.6457],[-90.897,42.6744]]]}},{"type":"Feature","id":"19063","properties":{"name":"Emmet","fips":"19063"},"geometry":{"type":"Polygon","coordinates":[[[-94.8546,43.5006],[-94.6159,43.5005],[-94.5657,43.5003],[-94.5608,43.5004],[-94.4704,43.5003],[-94.447,43.5006],[-94.4428,43.5006],[-94.4431,43.255],[-94.9137,43.2551],[-94.9148,43.4991],[-94.9146,43.5005],[-94.9145,43.5005],[-94.8873,43.5005],[-94.8742,43.5006],[-94.8727,43.5006],[-94.8602,43.5005],[-94.8579,43.5006],[-94.8546,43.5006]]]}},{"type":"Feature","id":"19065","properties":{"name":"Fayette","fips":"19065"},"geometry":{"type":"Polygon","coordinates":[[[-91.6071,42.644],[-92.0817,42.6421],[-92.0816,42.907],[-92.0811,43.0828],[-91.6053,43.0817],[-91.6071,42.644]]]}},{"type":"Feature","id":"19067","properties":{"name":"Floyd","fips":"19067"},"geometry":{"type":"Polygon","coordinates":[[[-93.0251,42.9075],[-93.0241,43.2128],[-92.5544,43.2128],[-92.5542,42.9071],[-93.0251,42.9075]]]}},{"type":"Feature","id":"19069","properties":{"name":"Franklin","fips":"19069"},"geometry":{"type":"Polygon","coordinates":[[[-93.4986,42.9085],[-93.0251,42.9075],[-93.027,42.5568],[-93.4995,42.5577],[-93.4986,42.9085]]]}},{"type":"Feature","id":"19071","properties":{"name":"Fremont","fips":"19071"},"geometry":{"type":"Polygon","coordinates":[[[-95.7656,40.5852],[-95.7531,40.5928],[-95.7501,40.5971],[-95.7486,40.6034],[-95.7763,40.6475],[-95.7866,40.6573],[-95.7955,40.6624],[-95.8229,40.6672],[-95.8428,40.6775],[-95.8832,40.7176],[-95.8889,40.7319],[-95.8867,40.7421],[-95.8815,40.7506],[-95.8723,40.7583],[-95.8617,40.7629],[-95.8542,40.784],[-95.8212,40.8767],[-95.8231,40.9009],[-95.8135,40.9017],[-95.385,40.9016],[-95.3739,40.5805],[-95.4154,40.581],[-95.4693,40.5815],[-95.5254,40.5821],[-95.5267,40.5821],[-95.5332,40.5822],[-95.555,40.5826],[-95.574,40.583],[-95.6111,40.5835],[-95.6418,40.5842],[-95.6874,40.5844],[-95.6875,40.5844],[-95.7464,40.5849],[-95.7656,40.5852]]]}},{"type":"Feature","id":"19073","properties":{"name":"Greene","fips":"19073"},"geometry":{"type":"Polygon","coordinates":[[[-94.3975,42.2092],[-94.1647,42.2099],[-94.1641,41.8632],[-94.2803,41.863],[-94.6287,41.8628],[-94.6288,42.2094],[-94.3975,42.2092]]]}},{"type":"Feature","id":"19075","properties":{"name":"Grundy","fips":"19075"},"geometry":{"type":"Polygon","coordinates":[[[-92.5335,42.297],[-92.7681,42.2967],[-92.7675,42.2101],[-93.0017,42.2093],[-93.0029,42.4706],[-93.027,42.5568],[-92.5543,42.5559],[-92.5335,42.297]]]}},{"type":"Feature","id":"19077","properties":{"name":"Guthrie","fips":"19077"},"geometry":{"type":"Polygon","coordinates":[[[-94.7006,41.5041],[-94.7442,41.6022],[-94.7449,41.8624],[-94.6769,41.863],[-94.6754,41.8629],[-94.6743,41.8627],[-94.6731,41.8627],[-94.6724,41.8629],[-94.6717,41.8628],[-94.668,41.8627],[-94.6287,41.8628],[-94.2803,41.863],[-94.2801,41.6013],[-94.2416,41.5037],[-94.7006,41.5041]]]}},{"type":"Feature","id":"19079","properties":{"name":"Hamilton","fips":"19079"},"geometry":{"type":"Polygon","coordinates":[[[-93.6984,42.2093],[-93.9316,42.2101],[-93.9317,42.472],[-93.9716,42.5581],[-93.5002,42.5578],[-93.4995,42.5577],[-93.4626,42.4708],[-93.463,42.2093],[-93.6984,42.2093]]]}},{"type":"Feature","id":"19081","properties":{"name":"Hancock","fips":"19081"},"geometry":{"type":"Polygon","coordinates":[[[-93.9712,42.9078],[-93.9704,43.2554],[-93.4976,43.2555],[-93.4986,42.9085],[-93.9712,42.9078]]]}},{"type":"Feature","id":"19083","properties":{"name":"Hardin","fips":"19083"},"geometry":{"type":"Polygon","coordinates":[[[-93.463,42.2093],[-93.4626,42.4708],[-93.4995,42.5577],[-93.027,42.5568],[-93.0029,42.4706],[-93.0017,42.2093],[-93.2317,42.2089],[-93.463,42.2093]]]}},{"type":"Feature","id":"19085","properties":{"name":"Harrison","fips":"19085"},"geometry":{"type":"Polygon","coordinates":[[[-95.9813,41.5068],[-95.9948,41.5262],[-96.0306,41.5273],[-96.0366,41.509],[-96.0407,41.5071],[-96.0467,41.5071],[-96.0551,41.5096],[-96.0897,41.5318],[-96.0941,41.5393],[-96.1181,41.6135],[-96.1162,41.6216],[-96.0977,41.6396],[-96.095,41.6474],[-96.0954,41.6527],[-96.0998,41.661],[-96.1217,41.6827],[-96.0968,41.6987],[-96.0771,41.7154],[-96.0645,41.793],[-96.0658,41.7982],[-96.071,41.8046],[-96.0776,41.8088],[-96.0864,41.8114],[-96.1109,41.8308],[-96.1396,41.8658],[-96.1377,41.8663],[-95.6728,41.8631],[-95.5573,41.8634],[-95.5581,41.6024],[-95.4978,41.6023],[-95.498,41.5061],[-95.9813,41.5068]]]}},{"type":"Feature","id":"19087","properties":{"name":"Henry","fips":"19087"},"geometry":{"type":"Polygon","coordinates":[[[-91.3707,41.0741],[-91.3721,40.8126],[-91.4093,40.8127],[-91.7188,40.8135],[-91.7183,40.9008],[-91.7159,41.1628],[-91.4857,41.1624],[-91.3703,41.1612],[-91.3707,41.0741]]]}},{"type":"Feature","id":"19089","properties":{"name":"Howard","fips":"19089"},"geometry":{"type":"Polygon","coordinates":[[[-92.5531,43.5003],[-92.4645,43.5003],[-92.4489,43.5004],[-92.4088,43.5006],[-92.4061,43.5005],[-92.3883,43.5005],[-92.3689,43.5005],[-92.2791,43.5004],[-92.2774,43.5005],[-92.1988,43.5005],[-92.1789,43.5007],[-92.1039,43.5007],[-92.09,43.5007],[-92.08,43.5006],[-92.0798,43.5006],[-92.081,43.2129],[-92.5544,43.2128],[-92.5531,43.5003]]]}},{"type":"Feature","id":"19091","properties":{"name":"Humboldt","fips":"19091"},"geometry":{"type":"Polygon","coordinates":[[[-94.4431,42.6452],[-94.443,42.9081],[-93.9712,42.9078],[-93.9717,42.6447],[-94.4431,42.6452]]]}},{"type":"Feature","id":"19093","properties":{"name":"Ida","fips":"19093"},"geometry":{"type":"Polygon","coordinates":[[[-95.3235,42.2109],[-95.6708,42.2114],[-95.6693,42.4746],[-95.7418,42.4749],[-95.7416,42.5613],[-95.388,42.5617],[-95.3874,42.4748],[-95.3224,42.4747],[-95.3235,42.2109]]]}},{"type":"Feature","id":"19095","properties":{"name":"Iowa","fips":"19095"},"geometry":{"type":"Polygon","coordinates":[[[-92.2975,41.5098],[-92.2982,41.8628],[-91.8314,41.8619],[-91.8292,41.5115],[-91.946,41.5107],[-92.2975,41.5098]]]}},{"type":"Feature","id":"19097","properties":{"name":"Jackson","fips":"19097"},"geometry":{"type":"Polygon","coordinates":[[[-90.8984,42.0335],[-90.898,42.2952],[-90.6656,42.2947],[-90.665,42.3822],[-90.4748,42.3815],[-90.419,42.3285],[-90.4165,42.3251],[-90.4162,42.3213],[-90.4243,42.2933],[-90.4307,42.2842],[-90.4309,42.2782],[-90.4193,42.2545],[-90.3911,42.2255],[-90.3751,42.2148],[-90.357,42.2054],[-90.3492,42.2043],[-90.3163,42.1936],[-90.3065,42.1904],[-90.2349,42.1654],[-90.2113,42.154],[-90.1675,42.1225],[-90.1622,42.1149],[-90.1611,42.1044],[-90.1634,42.0876],[-90.1684,42.0758],[-90.1665,42.0545],[-90.1645,42.045],[-90.1542,42.0331],[-90.8984,42.0335]]]}},{"type":"Feature","id":"19099","properties":{"name":"Jasper","fips":"19099"},"geometry":{"type":"Polygon","coordinates":[[[-93.2319,41.8627],[-92.766,41.8624],[-92.7565,41.5088],[-92.8714,41.5085],[-93.3286,41.5078],[-93.3487,41.601],[-93.3479,41.8631],[-93.2319,41.8627]]]}},{"type":"Feature","id":"19101","properties":{"name":"Jefferson","fips":"19101"},"geometry":{"type":"Polygon","coordinates":[[[-91.9456,41.1636],[-91.8391,41.1615],[-91.7159,41.1628],[-91.7183,40.9008],[-92.1791,40.8997],[-92.18,41.1627],[-91.9456,41.1636]]]}},{"type":"Feature","id":"19103","properties":{"name":"Johnson","fips":"19103"},"geometry":{"type":"Polygon","coordinates":[[[-91.8292,41.5115],[-91.8314,41.8619],[-91.3661,41.8601],[-91.3664,41.5984],[-91.3685,41.4232],[-91.484,41.4238],[-91.5225,41.511],[-91.8292,41.5115]]]}},{"type":"Feature","id":"19105","properties":{"name":"Jones","fips":"19105"},"geometry":{"type":"Polygon","coordinates":[[[-91.3658,41.9474],[-91.3633,42.2964],[-91.1301,42.2958],[-90.898,42.2952],[-90.8984,42.0335],[-90.8985,41.9462],[-91.3658,41.9474]]]}},{"type":"Feature","id":"19107","properties":{"name":"Keokuk","fips":"19107"},"geometry":{"type":"Polygon","coordinates":[[[-92.412,41.5095],[-92.2975,41.5098],[-91.946,41.5107],[-91.9456,41.1636],[-92.18,41.1627],[-92.4102,41.1619],[-92.412,41.5095]]]}},{"type":"Feature","id":"19109","properties":{"name":"Kossuth","fips":"19109"},"geometry":{"type":"Polygon","coordinates":[[[-94.4428,43.5006],[-94.4428,43.5006],[-94.3906,43.5005],[-94.3775,43.5004],[-94.248,43.5003],[-94.1099,43.5003],[-94.1081,43.5003],[-94.0943,43.5003],[-94.0929,43.5003],[-93.9708,43.4996],[-93.9704,43.2554],[-93.9712,42.9078],[-94.443,42.9081],[-94.4431,42.9095],[-94.4431,43.255],[-94.4428,43.5006]]]}},{"type":"Feature","id":"19111","properties":{"name":"Lee","fips":"19111"},"geometry":{"type":"Polygon","coordinates":[[[-91.4093,40.8127],[-91.1826,40.7081],[-91.1123,40.6962],[-91.1224,40.6707],[-91.1381,40.6609],[-91.1854,40.6381],[-91.187,40.6373],[-91.1979,40.6361],[-91.2184,40.6384],[-91.2531,40.638],[-91.3065,40.6262],[-91.3397,40.6135],[-91.3487,40.6097],[-91.3599,40.6018],[-91.4052,40.5546],[-91.4069,40.5476],[-91.4041,40.5391],[-91.3845,40.5309],[-91.3691,40.5125],[-91.3642,40.5],[-91.3639,40.4901],[-91.3726,40.4012],[-91.3757,40.3919],[-91.3884,40.3849],[-91.4194,40.3783],[-91.4845,40.3839],[-91.491,40.3935],[-91.5246,40.4108],[-91.6195,40.5071],[-91.6224,40.5144],[-91.618,40.534],[-91.6201,40.5408],[-91.6964,40.5881],[-91.7168,40.5985],[-91.7188,40.8135],[-91.4093,40.8127]]]}},{"type":"Feature","id":"19113","properties":{"name":"Linn","fips":"19113"},"geometry":{"type":"Polygon","coordinates":[[[-91.3658,41.9474],[-91.3661,41.8601],[-91.8314,41.8619],[-91.8311,42.2991],[-91.597,42.2964],[-91.3633,42.2964],[-91.3658,41.9474]]]}},{"type":"Feature","id":"19115","properties":{"name":"Louisa","fips":"19115"},"geometry":{"type":"Polygon","coordinates":[[[-91.3707,41.0741],[-91.3703,41.1612],[-91.4857,41.1624],[-91.484,41.4238],[-91.3685,41.4232],[-91.3693,41.3361],[-91.0797,41.3337],[-91.1142,41.25],[-91.1136,41.2414],[-91.0498,41.178],[-91.019,41.1649],[-91.0055,41.1656],[-90.9979,41.1626],[-90.9897,41.1557],[-90.9466,41.0966],[-90.9494,41.0727],[-90.9494,41.0727],[-91.3707,41.0741]]]}},{"type":"Feature","id":"19117","properties":{"name":"Lucas","fips":"19117"},"geometry":{"type":"Polygon","coordinates":[[[-93.5576,41.1613],[-93.3279,41.1607],[-93.0992,41.1609],[-93.0977,40.8997],[-93.0976,40.8985],[-93.5565,40.8983],[-93.5576,41.1613]]]}},{"type":"Feature","id":"19119","properties":{"name":"Lyon","fips":"19119"},"geometry":{"type":"Polygon","coordinates":[[[-96.5725,43.2492],[-96.5841,43.2681],[-96.5863,43.2743],[-96.5691,43.2955],[-96.5519,43.293],[-96.5304,43.3],[-96.5256,43.3125],[-96.5213,43.375],[-96.5217,43.3869],[-96.524,43.3948],[-96.5292,43.3977],[-96.5312,43.3956],[-96.5375,43.3952],[-96.5576,43.4068],[-96.5943,43.4342],[-96.6029,43.4509],[-96.6,43.4571],[-96.5841,43.4689],[-96.5872,43.4847],[-96.5989,43.5005],[-96.5912,43.5005],[-96.453,43.5004],[-96.3511,43.5003],[-96.3321,43.5004],[-96.2088,43.5004],[-96.1988,43.5003],[-96.1985,43.5003],[-96.0532,43.5002],[-95.8612,43.5],[-95.8609,43.5],[-95.8619,43.2576],[-96.555,43.26],[-96.5725,43.2492]]]}},{"type":"Feature","id":"19121","properties":{"name":"Madison","fips":"19121"},"geometry":{"type":"Polygon","coordinates":[[[-94.2416,41.1571],[-94.2416,41.5037],[-93.8968,41.5031],[-93.7906,41.5119],[-93.7892,41.162],[-93.8988,41.1566],[-94.0142,41.1568],[-94.2416,41.1571]]]}},{"type":"Feature","id":"19123","properties":{"name":"Mahaska","fips":"19123"},"geometry":{"type":"Polygon","coordinates":[[[-92.8714,41.5085],[-92.7565,41.5088],[-92.412,41.5095],[-92.4102,41.1619],[-92.6404,41.1613],[-92.8698,41.1611],[-92.8714,41.5085]]]}},{"type":"Feature","id":"19125","properties":{"name":"Marion","fips":"19125"},"geometry":{"type":"Polygon","coordinates":[[[-93.3279,41.1607],[-93.3284,41.4909],[-93.3285,41.4913],[-93.3286,41.5078],[-92.8714,41.5085],[-92.8698,41.1611],[-93.0992,41.1609],[-93.3279,41.1607]]]}},{"type":"Feature","id":"19127","properties":{"name":"Marshall","fips":"19127"},"geometry":{"type":"Polygon","coordinates":[[[-92.766,41.8624],[-93.2319,41.8627],[-93.2317,42.2089],[-93.0017,42.2093],[-92.7675,42.2101],[-92.766,41.8624]]]}},{"type":"Feature","id":"19129","properties":{"name":"Mills","fips":"19129"},"geometry":{"type":"Polygon","coordinates":[[[-95.8231,40.9009],[-95.8291,40.9757],[-95.8354,40.9842],[-95.8673,41.0016],[-95.8672,41.0437],[-95.8663,41.0517],[-95.8534,41.1603],[-95.3843,41.16],[-95.385,40.9016],[-95.8135,40.9017],[-95.8231,40.9009]]]}},{"type":"Feature","id":"19131","properties":{"name":"Mitchell","fips":"19131"},"geometry":{"type":"Polygon","coordinates":[[[-93.0243,43.4996],[-93.0079,43.4996],[-92.8703,43.4995],[-92.7903,43.4996],[-92.7521,43.5001],[-92.7073,43.5001],[-92.6928,43.5001],[-92.689,43.5001],[-92.6726,43.5001],[-92.6533,43.5001],[-92.6492,43.5],[-92.5532,43.5003],[-92.5531,43.5003],[-92.5544,43.2128],[-93.0241,43.2128],[-93.0241,43.2555],[-93.0243,43.4996]]]}},{"type":"Feature","id":"19133","properties":{"name":"Monona","fips":"19133"},"geometry":{"type":"Polygon","coordinates":[[[-96.1396,41.8658],[-96.1445,41.8719],[-96.1618,41.9018],[-96.162,41.9056],[-96.1591,41.9101],[-96.1423,41.9154],[-96.1367,41.9208],[-96.1292,41.9651],[-96.1295,41.9717],[-96.2217,42.0262],[-96.2517,42.0405],[-96.2729,42.0472],[-96.2791,42.074],[-96.3074,42.1307],[-96.3441,42.1621],[-96.3497,42.172],[-96.3599,42.2105],[-96.3567,42.2151],[-95.6708,42.2114],[-95.6728,41.8631],[-96.1377,41.8663],[-96.1396,41.8658]]]}},{"type":"Feature","id":"19135","properties":{"name":"Monroe","fips":"19135"},"geometry":{"type":"Polygon","coordinates":[[[-92.8698,41.1611],[-92.6404,41.1613],[-92.6391,40.8989],[-93.0976,40.8985],[-93.0977,40.8997],[-93.0992,41.1609],[-92.8698,41.1611]]]}},{"type":"Feature","id":"19137","properties":{"name":"Montgomery","fips":"19137"},"geometry":{"type":"Polygon","coordinates":[[[-94.9276,41.1585],[-94.9285,40.9007],[-95.385,40.9016],[-95.3843,41.16],[-95.1559,41.1592],[-95.1541,41.1591],[-94.9276,41.1585]]]}},{"type":"Feature","id":"19139","properties":{"name":"Muscatine","fips":"19139"},"geometry":{"type":"Polygon","coordinates":[[[-91.3664,41.5984],[-90.8999,41.5971],[-90.7838,41.5965],[-90.7863,41.4529],[-90.8475,41.455],[-90.99,41.432],[-91.0278,41.4236],[-91.0399,41.4185],[-91.0478,41.4109],[-91.0787,41.3361],[-91.0797,41.3337],[-91.3693,41.3361],[-91.3685,41.4232],[-91.3664,41.5984]]]}},{"type":"Feature","id":"19141","properties":{"name":"O'Brien","fips":"19141"},"geometry":{"type":"Polygon","coordinates":[[[-95.3881,43.2552],[-95.3882,42.9099],[-95.8594,42.9091],[-95.8619,43.2576],[-95.3881,43.2552]]]}},{"type":"Feature","id":"19143","properties":{"name":"Osceola","fips":"19143"},"geometry":{"type":"Polygon","coordinates":[[[-95.4544,43.5006],[-95.4343,43.5004],[-95.4342,43.5003],[-95.3879,43.5002],[-95.3878,43.5002],[-95.3878,43.5002],[-95.3881,43.2552],[-95.8619,43.2576],[-95.8609,43.5],[-95.8344,43.5],[-95.8213,43.5],[-95.7416,43.4999],[-95.7408,43.4999],[-95.5148,43.4999],[-95.4868,43.5002],[-95.4867,43.5003],[-95.4751,43.5003],[-95.4547,43.5006],[-95.4547,43.5006],[-95.4544,43.5006]]]}},{"type":"Feature","id":"19145","properties":{"name":"Page","fips":"19145"},"geometry":{"type":"Polygon","coordinates":[[[-94.9149,40.5751],[-94.9551,40.5757],[-94.9665,40.5758],[-95.0689,40.5769],[-95.0797,40.577],[-95.0976,40.5772],[-95.1072,40.5771],[-95.1103,40.5772],[-95.1107,40.5772],[-95.1122,40.5772],[-95.1208,40.5774],[-95.1545,40.5779],[-95.1641,40.578],[-95.2023,40.5785],[-95.2114,40.5787],[-95.2116,40.5787],[-95.2127,40.5787],[-95.2133,40.5787],[-95.2175,40.5788],[-95.2188,40.5788],[-95.2215,40.5788],[-95.3356,40.5799],[-95.3578,40.5801],[-95.3739,40.5805],[-95.3739,40.5805],[-95.385,40.9016],[-94.9285,40.9007],[-94.9149,40.5751]]]}},{"type":"Feature","id":"19147","properties":{"name":"Palo Alto","fips":"19147"},"geometry":{"type":"Polygon","coordinates":[[[-94.4431,43.255],[-94.4431,42.9095],[-94.443,42.9081],[-94.9139,42.9097],[-94.9137,43.2551],[-94.4431,43.255]]]}},{"type":"Feature","id":"19149","properties":{"name":"Plymouth","fips":"19149"},"geometry":{"type":"Polygon","coordinates":[[[-96.5233,42.9091],[-95.8594,42.9091],[-95.8599,42.5606],[-96.4797,42.5612],[-96.5163,42.6304],[-96.5424,42.6607],[-96.5753,42.6827],[-96.602,42.6974],[-96.6061,42.6947],[-96.611,42.6948],[-96.6306,42.7059],[-96.6397,42.7371],[-96.6332,42.7683],[-96.6321,42.7709],[-96.5778,42.8281],[-96.5631,42.8311],[-96.5521,42.8361],[-96.5495,42.8391],[-96.5415,42.8577],[-96.5233,42.9091]]]}},{"type":"Feature","id":"19151","properties":{"name":"Pocahontas","fips":"19151"},"geometry":{"type":"Polygon","coordinates":[[[-94.4431,42.6452],[-94.443,42.5588],[-94.9145,42.5603],[-94.9139,42.9097],[-94.443,42.9081],[-94.4431,42.6452]]]}},{"type":"Feature","id":"19153","properties":{"name":"Polk","fips":"19153"},"geometry":{"type":"Polygon","coordinates":[[[-93.3286,41.5078],[-93.3285,41.4913],[-93.3284,41.4909],[-93.4123,41.5055],[-93.7906,41.5119],[-93.8143,41.6004],[-93.8155,41.8634],[-93.698,41.8634],[-93.3479,41.8631],[-93.3487,41.601],[-93.3286,41.5078]]]}},{"type":"Feature","id":"19155","properties":{"name":"Pottawattamie","fips":"19155"},"geometry":{"type":"Polygon","coordinates":[[[-95.8534,41.1603],[-95.8528,41.1654],[-95.9146,41.1851],[-95.9232,41.191],[-95.9232,41.191],[-95.926,41.1957],[-95.9275,41.2022],[-95.9249,41.2112],[-95.9025,41.2734],[-95.9138,41.3202],[-95.9257,41.3222],[-95.9393,41.3289],[-95.9531,41.3399],[-95.9567,41.3455],[-95.9568,41.3492],[-95.9383,41.3922],[-95.9373,41.3944],[-95.9307,41.4339],[-95.9813,41.5068],[-95.498,41.5061],[-95.1547,41.5052],[-95.1559,41.1592],[-95.3843,41.16],[-95.8534,41.1603]]]}},{"type":"Feature","id":"19157","properties":{"name":"Poweshiek","fips":"19157"},"geometry":{"type":"Polygon","coordinates":[[[-92.2975,41.5098],[-92.412,41.5095],[-92.7565,41.5088],[-92.766,41.8624],[-92.2982,41.8628],[-92.2975,41.5098]]]}},{"type":"Feature","id":"19159","properties":{"name":"Ringgold","fips":"19159"},"geometry":{"type":"Polygon","coordinates":[[[-94.0155,40.5739],[-94.0341,40.5736],[-94.0802,40.5729],[-94.0805,40.5729],[-94.0892,40.5728],[-94.0911,40.5729],[-94.2322,40.5719],[-94.2874,40.5715],[-94.2948,40.5713],[-94.3107,40.5715],[-94.3248,40.5715],[-94.3366,40.5715],[-94.3367,40.5715],[-94.3583,40.5714],[-94.4297,40.571],[-94.4601,40.5709],[-94.4706,40.5708],[-94.4712,40.5708],[-94.4708,40.8995],[-94.0148,40.897],[-94.0155,40.5739]]]}},{"type":"Feature","id":"19161","properties":{"name":"Sac","fips":"19161"},"geometry":{"type":"Polygon","coordinates":[[[-94.9145,42.5603],[-94.9145,42.4742],[-94.8567,42.474],[-94.8584,42.2097],[-95.0909,42.2104],[-95.3235,42.2109],[-95.3224,42.4747],[-95.3874,42.4748],[-95.388,42.5617],[-94.9145,42.5603]]]}},{"type":"Feature","id":"19163","properties":{"name":"Scott","fips":"19163"},"geometry":{"type":"Polygon","coordinates":[[[-90.8984,41.7714],[-90.4736,41.7735],[-90.317,41.7291],[-90.3345,41.6796],[-90.3432,41.6481],[-90.3417,41.6215],[-90.3979,41.5722],[-90.4614,41.5235],[-90.4743,41.5197],[-90.4995,41.5181],[-90.6059,41.4942],[-90.6558,41.4621],[-90.7375,41.4501],[-90.7717,41.4508],[-90.7863,41.4529],[-90.7838,41.5965],[-90.8999,41.5971],[-90.8984,41.7714]]]}},{"type":"Feature","id":"19165","properties":{"name":"Shelby","fips":"19165"},"geometry":{"type":"Polygon","coordinates":[[[-95.0408,41.5047],[-95.1547,41.5052],[-95.498,41.5061],[-95.4978,41.6023],[-95.5581,41.6024],[-95.5573,41.8634],[-95.0929,41.8634],[-95.0925,41.6021],[-95.0407,41.6022],[-95.0408,41.5047]]]}},{"type":"Feature","id":"19167","properties":{"name":"Sioux","fips":"19167"},"geometry":{"type":"Polygon","coordinates":[[[-96.4551,43.0834],[-96.4393,43.1139],[-96.4366,43.1208],[-96.4756,43.2211],[-96.4853,43.2242],[-96.5571,43.2242],[-96.5725,43.2492],[-96.555,43.26],[-95.8619,43.2576],[-95.8594,42.9091],[-96.5233,42.9091],[-96.5107,42.9444],[-96.5095,42.9711],[-96.5131,43.0279],[-96.466,43.0622],[-96.4551,43.0834]]]}},{"type":"Feature","id":"19169","properties":{"name":"Story","fips":"19169"},"geometry":{"type":"Polygon","coordinates":[[[-93.2319,41.8627],[-93.3479,41.8631],[-93.698,41.8634],[-93.6984,42.2093],[-93.463,42.2093],[-93.2317,42.2089],[-93.2319,41.8627]]]}},{"type":"Feature","id":"19171","properties":{"name":"Tama","fips":"19171"},"geometry":{"type":"Polygon","coordinates":[[[-92.2982,41.8628],[-92.766,41.8624],[-92.7675,42.2101],[-92.7681,42.2967],[-92.5335,42.297],[-92.2988,42.2975],[-92.2982,41.8628]]]}},{"type":"Feature","id":"19173","properties":{"name":"Taylor","fips":"19173"},"geometry":{"type":"Polygon","coordinates":[[[-94.632,40.5712],[-94.632,40.5712],[-94.6826,40.5718],[-94.7149,40.5722],[-94.7167,40.5722],[-94.774,40.573],[-94.8112,40.5735],[-94.82,40.5737],[-94.8238,40.5739],[-94.8968,40.5747],[-94.9015,40.5749],[-94.9149,40.5751],[-94.9285,40.9007],[-94.4708,40.8995],[-94.4712,40.5708],[-94.4893,40.5707],[-94.5339,40.5707],[-94.5371,40.5708],[-94.5383,40.5708],[-94.5418,40.5708],[-94.5422,40.5708],[-94.594,40.571],[-94.632,40.5712]]]}},{"type":"Feature","id":"19175","properties":{"name":"Union","fips":"19175"},"geometry":{"type":"Polygon","coordinates":[[[-94.2416,41.1571],[-94.0142,41.1568],[-94.0148,40.897],[-94.4708,40.8995],[-94.4706,41.1576],[-94.2416,41.1571]]]}},{"type":"Feature","id":"19177","properties":{"name":"Van Buren","fips":"19177"},"geometry":{"type":"Polygon","coordinates":[[[-91.7168,40.5985],[-91.7291,40.6136],[-91.7859,40.6115],[-91.7954,40.6111],[-91.8001,40.611],[-91.814,40.6105],[-91.8248,40.6102],[-91.8325,40.6098],[-91.8684,40.6081],[-91.9431,40.6059],[-91.971,40.6051],[-91.9987,40.6044],[-92.0296,40.6037],[-92.0679,40.6026],[-92.0695,40.6028],[-92.0823,40.6022],[-92.0832,40.6022],[-92.0929,40.6021],[-92.0964,40.6018],[-92.1798,40.6005],[-92.179,40.8983],[-92.1791,40.8997],[-91.7183,40.9008],[-91.7188,40.8135],[-91.7168,40.5985]]]}},{"type":"Feature","id":"19179","properties":{"name":"Wapello","fips":"19179"},"geometry":{"type":"Polygon","coordinates":[[[-92.4102,41.1619],[-92.18,41.1627],[-92.1791,40.8997],[-92.6391,40.8989],[-92.6404,41.1613],[-92.4102,41.1619]]]}},{"type":"Feature","id":"19181","properties":{"name":"Warren","fips":"19181"},"geometry":{"type":"Polygon","coordinates":[[[-93.3279,41.1607],[-93.5576,41.1613],[-93.7892,41.162],[-93.7906,41.5119],[-93.4123,41.5055],[-93.3284,41.4909],[-93.3279,41.1607]]]}},{"type":"Feature","id":"19183","properties":{"name":"Washington","fips":"19183"},"geometry":{"type":"Polygon","coordinates":[[[-91.4857,41.1624],[-91.7159,41.1628],[-91.8391,41.1615],[-91.9456,41.1636],[-91.946,41.5107],[-91.8292,41.5115],[-91.5225,41.511],[-91.484,41.4238],[-91.4857,41.1624]]]}},{"type":"Feature","id":"19185","properties":{"name":"Wayne","fips":"19185"},"geometry":{"type":"Polygon","coordinates":[[[-93.3454,40.5805],[-93.3744,40.5803],[-93.4418,40.5799],[-93.4653,40.5802],[-93.4669,40.5801],[-93.5241,40.5805],[-93.5276,40.5804],[-93.5282,40.5804],[-93.5483,40.5804],[-93.554,40.5803],[-93.5569,40.5802],[-93.5565,40.8983],[-93.0976,40.8985],[-93.0973,40.584],[-93.0985,40.584],[-93.2606,40.5808],[-93.3176,40.5807],[-93.3454,40.5805]]]}},{"type":"Feature","id":"19187","properties":{"name":"Webster","fips":"19187"},"geometry":{"type":"Polygon","coordinates":[[[-94.443,42.5588],[-94.4431,42.6452],[-93.9717,42.6447],[-93.9716,42.5581],[-93.9317,42.472],[-93.9316,42.2101],[-94.1647,42.2099],[-94.3975,42.2092],[-94.3977,42.4733],[-94.443,42.5588]]]}},{"type":"Feature","id":"19189","properties":{"name":"Winnebago","fips":"19189"},"geometry":{"type":"Polygon","coordinates":[[[-93.9708,43.4996],[-93.9708,43.4996],[-93.7958,43.4995],[-93.7943,43.4995],[-93.7162,43.4996],[-93.7088,43.4996],[-93.7049,43.4996],[-93.6993,43.4996],[-93.6485,43.4996],[-93.6171,43.4995],[-93.5767,43.4995],[-93.5586,43.4995],[-93.5322,43.4995],[-93.5285,43.4995],[-93.4974,43.4995],[-93.4973,43.4995],[-93.4976,43.2555],[-93.9704,43.2554],[-93.9708,43.4996]]]}},{"type":"Feature","id":"19191","properties":{"name":"Winneshiek","fips":"19191"},"geometry":{"type":"Polygon","coordinates":[[[-91.7302,43.5007],[-91.7007,43.5006],[-91.6709,43.5005],[-91.6584,43.5005],[-91.6514,43.5005],[-91.6449,43.5005],[-91.6398,43.5006],[-91.6356,43.5005],[-91.6345,43.5004],[-91.6342,43.5005],[-91.6256,43.5007],[-91.6208,43.5007],[-91.6174,43.5007],[-91.6169,43.5007],[-91.6153,43.5005],[-91.6109,43.5005],[-91.6108,43.5005],[-91.6053,43.0817],[-92.0811,43.0828],[-92.081,43.2129],[-92.0798,43.5006],[-91.9499,43.5005],[-91.9418,43.5006],[-91.8248,43.5007],[-91.8072,43.5006],[-91.8049,43.5007],[-91.7793,43.5008],[-91.7777,43.5007],[-91.7614,43.5006],[-91.7384,43.5005],[-91.7366,43.5006],[-91.7333,43.5006],[-91.7304,43.5007],[-91.7302,43.5007]]]}},{"type":"Feature","id":"19193","properties":{"name":"Woodbury","fips":"19193"},"geometry":{"type":"Polygon","coordinates":[[[-96.3567,42.2151],[-96.3566,42.2152],[-96.3363,42.2189],[-96.3237,42.2299],[-96.3229,42.2336],[-96.3289,42.2547],[-96.3488,42.282],[-96.3753,42.3183],[-96.3842,42.3259],[-96.408,42.3374],[-96.4139,42.3434],[-96.4178,42.3514],[-96.4155,42.4003],[-96.4136,42.4079],[-96.3876,42.4325],[-96.3807,42.4464],[-96.3813,42.4617],[-96.3854,42.4731],[-96.3961,42.4841],[-96.4094,42.4876],[-96.4434,42.4895],[-96.4663,42.4977],[-96.4769,42.5087],[-96.4813,42.5166],[-96.4799,42.5242],[-96.4777,42.5356],[-96.477,42.5561],[-96.4797,42.5612],[-95.8599,42.5606],[-95.7503,42.5611],[-95.7416,42.5613],[-95.7418,42.4749],[-95.6693,42.4746],[-95.6708,42.2114],[-96.3567,42.2151]]]}},{"type":"Feature","id":"19195","properties":{"name":"Worth","fips":"19195"},"geometry":{"type":"Polygon","coordinates":[[[-93.0492,43.4996],[-93.0244,43.4996],[-93.0243,43.4996],[-93.0241,43.2555],[-93.4976,43.2555],[-93.4973,43.4995],[-93.4883,43.4994],[-93.482,43.4995],[-93.4728,43.4994],[-93.4686,43.4995],[-93.4285,43.4995],[-93.399,43.4995],[-93.2718,43.4994],[-93.2289,43.4996],[-93.0492,43.4996]]]}},{"type":"Feature","id":"19197","properties":{"name":"Wright","fips":"19197"},"geometry":{"type":"Polygon","coordinates":[[[-93.9712,42.9078],[-93.4986,42.9085],[-93.4995,42.5577],[-93.5002,42.5578],[-93.9716,42.5581],[-93.9717,42.6447],[-93.9712,42.9078]]]}}]}