{"type":"FeatureCollection","features":[{"type":"Feature","id":"16001","properties":{"name":"Ada","fips":"16001"},"geometry":{"type":"Polygon","coordinates":[[[-115.9749,43.3651],[-115.9787,43.1134],[-116.2662,43.1126],[-116.386,43.1934],[-116.4331,43.2964],[-116.5117,43.2903],[-116.5134,43.4593],[-116.4737,43.4592],[-116.4735,43.6341],[-116.5131,43.6342],[-116.5126,43.8072],[-116.2817,43.8069],[-116.1225,43.6913],[-115.9758,43.5913],[-115.9749,43.3651]]]}},{"type":"Feature","id":"16003","properties":{"name":"Adams","fips":"16003"},"geometry":{"type":"Polygon","coordinates":[[[-116.8915,44.8405],[-116.8524,44.8876],[-116.832,44.933],[-116.8357,44.9406],[-116.8447,44.9493],[-116.8507,44.9581],[-116.8583,44.978],[-116.8454,45.0171],[-116.7839,45.079],[-116.7296,45.1421],[-116.7095,45.203],[-116.696,45.2547],[-116.6912,45.2692],[-116.3431,45.268],[-116.2826,45.1347],[-116.1445,45.1076],[-116.0894,45.0637],[-116.1862,44.8878],[-116.206,44.7672],[-116.1571,44.7033],[-116.1571,44.499],[-116.2998,44.4441],[-116.4075,44.4438],[-116.5272,44.4907],[-116.5284,44.6149],[-116.6243,44.6629],[-116.6248,44.8378],[-116.8915,44.8405]]]}},{"type":"Feature","id":"16005","properties":{"name":"Bannock","fips":"16005"},"geometry":{"type":"Polygon","coordinates":[[[-111.8756,42.4163],[-111.8972,42.2566],[-112.1263,42.2853],[-112.1907,42.3512],[-112.327,42.3239],[-112.2972,42.4541],[-112.42,42.5029],[-112.3796,42.6462],[-112.4969,42.7331],[-112.516,42.91],[-112.5585,42.9611],[-112.7376,42.9055],[-112.7505,42.9514],[-112.6762,43.022],[-112.0631,43.0224],[-112.0821,42.9505],[-112.1498,42.8956],[-112.1207,42.8316],[-112.1411,42.7631],[-112.1055,42.6992],[-111.9694,42.718],[-111.8756,42.4163]]]}},{"type":"Feature","id":"16007","properties":{"name":"Bear Lake","fips":"16007"},"geometry":{"type":"Polygon","coordinates":[[[-111.0462,42.5131],[-111.0471,42.3494],[-111.0471,42.2808],[-111.0471,42.1948],[-111.0471,42.1827],[-111.0471,42.149],[-111.0471,42.1425],[-111.0467,42.0016],[-111.4159,42.0007],[-111.4209,42.0008],[-111.4255,42.0008],[-111.5073,41.9995],[-111.5944,42.0935],[-111.6262,42.2086],[-111.5522,42.3515],[-111.5986,42.4158],[-111.5793,42.4305],[-111.6349,42.5701],[-111.604,42.5908],[-111.3648,42.5905],[-111.2801,42.553],[-111.2414,42.6021],[-111.2347,42.4784],[-111.171,42.4733],[-111.0462,42.5131]]]}},{"type":"Feature","id":"16009","properties":{"name":"Benewah","fips":"16009"},"geometry":{"type":"Polygon","coordinates":[[[-117.04,47.2593],[-117.0398,47.3472],[-117.0399,47.3661],[-116.6291,47.3717],[-116.5866,47.4147],[-116.3295,47.4138],[-116.3296,47.0224],[-116.8354,47.0326],[-117.0398,47.1273],[-117.0398,47.1547],[-117.0399,47.1819],[-117.0399,47.2033],[-117.0399,47.2255],[-117.04,47.2593]]]}},{"type":"Feature","id":"16011","properties":{"name":"Bingham","fips":"16011"},"geometry":{"type":"Polygon","coordinates":[[[-112.6974,43.623],[-112.5199,43.6266],[-112.52,43.4251],[-112.1033,43.4251],[-112.0438,43.3667],[-111.8226,43.3661],[-111.8227,43.2822],[-111.5878,43.2816],[-111.5896,43.0201],[-112.0631,43.0224],[-112.6762,43.022],[-112.7505,42.9514],[-112.8164,42.8633],[-113.0078,42.8631],[-113.0077,43.111],[-113.0073,43.2848],[-112.9472,43.2847],[-112.9368,43.4494],[-112.8167,43.449],[-112.8162,43.5359],[-112.6991,43.5402],[-112.6974,43.623]]]}},{"type":"Feature","id":"16013","properties":{"name":"Blaine","fips":"16013"},"geometry":{"type":"Polygon","coordinates":[[[-113.4722,42.6693],[-113.4722,42.8492],[-113.413,42.8492],[-113.4137,43.1998],[-113.7147,43.2],[-114.3749,43.1996],[-114.3946,43.3258],[-114.5346,43.3333],[-114.547,43.4366],[-114.5078,43.4808],[-114.5866,43.5589],[-114.6822,43.5904],[-114.6663,43.738],[-114.7148,43.8148],[-114.8289,43.788],[-114.9894,43.8586],[-114.9713,43.9381],[-114.8734,43.9929],[-114.8137,43.993],[-114.8138,43.9278],[-114.6812,43.9278],[-114.5612,43.8444],[-114.515,43.8948],[-114.293,43.8872],[-114.2752,43.8309],[-114.0731,43.7387],[-114.0328,43.7789],[-113.9735,43.7072],[-113.8759,43.6507],[-113.798,43.5688],[-113.7006,43.5848],[-113.5935,43.4673],[-113.6353,43.4523],[-113.6354,43.3676],[-113.3619,43.3672],[-113.3619,43.2847],[-113.0073,43.2848],[-113.0077,43.111],[-113.2435,43.1111],[-113.2369,42.7624],[-113.179,42.7623],[-113.179,42.6755],[-113.237,42.6253],[-113.3758,42.6879],[-113.4722,42.6693]]]}},{"type":"Feature","id":"16015","properties":{"name":"Boise","fips":"16015"},"geometry":{"type":"Polygon","coordinates":[[[-115.9758,43.5913],[-116.1225,43.6913],[-116.2817,43.8069],[-116.2731,44.1512],[-116.2121,44.1514],[-116.1124,44.1478],[-116.1031,44.2366],[-115.5202,44.2352],[-115.4015,44.2594],[-115.2945,44.3394],[-115.179,44.2964],[-115.1671,44.2027],[-115.0262,44.1584],[-115.0465,44.0562],[-114.9908,43.9497],[-115.0672,43.9404],[-115.1477,44.0024],[-115.1824,44.0923],[-115.2307,44.0987],[-115.1971,44.0683],[-115.2873,43.9355],[-115.5138,43.8807],[-115.5475,43.7927],[-115.593,43.7981],[-115.6459,43.7003],[-115.6982,43.6651],[-115.9758,43.5913]]]}},{"type":"Feature","id":"16017","properties":{"name":"Bonner","fips":"16017"},"geometry":{"type":"Polygon","coordinates":[[[-117.0419,47.9774],[-117.0417,48.0456],[-117.0414,48.0855],[-117.0396,48.174],[-117.0394,48.1773],[-117.0396,48.1781],[-117.0396,48.1803],[-117.0396,48.1809],[-117.0396,48.1811],[-117.0396,48.184],[-117.0396,48.1844],[-117.0352,48.3709],[-117.0352,48.3712],[-117.0353,48.4227],[-117.0353,48.4231],[-117.0353,48.4298],[-117.0353,48.4301],[-117.0345,48.6208],[-117.0344,48.6285],[-117.0332,48.8466],[-116.7851,48.8474],[-116.7848,48.5006],[-116.0492,48.5021],[-116.0494,48.2155],[-116.0494,48.0772],[-116.0494,48.0754],[-116.0494,48.0721],[-116.0493,48.0666],[-116.0484,47.9771],[-116.2296,48.0677],[-116.3291,48.0178],[-116.3228,47.8903],[-116.505,47.8902],[-116.5042,47.9915],[-116.6331,47.9771],[-117.0419,47.9774]]]}},{"type":"Feature","id":"16019","properties":{"name":"Bonneville","fips":"16019"},"geometry":{"type":"Polygon","coordinates":[[[-111.0452,43.5011],[-111.0446,43.3157],[-111.0442,43.1956],[-111.0442,43.1892],[-111.0442,43.1844],[-111.0443,43.1772],[-111.0442,43.1771],[-111.0441,43.0724],[-111.0442,43.0682],[-111.0442,43.0662],[-111.0441,43.0603],[-111.0441,43.0548],[-111.0441,43.0463],[-111.0441,43.0446],[-111.044,43.0414],[-111.0441,43.0293],[-111.044,43.0264],[-111.044,43.0248],[-111.044,43.0246],[-111.0442,43.0226],[-111.0442,43.0201],[-111.5896,43.0201],[-111.5878,43.2816],[-111.8227,43.2822],[-111.8226,43.3661],[-112.0438,43.3667],[-112.1033,43.4251],[-112.52,43.4251],[-112.5199,43.6266],[-111.6264,43.6267],[-111.3999,43.622],[-111.2439,43.6217],[-111.1991,43.5397],[-111.0452,43.5011]]]}},{"type":"Feature","id":"16021","properties":{"name":"Boundary","fips":"16021"},"geometry":{"type":"Polygon","coordinates":[[[-117.0324,48.9992],[-116.7572,48.9998],[-116.7572,48.9999],[-116.0492,49.0009],[-116.049,48.9584],[-116.049,48.9579],[-116.0492,48.5021],[-116.7848,48.5006],[-116.7851,48.8474],[-117.0332,48.8466],[-117.0324,48.9992]]]}},{"type":"Feature","id":"16023","properties":{"name":"Butte","fips":"16023"},"geometry":{"type":"Polygon","coordinates":[[[-113.798,43.5688],[-113.4125,43.8168],[-113.3615,43.7974],[-113.4537,43.8737],[-113.4579,44.0592],[-113.4163,44.0592],[-113.4168,44.2333],[-113.3207,44.233],[-112.9954,44.234],[-112.9942,43.9724],[-112.695,43.9719],[-112.6974,43.623],[-112.6991,43.5402],[-112.8162,43.5359],[-112.8167,43.449],[-112.9368,43.4494],[-112.9472,43.2847],[-113.0073,43.2848],[-113.3619,43.2847],[-113.3619,43.3672],[-113.6354,43.3676],[-113.6353,43.4523],[-113.5935,43.4673],[-113.7006,43.5848],[-113.798,43.5688]]]}},{"type":"Feature","id":"16025","properties":{"name":"Camas","fips":"16025"},"geometry":{"type":"Polygon","coordinates":[[[-114.3749,43.1996],[-114.5947,43.1983],[-115.0865,43.1984],[-115.0831,43.6043],[-115.0089,43.6974],[-115.0422,43.7455],[-114.9894,43.8586],[-114.8289,43.788],[-114.7148,43.8148],[-114.6663,43.738],[-114.6822,43.5904],[-114.5866,43.5589],[-114.5078,43.4808],[-114.547,43.4366],[-114.5346,43.3333],[-114.3946,43.3258],[-114.3749,43.1996]]]}},{"type":"Feature","id":"16027","properties":{"name":"Canyon","fips":"16027"},"geometry":{"type":"Polygon","coordinates":[[[-117.0266,43.6809],[-117.0266,43.683],[-117.0268,43.7062],[-117.0267,43.7148],[-117.0268,43.7329],[-117.0267,43.7339],[-117.0266,43.8081],[-116.9965,43.8647],[-116.9825,43.8728],[-116.9792,43.88],[-116.8532,43.7926],[-116.7127,43.8072],[-116.7073,43.8073],[-116.5126,43.8072],[-116.5131,43.6342],[-116.4735,43.6341],[-116.4737,43.4592],[-116.5134,43.4593],[-116.5117,43.2903],[-116.7807,43.4772],[-116.8415,43.5932],[-117.0266,43.6809]]]}},{"type":"Feature","id":"16029","properties":{"name":"Caribou","fips":"16029"},"geometry":{"type":"Polygon","coordinates":[[[-111.0442,43.0201],[-111.0441,43.0187],[-111.0439,42.9751],[-111.044,42.9695],[-111.044,42.9644],[-111.0462,42.5131],[-111.171,42.4733],[-111.2347,42.4784],[-111.2414,42.6021],[-111.2801,42.553],[-111.3648,42.5905],[-111.604,42.5908],[-111.6349,42.5701],[-111.5793,42.4305],[-111.5986,42.4158],[-111.8756,42.4163],[-111.9694,42.718],[-112.1055,42.6992],[-112.1411,42.7631],[-112.1207,42.8316],[-112.1498,42.8956],[-112.0821,42.9505],[-112.0631,43.0224],[-111.5896,43.0201],[-111.0442,43.0201]]]}},{"type":"Feature","id":"16031","properties":{"name":"Cassia","fips":"16031"},"geometry":{"type":"Polygon","coordinates":[[[-113.0008,41.9982],[-113.0008,41.9982],[-113.3965,41.9943],[-113.4022,41.9942],[-113.4316,41.9938],[-113.7645,41.9895],[-113.7961,41.9891],[-113.8933,41.9881],[-114.0417,41.9937],[-114.0482,41.9937],[-114.0483,41.9938],[-114.0618,41.9938],[-114.0618,41.9939],[-114.1073,41.9938],[-114.1074,41.994],[-114.2819,41.9943],[-114.2854,42.4173],[-114.0691,42.4171],[-114.0671,42.5145],[-114.0007,42.5264],[-113.9852,42.5341],[-113.9594,42.535],[-113.956,42.5302],[-113.9318,42.5353],[-113.7798,42.5569],[-113.6553,42.5357],[-113.5576,42.6564],[-113.4722,42.6693],[-113.3758,42.6879],[-113.237,42.6253],[-113.1757,42.5894],[-113.0028,42.588],[-113.0008,42.3275],[-113.0008,41.9982]]]}},{"type":"Feature","id":"16033","properties":{"name":"Clark","fips":"16033"},"geometry":{"type":"Polygon","coordinates":[[[-112.8292,44.3854],[-112.8247,44.3936],[-112.8234,44.4062],[-112.822,44.4208],[-112.822,44.4341],[-112.8121,44.4514],[-112.7813,44.4849],[-112.7191,44.5043],[-112.6882,44.4988],[-112.5442,44.4838],[-112.4732,44.48],[-112.4103,44.463],[-112.3871,44.4605],[-112.3713,44.4721],[-112.3589,44.4863],[-112.3566,44.4931],[-112.3472,44.5203],[-112.3397,44.5386],[-112.299,44.5593],[-112.2741,44.5643],[-112.2583,44.5643],[-112.2467,44.561],[-112.2359,44.5552],[-112.2295,44.5495],[-112.2217,44.5435],[-112.1871,44.5345],[-112.0785,44.5336],[-111.9479,44.5568],[-111.8705,44.564],[-111.8493,44.5398],[-111.8433,44.5282],[-111.8065,44.5155],[-111.7372,44.5431],[-111.7042,44.5602],[-111.6315,44.552],[-111.6175,44.553],[-111.6178,44.4016],[-111.7916,44.4015],[-111.7915,44.317],[-111.8524,44.3169],[-111.858,44.1878],[-111.9135,44.1441],[-112.0337,44.144],[-112.0343,44.0573],[-112.156,44.0577],[-112.6947,44.0585],[-112.695,43.9719],[-112.9942,43.9724],[-112.9954,44.234],[-112.8139,44.2304],[-112.8292,44.3854]]]}},{"type":"Feature","id":"16035","properties":{"name":"Clearwater","fips":"16035"},"geometry":{"type":"Polygon","coordinates":[[[-114.6755,46.7195],[-114.6673,46.7193],[-114.6557,46.7117],[-114.6447,46.7022],[-114.6427,46.6946],[-114.6413,46.6864],[-114.6417,46.6793],[-114.6427,46.6731],[-114.6359,46.6595],[-114.6144,46.6392],[-114.5947,46.6336],[-115.6308,46.4731],[-115.7791,46.2673],[-115.8147,46.2657],[-116.1704,46.3716],[-116.3085,46.413],[-116.3692,46.4669],[-116.3694,46.4997],[-116.4486,46.4971],[-116.4559,46.6291],[-116.3293,46.6279],[-116.3296,46.9345],[-114.9758,46.9329],[-114.936,46.8998],[-114.9387,46.869],[-114.9278,46.836],[-114.9205,46.8277],[-114.8881,46.8086],[-114.8533,46.7998],[-114.8259,46.7819],[-114.7672,46.7388],[-114.7393,46.7152],[-114.7176,46.714],[-114.6906,46.72],[-114.6755,46.7195]]]}},{"type":"Feature","id":"16037","properties":{"name":"Custer","fips":"16037"},"geometry":{"type":"Polygon","coordinates":[[[-114.8124,44.8081],[-114.8199,44.7472],[-114.7417,44.6533],[-114.6627,44.6621],[-114.5624,44.5757],[-114.4773,44.5941],[-114.3866,44.671],[-114.4063,44.7193],[-114.3446,44.7934],[-114.2208,44.8789],[-114.1898,44.8247],[-114.2172,44.7468],[-114.0847,44.7557],[-114.0354,44.6712],[-113.8153,44.4942],[-113.5035,44.4225],[-113.4468,44.4511],[-113.3207,44.233],[-113.4168,44.2333],[-113.4163,44.0592],[-113.4579,44.0592],[-113.4537,43.8737],[-113.3615,43.7974],[-113.4125,43.8168],[-113.798,43.5688],[-113.8759,43.6507],[-113.9735,43.7072],[-114.0328,43.7789],[-114.0731,43.7387],[-114.2752,43.8309],[-114.293,43.8872],[-114.515,43.8948],[-114.5612,43.8444],[-114.6812,43.9278],[-114.8138,43.9278],[-114.8137,43.993],[-114.8734,43.9929],[-114.9713,43.9381],[-114.9782,43.9468],[-114.9837,43.946],[-114.9908,43.9497],[-115.0465,44.0562],[-115.0262,44.1584],[-115.1671,44.2027],[-115.179,44.2964],[-115.2945,44.3394],[-115.2282,44.4229],[-115.247,44.5196],[-115.3048,44.58],[-115.2797,44.6121],[-115.1683,44.6475],[-115.1518,44.7282],[-115.089,44.7709],[-115.0099,44.7134],[-114.8124,44.8081]]]}},{"type":"Feature","id":"16039","properties":{"name":"Elmore","fips":"16039"},"geometry":{"type":"Polygon","coordinates":[[[-116.2662,43.1126],[-115.9787,43.1134],[-115.9749,43.3651],[-115.9758,43.5913],[-115.6982,43.6651],[-115.6459,43.7003],[-115.593,43.7981],[-115.5475,43.7927],[-115.5138,43.8807],[-115.2873,43.9355],[-115.1971,44.0683],[-115.2307,44.0987],[-115.1824,44.0923],[-115.1477,44.0024],[-115.0672,43.9404],[-114.9908,43.9497],[-114.9837,43.946],[-114.9782,43.9468],[-114.9713,43.9381],[-114.9894,43.8586],[-115.0422,43.7455],[-115.0089,43.6974],[-115.0831,43.6043],[-115.0865,43.1984],[-115.0868,42.9147],[-115.0373,42.9119],[-115.0377,42.7685],[-115.4543,42.7677],[-115.4416,42.9309],[-115.6037,42.9372],[-115.6411,42.9554],[-115.7699,42.9389],[-115.9265,43.0015],[-115.9657,42.9437],[-116.0121,42.9499],[-116.2662,43.1126]]]}},{"type":"Feature","id":"16041","properties":{"name":"Franklin","fips":"16041"},"geometry":{"type":"Polygon","coordinates":[[[-111.5073,41.9995],[-111.8765,41.9985],[-111.9156,41.9985],[-111.9158,41.9985],[-112.1095,41.9971],[-112.1092,42.1698],[-112.071,42.2385],[-112.1263,42.2853],[-111.8972,42.2566],[-111.8756,42.4163],[-111.5986,42.4158],[-111.5522,42.3515],[-111.6262,42.2086],[-111.5944,42.0935],[-111.5073,41.9995]]]}},{"type":"Feature","id":"16043","properties":{"name":"Fremont","fips":"16043"},"geometry":{"type":"Polygon","coordinates":[[[-111.049,44.4741],[-111.0492,44.4381],[-111.0492,44.4358],[-111.0486,44.0629],[-111.0488,44.0608],[-111.0488,44.0604],[-111.0481,43.9831],[-111.1871,43.9322],[-111.3989,43.9231],[-111.501,43.9293],[-111.5588,43.8833],[-111.8378,43.8983],[-111.9768,43.9274],[-111.9771,43.9709],[-112.1564,43.9714],[-112.156,44.0577],[-112.0343,44.0573],[-112.0337,44.144],[-111.9135,44.1441],[-111.858,44.1878],[-111.8524,44.3169],[-111.7915,44.317],[-111.7916,44.4015],[-111.6178,44.4016],[-111.6175,44.553],[-111.6012,44.5542],[-111.5258,44.6049],[-111.5166,44.6437],[-111.489,44.7056],[-111.4815,44.7092],[-111.3948,44.7514],[-111.3777,44.7517],[-111.3237,44.7245],[-111.2192,44.6226],[-111.1395,44.5171],[-111.1314,44.4999],[-111.1227,44.4937],[-111.1066,44.4863],[-111.049,44.4741]]]}},{"type":"Feature","id":"16045","properties":{"name":"Gem","fips":"16045"},"geometry":{"type":"Polygon","coordinates":[[[-116.1571,44.499],[-116.1523,44.3244],[-116.2121,44.3243],[-116.2121,44.1514],[-116.2731,44.1512],[-116.2817,43.8069],[-116.5126,43.8072],[-116.7073,43.8073],[-116.7127,43.8072],[-116.7126,43.9813],[-116.5722,43.9803],[-116.5322,44.0661],[-116.4525,44.0653],[-116.452,44.1514],[-116.3585,44.1511],[-116.2998,44.4441],[-116.1571,44.499]]]}},{"type":"Feature","id":"16047","properties":{"name":"Gooding","fips":"16047"},"geometry":{"type":"Polygon","coordinates":[[[-114.5947,43.1983],[-114.5944,42.8508],[-114.6174,42.8508],[-114.6165,42.6494],[-114.8216,42.6716],[-114.8506,42.7499],[-114.9287,42.765],[-114.9014,42.8587],[-115.0373,42.9119],[-115.0868,42.9147],[-115.0865,43.1984],[-114.5947,43.1983]]]}},{"type":"Feature","id":"16049","properties":{"name":"Idaho","fips":"16049"},"geometry":{"type":"Polygon","coordinates":[[[-116.6912,45.2692],[-116.6738,45.3215],[-116.5535,45.4991],[-116.4812,45.5806],[-116.4636,45.6028],[-116.4635,45.6158],[-116.4715,45.6285],[-116.4891,45.6511],[-116.5109,45.6681],[-116.5283,45.6815],[-116.5354,45.6917],[-116.538,45.7149],[-116.5357,45.7342],[-116.5481,45.7524],[-116.5942,45.7791],[-116.6334,45.7847],[-116.7891,45.8477],[-116.7964,45.8538],[-116.702,45.9962],[-116.6387,46.0361],[-116.5299,46.0008],[-116.5145,46.1318],[-116.428,46.2026],[-116.19,46.1544],[-116.1334,46.2152],[-116.0127,46.2257],[-116.1704,46.3716],[-115.8147,46.2657],[-115.7791,46.2673],[-115.6308,46.4731],[-114.5947,46.6336],[-114.5923,46.6329],[-114.4819,46.632],[-114.4612,46.6392],[-114.4468,46.6453],[-114.4222,46.6522],[-114.3701,46.6542],[-114.3496,46.6467],[-114.3413,46.6428],[-114.3379,46.6412],[-114.3311,46.6302],[-114.3311,46.6076],[-114.3465,46.5358],[-114.3853,46.4672],[-114.378,46.4354],[-114.4269,46.2897],[-114.4726,46.1622],[-114.4831,46.1291],[-114.4763,46.113],[-114.4682,46.0999],[-114.4676,46.0819],[-114.4763,46.062],[-114.4912,46.044],[-114.4912,46.0341],[-114.4906,46.0229],[-114.4834,46.008],[-114.4654,45.9961],[-114.4296,45.9866],[-114.412,45.9781],[-114.4016,45.9632],[-114.3938,45.894],[-114.4487,45.8589],[-114.4988,45.8507],[-114.5093,45.8455],[-114.5146,45.8408],[-114.5662,45.7739],[-114.5478,45.7433],[-114.5287,45.7316],[-114.5049,45.7222],[-114.4976,45.7107],[-114.4954,45.7033],[-114.5009,45.6667],[-114.5154,45.6528],[-114.5418,45.6413],[-114.5456,45.6429],[-114.5508,45.6426],[-114.561,45.6399],[-114.5637,45.6374],[-114.5618,45.5651],[-114.5609,45.5646],[-114.6635,45.4712],[-114.7933,45.5086],[-114.7936,45.4366],[-114.604,45.2956],[-114.6941,45.1971],[-115.9758,45.1957],[-115.975,45.2197],[-116.1217,45.1587],[-116.1445,45.1076],[-116.2826,45.1347],[-116.3431,45.268],[-116.6912,45.2692]]]}},{"type":"Feature","id":"16051","properties":{"name":"Jefferson","fips":"16051"},"geometry":{"type":"Polygon","coordinates":[[[-111.9768,43.9274],[-111.9834,43.7541],[-111.9328,43.7668],[-111.6264,43.6267],[-112.5199,43.6266],[-112.6974,43.623],[-112.695,43.9719],[-112.6947,44.0585],[-112.156,44.0577],[-112.1564,43.9714],[-111.9771,43.9709],[-111.9768,43.9274]]]}},{"type":"Feature","id":"16053","properties":{"name":"Jerome","fips":"16053"},"geometry":{"type":"Polygon","coordinates":[[[-113.9318,42.5353],[-113.956,42.5302],[-113.9594,42.535],[-113.9852,42.5341],[-114.0007,42.5264],[-114.0457,42.5288],[-114.1303,42.495],[-114.3753,42.5982],[-114.6165,42.6494],[-114.6174,42.8508],[-114.5944,42.8508],[-114.3654,42.8508],[-114.3457,42.8091],[-114.0499,42.8085],[-114.0499,42.7651],[-113.9329,42.765],[-113.9318,42.5353]]]}},{"type":"Feature","id":"16055","properties":{"name":"Kootenai","fips":"16055"},"geometry":{"type":"Polygon","coordinates":[[[-117.0399,47.3661],[-117.0399,47.3991],[-117.04,47.4124],[-117.0399,47.4349],[-117.04,47.4633],[-117.0399,47.4778],[-117.0405,47.5224],[-117.0405,47.5276],[-117.0407,47.5329],[-117.0413,47.5582],[-117.0412,47.5585],[-117.0414,47.6781],[-117.0414,47.6782],[-117.0414,47.68],[-117.0415,47.6832],[-117.0416,47.7064],[-117.0417,47.7227],[-117.0421,47.7441],[-117.0421,47.7451],[-117.0427,47.7609],[-117.0426,47.7612],[-117.0425,47.7649],[-117.0425,47.7665],[-117.0419,47.9774],[-116.6331,47.9771],[-116.5042,47.9915],[-116.505,47.8902],[-116.3228,47.8903],[-116.3295,47.4138],[-116.5866,47.4147],[-116.6291,47.3717],[-117.0399,47.3661]]]}},{"type":"Feature","id":"16057","properties":{"name":"Latah","fips":"16057"},"geometry":{"type":"Polygon","coordinates":[[[-117.0398,46.5418],[-117.0398,46.8154],[-117.0397,46.8258],[-117.0398,47.1273],[-116.8354,47.0326],[-116.3296,47.0224],[-116.3296,46.9345],[-116.3293,46.6279],[-116.4559,46.6291],[-116.626,46.628],[-116.7192,46.5428],[-117.0398,46.5418]]]}},{"type":"Feature","id":"16059","properties":{"name":"Lemhi","fips":"16059"},"geometry":{"type":"Polygon","coordinates":[[[-113.9426,45.6864],[-113.9342,45.6822],[-113.8967,45.6415],[-113.8354,45.613],[-113.8139,45.6006],[-113.8049,45.5891],[-113.802,45.5791],[-113.8135,45.55],[-113.8101,45.5309],[-113.7863,45.5214],[-113.7729,45.5123],[-113.7658,45.4832],[-113.7742,45.4654],[-113.7609,45.4065],[-113.7387,45.3297],[-113.6744,45.2494],[-113.6501,45.2347],[-113.5995,45.1911],[-113.566,45.1493],[-113.5662,45.1431],[-113.5764,45.1338],[-113.5765,45.1303],[-113.4853,45.0635],[-113.4738,45.0617],[-113.464,45.0632],[-113.4493,45.0457],[-113.4458,45.0184],[-113.4459,44.9799],[-113.4472,44.9719],[-113.4727,44.9481],[-113.4808,44.9503],[-113.4944,44.9486],[-113.4987,44.9423],[-113.4758,44.8946],[-113.4551,44.8654],[-113.3536,44.7914],[-113.3417,44.7849],[-113.3295,44.7886],[-113.2784,44.8127],[-113.2472,44.8229],[-113.2079,44.808],[-113.1582,44.7808],[-113.1346,44.7631],[-113.1011,44.7188],[-113.0515,44.6369],[-113.0493,44.6294],[-113.0535,44.6212],[-113.0568,44.6187],[-113.0271,44.4959],[-113.0035,44.4508],[-112.9703,44.4269],[-112.8758,44.3744],[-112.8493,44.371],[-112.8313,44.3817],[-112.8292,44.3854],[-112.8139,44.2304],[-112.9954,44.234],[-113.3207,44.233],[-113.4468,44.4511],[-113.5035,44.4225],[-113.8153,44.4942],[-114.0354,44.6712],[-114.0847,44.7557],[-114.2172,44.7468],[-114.1898,44.8247],[-114.2208,44.8789],[-114.3446,44.7934],[-114.4063,44.7193],[-114.3866,44.671],[-114.4773,44.5941],[-114.5624,44.5757],[-114.6627,44.6621],[-114.7417,44.6533],[-114.8199,44.7472],[-114.8124,44.8081],[-114.7322,44.8804],[-114.7226,45.1789],[-114.6941,45.1971],[-114.604,45.2956],[-114.7936,45.4366],[-114.7933,45.5086],[-114.6635,45.4712],[-114.5609,45.5646],[-114.5513,45.559],[-114.5142,45.5647],[-114.4738,45.5633],[-114.4605,45.5613],[-114.3666,45.4916],[-114.3508,45.4685],[-114.3096,45.4694],[-114.2478,45.5455],[-114.1879,45.5422],[-114.1352,45.5575],[-114.0349,45.648],[-114.0225,45.6796],[-114.0193,45.6929],[-114.0156,45.6961],[-113.9878,45.7052],[-113.9716,45.7006],[-113.9426,45.6864]]]}},{"type":"Feature","id":"16061","properties":{"name":"Lewis","fips":"16061"},"geometry":{"type":"Polygon","coordinates":[[[-116.3692,46.4669],[-116.3085,46.413],[-116.1704,46.3716],[-116.0127,46.2257],[-116.1334,46.2152],[-116.19,46.1544],[-116.428,46.2026],[-116.5145,46.1318],[-116.5299,46.0008],[-116.6387,46.0361],[-116.702,45.9962],[-116.7132,46.3255],[-116.4899,46.3253],[-116.3623,46.3523],[-116.3692,46.4669]]]}},{"type":"Feature","id":"16063","properties":{"name":"Lincoln","fips":"16063"},"geometry":{"type":"Polygon","coordinates":[[[-113.7147,43.2],[-113.7139,42.8497],[-113.7639,42.7645],[-113.9329,42.765],[-114.0499,42.7651],[-114.0499,42.8085],[-114.3457,42.8091],[-114.3654,42.8508],[-114.5944,42.8508],[-114.5947,43.1983],[-114.3749,43.1996],[-113.7147,43.2]]]}},{"type":"Feature","id":"16065","properties":{"name":"Madison","fips":"16065"},"geometry":{"type":"Polygon","coordinates":[[[-111.3989,43.9231],[-111.3999,43.622],[-111.6264,43.6267],[-111.9328,43.7668],[-111.9834,43.7541],[-111.9768,43.9274],[-111.8378,43.8983],[-111.5588,43.8833],[-111.501,43.9293],[-111.3989,43.9231]]]}},{"type":"Feature","id":"16067","properties":{"name":"Minidoka","fips":"16067"},"geometry":{"type":"Polygon","coordinates":[[[-113.9318,42.5353],[-113.9329,42.765],[-113.7639,42.7645],[-113.7139,42.8497],[-113.7147,43.2],[-113.4137,43.1998],[-113.413,42.8492],[-113.4722,42.8492],[-113.4722,42.6693],[-113.5576,42.6564],[-113.6553,42.5357],[-113.7798,42.5569],[-113.9318,42.5353]]]}},{"type":"Feature","id":"16069","properties":{"name":"Nez Perce","fips":"16069"},"geometry":{"type":"Polygon","coordinates":[[[-116.916,45.9954],[-116.9435,46.0622],[-116.9256,46.1589],[-116.9588,46.2423],[-116.9853,46.2946],[-116.9879,46.298],[-117.0475,46.3429],[-117.061,46.3677],[-117.0469,46.3796],[-117.0398,46.4254],[-117.0397,46.4627],[-117.0398,46.4696],[-117.0398,46.4718],[-117.0398,46.5418],[-116.7192,46.5428],[-116.626,46.628],[-116.4559,46.6291],[-116.4486,46.4971],[-116.3694,46.4997],[-116.3692,46.4669],[-116.3623,46.3523],[-116.4899,46.3253],[-116.7132,46.3255],[-116.702,45.9962],[-116.7964,45.8538],[-116.8573,45.9042],[-116.8665,45.917],[-116.8751,45.9422],[-116.916,45.9954]]]}},{"type":"Feature","id":"16071","properties":{"name":"Oneida","fips":"16071"},"geometry":{"type":"Polygon","coordinates":[[[-112.1095,41.9971],[-112.164,41.9967],[-112.2391,42.0012],[-112.2649,42.001],[-112.3862,42.0011],[-112.4506,42.0011],[-112.4508,42.001],[-112.648,42.0003],[-112.7094,42.0003],[-112.7885,41.9997],[-112.8331,41.9993],[-112.8331,41.9993],[-112.8806,41.9989],[-112.8824,41.9989],[-112.9096,41.9988],[-112.9792,41.9983],[-113.0008,41.9982],[-113.0008,42.3275],[-112.654,42.3289],[-112.654,42.416],[-112.4978,42.416],[-112.4982,42.503],[-112.42,42.5029],[-112.2972,42.4541],[-112.327,42.3239],[-112.1907,42.3512],[-112.1263,42.2853],[-112.071,42.2385],[-112.1092,42.1698],[-112.1095,41.9971]]]}},{"type":"Feature","id":"16073","properties":{"name":"Owyhee","fips":"16073"},"geometry":{"type":"Polygon","coordinates":[[[-117.0267,43.6755],[-117.0266,43.6809],[-116.8415,43.5932],[-116.7807,43.4772],[-116.5117,43.2903],[-116.4331,43.2964],[-116.386,43.1934],[-116.2662,43.1126],[-116.0121,42.9499],[-115.9657,42.9437],[-115.9265,43.0015],[-115.7699,42.9389],[-115.6411,42.9554],[-115.6037,42.9372],[-115.4416,42.9309],[-115.4543,42.7677],[-115.0377,42.7685],[-115.0377,42.7499],[-115.0383,41.996],[-115.9869,41.9985],[-116.0122,41.998],[-116.0122,41.998],[-116.0189,41.9977],[-116.019,41.9978],[-116.0308,41.9974],[-116.0308,41.9974],[-116.0386,41.9974],[-116.0386,41.9975],[-116.1608,41.9975],[-116.1639,41.9976],[-116.4635,41.9965],[-116.4831,41.9969],[-116.4858,41.9969],[-116.5105,41.9971],[-116.5869,41.9974],[-116.6268,41.9978],[-117.0183,41.9994],[-117.0262,42.0003],[-117.0263,42.807],[-117.0263,42.8072],[-117.0263,42.8074],[-117.0267,43.0249],[-117.0267,43.0251],[-117.0267,43.5775],[-117.0268,43.5787],[-117.0269,43.5936],[-117.0269,43.596],[-117.0268,43.6004],[-117.0268,43.6019],[-117.0268,43.6107],[-117.0269,43.6176],[-117.027,43.621],[-117.0269,43.6249],[-117.0267,43.6317],[-117.0267,43.6644],[-117.0267,43.6755]]]}},{"type":"Feature","id":"16075","properties":{"name":"Payette","fips":"16075"},"geometry":{"type":"Polygon","coordinates":[[[-116.9615,43.9184],[-116.9353,43.9886],[-116.9317,44.1025],[-116.8971,44.1525],[-116.452,44.1514],[-116.4525,44.0653],[-116.5322,44.0661],[-116.5722,43.9803],[-116.7126,43.9813],[-116.7127,43.8072],[-116.8532,43.7926],[-116.9792,43.88],[-116.9615,43.9184]]]}},{"type":"Feature","id":"16077","properties":{"name":"Power","fips":"16077"},"geometry":{"type":"Polygon","coordinates":[[[-113.237,42.6253],[-113.179,42.6755],[-113.179,42.7623],[-113.2369,42.7624],[-113.2435,43.1111],[-113.0077,43.111],[-113.0078,42.8631],[-112.8164,42.8633],[-112.7505,42.9514],[-112.7376,42.9055],[-112.5585,42.9611],[-112.516,42.91],[-112.4969,42.7331],[-112.3796,42.6462],[-112.42,42.5029],[-112.4982,42.503],[-112.4978,42.416],[-112.654,42.416],[-112.654,42.3289],[-113.0008,42.3275],[-113.0028,42.588],[-113.1757,42.5894],[-113.237,42.6253]]]}},{"type":"Feature","id":"16079","properties":{"name":"Shoshone","fips":"16079"},"geometry":{"type":"Polygon","coordinates":[[[-116.0484,47.9771],[-116.0484,47.9768],[-116.0073,47.945],[-115.9193,47.8574],[-115.7291,47.7031],[-115.7238,47.6967],[-115.7063,47.6379],[-115.7181,47.5927],[-115.7212,47.5763],[-115.7358,47.5553],[-115.7397,47.5377],[-115.7299,47.518],[-115.7122,47.4885],[-115.7259,47.4669],[-115.7299,47.4473],[-115.7211,47.4224],[-115.6906,47.4151],[-115.6613,47.4027],[-115.5768,47.3668],[-115.5614,47.3519],[-115.5513,47.3339],[-115.5237,47.2989],[-115.4793,47.2821],[-115.4216,47.2717],[-115.3392,47.2616],[-115.3202,47.2557],[-115.2948,47.2209],[-115.2921,47.2099],[-115.2667,47.1811],[-115.2005,47.1392],[-115.1932,47.133],[-115.0992,47.0481],[-115.073,47.0138],[-114.9758,46.9329],[-116.3296,46.9345],[-116.3296,47.0224],[-116.3295,47.4138],[-116.3228,47.8903],[-116.3291,48.0178],[-116.2296,48.0677],[-116.0484,47.9771]]]}},{"type":"Feature","id":"16081","properties":{"name":"Teton","fips":"16081"},"geometry":{"type":"Polygon","coordinates":[[[-111.0481,43.9831],[-111.0467,43.8158],[-111.0463,43.727],[-111.0464,43.7265],[-111.0464,43.7221],[-111.0461,43.6878],[-111.0461,43.6858],[-111.0461,43.6849],[-111.0459,43.681],[-111.0457,43.6591],[-111.0452,43.5011],[-111.1991,43.5397],[-111.2439,43.6217],[-111.3999,43.622],[-111.3989,43.9231],[-111.1871,43.9322],[-111.0481,43.9831]]]}},{"type":"Feature","id":"16083","properties":{"name":"Twin Falls","fips":"16083"},"geometry":{"type":"Polygon","coordinates":[[[-114.4982,41.9946],[-114.4983,41.9946],[-114.5983,41.9945],[-114.7638,41.9999],[-114.9142,41.9999],[-115.0318,41.996],[-115.0383,41.996],[-115.0377,42.7499],[-115.0377,42.7685],[-115.0373,42.9119],[-114.9014,42.8587],[-114.9287,42.765],[-114.8506,42.7499],[-114.8216,42.6716],[-114.6165,42.6494],[-114.3753,42.5982],[-114.1303,42.495],[-114.0457,42.5288],[-114.0007,42.5264],[-114.0671,42.5145],[-114.0691,42.4171],[-114.2854,42.4173],[-114.2819,41.9943],[-114.4982,41.9946]]]}},{"type":"Feature","id":"16085","properties":{"name":"Valley","fips":"16085"},"geometry":{"type":"Polygon","coordinates":[[[-114.8124,44.8081],[-115.0099,44.7134],[-115.089,44.7709],[-115.1518,44.7282],[-115.1683,44.6475],[-115.2797,44.6121],[-115.3048,44.58],[-115.247,44.5196],[-115.2282,44.4229],[-115.2945,44.3394],[-115.4015,44.2594],[-115.5202,44.2352],[-116.1031,44.2366],[-116.1124,44.1478],[-116.2121,44.1514],[-116.2121,44.3243],[-116.1523,44.3244],[-116.1571,44.499],[-116.1571,44.7033],[-116.206,44.7672],[-116.1862,44.8878],[-116.0894,45.0637],[-116.1445,45.1076],[-116.1217,45.1587],[-115.975,45.2197],[-115.9758,45.1957],[-114.6941,45.1971],[-114.7226,45.1789],[-114.7322,44.8804],[-114.8124,44.8081]]]}},{"type":"Feature","id":"16087","properties":{"name":"Washington","fips":"16087"},"geometry":{"type":"Polygon","coordinates":[[[-117.1975,44.2973],[-117.1966,44.3023],[-117.1948,44.3105],[-117.1915,44.3296],[-117.1898,44.3366],[-117.2149,44.4669],[-117.2085,44.4859],[-117.1565,44.5283],[-117.1492,44.5362],[-117.1442,44.5456],[-117.1159,44.6233],[-117.0959,44.6647],[-117.0623,44.7271],[-117.0442,44.7451],[-117.0383,44.7482],[-117.0162,44.7556],[-116.9315,44.7923],[-116.8915,44.8405],[-116.6248,44.8378],[-116.6243,44.6629],[-116.5284,44.6149],[-116.5272,44.4907],[-116.4075,44.4438],[-116.2998,44.4441],[-116.3585,44.1511],[-116.452,44.1514],[-116.8971,44.1525],[-116.8959,44.1543],[-116.8941,44.1602],[-116.8958,44.1713],[-116.9028,44.1795],[-116.9759,44.2428],[-116.9869,44.2455],[-117.0276,44.2489],[-117.0332,44.2482],[-117.0411,44.2437],[-117.1703,44.2589],[-117.1901,44.274],[-117.1966,44.2875],[-117.1978,44.2958],[-117.1975,44.2973]]]}}]}