{"type":"FeatureCollection","features":[{"type":"Feature","id":"17001","properties":{"name":"Adams","fips":"17001"},"geometry":{"type":"Polygon","coordinates":[[[-91.3654,39.7773],[-91.4329,39.8406],[-91.4464,39.8704],[-91.4559,39.9455],[-91.4603,39.9803],[-91.4949,40.0374],[-91.5103,40.128],[-91.513,40.1811],[-91.5103,40.2011],[-91.2588,40.1973],[-90.912,40.1931],[-90.9136,40.1045],[-90.9166,39.8451],[-90.9161,39.7572],[-91.1477,39.7571],[-91.2658,39.7573],[-91.3651,39.7587],[-91.368,39.7591],[-91.3654,39.7773]]]}},{"type":"Feature","id":"17003","properties":{"name":"Alexander","fips":"17003"},"geometry":{"type":"Polygon","coordinates":[[[-89.1327,36.9822],[-89.17,36.9703],[-89.1855,36.9735],[-89.207,36.9824],[-89.2262,36.9853],[-89.2455,36.9832],[-89.2612,36.9824],[-89.2711,36.9853],[-89.2786,36.9887],[-89.2921,36.9922],[-89.3227,37.009],[-89.3783,37.0396],[-89.3839,37.0464],[-89.3854,37.0551],[-89.4145,37.1251],[-89.4676,37.2182],[-89.4912,37.2486],[-89.517,37.2819],[-89.5184,37.2894],[-89.5118,37.3108],[-89.489,37.3334],[-89.4846,37.3348],[-89.2484,37.3351],[-89.2736,37.127],[-89.1719,37.0682],[-89.1757,37.0621],[-89.1814,37.0463],[-89.1825,37.0373],[-89.179,37.0209],[-89.1736,37.0114],[-89.1664,37.0033],[-89.1327,36.9822]]]}},{"type":"Feature","id":"17005","properties":{"name":"Bond","fips":"17005"},"geometry":{"type":"Polygon","coordinates":[[[-89.2504,39.0281],[-89.2542,38.742],[-89.4816,38.7405],[-89.5973,38.7432],[-89.5996,38.8745],[-89.6369,38.8743],[-89.6393,38.9991],[-89.5861,39.0282],[-89.2504,39.0281]]]}},{"type":"Feature","id":"17007","properties":{"name":"Boone","fips":"17007"},"geometry":{"type":"Polygon","coordinates":[[[-88.7074,42.4936],[-88.7074,42.4936],[-88.7056,42.1536],[-88.9397,42.1523],[-88.9404,42.495],[-88.7765,42.494],[-88.7074,42.4936]]]}},{"type":"Feature","id":"17009","properties":{"name":"Brown","fips":"17009"},"geometry":{"type":"Polygon","coordinates":[[[-90.5137,39.9879],[-90.5367,39.923],[-90.5835,39.8768],[-90.5824,39.8546],[-90.5718,39.8393],[-90.8937,39.8409],[-90.9166,39.8451],[-90.9136,40.1045],[-90.6959,40.1038],[-90.6071,39.9817],[-90.5137,39.9879]]]}},{"type":"Feature","id":"17011","properties":{"name":"Bureau","fips":"17011"},"geometry":{"type":"Polygon","coordinates":[[[-89.8578,41.2345],[-89.8576,41.2348],[-89.8566,41.321],[-89.8569,41.4088],[-89.8624,41.584],[-89.6315,41.5849],[-89.6284,41.585],[-89.1666,41.5853],[-89.1637,41.3102],[-89.3349,41.3009],[-89.3567,41.2332],[-89.4665,41.2339],[-89.4664,41.1486],[-89.6384,41.1486],[-89.6386,41.1498],[-89.6389,41.2339],[-89.8578,41.2345]]]}},{"type":"Feature","id":"17013","properties":{"name":"Calhoun","fips":"17013"},"geometry":{"type":"Polygon","coordinates":[[[-90.4678,38.9618],[-90.4721,38.9588],[-90.4824,38.9445],[-90.4827,38.9347],[-90.487,38.926],[-90.5075,38.9028],[-90.544,38.8751],[-90.5557,38.8708],[-90.5666,38.8688],[-90.5834,38.869],[-90.6251,38.8887],[-90.6573,38.9203],[-90.6634,38.928],[-90.6659,38.9342],[-90.7116,39.0468],[-90.7136,39.054],[-90.7125,39.0571],[-90.6827,39.0883],[-90.6811,39.1006],[-90.719,39.225],[-90.727,39.2512],[-90.73,39.2559],[-90.7993,39.3131],[-90.8422,39.3419],[-90.8827,39.3623],[-90.94,39.3936],[-90.6137,39.3958],[-90.6036,39.1176],[-90.5702,38.9933],[-90.4508,38.9678],[-90.4678,38.9618]]]}},{"type":"Feature","id":"17015","properties":{"name":"Carroll","fips":"17015"},"geometry":{"type":"Polygon","coordinates":[[[-90.1521,41.9289],[-90.1516,41.931],[-90.1406,41.996],[-90.1412,42.0089],[-90.1509,42.0294],[-90.1542,42.0331],[-90.1645,42.045],[-90.1665,42.0545],[-90.1684,42.0758],[-90.1634,42.0876],[-90.1611,42.1044],[-90.1622,42.1149],[-90.1675,42.1225],[-90.2113,42.154],[-90.2349,42.1654],[-90.3065,42.1904],[-90.3163,42.1936],[-90.3049,42.1941],[-89.9197,42.1963],[-89.6885,42.1991],[-89.6865,41.9375],[-89.6854,41.9303],[-90.1521,41.9289]]]}},{"type":"Feature","id":"17017","properties":{"name":"Cass","fips":"17017"},"geometry":{"type":"Polygon","coordinates":[[[-90.3552,40.1242],[-90.2865,40.055],[-90.1966,40.0525],[-89.9947,40.1084],[-89.9945,39.9019],[-89.9944,39.8729],[-90.5835,39.8768],[-90.5367,39.923],[-90.5137,39.9879],[-90.4335,40.024],[-90.3552,40.1242]]]}},{"type":"Feature","id":"17019","properties":{"name":"Champaign","fips":"17019"},"geometry":{"type":"Polygon","coordinates":[[[-88.46,40.3989],[-87.9329,40.3994],[-87.9376,39.8798],[-88.4622,39.8791],[-88.4604,40.2819],[-88.46,40.3989]]]}},{"type":"Feature","id":"17021","properties":{"name":"Christian","fips":"17021"},"geometry":{"type":"Polygon","coordinates":[[[-89.2523,39.8204],[-89.2486,39.8257],[-89.2401,39.8231],[-89.2335,39.8132],[-89.2175,39.8132],[-89.1418,39.8009],[-89.1391,39.6551],[-89.0257,39.6546],[-89.0257,39.6542],[-89.0255,39.4645],[-89.0254,39.3459],[-89.1398,39.3489],[-89.5308,39.3489],[-89.5337,39.5246],[-89.535,39.6411],[-89.4251,39.6837],[-89.3929,39.7439],[-89.2523,39.8204]]]}},{"type":"Feature","id":"17023","properties":{"name":"Clark","fips":"17023"},"geometry":{"type":"Polygon","coordinates":[[[-87.5317,39.4771],[-87.5316,39.4694],[-87.5316,39.4662],[-87.5315,39.4495],[-87.5314,39.4377],[-87.5314,39.4367],[-87.5316,39.3479],[-87.5373,39.3521],[-87.544,39.3529],[-87.5849,39.3373],[-87.5891,39.3338],[-87.604,39.3135],[-87.6101,39.2822],[-87.6055,39.2611],[-87.6041,39.2595],[-87.5935,39.2475],[-87.5875,39.2493],[-87.6052,39.1859],[-87.6287,39.1574],[-87.7462,39.1792],[-87.9504,39.1749],[-88.0078,39.1739],[-88.0121,39.379],[-88.0142,39.4808],[-87.9602,39.4813],[-87.5317,39.4771]]]}},{"type":"Feature","id":"17025","properties":{"name":"Clay","fips":"17025"},"geometry":{"type":"Polygon","coordinates":[[[-88.2539,38.5995],[-88.5641,38.6071],[-88.6985,38.6063],[-88.6952,38.8263],[-88.6935,38.9146],[-88.6205,38.9153],[-88.3617,38.9108],[-88.3618,38.8519],[-88.2586,38.8475],[-88.2539,38.5995]]]}},{"type":"Feature","id":"17027","properties":{"name":"Clinton","fips":"17027"},"geometry":{"type":"Polygon","coordinates":[[[-89.2542,38.742],[-89.1384,38.7363],[-89.1439,38.5031],[-89.3602,38.5165],[-89.4816,38.4685],[-89.6152,38.4721],[-89.7044,38.4157],[-89.707,38.6552],[-89.5951,38.6559],[-89.5973,38.7432],[-89.4816,38.7405],[-89.2542,38.742]]]}},{"type":"Feature","id":"17029","properties":{"name":"Coles","fips":"17029"},"geometry":{"type":"Polygon","coordinates":[[[-88.4721,39.6516],[-88.0634,39.6526],[-87.9666,39.6859],[-87.9602,39.4813],[-88.0142,39.4808],[-88.0121,39.379],[-88.4708,39.3745],[-88.4705,39.447],[-88.4721,39.6516]]]}},{"type":"Feature","id":"17031","properties":{"name":"Cook","fips":"17031"},"geometry":{"type":"Polygon","coordinates":[[[-87.524,41.7083],[-87.5249,41.7026],[-87.5248,41.6916],[-87.5246,41.6349],[-87.5247,41.6324],[-87.5246,41.6225],[-87.5246,41.5633],[-87.5257,41.4703],[-87.6532,41.4698],[-87.7128,41.4696],[-87.7176,41.4697],[-87.7903,41.4698],[-87.7904,41.5281],[-87.7906,41.5399],[-87.7923,41.5387],[-87.7928,41.5585],[-87.9095,41.5567],[-87.9119,41.6439],[-88.0277,41.6415],[-88.0292,41.6855],[-87.9143,41.7167],[-87.9193,41.8477],[-87.9195,41.8519],[-87.9196,41.8526],[-87.9199,41.8598],[-87.9201,41.8622],[-87.9204,41.9069],[-87.92,41.9582],[-87.9207,41.994],[-88.0802,41.9908],[-88.2074,41.9871],[-88.2108,41.987],[-88.2166,41.9871],[-88.2179,41.987],[-88.2323,41.9866],[-88.2335,41.9867],[-88.2629,41.9862],[-88.2384,42.1543],[-88.2374,42.1543],[-88.1996,42.1543],[-88.1215,42.1542],[-88.0045,42.1536],[-87.7593,42.1524],[-87.7564,42.1484],[-87.7558,42.1476],[-87.7548,42.1461],[-87.7544,42.1457],[-87.7544,42.1456],[-87.7504,42.1402],[-87.7485,42.1375],[-87.7464,42.1347],[-87.7417,42.1282],[-87.7413,42.1278],[-87.7408,42.1272],[-87.7407,42.1271],[-87.7397,42.1259],[-87.7395,42.1257],[-87.7339,42.1189],[-87.7305,42.1147],[-87.7294,42.1134],[-87.7294,42.1134],[-87.7283,42.1122],[-87.7282,42.112],[-87.7272,42.1108],[-87.727,42.1106],[-87.7252,42.1084],[-87.7247,42.1077],[-87.7246,42.1077],[-87.7237,42.1069],[-87.7223,42.1056],[-87.7222,42.1055],[-87.7215,42.1049],[-87.7204,42.1039],[-87.7203,42.1038],[-87.7181,42.1018],[-87.7175,42.1013],[-87.7173,42.101],[-87.7172,42.1009],[-87.7122,42.0965],[-87.711,42.0953],[-87.7064,42.0922],[-87.7046,42.091],[-87.7039,42.0905],[-87.7024,42.0894],[-87.6824,42.0757],[-87.6822,42.0754],[-87.6808,42.0732],[-87.6798,42.0717],[-87.6715,42.0583],[-87.6705,42.053],[-87.6707,42.0523],[-87.6711,42.0508],[-87.6712,42.0505],[-87.6719,42.048],[-87.6711,42.0428],[-87.669,42.0291],[-87.631,41.9331],[-87.6309,41.9328],[-87.627,41.9167],[-87.6248,41.9072],[-87.6241,41.9046],[-87.6241,41.9042],[-87.6229,41.902],[-87.6199,41.9014],[-87.6174,41.898],[-87.6142,41.8934],[-87.6123,41.8933],[-87.6117,41.8922],[-87.6117,41.8907],[-87.6127,41.8892],[-87.6142,41.8884],[-87.6136,41.8845],[-87.6137,41.8844],[-87.6157,41.883],[-87.6165,41.8824],[-87.6163,41.8689],[-87.6094,41.8452],[-87.6005,41.8268],[-87.5871,41.8114],[-87.5871,41.8113],[-87.5809,41.8043],[-87.5809,41.8042],[-87.5806,41.8028],[-87.5763,41.786],[-87.5606,41.766],[-87.5428,41.7521],[-87.5307,41.7482],[-87.5241,41.724],[-87.524,41.7083]]]}},{"type":"Feature","id":"17033","properties":{"name":"Crawford","fips":"17033"},"geometry":{"type":"Polygon","coordinates":[[[-87.5281,38.908],[-87.5408,38.8964],[-87.5534,38.8633],[-87.5505,38.8596],[-87.5372,38.8536],[-87.5321,38.8525],[-87.7596,38.8495],[-87.9081,38.8501],[-87.9459,38.8501],[-87.9504,39.1749],[-87.7462,39.1792],[-87.6287,39.1574],[-87.6422,39.1571],[-87.6517,39.1506],[-87.6587,39.136],[-87.6149,39.1027],[-87.5726,39.0573],[-87.5122,38.9544],[-87.5188,38.9232],[-87.5279,38.9082],[-87.5281,38.908]]]}},{"type":"Feature","id":"17035","properties":{"name":"Cumberland","fips":"17035"},"geometry":{"type":"Polygon","coordinates":[[[-88.0121,39.379],[-88.0078,39.1739],[-88.3607,39.1711],[-88.4709,39.1715],[-88.4709,39.215],[-88.4711,39.2206],[-88.4708,39.3745],[-88.0121,39.379]]]}},{"type":"Feature","id":"17039","properties":{"name":"De Witt","fips":"17039"},"geometry":{"type":"Polygon","coordinates":[[[-88.6893,40.2821],[-88.5749,40.2815],[-88.7452,40.0552],[-89.1448,40.0489],[-89.1488,40.282],[-88.6893,40.2821]]]}},{"type":"Feature","id":"17037","properties":{"name":"DeKalb","fips":"17037"},"geometry":{"type":"Polygon","coordinates":[[[-88.5887,42.1536],[-88.6013,41.9813],[-88.6019,41.7196],[-88.6036,41.7195],[-88.6022,41.6314],[-88.8185,41.6314],[-88.9386,41.6283],[-88.9413,41.8918],[-88.9397,42.1523],[-88.7056,42.1536],[-88.5887,42.1536]]]}},{"type":"Feature","id":"17041","properties":{"name":"Douglas","fips":"17041"},"geometry":{"type":"Polygon","coordinates":[[[-87.9376,39.8798],[-87.9666,39.6859],[-88.0634,39.6526],[-88.4721,39.6516],[-88.4732,39.7918],[-88.4623,39.7918],[-88.4622,39.8791],[-87.9376,39.8798]]]}},{"type":"Feature","id":"17043","properties":{"name":"DuPage","fips":"17043"},"geometry":{"type":"Polygon","coordinates":[[[-88.0802,41.9908],[-87.9207,41.994],[-87.92,41.9582],[-87.9204,41.9069],[-87.9201,41.8622],[-87.9199,41.8598],[-87.9196,41.8526],[-87.9195,41.8519],[-87.9193,41.8477],[-87.9143,41.7167],[-88.0292,41.6855],[-88.0306,41.7289],[-88.2615,41.7245],[-88.262,41.7247],[-88.2625,41.7774],[-88.2627,41.7796],[-88.2631,41.7993],[-88.2631,41.8123],[-88.2629,41.9862],[-88.2335,41.9867],[-88.2323,41.9866],[-88.2179,41.987],[-88.2166,41.9871],[-88.2108,41.987],[-88.2074,41.9871],[-88.0802,41.9908]]]}},{"type":"Feature","id":"17045","properties":{"name":"Edgar","fips":"17045"},"geometry":{"type":"Polygon","coordinates":[[[-87.5332,39.883],[-87.5331,39.8109],[-87.5331,39.8039],[-87.5331,39.7962],[-87.5331,39.7817],[-87.5327,39.6649],[-87.5324,39.6461],[-87.5324,39.6461],[-87.5322,39.6073],[-87.532,39.564],[-87.5319,39.5459],[-87.532,39.5269],[-87.5317,39.4955],[-87.5316,39.4917],[-87.5317,39.4771],[-87.5317,39.4771],[-87.9602,39.4813],[-87.9666,39.6859],[-87.9376,39.8798],[-87.5332,39.883]]]}},{"type":"Feature","id":"17047","properties":{"name":"Edwards","fips":"17047"},"geometry":{"type":"Polygon","coordinates":[[[-88.0585,38.2557],[-88.1509,38.2561],[-88.1478,38.5691],[-87.9539,38.5701],[-87.977,38.3794],[-87.9729,38.3646],[-87.9697,38.3619],[-87.9673,38.3536],[-87.9579,38.3477],[-87.9544,38.3397],[-87.9548,38.3353],[-87.9906,38.2597],[-88.0277,38.2598],[-88.0277,38.2557],[-88.0585,38.2557]]]}},{"type":"Feature","id":"17049","properties":{"name":"Effingham","fips":"17049"},"geometry":{"type":"Polygon","coordinates":[[[-88.3607,39.1711],[-88.3617,38.9108],[-88.6205,38.9153],[-88.6935,38.9146],[-88.8068,38.9117],[-88.8053,39.2163],[-88.8045,39.2161],[-88.4709,39.215],[-88.4709,39.1715],[-88.3607,39.1711]]]}},{"type":"Feature","id":"17051","properties":{"name":"Fayette","fips":"17051"},"geometry":{"type":"Polygon","coordinates":[[[-89.2507,39.0864],[-89.2505,39.2175],[-89.1401,39.2179],[-89.1393,39.2172],[-89.123,39.2173],[-89.0257,39.2155],[-88.9175,39.2165],[-88.8382,39.2163],[-88.837,39.2165],[-88.8348,39.2164],[-88.8067,39.2164],[-88.8053,39.2163],[-88.8068,38.9117],[-88.6935,38.9146],[-88.6952,38.8263],[-89.1381,38.8242],[-89.1384,38.7363],[-89.2542,38.742],[-89.2504,39.0281],[-89.2503,39.0299],[-89.2507,39.0864]]]}},{"type":"Feature","id":"17053","properties":{"name":"Ford","fips":"17053"},"geometry":{"type":"Polygon","coordinates":[[[-87.9353,40.4859],[-87.9318,40.4002],[-87.9329,40.3994],[-88.46,40.3989],[-88.4595,40.6173],[-88.2349,40.6182],[-88.2473,40.9946],[-88.246,40.9946],[-88.2365,40.9952],[-88.1337,40.9976],[-88.1319,40.9978],[-88.1179,40.4881],[-87.9353,40.4859]]]}},{"type":"Feature","id":"17055","properties":{"name":"Franklin","fips":"17055"},"geometry":{"type":"Polygon","coordinates":[[[-89.1512,37.862],[-89.1508,37.9502],[-89.1776,37.9503],[-89.1296,38.1247],[-88.7046,38.1252],[-88.7066,37.9068],[-88.7067,37.8889],[-88.7067,37.8877],[-88.7067,37.887],[-88.7068,37.8633],[-89.1512,37.862]]]}},{"type":"Feature","id":"17057","properties":{"name":"Fulton","fips":"17057"},"geometry":{"type":"Polygon","coordinates":[[[-90.2153,40.7136],[-89.9861,40.7123],[-89.989,40.6258],[-89.8735,40.6246],[-89.8725,40.5131],[-89.9247,40.4359],[-90.033,40.3778],[-90.119,40.2353],[-90.1996,40.1839],[-90.4515,40.1889],[-90.4502,40.2763],[-90.4455,40.6278],[-90.4452,40.6569],[-90.4451,40.6572],[-90.445,40.6624],[-90.4449,40.6639],[-90.4447,40.6775],[-90.4449,40.6778],[-90.4446,40.6955],[-90.4444,40.6974],[-90.4443,40.7147],[-90.2153,40.7136]]]}},{"type":"Feature","id":"17059","properties":{"name":"Gallatin","fips":"17059"},"geometry":{"type":"Polygon","coordinates":[[[-88.039,37.7755],[-88.045,37.7624],[-88.051,37.7526],[-88.0596,37.7426],[-88.0725,37.7333],[-88.1224,37.7097],[-88.1516,37.6751],[-88.1582,37.6645],[-88.1602,37.6576],[-88.1568,37.6328],[-88.14,37.5865],[-88.1334,37.5743],[-88.3753,37.5996],[-88.3739,37.7762],[-88.3744,37.8639],[-88.3744,37.871],[-88.3746,37.8711],[-88.3745,37.8748],[-88.3744,37.8751],[-88.3745,37.9077],[-88.3745,37.9084],[-88.3575,37.9091],[-88.2633,37.9086],[-88.0714,37.8958],[-88.0495,37.8452],[-88.0278,37.8283],[-88.028,37.7992],[-88.039,37.7755]]]}},{"type":"Feature","id":"17061","properties":{"name":"Greene","fips":"17061"},"geometry":{"type":"Polygon","coordinates":[[[-90.4875,39.1751],[-90.5746,39.1786],[-90.6036,39.1176],[-90.6137,39.3958],[-90.5933,39.4846],[-90.5906,39.4937],[-90.5822,39.5103],[-90.5811,39.5217],[-90.3018,39.5202],[-90.1538,39.5203],[-90.1506,39.3463],[-90.1492,39.3346],[-90.1481,39.2619],[-90.3141,39.2251],[-90.3707,39.1744],[-90.4875,39.1751]]]}},{"type":"Feature","id":"17063","properties":{"name":"Grundy","fips":"17063"},"geometry":{"type":"Polygon","coordinates":[[[-88.3631,41.1116],[-88.5862,41.1083],[-88.596,41.457],[-88.255,41.4628],[-88.2521,41.4631],[-88.2442,41.2015],[-88.2409,41.1144],[-88.252,41.1142],[-88.3631,41.1116]]]}},{"type":"Feature","id":"17065","properties":{"name":"Hamilton","fips":"17065"},"geometry":{"type":"Polygon","coordinates":[[[-88.4853,37.907],[-88.7066,37.9068],[-88.7046,38.1252],[-88.7024,38.2567],[-88.3705,38.2554],[-88.3745,37.9084],[-88.3745,37.9077],[-88.375,37.9078],[-88.4843,37.9069],[-88.4853,37.907]]]}},{"type":"Feature","id":"17067","properties":{"name":"Hancock","fips":"17067"},"geometry":{"type":"Polygon","coordinates":[[[-91.5014,40.2489],[-91.4899,40.286],[-91.4621,40.3424],[-91.4448,40.3632],[-91.4194,40.3783],[-91.3884,40.3849],[-91.3757,40.3919],[-91.3726,40.4012],[-91.3639,40.4901],[-91.3642,40.5],[-91.3691,40.5125],[-91.3845,40.5309],[-91.4041,40.5391],[-91.4069,40.5476],[-91.4052,40.5546],[-91.3599,40.6018],[-91.3487,40.6097],[-91.3397,40.6135],[-91.3065,40.6262],[-91.2531,40.638],[-91.2184,40.6384],[-91.1979,40.6361],[-91.187,40.6373],[-91.1854,40.6381],[-90.9139,40.6377],[-90.9042,40.6392],[-90.9098,40.2844],[-90.912,40.1931],[-91.2588,40.1973],[-91.5103,40.2011],[-91.506,40.2343],[-91.5014,40.2489]]]}},{"type":"Feature","id":"17069","properties":{"name":"Hardin","fips":"17069"},"geometry":{"type":"Polygon","coordinates":[[[-88.1334,37.5743],[-88.1334,37.5742],[-88.1333,37.5742],[-88.1332,37.5742],[-88.1215,37.5682],[-88.0722,37.5288],[-88.0633,37.5158],[-88.0613,37.5053],[-88.0613,37.5052],[-88.0626,37.4894],[-88.0834,37.4737],[-88.2552,37.4567],[-88.2817,37.4526],[-88.3126,37.4406],[-88.3306,37.4293],[-88.3584,37.4049],[-88.4088,37.4252],[-88.4149,37.4235],[-88.4151,37.4249],[-88.4121,37.5999],[-88.3753,37.5996],[-88.1334,37.5743]]]}},{"type":"Feature","id":"17071","properties":{"name":"Henderson","fips":"17071"},"geometry":{"type":"Polygon","coordinates":[[[-91.1123,40.6962],[-91.1119,40.697],[-91.0947,40.7978],[-91.097,40.8025],[-91.0976,40.8084],[-91.093,40.8211],[-91.0095,40.9006],[-90.9985,40.9081],[-90.969,40.9191],[-90.9629,40.925],[-90.9522,40.954],[-90.9423,41.0347],[-90.9455,41.0617],[-90.9485,41.0702],[-90.7852,41.0687],[-90.7897,40.6358],[-90.8943,40.6387],[-90.9042,40.6392],[-90.9139,40.6377],[-91.1854,40.6381],[-91.1381,40.6609],[-91.1224,40.6707],[-91.1123,40.6962]]]}},{"type":"Feature","id":"17073","properties":{"name":"Henry","fips":"17073"},"geometry":{"type":"Polygon","coordinates":[[[-89.8569,41.4088],[-89.8566,41.321],[-89.8576,41.2348],[-89.8578,41.2345],[-89.8684,41.149],[-89.9846,41.1494],[-90.3232,41.1513],[-90.4377,41.1513],[-90.4338,41.327],[-90.4321,41.4562],[-90.3327,41.514],[-90.1965,41.5401],[-90.1856,41.5847],[-89.8624,41.584],[-89.8569,41.4088]]]}},{"type":"Feature","id":"17075","properties":{"name":"Iroquois","fips":"17075"},"geometry":{"type":"Polygon","coordinates":[[[-87.5261,40.7369],[-87.5263,40.5354],[-87.5264,40.5351],[-87.5264,40.4916],[-87.5264,40.4912],[-87.9353,40.4859],[-88.1179,40.4881],[-88.1319,40.9978],[-87.5263,41.0104],[-87.5263,41.0103],[-87.5261,40.9119],[-87.5264,40.8942],[-87.526,40.8806],[-87.5261,40.8797],[-87.5258,40.8544],[-87.5261,40.737],[-87.5261,40.7369]]]}},{"type":"Feature","id":"17077","properties":{"name":"Jackson","fips":"17077"},"geometry":{"type":"Polygon","coordinates":[[[-89.5214,37.5721],[-89.5213,37.579],[-89.518,37.584],[-89.5119,37.5846],[-89.5066,37.6251],[-89.5154,37.6714],[-89.6713,37.8011],[-89.6743,37.8032],[-89.5951,37.9553],[-89.1776,37.9503],[-89.1508,37.9502],[-89.1512,37.862],[-89.1537,37.6005],[-89.4506,37.6],[-89.5214,37.5721]]]}},{"type":"Feature","id":"17079","properties":{"name":"Jasper","fips":"17079"},"geometry":{"type":"Polygon","coordinates":[[[-88.0078,39.1739],[-87.9504,39.1749],[-87.9459,38.8501],[-88.2586,38.8475],[-88.3618,38.8519],[-88.3617,38.9108],[-88.3607,39.1711],[-88.0078,39.1739]]]}},{"type":"Feature","id":"17081","properties":{"name":"Jefferson","fips":"17081"},"geometry":{"type":"Polygon","coordinates":[[[-88.699,38.4749],[-88.7024,38.2567],[-88.7046,38.1252],[-89.1296,38.1247],[-89.1497,38.1249],[-89.1474,38.2129],[-89.1444,38.4739],[-88.699,38.4749]]]}},{"type":"Feature","id":"17083","properties":{"name":"Jersey","fips":"17083"},"geometry":{"type":"Polygon","coordinates":[[[-90.3858,38.9568],[-90.4064,38.9626],[-90.4508,38.9678],[-90.4508,38.9678],[-90.5702,38.9933],[-90.6036,39.1176],[-90.5746,39.1786],[-90.4875,39.1751],[-90.3707,39.1744],[-90.3141,39.2251],[-90.1481,39.2619],[-90.146,39.0],[-90.2737,38.9993],[-90.2759,38.9265],[-90.3858,38.9568]]]}},{"type":"Feature","id":"17085","properties":{"name":"Jo Daviess","fips":"17085"},"geometry":{"type":"Polygon","coordinates":[[[-90.6409,42.5083],[-90.6177,42.5081],[-90.6146,42.5081],[-90.5654,42.5076],[-90.5559,42.5075],[-90.5512,42.5077],[-90.5448,42.5077],[-90.5443,42.5077],[-90.5323,42.5076],[-90.4917,42.5076],[-90.4794,42.5074],[-90.475,42.5075],[-90.437,42.5071],[-90.4264,42.5071],[-90.4059,42.5069],[-90.3707,42.5071],[-90.3679,42.5071],[-90.3627,42.507],[-90.3038,42.5075],[-90.2729,42.5075],[-90.2693,42.5077],[-90.2671,42.5076],[-90.2531,42.5073],[-90.2506,42.5075],[-90.2232,42.5078],[-90.2061,42.5077],[-90.1816,42.5081],[-90.1644,42.5083],[-90.1429,42.5082],[-90.095,42.5079],[-90.093,42.5082],[-90.0187,42.5073],[-90.017,42.5071],[-89.9993,42.5069],[-89.9972,42.5068],[-89.9856,42.5064],[-89.9851,42.5065],[-89.9265,42.5058],[-89.9264,42.5058],[-89.9262,42.5058],[-89.9197,42.1963],[-90.3049,42.1941],[-90.3163,42.1936],[-90.3492,42.2043],[-90.357,42.2054],[-90.3751,42.2148],[-90.3911,42.2255],[-90.4193,42.2545],[-90.4309,42.2782],[-90.4307,42.2842],[-90.4243,42.2933],[-90.4162,42.3213],[-90.4165,42.3251],[-90.419,42.3285],[-90.4748,42.3815],[-90.4773,42.3838],[-90.5595,42.4307],[-90.6243,42.4589],[-90.6467,42.4719],[-90.654,42.4785],[-90.6563,42.4836],[-90.6565,42.4892],[-90.6559,42.4917],[-90.6409,42.5083]]]}},{"type":"Feature","id":"17087","properties":{"name":"Johnson","fips":"17087"},"geometry":{"type":"Polygon","coordinates":[[[-89.0414,37.5966],[-88.8515,37.5972],[-88.7085,37.5993],[-88.7107,37.3371],[-88.904,37.3356],[-88.9291,37.3026],[-89.0448,37.3298],[-89.0414,37.5966]]]}},{"type":"Feature","id":"17089","properties":{"name":"Kane","fips":"17089"},"geometry":{"type":"Polygon","coordinates":[[[-88.2631,41.8123],[-88.2631,41.7993],[-88.2627,41.7796],[-88.2625,41.7774],[-88.262,41.7247],[-88.6019,41.7196],[-88.6013,41.9813],[-88.5887,42.1536],[-88.2384,42.1543],[-88.2629,41.9862],[-88.2631,41.8123]]]}},{"type":"Feature","id":"17091","properties":{"name":"Kankakee","fips":"17091"},"geometry":{"type":"Polygon","coordinates":[[[-87.5268,41.2981],[-87.5266,41.1661],[-87.5266,41.1639],[-87.5267,41.1601],[-87.5267,41.1594],[-87.5267,41.154],[-87.5267,41.1492],[-87.5267,41.1397],[-87.5267,41.1215],[-87.5265,41.0248],[-87.5263,41.0106],[-87.5263,41.0104],[-88.1319,40.9978],[-88.1337,40.9976],[-88.2365,40.9952],[-88.246,40.9946],[-88.2473,40.9946],[-88.2483,41.0235],[-88.2511,41.1035],[-88.252,41.1142],[-88.2409,41.1144],[-88.2442,41.2015],[-88.0118,41.2056],[-88.0139,41.2924],[-87.5268,41.2981]]]}},{"type":"Feature","id":"17093","properties":{"name":"Kendall","fips":"17093"},"geometry":{"type":"Polygon","coordinates":[[[-88.2615,41.7245],[-88.2573,41.5935],[-88.2521,41.4631],[-88.255,41.4628],[-88.596,41.457],[-88.6022,41.6314],[-88.6036,41.7195],[-88.6019,41.7196],[-88.262,41.7247],[-88.2615,41.7245]]]}},{"type":"Feature","id":"17095","properties":{"name":"Knox","fips":"17095"},"geometry":{"type":"Polygon","coordinates":[[[-90.2153,40.7136],[-90.4443,40.7147],[-90.4394,41.064],[-90.438,41.1339],[-90.4381,41.1368],[-90.4378,41.1372],[-90.4377,41.1513],[-90.3232,41.1513],[-89.9846,41.1494],[-89.9855,40.9745],[-89.9854,40.8876],[-89.9854,40.8506],[-89.9852,40.8487],[-89.9853,40.8],[-89.9861,40.7123],[-90.2153,40.7136]]]}},{"type":"Feature","id":"17099","properties":{"name":"LaSalle","fips":"17099"},"geometry":{"type":"Polygon","coordinates":[[[-89.1666,41.5853],[-89.1672,41.6287],[-88.9386,41.6283],[-88.8185,41.6314],[-88.6022,41.6314],[-88.596,41.457],[-88.5862,41.1083],[-88.9309,41.1059],[-88.9314,40.9277],[-89.0477,40.9257],[-89.0479,41.1048],[-89.1622,41.1041],[-89.1637,41.3102],[-89.1666,41.5853]]]}},{"type":"Feature","id":"17097","properties":{"name":"Lake","fips":"17097"},"geometry":{"type":"Polygon","coordinates":[[[-88.0498,42.4953],[-87.9902,42.4945],[-87.9713,42.494],[-87.9002,42.493],[-87.8436,42.4923],[-87.8159,42.4919],[-87.8006,42.4919],[-87.8005,42.4919],[-87.8003,42.4906],[-87.799,42.4793],[-87.7982,42.4731],[-87.7981,42.4717],[-87.8008,42.4459],[-87.8034,42.4206],[-87.8035,42.4178],[-87.8037,42.4138],[-87.8054,42.3847],[-87.8061,42.3834],[-87.8156,42.3664],[-87.8166,42.3646],[-87.8209,42.3616],[-87.8209,42.3615],[-87.8267,42.3435],[-87.8306,42.3314],[-87.831,42.3303],[-87.8312,42.3285],[-87.8348,42.3015],[-87.8335,42.2949],[-87.8327,42.2912],[-87.8325,42.2901],[-87.8313,42.2838],[-87.8286,42.2699],[-87.828,42.2687],[-87.8277,42.2679],[-87.8269,42.2661],[-87.8253,42.2623],[-87.8125,42.2323],[-87.8124,42.2322],[-87.8123,42.2319],[-87.8123,42.2318],[-87.8084,42.2243],[-87.8039,42.2154],[-87.8001,42.208],[-87.7986,42.206],[-87.7983,42.2056],[-87.7975,42.2045],[-87.7974,42.2044],[-87.7969,42.2037],[-87.7968,42.2035],[-87.7883,42.192],[-87.7872,42.1905],[-87.7753,42.1742],[-87.7593,42.1524],[-88.0045,42.1536],[-88.1215,42.1542],[-88.1996,42.1543],[-88.1988,42.2542],[-88.1995,42.496],[-88.0498,42.4953]]]}},{"type":"Feature","id":"17101","properties":{"name":"Lawrence","fips":"17101"},"geometry":{"type":"Polygon","coordinates":[[[-87.5321,38.8525],[-87.5282,38.8517],[-87.5259,38.8488],[-87.4952,38.7831],[-87.4985,38.759],[-87.5196,38.6972],[-87.5312,38.684],[-87.5401,38.6791],[-87.5794,38.6725],[-87.5937,38.6674],[-87.6002,38.6625],[-87.6201,38.6395],[-87.6273,38.6072],[-87.6515,38.5682],[-87.654,38.5683],[-87.7601,38.5688],[-87.7694,38.5689],[-87.9123,38.5701],[-87.9081,38.8501],[-87.7596,38.8495],[-87.5321,38.8525]]]}},{"type":"Feature","id":"17103","properties":{"name":"Lee","fips":"17103"},"geometry":{"type":"Polygon","coordinates":[[[-89.6284,41.585],[-89.6315,41.5849],[-89.6314,41.7713],[-89.6293,41.9016],[-89.3607,41.8881],[-88.9413,41.8918],[-88.9386,41.6283],[-89.1672,41.6287],[-89.1666,41.5853],[-89.6284,41.585]]]}},{"type":"Feature","id":"17105","properties":{"name":"Livingston","fips":"17105"},"geometry":{"type":"Polygon","coordinates":[[[-88.4595,40.6173],[-88.5745,40.6165],[-88.5843,40.7576],[-88.8145,40.7551],[-88.9293,40.7533],[-88.9314,40.9277],[-88.9309,41.1059],[-88.5862,41.1083],[-88.3631,41.1116],[-88.252,41.1142],[-88.2511,41.1035],[-88.2483,41.0235],[-88.2473,40.9946],[-88.2349,40.6182],[-88.4595,40.6173]]]}},{"type":"Feature","id":"17107","properties":{"name":"Logan","fips":"17107"},"geometry":{"type":"Polygon","coordinates":[[[-89.2637,40.3253],[-89.2626,40.2809],[-89.1488,40.282],[-89.1448,40.0489],[-89.1435,39.9179],[-89.2178,39.917],[-89.4834,39.9331],[-89.5783,39.9761],[-89.6016,40.1224],[-89.603,40.3201],[-89.2637,40.3253]]]}},{"type":"Feature","id":"17115","properties":{"name":"Macon","fips":"17115"},"geometry":{"type":"Polygon","coordinates":[[[-89.0257,39.6546],[-89.1391,39.6551],[-89.1418,39.8009],[-89.2175,39.8132],[-89.2175,39.853],[-89.2175,39.8724],[-89.2178,39.8738],[-89.2178,39.917],[-89.1435,39.9179],[-89.1448,40.0489],[-88.7452,40.0552],[-88.746,39.8581],[-88.7457,39.7921],[-88.8127,39.7405],[-88.8106,39.6532],[-89.0257,39.6542],[-89.0257,39.6546]]]}},{"type":"Feature","id":"17117","properties":{"name":"Macoupin","fips":"17117"},"geometry":{"type":"Polygon","coordinates":[[[-89.8131,39.5228],[-89.8045,39.5229],[-89.8004,39.523],[-89.7953,39.5229],[-89.7016,39.5234],[-89.7003,39.1754],[-89.6986,38.999],[-89.704,38.9989],[-89.7053,38.999],[-89.7057,38.9992],[-89.7073,38.999],[-89.7079,38.999],[-89.8117,38.9985],[-89.8146,38.9983],[-90.146,39.0],[-90.1481,39.2619],[-90.1492,39.3346],[-90.1506,39.3463],[-90.1538,39.5203],[-89.926,39.5221],[-89.8131,39.5228]]]}},{"type":"Feature","id":"17119","properties":{"name":"Madison","fips":"17119"},"geometry":{"type":"Polygon","coordinates":[[[-90.1177,38.8057],[-90.1147,38.815],[-90.1091,38.8374],[-90.1094,38.8435],[-90.1133,38.8493],[-90.207,38.899],[-90.2258,38.9089],[-90.2502,38.9193],[-90.2759,38.9265],[-90.2737,38.9993],[-90.146,39.0],[-89.8146,38.9983],[-89.8117,38.9985],[-89.7079,38.999],[-89.7073,38.999],[-89.7057,38.9992],[-89.7053,38.999],[-89.704,38.9989],[-89.6986,38.999],[-89.6534,38.9992],[-89.6524,38.9996],[-89.6488,38.9992],[-89.6393,38.9991],[-89.6369,38.8743],[-89.5996,38.8745],[-89.5973,38.7432],[-89.5951,38.6559],[-89.707,38.6552],[-90.0371,38.6584],[-90.1777,38.6605],[-90.1814,38.6604],[-90.1864,38.6748],[-90.1952,38.6876],[-90.2022,38.6934],[-90.2092,38.7028],[-90.212,38.7118],[-90.2099,38.7261],[-90.1713,38.7665],[-90.1651,38.7706],[-90.1231,38.798],[-90.1177,38.8057]]]}},{"type":"Feature","id":"17121","properties":{"name":"Marion","fips":"17121"},"geometry":{"type":"Polygon","coordinates":[[[-89.1444,38.4739],[-89.1443,38.4749],[-89.1439,38.5031],[-89.1384,38.7363],[-89.1381,38.8242],[-88.6952,38.8263],[-88.6985,38.6063],[-88.699,38.4749],[-89.1444,38.4739]]]}},{"type":"Feature","id":"17123","properties":{"name":"Marshall","fips":"17123"},"geometry":{"type":"Polygon","coordinates":[[[-89.6384,41.1486],[-89.4664,41.1486],[-89.3293,41.1479],[-89.3586,41.1037],[-89.1622,41.1041],[-89.0479,41.1048],[-89.0477,40.9257],[-89.4723,40.9212],[-89.4477,40.9732],[-89.6387,40.9737],[-89.6384,41.1486]]]}},{"type":"Feature","id":"17125","properties":{"name":"Mason","fips":"17125"},"geometry":{"type":"Polygon","coordinates":[[[-90.1996,40.1839],[-90.119,40.2353],[-90.033,40.3778],[-89.9247,40.4359],[-89.7171,40.4357],[-89.7149,40.3192],[-89.603,40.3201],[-89.6016,40.1224],[-89.6383,40.1549],[-89.7492,40.1269],[-89.9705,40.1421],[-89.9947,40.1084],[-90.1966,40.0525],[-90.2865,40.055],[-90.3552,40.1242],[-90.1996,40.1839]]]}},{"type":"Feature","id":"17127","properties":{"name":"Massac","fips":"17127"},"geometry":{"type":"Polygon","coordinates":[[[-88.5642,37.0784],[-88.5767,37.0859],[-88.5892,37.0997],[-88.6259,37.1195],[-88.8092,37.1892],[-88.9169,37.2243],[-88.928,37.2263],[-88.9291,37.3026],[-88.904,37.3356],[-88.7107,37.3371],[-88.4903,37.1594],[-88.4903,37.0667],[-88.5144,37.0652],[-88.5316,37.0672],[-88.5454,37.07],[-88.56,37.076],[-88.5642,37.0784]]]}},{"type":"Feature","id":"17109","properties":{"name":"McDonough","fips":"17109"},"geometry":{"type":"Polygon","coordinates":[[[-90.7897,40.6358],[-90.4455,40.6278],[-90.4502,40.2763],[-90.9098,40.2844],[-90.9042,40.6392],[-90.8943,40.6387],[-90.7897,40.6358]]]}},{"type":"Feature","id":"17111","properties":{"name":"McHenry","fips":"17111"},"geometry":{"type":"Polygon","coordinates":[[[-88.3047,42.4948],[-88.2717,42.4948],[-88.2169,42.4959],[-88.2002,42.496],[-88.1995,42.496],[-88.1988,42.2542],[-88.1996,42.1543],[-88.2374,42.1543],[-88.2384,42.1543],[-88.5887,42.1536],[-88.7056,42.1536],[-88.7074,42.4936],[-88.5069,42.4949],[-88.4706,42.4947],[-88.4614,42.4946],[-88.4174,42.4946],[-88.3047,42.4948]]]}},{"type":"Feature","id":"17113","properties":{"name":"McLean","fips":"17113"},"geometry":{"type":"Polygon","coordinates":[[[-88.8145,40.7551],[-88.5843,40.7576],[-88.5745,40.6165],[-88.4595,40.6173],[-88.46,40.3989],[-88.4604,40.2819],[-88.4809,40.2812],[-88.5749,40.2815],[-88.6893,40.2821],[-89.1488,40.282],[-89.2626,40.2809],[-89.2637,40.3253],[-89.2694,40.5943],[-89.1552,40.5964],[-89.1456,40.6621],[-88.9847,40.665],[-88.9869,40.7523],[-88.9293,40.7533],[-88.8145,40.7551]]]}},{"type":"Feature","id":"17129","properties":{"name":"Menard","fips":"17129"},"geometry":{"type":"Polygon","coordinates":[[[-89.9947,40.1084],[-89.9705,40.1421],[-89.7492,40.1269],[-89.6383,40.1549],[-89.6016,40.1224],[-89.5783,39.9761],[-89.6983,39.9753],[-89.7019,39.9168],[-89.9945,39.9019],[-89.9947,40.1084]]]}},{"type":"Feature","id":"17131","properties":{"name":"Mercer","fips":"17131"},"geometry":{"type":"Polygon","coordinates":[[[-90.9485,41.0702],[-90.9494,41.0727],[-90.9494,41.0727],[-90.9466,41.0966],[-90.9897,41.1557],[-90.9979,41.1626],[-91.0055,41.1656],[-91.019,41.1649],[-91.0498,41.178],[-91.1136,41.2414],[-91.1142,41.25],[-91.0797,41.3337],[-91.0787,41.3361],[-90.4338,41.327],[-90.4377,41.1513],[-90.4378,41.1372],[-90.4381,41.1368],[-90.438,41.1339],[-90.4394,41.064],[-90.7852,41.0687],[-90.9485,41.0702]]]}},{"type":"Feature","id":"17133","properties":{"name":"Monroe","fips":"17133"},"geometry":{"type":"Polygon","coordinates":[[[-90.2038,38.0888],[-90.2431,38.1127],[-90.2541,38.122],[-90.3343,38.1899],[-90.3539,38.2139],[-90.3639,38.2364],[-90.3739,38.2819],[-90.3725,38.3234],[-90.3708,38.3336],[-90.3509,38.3751],[-90.3461,38.3819],[-90.3403,38.387],[-90.2953,38.4268],[-90.2852,38.4435],[-90.2792,38.4725],[-90.2631,38.5202],[-90.036,38.3088],[-89.9132,38.3078],[-89.8991,38.2208],[-90.0364,38.2231],[-90.036,38.1356],[-90.2038,38.0888]]]}},{"type":"Feature","id":"17135","properties":{"name":"Montgomery","fips":"17135"},"geometry":{"type":"Polygon","coordinates":[[[-89.7003,39.1754],[-89.7016,39.5234],[-89.5337,39.5246],[-89.5308,39.3489],[-89.1398,39.3489],[-89.1401,39.2179],[-89.2505,39.2175],[-89.2507,39.0864],[-89.2503,39.0299],[-89.2504,39.0281],[-89.5861,39.0282],[-89.6393,38.9991],[-89.6488,38.9992],[-89.6524,38.9996],[-89.6534,38.9992],[-89.6986,38.999],[-89.7003,39.1754]]]}},{"type":"Feature","id":"17137","properties":{"name":"Morgan","fips":"17137"},"geometry":{"type":"Polygon","coordinates":[[[-90.5718,39.8393],[-90.5824,39.8546],[-90.5835,39.8768],[-89.9944,39.8729],[-89.9847,39.7181],[-89.926,39.5221],[-90.1538,39.5203],[-90.3018,39.5202],[-90.3007,39.6365],[-90.373,39.6658],[-90.3713,39.7534],[-90.5991,39.7901],[-90.567,39.8269],[-90.5718,39.8393]]]}},{"type":"Feature","id":"17139","properties":{"name":"Moultrie","fips":"17139"},"geometry":{"type":"Polygon","coordinates":[[[-88.4732,39.7918],[-88.4721,39.6516],[-88.4705,39.447],[-88.5843,39.4476],[-88.6415,39.521],[-88.7169,39.5212],[-88.7175,39.5793],[-88.8091,39.5802],[-88.8106,39.6532],[-88.8127,39.7405],[-88.7457,39.7921],[-88.4732,39.7918]]]}},{"type":"Feature","id":"17141","properties":{"name":"Ogle","fips":"17141"},"geometry":{"type":"Polygon","coordinates":[[[-88.9397,42.1523],[-88.9413,41.8918],[-89.3607,41.8881],[-89.6293,41.9016],[-89.6289,41.93],[-89.6854,41.9303],[-89.6865,41.9375],[-89.6885,42.1991],[-89.3962,42.2019],[-89.173,42.2042],[-89.1728,42.1503],[-88.9397,42.1523]]]}},{"type":"Feature","id":"17143","properties":{"name":"Peoria","fips":"17143"},"geometry":{"type":"Polygon","coordinates":[[[-89.9861,40.7123],[-89.9853,40.8],[-89.9852,40.8487],[-89.9854,40.8506],[-89.9854,40.8876],[-89.9855,40.9745],[-89.9825,40.9747],[-89.6387,40.9737],[-89.4477,40.9732],[-89.4723,40.9212],[-89.5528,40.8105],[-89.555,40.7476],[-89.658,40.5674],[-89.8725,40.5131],[-89.8735,40.6246],[-89.989,40.6258],[-89.9861,40.7123]]]}},{"type":"Feature","id":"17145","properties":{"name":"Perry","fips":"17145"},"geometry":{"type":"Polygon","coordinates":[[[-89.5928,38.2193],[-89.1474,38.2129],[-89.1497,38.1249],[-89.1296,38.1247],[-89.1776,37.9503],[-89.5951,37.9553],[-89.5928,38.2193]]]}},{"type":"Feature","id":"17147","properties":{"name":"Piatt","fips":"17147"},"geometry":{"type":"Polygon","coordinates":[[[-88.4622,39.8791],[-88.4623,39.7918],[-88.4732,39.7918],[-88.7457,39.7921],[-88.746,39.8581],[-88.7452,40.0552],[-88.5749,40.2815],[-88.4809,40.2812],[-88.4604,40.2819],[-88.4622,39.8791]]]}},{"type":"Feature","id":"17149","properties":{"name":"Pike","fips":"17149"},"geometry":{"type":"Polygon","coordinates":[[[-91.3132,39.6849],[-91.349,39.7123],[-91.3678,39.729],[-91.37,39.7325],[-91.37,39.745],[-91.368,39.7591],[-91.3651,39.7587],[-91.2658,39.7573],[-91.1477,39.7571],[-90.9161,39.7572],[-90.9166,39.8451],[-90.8937,39.8409],[-90.5718,39.8393],[-90.567,39.8269],[-90.5991,39.7901],[-90.646,39.7034],[-90.5811,39.5217],[-90.5822,39.5103],[-90.5906,39.4937],[-90.5933,39.4846],[-90.6137,39.3958],[-90.94,39.3936],[-90.9938,39.423],[-91.0424,39.4521],[-91.1586,39.553],[-91.1684,39.5649],[-91.178,39.5982],[-91.2293,39.6209],[-91.3132,39.6849]]]}},{"type":"Feature","id":"17151","properties":{"name":"Pope","fips":"17151"},"geometry":{"type":"Polygon","coordinates":[[[-88.4903,37.0667],[-88.4903,37.1594],[-88.7107,37.3371],[-88.7085,37.5993],[-88.4121,37.5999],[-88.4151,37.4249],[-88.4149,37.4235],[-88.4393,37.4164],[-88.456,37.4085],[-88.4702,37.3963],[-88.4766,37.3869],[-88.5147,37.2909],[-88.5159,37.284],[-88.5093,37.2621],[-88.4718,37.2202],[-88.4588,37.2135],[-88.4478,37.2035],[-88.4244,37.1524],[-88.4446,37.0986],[-88.4589,37.0738],[-88.4829,37.0671],[-88.4903,37.0667]]]}},{"type":"Feature","id":"17153","properties":{"name":"Pulaski","fips":"17153"},"geometry":{"type":"Polygon","coordinates":[[[-88.928,37.2263],[-88.9421,37.2288],[-88.9334,37.225],[-88.9334,37.225],[-88.9668,37.2299],[-88.9833,37.2287],[-89.001,37.2244],[-89.0413,37.2029],[-89.0865,37.1656],[-89.1681,37.0742],[-89.1719,37.0682],[-89.2736,37.127],[-89.2484,37.3351],[-89.0994,37.3336],[-89.0448,37.3298],[-88.9291,37.3026],[-88.928,37.2263]]]}},{"type":"Feature","id":"17155","properties":{"name":"Putnam","fips":"17155"},"geometry":{"type":"Polygon","coordinates":[[[-89.4664,41.1486],[-89.4665,41.2339],[-89.3567,41.2332],[-89.3349,41.3009],[-89.1637,41.3102],[-89.1622,41.1041],[-89.3586,41.1037],[-89.3293,41.1479],[-89.4664,41.1486]]]}},{"type":"Feature","id":"17157","properties":{"name":"Randolph","fips":"17157"},"geometry":{"type":"Polygon","coordinates":[[[-89.6743,37.8032],[-89.7399,37.8469],[-89.8448,37.9056],[-89.851,37.904],[-89.8629,37.8969],[-89.8815,37.8796],[-89.9018,37.8698],[-89.9232,37.8707],[-89.9374,37.8747],[-89.9382,37.8751],[-89.9506,37.8815],[-89.9736,37.9177],[-89.9749,37.9267],[-89.9971,37.9632],[-90.0723,38.017],[-90.1265,38.0417],[-90.2038,38.0888],[-90.036,38.1356],[-90.0364,38.2231],[-89.8991,38.2208],[-89.7033,38.2194],[-89.5928,38.2193],[-89.5951,37.9553],[-89.6743,37.8032]]]}},{"type":"Feature","id":"17159","properties":{"name":"Richland","fips":"17159"},"geometry":{"type":"Polygon","coordinates":[[[-87.9539,38.5701],[-88.1478,38.5691],[-88.148,38.598],[-88.2539,38.5995],[-88.2586,38.8475],[-87.9459,38.8501],[-87.9081,38.8501],[-87.9123,38.5701],[-87.9124,38.5699],[-87.953,38.5701],[-87.9539,38.5701]]]}},{"type":"Feature","id":"17161","properties":{"name":"Rock Island","fips":"17161"},"geometry":{"type":"Polygon","coordinates":[[[-90.2786,41.7674],[-90.2427,41.7838],[-90.2297,41.6754],[-90.1651,41.6029],[-90.1648,41.5973],[-90.1704,41.5918],[-90.1814,41.591],[-90.1856,41.5847],[-90.1965,41.5401],[-90.3327,41.514],[-90.4321,41.4562],[-90.4338,41.327],[-91.0787,41.3361],[-91.0478,41.4109],[-91.0399,41.4185],[-91.0278,41.4236],[-90.99,41.432],[-90.8475,41.455],[-90.7863,41.4529],[-90.7717,41.4508],[-90.7375,41.4501],[-90.6558,41.4621],[-90.6059,41.4942],[-90.4995,41.5181],[-90.4743,41.5197],[-90.4614,41.5235],[-90.3979,41.5722],[-90.3417,41.6215],[-90.3432,41.6481],[-90.3345,41.6796],[-90.317,41.7291],[-90.3152,41.7343],[-90.3098,41.7433],[-90.3028,41.75],[-90.2786,41.7674]]]}},{"type":"Feature","id":"17165","properties":{"name":"Saline","fips":"17165"},"geometry":{"type":"Polygon","coordinates":[[[-88.7066,37.9068],[-88.4853,37.907],[-88.4843,37.9069],[-88.375,37.9078],[-88.3745,37.9077],[-88.3744,37.8751],[-88.3745,37.8748],[-88.3746,37.8711],[-88.3744,37.871],[-88.3744,37.8639],[-88.3739,37.7762],[-88.3753,37.5996],[-88.4121,37.5999],[-88.7085,37.5993],[-88.7068,37.8633],[-88.7067,37.887],[-88.7067,37.8877],[-88.7067,37.8889],[-88.7066,37.9068]]]}},{"type":"Feature","id":"17167","properties":{"name":"Sangamon","fips":"17167"},"geometry":{"type":"Polygon","coordinates":[[[-89.7016,39.5234],[-89.7953,39.5229],[-89.8004,39.523],[-89.8045,39.5229],[-89.8131,39.5228],[-89.926,39.5221],[-89.9847,39.7181],[-89.9944,39.8729],[-89.9945,39.9019],[-89.7019,39.9168],[-89.6983,39.9753],[-89.5783,39.9761],[-89.4834,39.9331],[-89.2178,39.917],[-89.2178,39.8738],[-89.2175,39.8724],[-89.2175,39.853],[-89.2175,39.8132],[-89.2335,39.8132],[-89.2401,39.8231],[-89.2486,39.8257],[-89.2523,39.8204],[-89.3929,39.7439],[-89.4251,39.6837],[-89.535,39.6411],[-89.5337,39.5246],[-89.7016,39.5234]]]}},{"type":"Feature","id":"17169","properties":{"name":"Schuyler","fips":"17169"},"geometry":{"type":"Polygon","coordinates":[[[-90.9098,40.2844],[-90.4502,40.2763],[-90.4515,40.1889],[-90.1996,40.1839],[-90.3552,40.1242],[-90.4335,40.024],[-90.5137,39.9879],[-90.6071,39.9817],[-90.6959,40.1038],[-90.9136,40.1045],[-90.912,40.1931],[-90.9098,40.2844]]]}},{"type":"Feature","id":"17171","properties":{"name":"Scott","fips":"17171"},"geometry":{"type":"Polygon","coordinates":[[[-90.5811,39.5217],[-90.646,39.7034],[-90.5991,39.7901],[-90.3713,39.7534],[-90.373,39.6658],[-90.3007,39.6365],[-90.3018,39.5202],[-90.5811,39.5217]]]}},{"type":"Feature","id":"17173","properties":{"name":"Shelby","fips":"17173"},"geometry":{"type":"Polygon","coordinates":[[[-89.1398,39.3489],[-89.0254,39.3459],[-89.0255,39.4645],[-89.0257,39.6542],[-88.8106,39.6532],[-88.8091,39.5802],[-88.7175,39.5793],[-88.7169,39.5212],[-88.6415,39.521],[-88.5843,39.4476],[-88.4705,39.447],[-88.4708,39.3745],[-88.4711,39.2206],[-88.4709,39.215],[-88.8045,39.2161],[-88.8053,39.2163],[-88.8067,39.2164],[-88.8348,39.2164],[-88.837,39.2165],[-88.8382,39.2163],[-88.9175,39.2165],[-89.0257,39.2155],[-89.123,39.2173],[-89.1393,39.2172],[-89.1401,39.2179],[-89.1398,39.3489]]]}},{"type":"Feature","id":"17163","properties":{"name":"St. Clair","fips":"17163"},"geometry":{"type":"Polygon","coordinates":[[[-90.1845,38.6116],[-90.1826,38.618],[-90.178,38.6337],[-90.1777,38.6427],[-90.1811,38.6596],[-90.1814,38.6604],[-90.1777,38.6605],[-90.0371,38.6584],[-89.707,38.6552],[-89.7044,38.4157],[-89.7033,38.2194],[-89.8991,38.2208],[-89.9132,38.3078],[-90.036,38.3088],[-90.2631,38.5202],[-90.2603,38.5284],[-90.2578,38.532],[-90.2489,38.5448],[-90.2245,38.5747],[-90.2025,38.5887],[-90.196,38.5945],[-90.1845,38.6116]]]}},{"type":"Feature","id":"17175","properties":{"name":"Stark","fips":"17175"},"geometry":{"type":"Polygon","coordinates":[[[-89.6389,41.2339],[-89.6386,41.1498],[-89.6384,41.1486],[-89.6387,40.9737],[-89.9825,40.9747],[-89.9855,40.9745],[-89.9846,41.1494],[-89.8684,41.149],[-89.8578,41.2345],[-89.6389,41.2339]]]}},{"type":"Feature","id":"17177","properties":{"name":"Stephenson","fips":"17177"},"geometry":{"type":"Polygon","coordinates":[[[-89.8376,42.5055],[-89.8019,42.5054],[-89.7997,42.5054],[-89.794,42.5055],[-89.7803,42.5053],[-89.7696,42.5053],[-89.7424,42.5054],[-89.6935,42.5051],[-89.6901,42.5052],[-89.6676,42.505],[-89.6503,42.5046],[-89.6442,42.5045],[-89.6134,42.5039],[-89.6035,42.5036],[-89.6,42.5037],[-89.5948,42.5035],[-89.5644,42.5026],[-89.5225,42.5019],[-89.4932,42.5015],[-89.4926,42.5015],[-89.4843,42.5014],[-89.4252,42.5007],[-89.4239,42.5008],[-89.4226,42.5007],[-89.421,42.5006],[-89.4014,42.5004],[-89.4014,42.5004],[-89.3962,42.2019],[-89.6885,42.1991],[-89.9197,42.1963],[-89.9262,42.5058],[-89.8376,42.5055]]]}},{"type":"Feature","id":"17179","properties":{"name":"Tazewell","fips":"17179"},"geometry":{"type":"Polygon","coordinates":[[[-89.2694,40.5943],[-89.2637,40.3253],[-89.603,40.3201],[-89.7149,40.3192],[-89.7171,40.4357],[-89.9247,40.4359],[-89.8725,40.5131],[-89.658,40.5674],[-89.555,40.7476],[-89.3302,40.7483],[-89.3273,40.6156],[-89.2694,40.5943]]]}},{"type":"Feature","id":"17181","properties":{"name":"Union","fips":"17181"},"geometry":{"type":"Polygon","coordinates":[[[-89.5215,37.5662],[-89.5214,37.5721],[-89.4506,37.6],[-89.1537,37.6005],[-89.0414,37.5966],[-89.0448,37.3298],[-89.0994,37.3336],[-89.2484,37.3351],[-89.4846,37.3348],[-89.4746,37.3382],[-89.4476,37.3405],[-89.436,37.3444],[-89.4328,37.3471],[-89.4282,37.3562],[-89.4211,37.3877],[-89.4259,37.4075],[-89.4398,37.4372],[-89.451,37.4501],[-89.4755,37.4714],[-89.4921,37.494],[-89.5171,37.5373],[-89.5217,37.5573],[-89.5215,37.5662]]]}},{"type":"Feature","id":"17183","properties":{"name":"Vermilion","fips":"17183"},"geometry":{"type":"Polygon","coordinates":[[[-87.5264,40.4912],[-87.5265,40.4772],[-87.5265,40.4769],[-87.5265,40.4757],[-87.5268,40.4622],[-87.5301,40.2507],[-87.53,40.25],[-87.5308,40.1918],[-87.5311,40.17],[-87.5314,40.1481],[-87.5314,40.148],[-87.5318,40.1443],[-87.5316,40.133],[-87.5323,40.0116],[-87.5323,40.0115],[-87.5323,40.0],[-87.5323,39.9978],[-87.5325,39.9875],[-87.5327,39.9777],[-87.5328,39.975],[-87.5328,39.9711],[-87.5332,39.8831],[-87.5332,39.883],[-87.9376,39.8798],[-87.9329,40.3994],[-87.9318,40.4002],[-87.9353,40.4859],[-87.5264,40.4912]]]}},{"type":"Feature","id":"17185","properties":{"name":"Wabash","fips":"17185"},"geometry":{"type":"Polygon","coordinates":[[[-87.6515,38.5682],[-87.6701,38.5452],[-87.6692,38.5417],[-87.6561,38.5217],[-87.74,38.4157],[-87.75,38.403],[-87.863,38.2802],[-87.924,38.2584],[-87.9517,38.2396],[-87.9879,38.257],[-87.9906,38.2597],[-87.9548,38.3353],[-87.9544,38.3397],[-87.9579,38.3477],[-87.9673,38.3536],[-87.9697,38.3619],[-87.9729,38.3646],[-87.977,38.3794],[-87.9539,38.5701],[-87.953,38.5701],[-87.9124,38.5699],[-87.9123,38.5701],[-87.7694,38.5689],[-87.7601,38.5688],[-87.654,38.5683],[-87.6515,38.5682]]]}},{"type":"Feature","id":"17187","properties":{"name":"Warren","fips":"17187"},"geometry":{"type":"Polygon","coordinates":[[[-90.4455,40.6278],[-90.7897,40.6358],[-90.7852,41.0687],[-90.4394,41.064],[-90.4443,40.7147],[-90.4444,40.6974],[-90.4446,40.6955],[-90.4449,40.6778],[-90.4447,40.6775],[-90.4449,40.6639],[-90.445,40.6624],[-90.4451,40.6572],[-90.4452,40.6569],[-90.4455,40.6278]]]}},{"type":"Feature","id":"17189","properties":{"name":"Washington","fips":"17189"},"geometry":{"type":"Polygon","coordinates":[[[-89.7044,38.4157],[-89.6152,38.4721],[-89.4816,38.4685],[-89.3602,38.5165],[-89.1439,38.5031],[-89.1443,38.4749],[-89.1444,38.4739],[-89.1474,38.2129],[-89.5928,38.2193],[-89.7033,38.2194],[-89.7044,38.4157]]]}},{"type":"Feature","id":"17191","properties":{"name":"Wayne","fips":"17191"},"geometry":{"type":"Polygon","coordinates":[[[-88.7024,38.2567],[-88.699,38.4749],[-88.6985,38.6063],[-88.5641,38.6071],[-88.2539,38.5995],[-88.148,38.598],[-88.1478,38.5691],[-88.1509,38.2561],[-88.3705,38.2554],[-88.7024,38.2567]]]}},{"type":"Feature","id":"17193","properties":{"name":"White","fips":"17193"},"geometry":{"type":"Polygon","coordinates":[[[-87.9517,38.2396],[-87.9553,38.23],[-87.9611,38.2147],[-87.9591,38.2037],[-87.9513,38.1931],[-87.9407,38.1813],[-87.9289,38.1768],[-87.9157,38.1733],[-87.9108,38.1677],[-87.911,38.1622],[-87.9278,38.1415],[-87.9422,38.1318],[-87.9743,38.122],[-88.0131,38.1035],[-88.0421,38.0463],[-88.0415,38.0373],[-88.0126,37.9771],[-88.0135,37.894],[-88.0171,37.8892],[-88.0211,37.8881],[-88.0554,37.8912],[-88.0714,37.8958],[-88.2633,37.9086],[-88.3575,37.9091],[-88.3745,37.9084],[-88.3705,38.2554],[-88.1509,38.2561],[-88.0585,38.2557],[-88.0277,38.2557],[-88.0277,38.2598],[-87.9906,38.2597],[-87.9879,38.257],[-87.9517,38.2396]]]}},{"type":"Feature","id":"17195","properties":{"name":"Whiteside","fips":"17195"},"geometry":{"type":"Polygon","coordinates":[[[-90.2084,41.7972],[-90.188,41.8032],[-90.182,41.8071],[-90.1521,41.9289],[-89.6854,41.9303],[-89.6289,41.93],[-89.6293,41.9016],[-89.6314,41.7713],[-89.6315,41.5849],[-89.8624,41.584],[-90.1856,41.5847],[-90.1814,41.591],[-90.1704,41.5918],[-90.1648,41.5973],[-90.1651,41.6029],[-90.2297,41.6754],[-90.2427,41.7838],[-90.2223,41.7931],[-90.2084,41.7972]]]}},{"type":"Feature","id":"17197","properties":{"name":"Will","fips":"17197"},"geometry":{"type":"Polygon","coordinates":[[[-87.5257,41.4703],[-87.5257,41.4701],[-87.5256,41.4536],[-87.5268,41.2982],[-87.5268,41.2981],[-88.0139,41.2924],[-88.0118,41.2056],[-88.2442,41.2015],[-88.2521,41.4631],[-88.2573,41.5935],[-88.2615,41.7245],[-88.0306,41.7289],[-88.0292,41.6855],[-88.0277,41.6415],[-87.9119,41.6439],[-87.9095,41.5567],[-87.7928,41.5585],[-87.7923,41.5387],[-87.7906,41.5399],[-87.7904,41.5281],[-87.7903,41.4698],[-87.7176,41.4697],[-87.7128,41.4696],[-87.6532,41.4698],[-87.5257,41.4703]]]}},{"type":"Feature","id":"17199","properties":{"name":"Williamson","fips":"17199"},"geometry":{"type":"Polygon","coordinates":[[[-88.7085,37.5993],[-88.8515,37.5972],[-89.0414,37.5966],[-89.1537,37.6005],[-89.1512,37.862],[-88.7068,37.8633],[-88.7085,37.5993]]]}},{"type":"Feature","id":"17201","properties":{"name":"Winnebago","fips":"17201"},"geometry":{"type":"Polygon","coordinates":[[[-89.0137,42.4961],[-88.993,42.496],[-88.9927,42.496],[-88.9433,42.4951],[-88.9404,42.495],[-88.9404,42.495],[-88.9397,42.1523],[-89.1728,42.1503],[-89.173,42.2042],[-89.3962,42.2019],[-89.4014,42.5004],[-89.366,42.5003],[-89.3616,42.5],[-89.2909,42.4989],[-89.2508,42.498],[-89.247,42.4981],[-89.2283,42.498],[-89.2263,42.498],[-89.1667,42.4973],[-89.1649,42.4973],[-89.1251,42.497],[-89.1204,42.497],[-89.1169,42.4969],[-89.099,42.4965],[-89.0711,42.4962],[-89.0429,42.4963],[-89.0138,42.4961],[-89.0137,42.4961]]]}},{"type":"Feature","id":"17203","properties":{"name":"Woodford","fips":"17203"},"geometry":{"type":"Polygon","coordinates":[[[-88.9869,40.7523],[-88.9847,40.665],[-89.1456,40.6621],[-89.1552,40.5964],[-89.2694,40.5943],[-89.3273,40.6156],[-89.3302,40.7483],[-89.555,40.7476],[-89.5528,40.8105],[-89.4723,40.9212],[-89.0477,40.9257],[-88.9314,40.9277],[-88.9293,40.7533],[-88.9869,40.7523]]]}}]}