{"type":"FeatureCollection","features":[{"type":"Feature","id":"18001","properties":{"name":"Adams","fips":"18001"},"geometry":{"type":"Polygon","coordinates":[[[-84.8029,40.9226],[-84.8029,40.9224],[-84.8025,40.7655],[-84.8023,40.7423],[-84.8021,40.7282],[-84.8021,40.7281],[-84.8022,40.7186],[-84.8021,40.7025],[-84.8021,40.6914],[-84.8022,40.6893],[-84.8022,40.6748],[-84.8022,40.6603],[-84.8021,40.6449],[-84.8023,40.5722],[-84.8023,40.5722],[-85.0685,40.5682],[-85.0739,40.9178],[-84.8029,40.9226]]]}},{"type":"Feature","id":"18003","properties":{"name":"Allen","fips":"18003"},"geometry":{"type":"Polygon","coordinates":[[[-84.8036,41.2713],[-84.8036,41.2711],[-84.8036,41.2709],[-84.8035,41.2526],[-84.8035,41.2525],[-84.8035,41.1739],[-84.8036,41.1732],[-84.8034,41.1646],[-84.8034,41.0969],[-84.8034,41.0893],[-84.8033,40.9894],[-84.8033,40.9892],[-84.8029,40.9226],[-85.0739,40.9178],[-85.1671,40.9166],[-85.336,40.9171],[-85.3354,41.002],[-85.3356,41.0052],[-85.3386,41.1791],[-85.3078,41.2642],[-85.1921,41.2642],[-84.8065,41.2709],[-84.8036,41.2713]]]}},{"type":"Feature","id":"18005","properties":{"name":"Bartholomew","fips":"18005"},"geometry":{"type":"Polygon","coordinates":[[[-85.952,39.3474],[-85.8575,39.3493],[-85.8541,39.3495],[-85.6845,39.35],[-85.6873,39.1901],[-85.6872,39.189],[-85.6873,39.1856],[-85.6868,39.1309],[-85.7998,39.1289],[-85.7988,39.0685],[-85.8606,39.0409],[-86.0803,39.0503],[-86.0803,39.1525],[-86.0856,39.3442],[-86.0815,39.3444],[-85.952,39.3474]]]}},{"type":"Feature","id":"18007","properties":{"name":"Benton","fips":"18007"},"geometry":{"type":"Polygon","coordinates":[[[-87.0984,40.7365],[-87.0968,40.7365],[-87.0954,40.5629],[-87.0937,40.4757],[-87.5265,40.4769],[-87.5265,40.4772],[-87.5264,40.4912],[-87.5264,40.4916],[-87.5264,40.5351],[-87.5263,40.5354],[-87.5261,40.7369],[-87.2673,40.7366],[-87.0984,40.7365]]]}},{"type":"Feature","id":"18009","properties":{"name":"Blackford","fips":"18009"},"geometry":{"type":"Polygon","coordinates":[[[-85.2199,40.379],[-85.4443,40.3791],[-85.447,40.5669],[-85.2011,40.5672],[-85.2068,40.3792],[-85.2199,40.379]]]}},{"type":"Feature","id":"18011","properties":{"name":"Boone","fips":"18011"},"geometry":{"type":"Polygon","coordinates":[[[-86.2424,40.1808],[-86.2397,39.9261],[-86.2411,39.9261],[-86.2633,39.9249],[-86.3263,39.924],[-86.6951,39.9228],[-86.6958,40.1787],[-86.3988,40.1772],[-86.2424,40.1808]]]}},{"type":"Feature","id":"18013","properties":{"name":"Brown","fips":"18013"},"geometry":{"type":"Polygon","coordinates":[[[-86.0856,39.3442],[-86.0803,39.1525],[-86.0803,39.0503],[-86.3181,39.0488],[-86.3701,39.0484],[-86.3814,39.3398],[-86.2517,39.3417],[-86.0856,39.3442]]]}},{"type":"Feature","id":"18015","properties":{"name":"Carroll","fips":"18015"},"geometry":{"type":"Polygon","coordinates":[[[-86.7713,40.5621],[-86.7478,40.7375],[-86.6971,40.7371],[-86.6781,40.7369],[-86.678,40.7368],[-86.5817,40.7358],[-86.5252,40.6924],[-86.3735,40.6925],[-86.3744,40.5614],[-86.3758,40.4319],[-86.6947,40.4322],[-86.6954,40.5619],[-86.7713,40.5621]]]}},{"type":"Feature","id":"18017","properties":{"name":"Cass","fips":"18017"},"geometry":{"type":"Polygon","coordinates":[[[-86.165,40.5626],[-86.184,40.5625],[-86.3744,40.5614],[-86.3735,40.6925],[-86.5252,40.6924],[-86.5817,40.7358],[-86.5815,40.9109],[-86.4685,40.9099],[-86.169,40.9098],[-86.165,40.5626]]]}},{"type":"Feature","id":"18019","properties":{"name":"Clark","fips":"18019"},"geometry":{"type":"Polygon","coordinates":[[[-85.638,38.3803],[-85.6388,38.3614],[-85.6536,38.3271],[-85.675,38.3013],[-85.6836,38.2955],[-85.7449,38.2672],[-85.751,38.2679],[-85.7611,38.2726],[-85.7666,38.2777],[-85.766,38.2805],[-85.7734,38.2862],[-85.781,38.2885],[-85.7916,38.2886],[-85.7916,38.2886],[-85.7608,38.3502],[-85.8077,38.4044],[-85.9946,38.4183],[-85.9933,38.4885],[-85.8848,38.5035],[-85.8479,38.5613],[-85.7936,38.6048],[-85.57,38.6062],[-85.4275,38.5867],[-85.4158,38.5636],[-85.4156,38.5463],[-85.4173,38.5408],[-85.4231,38.5316],[-85.4329,38.5241],[-85.4331,38.5239],[-85.4625,38.5126],[-85.6076,38.4393],[-85.6205,38.4231],[-85.6329,38.3957],[-85.638,38.3803],[-85.638,38.3803]]]}},{"type":"Feature","id":"18021","properties":{"name":"Clay","fips":"18021"},"geometry":{"type":"Polygon","coordinates":[[[-87.2407,39.1718],[-87.2404,39.2591],[-87.239,39.5206],[-87.199,39.6071],[-87.0131,39.6048],[-87.0145,39.4736],[-86.94,39.4733],[-86.9425,39.342],[-87.0536,39.3426],[-87.0546,39.1681],[-87.0683,39.168],[-87.2407,39.1718]]]}},{"type":"Feature","id":"18023","properties":{"name":"Clinton","fips":"18023"},"geometry":{"type":"Polygon","coordinates":[[[-86.2427,40.2158],[-86.2424,40.1808],[-86.3988,40.1772],[-86.6958,40.1787],[-86.6956,40.2144],[-86.6947,40.4322],[-86.3758,40.4319],[-86.243,40.3737],[-86.2427,40.2158]]]}},{"type":"Feature","id":"18025","properties":{"name":"Crawford","fips":"18025"},"geometry":{"type":"Polygon","coordinates":[[[-86.3235,38.139],[-86.3268,38.1346],[-86.3326,38.1301],[-86.3987,38.1062],[-86.4265,38.0818],[-86.4604,38.2068],[-86.5717,38.2075],[-86.5701,38.2663],[-86.6795,38.2631],[-86.6814,38.3948],[-86.3089,38.3941],[-86.3087,38.4229],[-86.255,38.4227],[-86.3143,38.1426],[-86.3235,38.139]]]}},{"type":"Feature","id":"18027","properties":{"name":"Daviess","fips":"18027"},"geometry":{"type":"Polygon","coordinates":[[[-87.2421,38.5449],[-87.2793,38.6933],[-87.2415,38.8175],[-87.1922,38.8147],[-87.0988,38.904],[-87.0313,38.9025],[-86.9043,38.9042],[-86.9229,38.8172],[-86.9242,38.5054],[-87.0724,38.5147],[-87.2421,38.5449]]]}},{"type":"Feature","id":"18033","properties":{"name":"DeKalb","fips":"18033"},"geometry":{"type":"Polygon","coordinates":[[[-84.804,41.426],[-84.804,41.4117],[-84.804,41.4084],[-84.8041,41.4083],[-84.8039,41.368],[-84.8036,41.2713],[-84.8065,41.2709],[-85.1921,41.2642],[-85.1941,41.5264],[-84.8047,41.5301],[-84.8047,41.5301],[-84.8046,41.5004],[-84.8045,41.4882],[-84.8039,41.4355],[-84.804,41.4261],[-84.804,41.426]]]}},{"type":"Feature","id":"18029","properties":{"name":"Dearborn","fips":"18029"},"geometry":{"type":"Polygon","coordinates":[[[-84.8198,39.1565],[-84.82,39.1491],[-84.8202,39.1055],[-84.8312,39.1019],[-84.8889,39.0664],[-84.8974,39.0574],[-84.8972,39.0524],[-84.8891,39.0408],[-84.8786,39.0303],[-85.1325,38.9481],[-85.0656,39.3072],[-84.9287,39.3059],[-84.8195,39.3052],[-84.8195,39.3052],[-84.8196,39.2716],[-84.8196,39.2619],[-84.8199,39.251],[-84.8198,39.2478],[-84.8198,39.2443],[-84.8198,39.1576],[-84.8198,39.1565]]]}},{"type":"Feature","id":"18031","properties":{"name":"Decatur","fips":"18031"},"geometry":{"type":"Polygon","coordinates":[[[-85.6868,39.1309],[-85.6873,39.1856],[-85.6872,39.189],[-85.6873,39.1901],[-85.6845,39.35],[-85.6306,39.3502],[-85.6293,39.4528],[-85.2976,39.4533],[-85.2965,39.2683],[-85.4379,39.1971],[-85.4401,39.1956],[-85.5663,39.1328],[-85.6868,39.1309]]]}},{"type":"Feature","id":"18035","properties":{"name":"Delaware","fips":"18035"},"geometry":{"type":"Polygon","coordinates":[[[-85.4443,40.3791],[-85.2199,40.379],[-85.22,40.375],[-85.2188,40.3067],[-85.2144,40.0769],[-85.216,40.0768],[-85.5762,40.0771],[-85.5786,40.3795],[-85.5523,40.3787],[-85.4443,40.3791]]]}},{"type":"Feature","id":"18037","properties":{"name":"Dubois","fips":"18037"},"geometry":{"type":"Polygon","coordinates":[[[-86.6795,38.2631],[-86.7922,38.2491],[-86.7915,38.2051],[-87.0175,38.2036],[-87.0731,38.2038],[-87.0731,38.2326],[-87.0724,38.5147],[-86.9242,38.5054],[-86.6824,38.5264],[-86.6814,38.3948],[-86.6795,38.2631]]]}},{"type":"Feature","id":"18039","properties":{"name":"Elkhart","fips":"18039"},"geometry":{"type":"Polygon","coordinates":[[[-85.7913,41.7591],[-85.775,41.7591],[-85.7505,41.7591],[-85.75,41.7591],[-85.7245,41.7591],[-85.6598,41.7591],[-85.6547,41.5233],[-85.6543,41.5157],[-85.6535,41.4369],[-86.0592,41.4358],[-86.0592,41.4428],[-86.0591,41.4452],[-86.0595,41.4792],[-86.0607,41.6084],[-86.0605,41.609],[-86.0626,41.7603],[-86.0037,41.76],[-85.9913,41.7599],[-85.975,41.7598],[-85.9749,41.7598],[-85.8888,41.7594],[-85.875,41.7593],[-85.872,41.7594],[-85.7914,41.7591],[-85.7913,41.7591]]]}},{"type":"Feature","id":"18041","properties":{"name":"Fayette","fips":"18041"},"geometry":{"type":"Polygon","coordinates":[[[-85.0361,39.5262],[-85.2981,39.5255],[-85.3016,39.7876],[-85.2211,39.7884],[-85.1851,39.7155],[-85.0346,39.7148],[-85.0361,39.5262]]]}},{"type":"Feature","id":"18043","properties":{"name":"Floyd","fips":"18043"},"geometry":{"type":"Polygon","coordinates":[[[-85.8162,38.283],[-85.8238,38.2806],[-85.8294,38.2768],[-85.8977,38.1843],[-85.8996,38.1803],[-86.0326,38.3307],[-86.0328,38.4179],[-86.0144,38.4187],[-86.0141,38.4191],[-85.9946,38.4183],[-85.8077,38.4044],[-85.7608,38.3502],[-85.7916,38.2886],[-85.8162,38.283]]]}},{"type":"Feature","id":"18045","properties":{"name":"Fountain","fips":"18045"},"geometry":{"type":"Polygon","coordinates":[[[-87.092,40.1713],[-87.09,39.9536],[-87.091,39.953],[-87.1259,39.9531],[-87.1261,39.953],[-87.1787,39.9533],[-87.1794,39.953],[-87.1901,39.9531],[-87.1903,39.9534],[-87.2041,39.9533],[-87.4202,39.9525],[-87.4067,40.1275],[-87.4388,40.1657],[-87.3393,40.2232],[-87.3119,40.25],[-87.2942,40.258],[-87.2449,40.3093],[-87.0921,40.3666],[-87.0926,40.2148],[-87.092,40.1713]]]}},{"type":"Feature","id":"18047","properties":{"name":"Franklin","fips":"18047"},"geometry":{"type":"Polygon","coordinates":[[[-84.8156,39.5111],[-84.8156,39.511],[-84.8158,39.4774],[-84.8158,39.4774],[-84.8175,39.3918],[-84.8194,39.3095],[-84.8195,39.3052],[-84.9287,39.3059],[-85.0656,39.3072],[-85.2179,39.3085],[-85.2965,39.2683],[-85.2976,39.4533],[-85.2986,39.5203],[-85.2981,39.5255],[-85.0361,39.5262],[-84.8154,39.5219],[-84.8156,39.5111]]]}},{"type":"Feature","id":"18049","properties":{"name":"Fulton","fips":"18049"},"geometry":{"type":"Polygon","coordinates":[[[-85.9456,41.0429],[-85.9454,41.0001],[-85.9464,40.9992],[-86.1685,40.9961],[-86.169,40.9098],[-86.4685,40.9099],[-86.467,41.1714],[-86.0776,41.1729],[-86.0759,41.0849],[-85.9456,41.0429]]]}},{"type":"Feature","id":"18051","properties":{"name":"Gibson","fips":"18051"},"geometry":{"type":"Polygon","coordinates":[[[-87.4629,38.5335],[-87.4076,38.3755],[-87.316,38.3753],[-87.3169,38.2461],[-87.317,38.2018],[-87.4667,38.2013],[-87.4673,38.1654],[-87.6884,38.1684],[-87.7992,38.2286],[-87.9553,38.23],[-87.9517,38.2396],[-87.924,38.2584],[-87.863,38.2802],[-87.75,38.403],[-87.74,38.4157],[-87.5993,38.4507],[-87.4629,38.5335]]]}},{"type":"Feature","id":"18053","properties":{"name":"Grant","fips":"18053"},"geometry":{"type":"Polygon","coordinates":[[[-85.8636,40.5655],[-85.8648,40.6517],[-85.8571,40.6514],[-85.6386,40.6531],[-85.4488,40.6536],[-85.449,40.6513],[-85.447,40.5669],[-85.4443,40.3791],[-85.5523,40.3787],[-85.5786,40.3795],[-85.5879,40.3798],[-85.8623,40.3784],[-85.8621,40.4069],[-85.8636,40.5655]]]}},{"type":"Feature","id":"18055","properties":{"name":"Greene","fips":"18055"},"geometry":{"type":"Polygon","coordinates":[[[-87.241,38.9079],[-87.2407,39.1718],[-87.0683,39.168],[-87.0546,39.1681],[-86.683,39.1657],[-86.6823,38.9924],[-86.6829,38.9047],[-86.9043,38.9042],[-87.0313,38.9025],[-87.0988,38.904],[-87.241,38.9079]]]}},{"type":"Feature","id":"18057","properties":{"name":"Hamilton","fips":"18057"},"geometry":{"type":"Polygon","coordinates":[[[-86.1722,39.9269],[-86.2397,39.9261],[-86.2424,40.1808],[-86.2427,40.2158],[-85.8619,40.2189],[-85.8625,39.9436],[-85.8624,39.9289],[-85.9376,39.9271],[-86.1722,39.9269]]]}},{"type":"Feature","id":"18059","properties":{"name":"Hancock","fips":"18059"},"geometry":{"type":"Polygon","coordinates":[[[-85.9381,39.8872],[-85.9381,39.9232],[-85.9376,39.9271],[-85.8624,39.9289],[-85.8625,39.9436],[-85.5762,39.9458],[-85.5969,39.7865],[-85.6335,39.7862],[-85.6332,39.6985],[-85.9517,39.6971],[-85.9517,39.7264],[-85.9381,39.8872]]]}},{"type":"Feature","id":"18061","properties":{"name":"Harrison","fips":"18061"},"geometry":{"type":"Polygon","coordinates":[[[-85.8996,38.1803],[-85.9088,38.1612],[-85.9095,38.1401],[-85.9052,38.1111],[-85.9046,38.1003],[-85.9062,38.0862],[-85.9116,38.0669],[-85.9224,38.0287],[-85.9302,38.0183],[-85.9414,38.0098],[-85.948,38.0071],[-85.9515,38.0056],[-85.9986,37.9978],[-86.0295,37.9926],[-86.1722,38.0099],[-86.179,38.0113],[-86.2204,38.0279],[-86.2669,38.0571],[-86.2736,38.0674],[-86.2787,38.0893],[-86.278,38.1024],[-86.2712,38.1301],[-86.284,38.1432],[-86.3097,38.1444],[-86.3143,38.1426],[-86.255,38.4227],[-86.0328,38.4179],[-86.0326,38.3307],[-85.8996,38.1803]]]}},{"type":"Feature","id":"18063","properties":{"name":"Hendricks","fips":"18063"},"geometry":{"type":"Polygon","coordinates":[[[-86.3266,39.6829],[-86.3263,39.6322],[-86.4656,39.6008],[-86.6566,39.6014],[-86.6874,39.6304],[-86.6951,39.8648],[-86.6951,39.9228],[-86.3263,39.924],[-86.3266,39.6829]]]}},{"type":"Feature","id":"18065","properties":{"name":"Henry","fips":"18065"},"geometry":{"type":"Polygon","coordinates":[[[-85.5762,39.9458],[-85.5762,40.0771],[-85.216,40.0768],[-85.2144,40.0769],[-85.2135,40.0044],[-85.2015,40.0045],[-85.2211,39.7884],[-85.3016,39.7876],[-85.5969,39.7865],[-85.5762,39.9458]]]}},{"type":"Feature","id":"18067","properties":{"name":"Howard","fips":"18067"},"geometry":{"type":"Polygon","coordinates":[[[-86.184,40.5625],[-86.165,40.5626],[-86.1274,40.5631],[-85.8636,40.5655],[-85.8621,40.4069],[-86.2428,40.4029],[-86.243,40.3737],[-86.3758,40.4319],[-86.3744,40.5614],[-86.184,40.5625]]]}},{"type":"Feature","id":"18069","properties":{"name":"Huntington","fips":"18069"},"geometry":{"type":"Polygon","coordinates":[[[-85.6438,41.0023],[-85.3356,41.0052],[-85.3354,41.002],[-85.336,40.9171],[-85.3347,40.6544],[-85.4488,40.6536],[-85.6386,40.6531],[-85.6438,41.0023]]]}},{"type":"Feature","id":"18071","properties":{"name":"Jackson","fips":"18071"},"geometry":{"type":"Polygon","coordinates":[[[-85.8883,38.7344],[-86.0917,38.7834],[-86.2753,38.7638],[-86.2804,38.991],[-86.3175,38.9909],[-86.3174,39.0001],[-86.3178,39.0027],[-86.3181,39.0488],[-86.0803,39.0503],[-85.8606,39.0409],[-85.7988,39.0685],[-85.7954,38.8075],[-85.8883,38.7344]]]}},{"type":"Feature","id":"18073","properties":{"name":"Jasper","fips":"18073"},"geometry":{"type":"Polygon","coordinates":[[[-87.2189,41.242],[-87.1317,41.2862],[-86.9681,41.2197],[-86.9301,41.2368],[-86.9296,41.2297],[-86.9302,41.1723],[-86.9303,41.1709],[-86.9308,40.9124],[-86.9864,40.8379],[-87.0998,40.8376],[-87.0984,40.7365],[-87.2673,40.7366],[-87.2759,41.2186],[-87.2264,41.2355],[-87.2189,41.242]]]}},{"type":"Feature","id":"18075","properties":{"name":"Jay","fips":"18075"},"geometry":{"type":"Polygon","coordinates":[[[-84.8041,40.3528],[-84.8039,40.3101],[-84.8039,40.3101],[-85.2188,40.3067],[-85.22,40.375],[-85.2199,40.379],[-85.2068,40.3792],[-85.2011,40.5672],[-85.0685,40.5682],[-84.8023,40.5722],[-84.8025,40.528],[-84.8031,40.4654],[-84.8041,40.3528],[-84.8041,40.3528]]]}},{"type":"Feature","id":"18077","properties":{"name":"Jefferson","fips":"18077"},"geometry":{"type":"Polygon","coordinates":[[[-85.4394,38.6104],[-85.4275,38.5867],[-85.57,38.6062],[-85.5709,38.6787],[-85.6833,38.7367],[-85.6838,38.8154],[-85.4449,38.913],[-85.2032,38.9138],[-85.2015,38.6916],[-85.2133,38.6954],[-85.2261,38.7055],[-85.2465,38.7318],[-85.2588,38.7378],[-85.2755,38.7412],[-85.2892,38.7424],[-85.3333,38.7405],[-85.4109,38.7371],[-85.422,38.7348],[-85.4341,38.7295],[-85.4521,38.7093],[-85.457,38.6891],[-85.4394,38.6104]]]}},{"type":"Feature","id":"18079","properties":{"name":"Jennings","fips":"18079"},"geometry":{"type":"Polygon","coordinates":[[[-85.6838,38.8154],[-85.7954,38.8075],[-85.7988,39.0685],[-85.7998,39.1289],[-85.6868,39.1309],[-85.5663,39.1328],[-85.4401,39.1956],[-85.4449,38.913],[-85.6838,38.8154]]]}},{"type":"Feature","id":"18081","properties":{"name":"Johnson","fips":"18081"},"geometry":{"type":"Polygon","coordinates":[[[-85.9525,39.6091],[-85.9508,39.4952],[-85.9512,39.4361],[-85.9525,39.4359],[-85.9532,39.3835],[-85.952,39.3474],[-86.0815,39.3444],[-86.0856,39.3442],[-86.2517,39.3417],[-86.2513,39.4306],[-86.2499,39.6336],[-86.2429,39.6337],[-86.0447,39.6372],[-85.9521,39.6383],[-85.9525,39.6091]]]}},{"type":"Feature","id":"18083","properties":{"name":"Knox","fips":"18083"},"geometry":{"type":"Polygon","coordinates":[[[-87.5282,38.8517],[-87.5321,38.8525],[-87.5372,38.8536],[-87.5505,38.8596],[-87.5534,38.8633],[-87.5408,38.8964],[-87.5281,38.908],[-87.241,38.9079],[-87.0988,38.904],[-87.1922,38.8147],[-87.2415,38.8175],[-87.2793,38.6933],[-87.2421,38.5449],[-87.4629,38.5335],[-87.5993,38.4507],[-87.74,38.4157],[-87.6561,38.5217],[-87.6692,38.5417],[-87.6701,38.5452],[-87.6515,38.5682],[-87.6273,38.6072],[-87.6201,38.6395],[-87.6002,38.6625],[-87.5937,38.6674],[-87.5794,38.6725],[-87.5401,38.6791],[-87.5312,38.684],[-87.5196,38.6972],[-87.4985,38.759],[-87.4952,38.7831],[-87.5259,38.8488],[-87.5282,38.8517]]]}},{"type":"Feature","id":"18085","properties":{"name":"Kosciusko","fips":"18085"},"geometry":{"type":"Polygon","coordinates":[[[-85.6519,41.2948],[-85.6866,41.1784],[-85.6842,41.0467],[-85.9273,41.0426],[-85.9456,41.0429],[-86.0759,41.0849],[-86.0776,41.1729],[-86.054,41.1731],[-86.0592,41.4358],[-85.6535,41.4369],[-85.6519,41.2948]]]}},{"type":"Feature","id":"18087","properties":{"name":"LaGrange","fips":"18087"},"geometry":{"type":"Polygon","coordinates":[[[-85.6598,41.7591],[-85.6507,41.7591],[-85.6477,41.7591],[-85.6327,41.7592],[-85.625,41.7591],[-85.6226,41.759],[-85.6083,41.7592],[-85.6075,41.7591],[-85.5183,41.7595],[-85.516,41.7594],[-85.4325,41.7597],[-85.4276,41.7597],[-85.3791,41.7599],[-85.3502,41.7599],[-85.3306,41.76],[-85.3181,41.76],[-85.3081,41.7601],[-85.2984,41.76],[-85.2922,41.76],[-85.2921,41.76],[-85.2737,41.7598],[-85.273,41.7599],[-85.2722,41.76],[-85.2328,41.7598],[-85.1968,41.7597],[-85.1941,41.5264],[-85.6547,41.5233],[-85.6598,41.7591]]]}},{"type":"Feature","id":"18091","properties":{"name":"LaPorte","fips":"18091"},"geometry":{"type":"Polygon","coordinates":[[[-86.8248,41.7602],[-86.8236,41.7602],[-86.8044,41.7602],[-86.8016,41.7602],[-86.8007,41.7602],[-86.8006,41.7603],[-86.7481,41.76],[-86.7465,41.76],[-86.6412,41.7596],[-86.64,41.7597],[-86.5242,41.7595],[-86.5267,41.6504],[-86.4864,41.5705],[-86.5247,41.4329],[-86.7006,41.402],[-86.7835,41.2855],[-86.9301,41.2368],[-86.9301,41.4497],[-86.9294,41.4632],[-86.9327,41.711],[-86.9091,41.7269],[-86.8754,41.7379],[-86.8248,41.7602]]]}},{"type":"Feature","id":"18089","properties":{"name":"Lake","fips":"18089"},"geometry":{"type":"Polygon","coordinates":[[[-87.5268,41.2982],[-87.5256,41.4536],[-87.5257,41.4701],[-87.5257,41.4703],[-87.5246,41.5633],[-87.5246,41.6225],[-87.5247,41.6324],[-87.5246,41.6349],[-87.5248,41.6916],[-87.5249,41.7026],[-87.524,41.7083],[-87.5205,41.7099],[-87.5152,41.7042],[-87.511,41.6965],[-87.5053,41.6915],[-87.4707,41.6728],[-87.4631,41.6755],[-87.453,41.673],[-87.4461,41.6693],[-87.442,41.6719],[-87.4385,41.6707],[-87.4372,41.669],[-87.4348,41.6669],[-87.433,41.6651],[-87.4324,41.6605],[-87.4389,41.6543],[-87.4298,41.646],[-87.4234,41.6428],[-87.3945,41.6372],[-87.3654,41.6295],[-87.3243,41.623],[-87.2876,41.6222],[-87.2784,41.6197],[-87.2615,41.6203],[-87.2226,41.6242],[-87.2189,41.242],[-87.2264,41.2355],[-87.2759,41.2186],[-87.4144,41.1622],[-87.5266,41.1661],[-87.5268,41.2981],[-87.5268,41.2982]]]}},{"type":"Feature","id":"18093","properties":{"name":"Lawrence","fips":"18093"},"geometry":{"type":"Polygon","coordinates":[[[-86.5735,38.9921],[-86.3175,38.9909],[-86.2804,38.991],[-86.2753,38.7638],[-86.3087,38.6881],[-86.6831,38.6866],[-86.6829,38.9047],[-86.6823,38.9924],[-86.5735,38.9921]]]}},{"type":"Feature","id":"18095","properties":{"name":"Madison","fips":"18095"},"geometry":{"type":"Polygon","coordinates":[[[-85.5762,39.9458],[-85.8625,39.9436],[-85.8619,40.2189],[-85.8612,40.2253],[-85.8623,40.3784],[-85.5879,40.3798],[-85.5786,40.3795],[-85.5762,40.0771],[-85.5762,39.9458]]]}},{"type":"Feature","id":"18097","properties":{"name":"Marion","fips":"18097"},"geometry":{"type":"Polygon","coordinates":[[[-85.9376,39.9271],[-85.9381,39.9232],[-85.9381,39.8872],[-85.9517,39.7264],[-85.9517,39.6971],[-85.9521,39.6383],[-86.0447,39.6372],[-86.2429,39.6337],[-86.2499,39.6336],[-86.2685,39.633],[-86.2692,39.6333],[-86.3263,39.6322],[-86.3266,39.6829],[-86.3263,39.924],[-86.2633,39.9249],[-86.2411,39.9261],[-86.2397,39.9261],[-86.1722,39.9269],[-85.9376,39.9271]]]}},{"type":"Feature","id":"18099","properties":{"name":"Marshall","fips":"18099"},"geometry":{"type":"Polygon","coordinates":[[[-86.0592,41.4358],[-86.054,41.1731],[-86.0776,41.1729],[-86.467,41.1714],[-86.4666,41.433],[-86.4671,41.4765],[-86.0595,41.4792],[-86.0591,41.4452],[-86.0592,41.4428],[-86.0592,41.4358]]]}},{"type":"Feature","id":"18101","properties":{"name":"Martin","fips":"18101"},"geometry":{"type":"Polygon","coordinates":[[[-86.6824,38.5264],[-86.9242,38.5054],[-86.9229,38.8172],[-86.9043,38.9042],[-86.6829,38.9047],[-86.6831,38.6866],[-86.6824,38.5264]]]}},{"type":"Feature","id":"18103","properties":{"name":"Miami","fips":"18103"},"geometry":{"type":"Polygon","coordinates":[[[-85.8648,40.6517],[-85.8636,40.5655],[-86.1274,40.5631],[-86.165,40.5626],[-86.169,40.9098],[-86.1685,40.9961],[-85.9464,40.9992],[-85.9395,40.651],[-85.8648,40.6517]]]}},{"type":"Feature","id":"18105","properties":{"name":"Monroe","fips":"18105"},"geometry":{"type":"Polygon","coordinates":[[[-86.5735,38.9921],[-86.6823,38.9924],[-86.683,39.1657],[-86.6856,39.336],[-86.6308,39.3469],[-86.6308,39.3408],[-86.5743,39.3397],[-86.3814,39.3398],[-86.3701,39.0484],[-86.3181,39.0488],[-86.3178,39.0027],[-86.3174,39.0001],[-86.3175,38.9909],[-86.5735,38.9921]]]}},{"type":"Feature","id":"18107","properties":{"name":"Montgomery","fips":"18107"},"geometry":{"type":"Polygon","coordinates":[[[-87.091,39.953],[-87.09,39.9536],[-87.092,40.1713],[-87.0926,40.2148],[-86.6956,40.2144],[-86.6958,40.1787],[-86.6951,39.9228],[-86.6951,39.8648],[-87.0095,39.8667],[-87.0915,39.8673],[-87.091,39.953]]]}},{"type":"Feature","id":"18109","properties":{"name":"Morgan","fips":"18109"},"geometry":{"type":"Polygon","coordinates":[[[-86.2499,39.6336],[-86.2513,39.4306],[-86.2517,39.3417],[-86.3814,39.3398],[-86.5743,39.3397],[-86.6308,39.3408],[-86.6308,39.3469],[-86.6322,39.4702],[-86.6857,39.4701],[-86.6566,39.6014],[-86.4656,39.6008],[-86.3263,39.6322],[-86.2692,39.6333],[-86.2685,39.633],[-86.2499,39.6336]]]}},{"type":"Feature","id":"18111","properties":{"name":"Newton","fips":"18111"},"geometry":{"type":"Polygon","coordinates":[[[-87.2759,41.2186],[-87.2673,40.7366],[-87.5261,40.7369],[-87.5261,40.737],[-87.5258,40.8544],[-87.5261,40.8797],[-87.526,40.8806],[-87.5264,40.8942],[-87.5261,40.9119],[-87.5263,41.0103],[-87.5263,41.0104],[-87.5263,41.0106],[-87.5265,41.0248],[-87.5267,41.1215],[-87.5267,41.1397],[-87.5267,41.1492],[-87.5267,41.154],[-87.5267,41.1594],[-87.5267,41.1601],[-87.5266,41.1639],[-87.5266,41.1661],[-87.4144,41.1622],[-87.2759,41.2186]]]}},{"type":"Feature","id":"18113","properties":{"name":"Noble","fips":"18113"},"geometry":{"type":"Polygon","coordinates":[[[-85.6535,41.4369],[-85.6543,41.5157],[-85.6547,41.5233],[-85.1941,41.5264],[-85.1921,41.2642],[-85.3078,41.2642],[-85.5372,41.2662],[-85.6519,41.2948],[-85.6535,41.4369]]]}},{"type":"Feature","id":"18115","properties":{"name":"Ohio","fips":"18115"},"geometry":{"type":"Polygon","coordinates":[[[-84.8494,39.0009],[-84.8132,38.9306],[-84.8707,38.9009],[-85.1403,38.9032],[-85.1358,38.9296],[-85.1325,38.9481],[-84.8786,39.0303],[-84.8494,39.0009]]]}},{"type":"Feature","id":"18117","properties":{"name":"Orange","fips":"18117"},"geometry":{"type":"Polygon","coordinates":[[[-86.3087,38.4229],[-86.3089,38.3941],[-86.6814,38.3948],[-86.6824,38.5264],[-86.6831,38.6866],[-86.3087,38.6881],[-86.3079,38.673],[-86.3087,38.4229]]]}},{"type":"Feature","id":"18119","properties":{"name":"Owen","fips":"18119"},"geometry":{"type":"Polygon","coordinates":[[[-86.683,39.1657],[-87.0546,39.1681],[-87.0536,39.3426],[-86.9425,39.342],[-86.94,39.4733],[-86.6857,39.4701],[-86.6322,39.4702],[-86.6308,39.3469],[-86.6856,39.336],[-86.683,39.1657]]]}},{"type":"Feature","id":"18121","properties":{"name":"Parke","fips":"18121"},"geometry":{"type":"Polygon","coordinates":[[[-87.4202,39.9525],[-87.2041,39.9533],[-87.1903,39.9534],[-87.1901,39.9531],[-87.1794,39.953],[-87.1787,39.9533],[-87.1261,39.953],[-87.1259,39.9531],[-87.091,39.953],[-87.0915,39.8673],[-87.0095,39.8667],[-87.0131,39.6048],[-87.199,39.6071],[-87.3824,39.6079],[-87.3956,39.6529],[-87.3539,39.8621],[-87.4202,39.9525]]]}},{"type":"Feature","id":"18123","properties":{"name":"Perry","fips":"18123"},"geometry":{"type":"Polygon","coordinates":[[[-86.6553,37.8425],[-86.6603,37.8651],[-86.7092,37.8976],[-86.7185,37.8931],[-86.7235,37.8928],[-86.7315,37.8943],[-86.7409,37.9026],[-86.751,37.9129],[-86.7702,37.9403],[-86.7877,37.9714],[-86.795,37.989],[-86.8148,37.9986],[-86.7724,37.9982],[-86.7915,38.2051],[-86.7922,38.2491],[-86.6795,38.2631],[-86.5701,38.2663],[-86.5717,38.2075],[-86.4604,38.2068],[-86.4265,38.0818],[-86.4301,38.0786],[-86.4328,38.0672],[-86.4382,38.0604],[-86.4522,38.0505],[-86.4669,38.0466],[-86.4909,38.0458],[-86.4909,38.0458],[-86.5118,38.0444],[-86.5173,38.0426],[-86.5218,38.0383],[-86.525,38.0279],[-86.5252,37.9682],[-86.6046,37.8583],[-86.6343,37.8438],[-86.648,37.8414],[-86.6553,37.8425],[-86.6553,37.8425]]]}},{"type":"Feature","id":"18125","properties":{"name":"Pike","fips":"18125"},"geometry":{"type":"Polygon","coordinates":[[[-87.3169,38.2461],[-87.316,38.3753],[-87.4076,38.3755],[-87.4629,38.5335],[-87.2421,38.5449],[-87.0724,38.5147],[-87.0731,38.2326],[-87.3169,38.2461]]]}},{"type":"Feature","id":"18127","properties":{"name":"Porter","fips":"18127"},"geometry":{"type":"Polygon","coordinates":[[[-86.9327,41.711],[-86.9294,41.4632],[-86.9301,41.4497],[-86.9301,41.2368],[-86.9681,41.2197],[-87.1317,41.2862],[-87.2189,41.242],[-87.2226,41.6242],[-87.2207,41.6244],[-87.1877,41.6297],[-87.1606,41.6373],[-87.1608,41.6454],[-87.1258,41.6503],[-87.1203,41.6457],[-87.066,41.6618],[-87.0279,41.6747],[-87.0096,41.6815],[-86.9348,41.7096],[-86.9327,41.711]]]}},{"type":"Feature","id":"18129","properties":{"name":"Posey","fips":"18129"},"geometry":{"type":"Polygon","coordinates":[[[-87.7004,37.9009],[-87.7623,37.8909],[-87.7836,37.8778],[-87.7909,37.8757],[-87.8306,37.8765],[-87.8412,37.8823],[-87.8572,37.9006],[-87.8656,37.9151],[-87.8725,37.921],[-87.8833,37.9262],[-87.8981,37.9275],[-87.9048,37.9249],[-87.9274,37.902],[-87.9368,37.8926],[-87.9401,37.8877],[-87.9408,37.8833],[-87.94,37.875],[-87.9362,37.8679],[-87.9273,37.8587],[-87.9149,37.8496],[-87.9103,37.8434],[-87.9078,37.8376],[-87.9038,37.8178],[-87.9068,37.8076],[-87.9438,37.7768],[-87.9709,37.7835],[-87.9764,37.788],[-88.0047,37.8001],[-88.0173,37.8019],[-88.028,37.7992],[-88.0278,37.8283],[-88.0495,37.8452],[-88.0714,37.8958],[-88.0554,37.8912],[-88.0211,37.8881],[-88.0171,37.8892],[-88.0135,37.894],[-88.0126,37.9771],[-88.0415,38.0373],[-88.0421,38.0463],[-88.0131,38.1035],[-87.9743,38.122],[-87.9422,38.1318],[-87.9278,38.1415],[-87.911,38.1622],[-87.9108,38.1677],[-87.9157,38.1733],[-87.9289,38.1768],[-87.9407,38.1813],[-87.9513,38.1931],[-87.9591,38.2037],[-87.9611,38.2147],[-87.9553,38.23],[-87.7992,38.2286],[-87.6884,38.1684],[-87.7004,37.9009]]]}},{"type":"Feature","id":"18131","properties":{"name":"Pulaski","fips":"18131"},"geometry":{"type":"Polygon","coordinates":[[[-86.7759,40.9125],[-86.9308,40.9124],[-86.9303,41.1709],[-86.9302,41.1723],[-86.467,41.1714],[-86.4685,40.9099],[-86.5815,40.9109],[-86.7759,40.9125]]]}},{"type":"Feature","id":"18133","properties":{"name":"Putnam","fips":"18133"},"geometry":{"type":"Polygon","coordinates":[[[-87.0131,39.6048],[-87.0095,39.8667],[-86.6951,39.8648],[-86.6874,39.6304],[-86.6566,39.6014],[-86.6857,39.4701],[-86.94,39.4733],[-87.0145,39.4736],[-87.0131,39.6048]]]}},{"type":"Feature","id":"18135","properties":{"name":"Randolph","fips":"18135"},"geometry":{"type":"Polygon","coordinates":[[[-84.8039,40.3101],[-84.8041,40.3025],[-84.8056,40.2237],[-84.8062,40.198],[-84.8063,40.1923],[-84.8063,40.1923],[-84.8068,40.1801],[-84.8083,40.129],[-84.8083,40.127],[-84.8087,40.1072],[-84.8097,40.0489],[-84.8101,40.0342],[-84.8107,40.0051],[-85.2015,40.0045],[-85.2135,40.0044],[-85.2144,40.0769],[-85.2188,40.3067],[-84.8039,40.3101]]]}},{"type":"Feature","id":"18137","properties":{"name":"Ripley","fips":"18137"},"geometry":{"type":"Polygon","coordinates":[[[-85.2965,39.2683],[-85.2179,39.3085],[-85.0656,39.3072],[-85.1325,38.9481],[-85.1358,38.9296],[-85.2028,38.9285],[-85.2032,38.9138],[-85.4449,38.913],[-85.4401,39.1956],[-85.4379,39.1971],[-85.2965,39.2683]]]}},{"type":"Feature","id":"18139","properties":{"name":"Rush","fips":"18139"},"geometry":{"type":"Polygon","coordinates":[[[-85.2981,39.5255],[-85.2986,39.5203],[-85.2976,39.4533],[-85.6293,39.4528],[-85.6325,39.6975],[-85.6332,39.6985],[-85.6335,39.7862],[-85.5969,39.7865],[-85.3016,39.7876],[-85.2981,39.5255]]]}},{"type":"Feature","id":"18143","properties":{"name":"Scott","fips":"18143"},"geometry":{"type":"Polygon","coordinates":[[[-85.57,38.6062],[-85.7936,38.6048],[-85.8479,38.5613],[-85.8856,38.5754],[-85.8883,38.7344],[-85.7954,38.8075],[-85.6838,38.8154],[-85.6833,38.7367],[-85.5709,38.6787],[-85.57,38.6062]]]}},{"type":"Feature","id":"18145","properties":{"name":"Shelby","fips":"18145"},"geometry":{"type":"Polygon","coordinates":[[[-85.6845,39.35],[-85.8541,39.3495],[-85.8575,39.3493],[-85.952,39.3474],[-85.9532,39.3835],[-85.9525,39.4359],[-85.9512,39.4361],[-85.9508,39.4952],[-85.9525,39.6091],[-85.9521,39.6383],[-85.9517,39.6971],[-85.6332,39.6985],[-85.6325,39.6975],[-85.6293,39.4528],[-85.6306,39.3502],[-85.6845,39.35]]]}},{"type":"Feature","id":"18147","properties":{"name":"Spencer","fips":"18147"},"geometry":{"type":"Polygon","coordinates":[[[-86.8148,37.9986],[-86.8153,37.9989],[-86.8235,37.9989],[-86.856,37.9873],[-86.885,37.9644],[-86.9024,37.9462],[-86.9193,37.9367],[-86.9788,37.9302],[-86.979,37.9302],[-87.0103,37.9197],[-87.0334,37.9066],[-87.0422,37.8983],[-87.0462,37.8899],[-87.0434,37.8799],[-87.0439,37.8708],[-87.0578,37.8275],[-87.0678,37.8061],[-87.0774,37.7962],[-87.0906,37.7878],[-87.1111,37.7825],[-87.1192,37.7828],[-87.1287,37.7857],[-87.1326,37.791],[-87.2022,37.8438],[-87.2629,37.8728],[-87.2696,37.8772],[-87.268,37.9248],[-87.0723,38.1183],[-87.0175,38.1183],[-87.0175,38.2036],[-86.7915,38.2051],[-86.7724,37.9982],[-86.8148,37.9986]]]}},{"type":"Feature","id":"18141","properties":{"name":"St. Joseph","fips":"18141"},"geometry":{"type":"Polygon","coordinates":[[[-86.5242,41.7595],[-86.5193,41.7594],[-86.5018,41.7596],[-86.2655,41.7602],[-86.2261,41.76],[-86.2261,41.76],[-86.2176,41.76],[-86.1278,41.7606],[-86.1255,41.7606],[-86.1251,41.7606],[-86.0626,41.7603],[-86.0605,41.609],[-86.0607,41.6084],[-86.0595,41.4792],[-86.4671,41.4765],[-86.4666,41.433],[-86.4889,41.433],[-86.4908,41.4329],[-86.519,41.4329],[-86.5198,41.4328],[-86.5247,41.4329],[-86.4864,41.5705],[-86.5267,41.6504],[-86.5242,41.7595]]]}},{"type":"Feature","id":"18149","properties":{"name":"Starke","fips":"18149"},"geometry":{"type":"Polygon","coordinates":[[[-86.9302,41.1723],[-86.9296,41.2297],[-86.9301,41.2368],[-86.7835,41.2855],[-86.7006,41.402],[-86.5247,41.4329],[-86.5198,41.4328],[-86.519,41.4329],[-86.4908,41.4329],[-86.4889,41.433],[-86.4666,41.433],[-86.467,41.1714],[-86.9302,41.1723]]]}},{"type":"Feature","id":"18151","properties":{"name":"Steuben","fips":"18151"},"geometry":{"type":"Polygon","coordinates":[[[-84.8251,41.76],[-84.8189,41.7601],[-84.8061,41.7431],[-84.8061,41.7376],[-84.8061,41.7329],[-84.806,41.7205],[-84.806,41.7075],[-84.8061,41.6961],[-84.8062,41.6746],[-84.8057,41.6323],[-84.8057,41.6314],[-84.8058,41.613],[-84.8047,41.5302],[-84.8047,41.5301],[-85.1941,41.5264],[-85.1968,41.7597],[-85.1966,41.7597],[-85.1722,41.7596],[-85.1231,41.7597],[-85.1173,41.7597],[-85.0394,41.76],[-85.0378,41.7598],[-84.9728,41.7594],[-84.9716,41.7595],[-84.9616,41.7596],[-84.9609,41.7594],[-84.9325,41.7597],[-84.8252,41.76],[-84.8251,41.76]]]}},{"type":"Feature","id":"18153","properties":{"name":"Sullivan","fips":"18153"},"geometry":{"type":"Polygon","coordinates":[[[-87.5279,38.9082],[-87.5188,38.9232],[-87.5122,38.9544],[-87.5726,39.0573],[-87.6149,39.1027],[-87.6587,39.136],[-87.6517,39.1506],[-87.6422,39.1571],[-87.6287,39.1574],[-87.6052,39.1859],[-87.5875,39.2493],[-87.5935,39.2475],[-87.6041,39.2595],[-87.2404,39.2591],[-87.2407,39.1718],[-87.241,38.9079],[-87.5281,38.908],[-87.5279,38.9082]]]}},{"type":"Feature","id":"18155","properties":{"name":"Switzerland","fips":"18155"},"geometry":{"type":"Polygon","coordinates":[[[-84.8132,38.9306],[-84.7895,38.8847],[-84.7851,38.88],[-84.7858,38.8695],[-84.7911,38.8559],[-84.8133,38.7983],[-84.8444,38.7871],[-84.9443,38.7752],[-84.9734,38.7788],[-84.9846,38.7791],[-84.9959,38.7768],[-85.0242,38.7633],[-85.101,38.7268],[-85.1069,38.7208],[-85.1387,38.6992],[-85.1562,38.6923],[-85.1725,38.6881],[-85.1894,38.6876],[-85.2015,38.6916],[-85.2032,38.9138],[-85.2028,38.9285],[-85.1358,38.9296],[-85.1403,38.9032],[-84.8707,38.9009],[-84.8132,38.9306]]]}},{"type":"Feature","id":"18157","properties":{"name":"Tippecanoe","fips":"18157"},"geometry":{"type":"Polygon","coordinates":[[[-87.0937,40.4757],[-87.0954,40.5629],[-86.7713,40.5621],[-86.6954,40.5619],[-86.6947,40.4322],[-86.6956,40.2144],[-87.0926,40.2148],[-87.0921,40.3666],[-87.0928,40.4751],[-87.0937,40.4757]]]}},{"type":"Feature","id":"18159","properties":{"name":"Tipton","fips":"18159"},"geometry":{"type":"Polygon","coordinates":[[[-85.8621,40.4069],[-85.8623,40.3784],[-85.8612,40.2253],[-85.8619,40.2189],[-86.2427,40.2158],[-86.243,40.3737],[-86.2428,40.4029],[-85.8621,40.4069]]]}},{"type":"Feature","id":"18161","properties":{"name":"Union","fips":"18161"},"geometry":{"type":"Polygon","coordinates":[[[-84.8141,39.7266],[-84.8141,39.7266],[-84.8145,39.6804],[-84.8146,39.6692],[-84.8147,39.6289],[-84.8152,39.5684],[-84.815,39.5677],[-84.815,39.5673],[-84.815,39.5663],[-84.8152,39.5481],[-84.8154,39.522],[-84.8154,39.5219],[-85.0361,39.5262],[-85.0346,39.7148],[-84.8141,39.7266]]]}},{"type":"Feature","id":"18163","properties":{"name":"Vanderburgh","fips":"18163"},"geometry":{"type":"Polygon","coordinates":[[[-87.4512,37.941],[-87.5115,37.9064],[-87.5503,37.9249],[-87.5593,37.9311],[-87.572,37.9475],[-87.5743,37.9548],[-87.5734,37.9626],[-87.5747,37.9677],[-87.5811,37.9734],[-87.5859,37.9754],[-87.5929,37.9758],[-87.6014,37.9725],[-87.629,37.9267],[-87.6263,37.9161],[-87.6203,37.9069],[-87.5971,37.8924],[-87.5916,37.8872],[-87.5884,37.8688],[-87.5887,37.861],[-87.5915,37.8566],[-87.6066,37.8387],[-87.6154,37.832],[-87.6459,37.8259],[-87.6709,37.8284],[-87.6792,37.8363],[-87.6819,37.8464],[-87.6816,37.8559],[-87.6629,37.8856],[-87.6665,37.8958],[-87.6757,37.9019],[-87.684,37.9035],[-87.7004,37.9009],[-87.6884,38.1684],[-87.4673,38.1654],[-87.4512,37.941]]]}},{"type":"Feature","id":"18165","properties":{"name":"Vermillion","fips":"18165"},"geometry":{"type":"Polygon","coordinates":[[[-87.3824,39.6079],[-87.5322,39.6073],[-87.5324,39.6461],[-87.5324,39.6461],[-87.5327,39.6649],[-87.5331,39.7817],[-87.5331,39.7962],[-87.5331,39.8039],[-87.5331,39.8109],[-87.5332,39.883],[-87.5332,39.8831],[-87.5328,39.9711],[-87.5328,39.975],[-87.5327,39.9777],[-87.5325,39.9875],[-87.5323,39.9978],[-87.5323,40.0],[-87.5323,40.0115],[-87.5323,40.0116],[-87.5316,40.133],[-87.5318,40.1443],[-87.5314,40.148],[-87.5314,40.1481],[-87.4067,40.1275],[-87.4202,39.9525],[-87.3539,39.8621],[-87.3956,39.6529],[-87.3824,39.6079]]]}},{"type":"Feature","id":"18167","properties":{"name":"Vigo","fips":"18167"},"geometry":{"type":"Polygon","coordinates":[[[-87.2404,39.2591],[-87.6041,39.2595],[-87.6055,39.2611],[-87.6101,39.2822],[-87.604,39.3135],[-87.5891,39.3338],[-87.5849,39.3373],[-87.544,39.3529],[-87.5373,39.3521],[-87.5316,39.3479],[-87.5314,39.4367],[-87.5314,39.4377],[-87.5315,39.4495],[-87.5316,39.4662],[-87.5316,39.4694],[-87.5317,39.4771],[-87.5317,39.4771],[-87.5316,39.4917],[-87.5317,39.4955],[-87.532,39.5269],[-87.5319,39.5459],[-87.532,39.564],[-87.5322,39.6073],[-87.3824,39.6079],[-87.199,39.6071],[-87.239,39.5206],[-87.2404,39.2591]]]}},{"type":"Feature","id":"18169","properties":{"name":"Wabash","fips":"18169"},"geometry":{"type":"Polygon","coordinates":[[[-85.9456,41.0429],[-85.9273,41.0426],[-85.6842,41.0467],[-85.6832,41.0019],[-85.6438,41.0023],[-85.6386,40.6531],[-85.8571,40.6514],[-85.8648,40.6517],[-85.9395,40.651],[-85.9464,40.9992],[-85.9454,41.0001],[-85.9456,41.0429]]]}},{"type":"Feature","id":"18171","properties":{"name":"Warren","fips":"18171"},"geometry":{"type":"Polygon","coordinates":[[[-87.2942,40.258],[-87.3119,40.25],[-87.3393,40.2232],[-87.4388,40.1657],[-87.4067,40.1275],[-87.5314,40.1481],[-87.5311,40.17],[-87.5308,40.1918],[-87.53,40.25],[-87.5301,40.2507],[-87.5268,40.4622],[-87.5265,40.4757],[-87.5265,40.4769],[-87.0937,40.4757],[-87.0928,40.4751],[-87.0921,40.3666],[-87.2449,40.3093],[-87.2942,40.258]]]}},{"type":"Feature","id":"18173","properties":{"name":"Warrick","fips":"18173"},"geometry":{"type":"Polygon","coordinates":[[[-87.2696,37.8772],[-87.3023,37.8984],[-87.3802,37.9356],[-87.4026,37.9423],[-87.4186,37.9448],[-87.4369,37.9442],[-87.4505,37.9415],[-87.4512,37.941],[-87.4673,38.1654],[-87.4667,38.2013],[-87.317,38.2018],[-87.3169,38.2461],[-87.0731,38.2326],[-87.0731,38.2038],[-87.0175,38.2036],[-87.0175,38.1183],[-87.0723,38.1183],[-87.268,37.9248],[-87.2696,37.8772]]]}},{"type":"Feature","id":"18175","properties":{"name":"Washington","fips":"18175"},"geometry":{"type":"Polygon","coordinates":[[[-85.9946,38.4183],[-86.0141,38.4191],[-86.0144,38.4187],[-86.0328,38.4179],[-86.255,38.4227],[-86.3087,38.4229],[-86.3079,38.673],[-86.3087,38.6881],[-86.2753,38.7638],[-86.0917,38.7834],[-85.8883,38.7344],[-85.8856,38.5754],[-85.8479,38.5613],[-85.8848,38.5035],[-85.9933,38.4885],[-85.9946,38.4183]]]}},{"type":"Feature","id":"18177","properties":{"name":"Wayne","fips":"18177"},"geometry":{"type":"Polygon","coordinates":[[[-84.8142,39.7856],[-84.8141,39.7266],[-85.0346,39.7148],[-85.1851,39.7155],[-85.2211,39.7884],[-85.2015,40.0045],[-84.8107,40.0051],[-84.8122,39.9273],[-84.8124,39.9218],[-84.8124,39.9169],[-84.8124,39.9169],[-84.8127,39.8916],[-84.8128,39.8908],[-84.8131,39.873],[-84.8135,39.8533],[-84.8135,39.8508],[-84.8137,39.8432],[-84.8137,39.8431],[-84.8138,39.8268],[-84.8139,39.8246],[-84.8142,39.8142],[-84.8141,39.8114],[-84.8142,39.7998],[-84.8142,39.7869],[-84.8142,39.7856]]]}},{"type":"Feature","id":"18179","properties":{"name":"Wells","fips":"18179"},"geometry":{"type":"Polygon","coordinates":[[[-85.336,40.9171],[-85.1671,40.9166],[-85.0739,40.9178],[-85.0685,40.5682],[-85.2011,40.5672],[-85.447,40.5669],[-85.449,40.6513],[-85.4488,40.6536],[-85.3347,40.6544],[-85.336,40.9171]]]}},{"type":"Feature","id":"18181","properties":{"name":"White","fips":"18181"},"geometry":{"type":"Polygon","coordinates":[[[-86.6971,40.7371],[-86.7478,40.7375],[-86.7713,40.5621],[-87.0954,40.5629],[-87.0968,40.7365],[-87.0984,40.7365],[-87.0998,40.8376],[-86.9864,40.8379],[-86.9308,40.9124],[-86.7759,40.9125],[-86.5815,40.9109],[-86.5817,40.7358],[-86.678,40.7368],[-86.6781,40.7369],[-86.6971,40.7371]]]}},{"type":"Feature","id":"18183","properties":{"name":"Whitley","fips":"18183"},"geometry":{"type":"Polygon","coordinates":[[[-85.6519,41.2948],[-85.5372,41.2662],[-85.3078,41.2642],[-85.3386,41.1791],[-85.3356,41.0052],[-85.6438,41.0023],[-85.6832,41.0019],[-85.6842,41.0467],[-85.6866,41.1784],[-85.6519,41.2948]]]}}]}