{"type":"FeatureCollection","features":[{"type":"Feature","id":"21001","properties":{"name":"Adair","fips":"21001"},"geometry":{"type":"Polygon","coordinates":[[[-85.1652,37.3104],[-85.0569,37.257],[-85.0433,37.186],[-85.2058,36.9969],[-85.232,36.9251],[-85.4518,36.9381],[-85.5269,37.1095],[-85.3803,37.1683],[-85.3528,37.1924],[-85.3147,37.2407],[-85.1652,37.3104]]]}},{"type":"Feature","id":"21003","properties":{"name":"Allen","fips":"21003"},"geometry":{"type":"Polygon","coordinates":[[[-85.9764,36.6284],[-86.0328,36.6304],[-86.0331,36.6304],[-86.0384,36.6308],[-86.0807,36.6339],[-86.0819,36.6338],[-86.1976,36.6394],[-86.2049,36.6397],[-86.2055,36.6398],[-86.2162,36.6405],[-86.2164,36.6406],[-86.2191,36.6408],[-86.2222,36.6409],[-86.3331,36.6488],[-86.4114,36.6506],[-86.4058,36.7762],[-86.1667,36.934],[-85.9769,36.7227],[-85.9764,36.6284]]]}},{"type":"Feature","id":"21005","properties":{"name":"Anderson","fips":"21005"},"geometry":{"type":"Polygon","coordinates":[[[-85.1528,37.8977],[-85.1678,37.9718],[-85.1016,38.0373],[-85.0237,38.1291],[-84.8649,38.1169],[-84.7963,37.9701],[-84.9378,37.9528],[-85.0305,37.8915],[-85.1528,37.8977]]]}},{"type":"Feature","id":"21007","properties":{"name":"Ballard","fips":"21007"},"geometry":{"type":"Polygon","coordinates":[[[-89.1008,36.944],[-89.1327,36.9822],[-89.1664,37.0033],[-89.1736,37.0114],[-89.179,37.0209],[-89.1825,37.0373],[-89.1814,37.0463],[-89.1757,37.0621],[-89.1719,37.0682],[-89.1681,37.0742],[-89.0865,37.1656],[-89.0413,37.2029],[-89.001,37.2244],[-88.9833,37.2287],[-88.9668,37.2299],[-88.9334,37.225],[-88.816,36.9541],[-88.9888,36.9195],[-89.1008,36.944]]]}},{"type":"Feature","id":"21009","properties":{"name":"Barren","fips":"21009"},"geometry":{"type":"Polygon","coordinates":[[[-86.1135,37.0611],[-86.0743,37.0533],[-86.0564,37.1672],[-85.9063,37.1484],[-85.7442,37.1698],[-85.7393,36.8415],[-85.9769,36.7227],[-86.1667,36.934],[-86.1135,37.0611]]]}},{"type":"Feature","id":"21011","properties":{"name":"Bath","fips":"21011"},"geometry":{"type":"Polygon","coordinates":[[[-83.7095,38.0093],[-83.7122,38.0097],[-83.7152,38.0044],[-83.7185,38.0034],[-83.7222,38.006],[-83.7271,38.007],[-83.7272,38.0086],[-83.731,38.0105],[-83.7333,38.0076],[-83.7359,38.0071],[-83.7377,38.01],[-83.7405,38.0071],[-83.7441,38.0069],[-83.7475,38.004],[-83.745,38.0016],[-83.7496,37.9967],[-83.7518,37.9971],[-83.757,37.9926],[-83.7594,37.9987],[-83.8814,38.1365],[-83.9779,38.1921],[-83.8504,38.2963],[-83.8484,38.2969],[-83.7254,38.2926],[-83.6465,38.171],[-83.6389,38.1783],[-83.6352,38.1875],[-83.4988,38.0506],[-83.5805,38.0117],[-83.7095,38.0093]]]}},{"type":"Feature","id":"21013","properties":{"name":"Bell","fips":"21013"},"geometry":{"type":"Polygon","coordinates":[[[-83.461,36.6649],[-83.498,36.6705],[-83.5272,36.666],[-83.6495,36.6167],[-83.6754,36.6008],[-83.6771,36.5966],[-83.6907,36.5826],[-83.9307,36.5882],[-83.9573,36.6422],[-83.8775,36.6873],[-83.7982,36.7852],[-83.5811,36.9047],[-83.5895,36.9558],[-83.5308,36.943],[-83.5207,36.9376],[-83.5091,36.9385],[-83.5095,36.9234],[-83.4943,36.9196],[-83.4894,36.9113],[-83.5048,36.9039],[-83.5004,36.8955],[-83.4898,36.8954],[-83.5117,36.8074],[-83.461,36.6649]]]}},{"type":"Feature","id":"21015","properties":{"name":"Boone","fips":"21015"},"geometry":{"type":"Polygon","coordinates":[[[-84.6324,39.0768],[-84.6237,39.0744],[-84.598,38.8795],[-84.6157,38.8022],[-84.63,38.8029],[-84.6562,38.7901],[-84.6601,38.7773],[-84.7911,38.8559],[-84.7858,38.8695],[-84.7851,38.88],[-84.7895,38.8847],[-84.8132,38.9306],[-84.8494,39.0009],[-84.8786,39.0303],[-84.8891,39.0408],[-84.8972,39.0524],[-84.8974,39.0574],[-84.8889,39.0664],[-84.8312,39.1019],[-84.8202,39.1055],[-84.7877,39.1153],[-84.7667,39.1386],[-84.7544,39.1467],[-84.7441,39.1475],[-84.732,39.1445],[-84.7185,39.1371],[-84.6897,39.1042],[-84.6848,39.1005],[-84.6324,39.0768]]]}},{"type":"Feature","id":"21017","properties":{"name":"Bourbon","fips":"21017"},"geometry":{"type":"Polygon","coordinates":[[[-84.1941,38.3717],[-84.1202,38.2755],[-83.9779,38.1921],[-84.0805,38.1151],[-84.2865,38.067],[-84.3809,38.1136],[-84.4018,38.2079],[-84.4427,38.2832],[-84.3455,38.2851],[-84.1941,38.3717]]]}},{"type":"Feature","id":"21019","properties":{"name":"Boyd","fips":"21019"},"geometry":{"type":"Polygon","coordinates":[[[-82.6655,38.5057],[-82.5937,38.4218],[-82.5963,38.4177],[-82.5971,38.4129],[-82.5954,38.3827],[-82.5954,38.3827],[-82.593,38.3751],[-82.5719,38.3158],[-82.5747,38.2639],[-82.5783,38.2548],[-82.584,38.2464],[-82.595,38.2455],[-82.6042,38.2473],[-82.7942,38.2438],[-82.7717,38.3626],[-82.8175,38.3739],[-82.6655,38.5057]]]}},{"type":"Feature","id":"21021","properties":{"name":"Boyle","fips":"21021"},"geometry":{"type":"Polygon","coordinates":[[[-84.6583,37.6345],[-84.8011,37.5688],[-84.8473,37.5479],[-85.0397,37.5452],[-85.0302,37.6313],[-85.025,37.6789],[-84.7449,37.7131],[-84.6583,37.6345]]]}},{"type":"Feature","id":"21023","properties":{"name":"Bracken","fips":"21023"},"geometry":{"type":"Polygon","coordinates":[[[-84.0445,38.7706],[-83.9788,38.7871],[-83.9621,38.7874],[-83.944,38.7836],[-83.904,38.7682],[-83.9039,38.7681],[-83.9916,38.5937],[-84.162,38.5541],[-84.2113,38.5509],[-84.2053,38.582],[-84.23,38.8276],[-84.2253,38.8177],[-84.2129,38.8057],[-84.2056,38.8026],[-84.0715,38.7705],[-84.0527,38.7705],[-84.0445,38.7706]]]}},{"type":"Feature","id":"21025","properties":{"name":"Breathitt","fips":"21025"},"geometry":{"type":"Polygon","coordinates":[[[-83.1243,37.405],[-83.2147,37.4435],[-83.3816,37.3383],[-83.4495,37.3789],[-83.5476,37.3344],[-83.5792,37.5062],[-83.5223,37.6385],[-83.4185,37.6907],[-83.2487,37.6696],[-83.1349,37.6068],[-83.0898,37.6322],[-82.9485,37.5032],[-83.0623,37.5262],[-83.1347,37.4572],[-83.1243,37.405]]]}},{"type":"Feature","id":"21027","properties":{"name":"Breckinridge","fips":"21027"},"geometry":{"type":"Polygon","coordinates":[[[-86.5928,37.5644],[-86.6389,37.6619],[-86.6779,37.7928],[-86.6553,37.8425],[-86.648,37.8414],[-86.6343,37.8438],[-86.6046,37.8583],[-86.5252,37.9682],[-86.525,38.0279],[-86.5218,38.0383],[-86.5173,38.0426],[-86.5118,38.0444],[-86.4909,38.0458],[-86.2428,37.877],[-86.1513,37.7989],[-86.2753,37.5935],[-86.3462,37.5627],[-86.5034,37.6222],[-86.5928,37.5644]]]}},{"type":"Feature","id":"21029","properties":{"name":"Bullitt","fips":"21029"},"geometry":{"type":"Polygon","coordinates":[[[-85.6237,38.0796],[-85.5573,38.0738],[-85.4288,38.1184],[-85.4892,37.9907],[-85.6513,37.829],[-85.7378,37.8118],[-85.8382,37.8793],[-85.8549,37.9454],[-85.9383,37.9988],[-85.8423,38.0515],[-85.7126,38.0873],[-85.7032,38.0865],[-85.6237,38.0796]]]}},{"type":"Feature","id":"21031","properties":{"name":"Butler","fips":"21031"},"geometry":{"type":"Polygon","coordinates":[[[-86.6182,37.3913],[-86.6121,37.3951],[-86.4872,37.3625],[-86.4691,37.3211],[-86.3992,37.1699],[-86.6182,37.1839],[-86.6745,36.9998],[-86.8453,37.0565],[-86.9414,37.069],[-86.8939,37.0885],[-86.8993,37.2123],[-86.8172,37.3276],[-86.7595,37.3041],[-86.6182,37.3913]]]}},{"type":"Feature","id":"21033","properties":{"name":"Caldwell","fips":"21033"},"geometry":{"type":"Polygon","coordinates":[[[-87.801,37.3794],[-87.8115,37.3641],[-87.82,37.366],[-87.828,37.3537],[-87.8134,37.3506],[-87.8508,37.3221],[-87.805,37.2411],[-87.6806,37.1492],[-87.7109,37.0216],[-87.7334,37.0021],[-87.877,36.9601],[-88.0421,37.1748],[-88.0958,37.1797],[-88.0891,37.2224],[-87.801,37.3794]]]}},{"type":"Feature","id":"21035","properties":{"name":"Calloway","fips":"21035"},"geometry":{"type":"Polygon","coordinates":[[[-88.0705,36.6781],[-88.0682,36.6597],[-88.0556,36.6357],[-88.0451,36.6029],[-88.0356,36.5617],[-88.0325,36.5407],[-88.0378,36.5138],[-88.0395,36.5104],[-88.0532,36.4971],[-88.0533,36.4971],[-88.3208,36.5004],[-88.3259,36.5005],[-88.3308,36.5005],[-88.4164,36.5008],[-88.4502,36.5011],[-88.4525,36.5009],[-88.4726,36.501],[-88.4891,36.5011],[-88.4857,36.7503],[-88.1108,36.7471],[-88.0842,36.7131],[-88.0705,36.6781]]]}},{"type":"Feature","id":"21037","properties":{"name":"Campbell","fips":"21037"},"geometry":{"type":"Polygon","coordinates":[[[-84.5061,39.0951],[-84.5021,39.0966],[-84.4937,39.1025],[-84.4328,39.0943],[-84.3265,39.0275],[-84.3199,39.0221],[-84.3137,39.017],[-84.3047,39.0065],[-84.2345,38.8932],[-84.2321,38.8805],[-84.2325,38.8746],[-84.4181,38.8066],[-84.4634,38.8521],[-84.4508,38.9936],[-84.5061,39.0951]]]}},{"type":"Feature","id":"21039","properties":{"name":"Carlisle","fips":"21039"},"geometry":{"type":"Polygon","coordinates":[[[-89.1008,36.944],[-89.1008,36.944],[-88.9888,36.9195],[-88.816,36.9541],[-88.8129,36.9469],[-88.8132,36.7731],[-89.1235,36.7852],[-89.1235,36.7853],[-89.1792,36.8129],[-89.1786,36.8166],[-89.1772,36.8358],[-89.1477,36.8471],[-89.1008,36.944]]]}},{"type":"Feature","id":"21041","properties":{"name":"Carroll","fips":"21041"},"geometry":{"type":"Polygon","coordinates":[[[-85.0746,38.5968],[-85.1683,38.5854],[-85.3333,38.7405],[-85.2892,38.7424],[-85.2755,38.7412],[-85.2588,38.7378],[-85.2465,38.7318],[-85.2261,38.7055],[-85.2133,38.6954],[-85.2015,38.6916],[-85.1894,38.6876],[-85.1725,38.6881],[-85.1562,38.6923],[-85.1387,38.6992],[-85.1069,38.7208],[-85.101,38.7268],[-85.0242,38.7633],[-84.9345,38.6621],[-85.0746,38.5968]]]}},{"type":"Feature","id":"21043","properties":{"name":"Carter","fips":"21043"},"geometry":{"type":"Polygon","coordinates":[[[-83.3413,38.3195],[-83.2307,38.3393],[-83.2372,38.4262],[-83.1664,38.504],[-83.0518,38.4654],[-82.9786,38.3989],[-82.8175,38.3739],[-82.7717,38.3626],[-82.7942,38.2438],[-82.9248,38.1751],[-83.0531,38.1895],[-83.1592,38.2645],[-83.2443,38.1924],[-83.3067,38.2252],[-83.3413,38.3195]]]}},{"type":"Feature","id":"21045","properties":{"name":"Casey","fips":"21045"},"geometry":{"type":"Polygon","coordinates":[[[-85.0433,37.186],[-85.0569,37.257],[-85.1652,37.3104],[-85.0738,37.4137],[-85.0397,37.5452],[-84.8473,37.5479],[-84.8508,37.4271],[-84.7228,37.36],[-84.7207,37.2383],[-84.8093,37.175],[-84.9011,37.1163],[-84.9544,37.1023],[-85.0433,37.186]]]}},{"type":"Feature","id":"21047","properties":{"name":"Christian","fips":"21047"},"geometry":{"type":"Polygon","coordinates":[[[-87.3441,36.6415],[-87.3478,36.6414],[-87.4143,36.641],[-87.425,36.641],[-87.4365,36.6407],[-87.5631,36.6391],[-87.5649,36.6391],[-87.6411,36.638],[-87.6411,36.638],[-87.6942,36.6368],[-87.6597,36.9664],[-87.7334,37.0021],[-87.7109,37.0216],[-87.6806,37.1492],[-87.5216,37.1053],[-87.3337,37.1572],[-87.2594,37.0724],[-87.336,36.6415],[-87.3441,36.6415]]]}},{"type":"Feature","id":"21049","properties":{"name":"Clark","fips":"21049"},"geometry":{"type":"Polygon","coordinates":[[[-84.3374,37.892],[-84.2865,38.067],[-84.0805,38.1151],[-84.0511,38.0705],[-83.9663,37.9308],[-84.002,37.8376],[-84.0803,37.8531],[-84.3374,37.892]]]}},{"type":"Feature","id":"21051","properties":{"name":"Clay","fips":"21051"},"geometry":{"type":"Polygon","coordinates":[[[-83.5079,37.2359],[-83.5513,37.1675],[-83.5091,36.9385],[-83.5207,36.9376],[-83.5308,36.943],[-83.5895,36.9558],[-83.8713,37.0549],[-83.969,37.1748],[-83.9437,37.2506],[-83.785,37.3487],[-83.6539,37.3581],[-83.5269,37.2585],[-83.5113,37.2551],[-83.5079,37.2359]]]}},{"type":"Feature","id":"21053","properties":{"name":"Clinton","fips":"21053"},"geometry":{"type":"Polygon","coordinates":[[[-84.9749,36.6143],[-85.0864,36.6219],[-85.0961,36.6225],[-85.2763,36.6265],[-85.2763,36.6265],[-85.296,36.6255],[-85.2464,36.7443],[-85.2154,36.8545],[-85.1184,36.8273],[-85.0643,36.8587],[-85.0041,36.7562],[-84.9749,36.6143]]]}},{"type":"Feature","id":"21055","properties":{"name":"Crittenden","fips":"21055"},"geometry":{"type":"Polygon","coordinates":[[[-87.801,37.3794],[-88.0891,37.2224],[-88.0958,37.1797],[-88.1935,37.1473],[-88.219,37.2731],[-88.3584,37.4049],[-88.3306,37.4293],[-88.3126,37.4406],[-88.2817,37.4526],[-88.2552,37.4567],[-88.0834,37.4737],[-88.0626,37.4894],[-88.0613,37.5052],[-88.0613,37.5053],[-88.0156,37.5472],[-87.933,37.4801],[-87.903,37.3982],[-87.801,37.3794]]]}},{"type":"Feature","id":"21057","properties":{"name":"Cumberland","fips":"21057"},"geometry":{"type":"Polygon","coordinates":[[[-85.4518,36.9381],[-85.232,36.9251],[-85.275,36.8979],[-85.2154,36.8545],[-85.2464,36.7443],[-85.296,36.6255],[-85.4364,36.6182],[-85.5962,36.818],[-85.4518,36.9381]]]}},{"type":"Feature","id":"21059","properties":{"name":"Daviess","fips":"21059"},"geometry":{"type":"Polygon","coordinates":[[[-87.4085,37.6836],[-87.2716,37.7801],[-87.3234,37.8192],[-87.3023,37.8984],[-87.2696,37.8772],[-87.2629,37.8728],[-87.2022,37.8438],[-87.1326,37.791],[-87.1287,37.7857],[-87.1192,37.7828],[-87.1111,37.7825],[-87.0906,37.7878],[-87.0774,37.7962],[-87.0678,37.8061],[-87.0578,37.8275],[-87.0439,37.8708],[-87.0434,37.8799],[-87.0462,37.8899],[-87.0422,37.8983],[-87.0334,37.9066],[-87.0103,37.9197],[-86.979,37.9302],[-86.9788,37.9302],[-86.854,37.8408],[-86.8234,37.7378],[-86.8175,37.6738],[-86.9488,37.6305],[-87.0383,37.5608],[-87.2616,37.622],[-87.4085,37.6836]]]}},{"type":"Feature","id":"21061","properties":{"name":"Edmonson","fips":"21061"},"geometry":{"type":"Polygon","coordinates":[[[-86.4691,37.3211],[-86.1576,37.3356],[-86.0491,37.2153],[-86.0564,37.1672],[-86.0743,37.0533],[-86.1135,37.0611],[-86.2186,37.104],[-86.2818,37.0806],[-86.3992,37.1699],[-86.4691,37.3211]]]}},{"type":"Feature","id":"21063","properties":{"name":"Elliott","fips":"21063"},"geometry":{"type":"Polygon","coordinates":[[[-82.9248,38.1751],[-82.8891,38.1116],[-83.0221,38.007],[-83.1944,38.0106],[-83.2633,38.1154],[-83.2443,38.1924],[-83.1592,38.2645],[-83.0531,38.1895],[-82.9248,38.1751]]]}},{"type":"Feature","id":"21065","properties":{"name":"Estill","fips":"21065"},"geometry":{"type":"Polygon","coordinates":[[[-83.9056,37.5429],[-83.9652,37.5814],[-84.0904,37.5662],[-84.0803,37.8531],[-84.002,37.8376],[-83.9063,37.7594],[-83.7221,37.7164],[-83.8241,37.6627],[-83.9056,37.5429]]]}},{"type":"Feature","id":"21067","properties":{"name":"Fayette","fips":"21067"},"geometry":{"type":"Polygon","coordinates":[[[-84.4018,38.2079],[-84.3809,38.1136],[-84.2865,38.067],[-84.3374,37.892],[-84.4357,37.8472],[-84.4793,37.9401],[-84.6601,38.0037],[-84.6575,38.0178],[-84.6251,38.1164],[-84.6206,38.1295],[-84.4018,38.2079]]]}},{"type":"Feature","id":"21069","properties":{"name":"Fleming","fips":"21069"},"geometry":{"type":"Polygon","coordinates":[[[-83.6465,38.171],[-83.7254,38.2926],[-83.8484,38.2969],[-83.98,38.4392],[-83.97,38.464],[-83.9303,38.4923],[-83.8593,38.4563],[-83.6419,38.5254],[-83.58,38.4299],[-83.4528,38.3818],[-83.5072,38.2694],[-83.6352,38.1875],[-83.6389,38.1783],[-83.6465,38.171]]]}},{"type":"Feature","id":"21071","properties":{"name":"Floyd","fips":"21071"},"geometry":{"type":"Polygon","coordinates":[[[-82.9255,37.4865],[-82.8787,37.5401],[-82.9408,37.7163],[-82.7633,37.7561],[-82.6407,37.7202],[-82.5636,37.6848],[-82.6231,37.5035],[-82.5847,37.4666],[-82.6724,37.3068],[-82.7108,37.2853],[-82.7523,37.308],[-82.7676,37.4278],[-82.9255,37.4865]]]}},{"type":"Feature","id":"21073","properties":{"name":"Franklin","fips":"21073"},"geometry":{"type":"Polygon","coordinates":[[[-84.7406,38.3524],[-84.7397,38.338],[-84.7303,38.2083],[-84.7252,38.1954],[-84.8649,38.1169],[-85.0237,38.1291],[-84.9977,38.3356],[-84.8705,38.3568],[-84.7406,38.3524]]]}},{"type":"Feature","id":"21075","properties":{"name":"Fulton","fips":"21075"},"geometry":{"type":"MultiPolygon","coordinates":[[[[-89.5391,36.4982],[-89.5603,36.5254],[-89.5701,36.5444],[-89.5715,36.5526],[-89.5668,36.5642],[-89.5526,36.5772],[-89.5461,36.58],[-89.5276,36.5811],[-89.5001,36.5763],[-89.4848,36.5718],[-89.4791,36.5682],[-89.4733,36.5599],[-89.4678,36.5468],[-89.4654,36.5362],[-89.4659,36.5299],[-89.4725,36.5137],[-89.4851,36.4977],[-89.4925,36.4978],[-89.498,36.4979],[-89.5391,36.4982]]],[[[-88.8349,36.5029],[-88.8747,36.5024],[-88.9645,36.5022],[-89.0001,36.5026],[-89.0068,36.5027],[-89.0104,36.5027],[-89.0346,36.503],[-89.0589,36.5032],[-89.0721,36.5032],[-89.0901,36.5034],[-89.1175,36.5036],[-89.1198,36.5036],[-89.1632,36.5045],[-89.1634,36.5045],[-89.2114,36.5056],[-89.2791,36.5065],[-89.2823,36.5068],[-89.3461,36.5032],[-89.3461,36.5032],[-89.3566,36.5022],[-89.3801,36.5004],[-89.3818,36.5001],[-89.4039,36.4991],[-89.4173,36.499],[-89.4006,36.5383],[-89.3881,36.5734],[-89.3764,36.6139],[-89.3655,36.6251],[-89.3438,36.631],[-89.3276,36.6321],[-89.3267,36.6322],[-89.3134,36.6201],[-89.2946,36.5937],[-89.2717,36.5714],[-89.26,36.5651],[-89.2365,36.5668],[-89.2273,36.5694],[-89.2136,36.5801],[-89.2026,36.6016],[-89.2009,36.6182],[-89.1977,36.6289],[-89.1877,36.6411],[-89.1747,36.6504],[-89.1747,36.6505],[-89.0266,36.5921],[-88.9035,36.5769],[-88.8349,36.5029]]]]}},{"type":"Feature","id":"21077","properties":{"name":"Gallatin","fips":"21077"},"geometry":{"type":"Polygon","coordinates":[[[-84.6601,38.7773],[-84.7808,38.7652],[-84.7858,38.7205],[-84.9345,38.6621],[-85.0242,38.7633],[-84.9959,38.7768],[-84.9846,38.7791],[-84.9734,38.7788],[-84.9443,38.7752],[-84.8444,38.7871],[-84.8133,38.7983],[-84.7911,38.8559],[-84.6601,38.7773]]]}},{"type":"Feature","id":"21079","properties":{"name":"Garrard","fips":"21079"},"geometry":{"type":"Polygon","coordinates":[[[-84.7169,37.8154],[-84.6759,37.8262],[-84.5703,37.7287],[-84.5256,37.7695],[-84.3478,37.5391],[-84.3744,37.4727],[-84.4467,37.4859],[-84.6583,37.6345],[-84.7449,37.7131],[-84.6967,37.7228],[-84.7169,37.8154]]]}},{"type":"Feature","id":"21081","properties":{"name":"Grant","fips":"21081"},"geometry":{"type":"Polygon","coordinates":[[[-84.6157,38.8022],[-84.5978,38.7912],[-84.5323,38.7919],[-84.4763,38.5427],[-84.5574,38.4929],[-84.5607,38.4924],[-84.5805,38.473],[-84.7743,38.6186],[-84.7858,38.7205],[-84.7808,38.7652],[-84.6601,38.7773],[-84.6562,38.7901],[-84.63,38.8029],[-84.6157,38.8022]]]}},{"type":"Feature","id":"21083","properties":{"name":"Graves","fips":"21083"},"geometry":{"type":"Polygon","coordinates":[[[-88.4892,36.5011],[-88.5119,36.5015],[-88.5123,36.5015],[-88.5163,36.5014],[-88.5164,36.5014],[-88.5452,36.5018],[-88.5773,36.5019],[-88.6611,36.5022],[-88.7153,36.5027],[-88.7475,36.5028],[-88.7996,36.5028],[-88.8168,36.5028],[-88.8132,36.7731],[-88.8129,36.9469],[-88.4841,36.9421],[-88.4857,36.7503],[-88.4891,36.5011],[-88.4892,36.5011]]]}},{"type":"Feature","id":"21085","properties":{"name":"Grayson","fips":"21085"},"geometry":{"type":"Polygon","coordinates":[[[-86.6121,37.3951],[-86.6641,37.5461],[-86.5928,37.5644],[-86.5034,37.6222],[-86.3462,37.5627],[-86.2753,37.5935],[-86.1141,37.5671],[-86.0476,37.4499],[-86.0191,37.3945],[-86.0724,37.3811],[-86.0646,37.3486],[-86.1576,37.3356],[-86.4691,37.3211],[-86.4872,37.3625],[-86.6121,37.3951]]]}},{"type":"Feature","id":"21087","properties":{"name":"Green","fips":"21087"},"geometry":{"type":"Polygon","coordinates":[[[-85.6573,37.422],[-85.5835,37.4699],[-85.5845,37.4321],[-85.4781,37.3637],[-85.3528,37.1924],[-85.3803,37.1683],[-85.5269,37.1095],[-85.6323,37.1251],[-85.6865,37.1824],[-85.6973,37.3018],[-85.6573,37.422]]]}},{"type":"Feature","id":"21089","properties":{"name":"Greenup","fips":"21089"},"geometry":{"type":"Polygon","coordinates":[[[-83.0309,38.7256],[-83.0307,38.7257],[-83.0118,38.7301],[-82.9794,38.726],[-82.9687,38.7288],[-82.9431,38.7433],[-82.9237,38.7501],[-82.8942,38.7566],[-82.8892,38.7561],[-82.8795,38.7515],[-82.8755,38.7473],[-82.8745,38.7453],[-82.8713,38.7394],[-82.87,38.7305],[-82.8704,38.7221],[-82.8735,38.7101],[-82.8696,38.6782],[-82.8536,38.6109],[-82.8472,38.5952],[-82.8395,38.5862],[-82.8202,38.5727],[-82.816,38.5707],[-82.8001,38.5632],[-82.7898,38.56],[-82.731,38.5593],[-82.7248,38.5576],[-82.6966,38.5421],[-82.6905,38.5366],[-82.6655,38.5058],[-82.6655,38.5057],[-82.8175,38.3739],[-82.9786,38.3989],[-83.0518,38.4654],[-83.1664,38.504],[-83.071,38.5952],[-83.0309,38.7256]]]}},{"type":"Feature","id":"21091","properties":{"name":"Hancock","fips":"21091"},"geometry":{"type":"Polygon","coordinates":[[[-86.8234,37.7378],[-86.854,37.8408],[-86.9788,37.9302],[-86.9193,37.9367],[-86.9024,37.9462],[-86.885,37.9644],[-86.856,37.9873],[-86.8235,37.9989],[-86.8153,37.9989],[-86.8148,37.9986],[-86.795,37.989],[-86.7877,37.9714],[-86.7702,37.9403],[-86.751,37.9129],[-86.7409,37.9026],[-86.7315,37.8943],[-86.7235,37.8928],[-86.7185,37.8931],[-86.7092,37.8976],[-86.6603,37.8651],[-86.6553,37.8425],[-86.6553,37.8425],[-86.6779,37.7928],[-86.6389,37.6619],[-86.8234,37.7378]]]}},{"type":"Feature","id":"21093","properties":{"name":"Hardin","fips":"21093"},"geometry":{"type":"Polygon","coordinates":[[[-86.0476,37.4499],[-86.1141,37.5671],[-86.2753,37.5935],[-86.1513,37.7989],[-86.0074,37.8184],[-85.9759,37.8758],[-85.9986,37.9978],[-85.9515,38.0056],[-85.948,38.0071],[-85.945,38.0024],[-85.9383,37.9988],[-85.8549,37.9454],[-85.8382,37.8793],[-85.7378,37.8118],[-85.6805,37.7323],[-85.876,37.5433],[-85.8928,37.4403],[-86.0476,37.4499]]]}},{"type":"Feature","id":"21095","properties":{"name":"Harlan","fips":"21095"},"geometry":{"type":"Polygon","coordinates":[[[-82.8692,36.9742],[-82.8692,36.9742],[-82.8703,36.966],[-82.8702,36.9655],[-82.8674,36.9632],[-82.8654,36.9581],[-82.8642,36.958],[-82.8629,36.9578],[-82.8605,36.956],[-82.8584,36.954],[-82.8557,36.9538],[-82.8561,36.9525],[-82.8606,36.9458],[-82.8613,36.9448],[-82.8617,36.9393],[-82.8605,36.9374],[-82.8588,36.9331],[-82.8585,36.9327],[-82.8619,36.9242],[-82.8635,36.9223],[-82.8721,36.9135],[-82.8738,36.9123],[-82.8856,36.9004],[-82.9117,36.8742],[-82.9118,36.8742],[-82.9734,36.8591],[-83.0726,36.8546],[-83.0998,36.8249],[-83.1317,36.7815],[-83.1312,36.7671],[-83.1257,36.7614],[-83.1257,36.7613],[-83.1278,36.7508],[-83.1364,36.7431],[-83.1674,36.7392],[-83.1997,36.7375],[-83.3428,36.7013],[-83.3536,36.6967],[-83.3546,36.6962],[-83.4608,36.6649],[-83.461,36.6649],[-83.5117,36.8074],[-83.4898,36.8954],[-83.26,36.969],[-83.1821,37.0211],[-83.1717,37.0172],[-83.1608,37.0207],[-83.1601,37.0139],[-83.1444,37.0137],[-83.1367,37.0042],[-83.1243,37.0057],[-83.1221,37.001],[-83.1504,36.9542],[-82.9395,37.0155],[-82.8692,36.9742]]]}},{"type":"Feature","id":"21097","properties":{"name":"Harrison","fips":"21097"},"geometry":{"type":"Polygon","coordinates":[[[-84.4427,38.2832],[-84.4407,38.2964],[-84.4328,38.2994],[-84.4438,38.3243],[-84.5574,38.4929],[-84.4763,38.5427],[-84.2053,38.582],[-84.2113,38.5509],[-84.162,38.5541],[-84.1839,38.498],[-84.1021,38.4594],[-84.1941,38.3717],[-84.3455,38.2851],[-84.4427,38.2832]]]}},{"type":"Feature","id":"21099","properties":{"name":"Hart","fips":"21099"},"geometry":{"type":"Polygon","coordinates":[[[-86.0476,37.4499],[-85.8928,37.4403],[-85.6573,37.422],[-85.6973,37.3018],[-85.6865,37.1824],[-85.7439,37.1699],[-85.7442,37.1698],[-85.9063,37.1484],[-86.0564,37.1672],[-86.0491,37.2153],[-86.1576,37.3356],[-86.0646,37.3486],[-86.0724,37.3811],[-86.0191,37.3945],[-86.0476,37.4499]]]}},{"type":"Feature","id":"21101","properties":{"name":"Henderson","fips":"21101"},"geometry":{"type":"Polygon","coordinates":[[[-87.684,37.9035],[-87.6757,37.9019],[-87.6665,37.8958],[-87.6629,37.8856],[-87.6816,37.8559],[-87.6819,37.8464],[-87.6792,37.8363],[-87.6709,37.8284],[-87.6459,37.8259],[-87.6154,37.832],[-87.6066,37.8387],[-87.5915,37.8566],[-87.5887,37.861],[-87.5884,37.8688],[-87.5916,37.8872],[-87.5971,37.8924],[-87.6203,37.9069],[-87.6263,37.9161],[-87.629,37.9267],[-87.6014,37.9725],[-87.5929,37.9758],[-87.5859,37.9754],[-87.5811,37.9734],[-87.5747,37.9677],[-87.5734,37.9626],[-87.5743,37.9548],[-87.572,37.9475],[-87.5593,37.9311],[-87.5503,37.9249],[-87.5115,37.9064],[-87.4512,37.941],[-87.4505,37.9415],[-87.4369,37.9442],[-87.4186,37.9448],[-87.4026,37.9423],[-87.3802,37.9356],[-87.3023,37.8984],[-87.3234,37.8192],[-87.2716,37.7801],[-87.4085,37.6836],[-87.4205,37.6702],[-87.4384,37.6709],[-87.4728,37.6649],[-87.4953,37.6475],[-87.7345,37.6384],[-87.7557,37.7278],[-87.8151,37.7624],[-87.9274,37.902],[-87.9048,37.9249],[-87.8981,37.9275],[-87.8833,37.9262],[-87.8725,37.921],[-87.8656,37.9151],[-87.8572,37.9006],[-87.8412,37.8823],[-87.8306,37.8765],[-87.7909,37.8757],[-87.7836,37.8778],[-87.7623,37.8909],[-87.7004,37.9009],[-87.684,37.9035]]]}},{"type":"Feature","id":"21103","properties":{"name":"Henry","fips":"21103"},"geometry":{"type":"Polygon","coordinates":[[[-84.8705,38.3568],[-84.9977,38.3356],[-85.2831,38.3581],[-85.3461,38.4595],[-85.314,38.4926],[-85.1683,38.5854],[-85.0746,38.5968],[-84.9772,38.513],[-84.9633,38.4374],[-84.8802,38.4162],[-84.8705,38.3568]]]}},{"type":"Feature","id":"21105","properties":{"name":"Hickman","fips":"21105"},"geometry":{"type":"Polygon","coordinates":[[[-88.8168,36.5028],[-88.827,36.5029],[-88.8273,36.5029],[-88.8346,36.5029],[-88.8349,36.5029],[-88.9035,36.5769],[-89.0266,36.5921],[-89.1747,36.6505],[-89.1719,36.6725],[-89.1995,36.716],[-89.201,36.7258],[-89.1978,36.7394],[-89.1845,36.7536],[-89.1691,36.7595],[-89.1423,36.7554],[-89.1304,36.7517],[-89.1235,36.7852],[-88.8132,36.7731],[-88.8168,36.5028]]]}},{"type":"Feature","id":"21107","properties":{"name":"Hopkins","fips":"21107"},"geometry":{"type":"Polygon","coordinates":[[[-87.6806,37.1492],[-87.805,37.2411],[-87.8508,37.3221],[-87.8134,37.3506],[-87.5936,37.462],[-87.5,37.4867],[-87.3751,37.57],[-87.3519,37.4257],[-87.296,37.3918],[-87.3888,37.2614],[-87.3337,37.1572],[-87.5216,37.1053],[-87.6806,37.1492]]]}},{"type":"Feature","id":"21109","properties":{"name":"Jackson","fips":"21109"},"geometry":{"type":"Polygon","coordinates":[[[-83.785,37.3487],[-83.9437,37.2506],[-84.1379,37.3198],[-84.1995,37.5229],[-84.0904,37.5662],[-83.9652,37.5814],[-83.9056,37.5429],[-83.9003,37.5358],[-83.8935,37.5311],[-83.8931,37.5266],[-83.8887,37.5222],[-83.8853,37.5177],[-83.785,37.3487]]]}},{"type":"Feature","id":"21111","properties":{"name":"Jefferson","fips":"21111"},"geometry":{"type":"Polygon","coordinates":[[[-85.6237,38.0796],[-85.7032,38.0865],[-85.7126,38.0873],[-85.8423,38.0515],[-85.9383,37.9988],[-85.945,38.0024],[-85.948,38.0071],[-85.9414,38.0098],[-85.9302,38.0183],[-85.9224,38.0287],[-85.9116,38.0669],[-85.9062,38.0862],[-85.9046,38.1003],[-85.9052,38.1111],[-85.9095,38.1401],[-85.9088,38.1612],[-85.8996,38.1803],[-85.8977,38.1843],[-85.8294,38.2768],[-85.8238,38.2806],[-85.8162,38.283],[-85.7916,38.2886],[-85.7916,38.2886],[-85.781,38.2885],[-85.7734,38.2862],[-85.766,38.2805],[-85.7666,38.2777],[-85.7611,38.2726],[-85.751,38.2679],[-85.7449,38.2672],[-85.6836,38.2955],[-85.675,38.3013],[-85.6536,38.3271],[-85.6388,38.3614],[-85.638,38.3803],[-85.4682,38.2853],[-85.4049,38.2637],[-85.4241,38.1474],[-85.4288,38.1184],[-85.5573,38.0738],[-85.6237,38.0796]]]}},{"type":"Feature","id":"21113","properties":{"name":"Jessamine","fips":"21113"},"geometry":{"type":"Polygon","coordinates":[[[-84.7169,37.8154],[-84.7231,37.8205],[-84.7234,37.8329],[-84.7169,37.8409],[-84.6955,37.8454],[-84.6891,37.8548],[-84.7099,37.862],[-84.6601,38.0037],[-84.4793,37.9401],[-84.4357,37.8472],[-84.5256,37.7695],[-84.5703,37.7287],[-84.6759,37.8262],[-84.7169,37.8154]]]}},{"type":"Feature","id":"21115","properties":{"name":"Johnson","fips":"21115"},"geometry":{"type":"Polygon","coordinates":[[[-82.9408,37.7163],[-83.0046,37.8592],[-82.989,37.964],[-82.9479,38.0004],[-82.6124,37.8793],[-82.6709,37.8518],[-82.6407,37.7202],[-82.7633,37.7561],[-82.9408,37.7163]]]}},{"type":"Feature","id":"21117","properties":{"name":"Kenton","fips":"21117"},"geometry":{"type":"Polygon","coordinates":[[[-84.5101,39.0936],[-84.5097,39.0937],[-84.5061,39.0951],[-84.4508,38.9936],[-84.4634,38.8521],[-84.4181,38.8066],[-84.4202,38.8057],[-84.5323,38.7919],[-84.5978,38.7912],[-84.6157,38.8022],[-84.598,38.8795],[-84.6237,39.0744],[-84.6201,39.0735],[-84.6034,39.0737],[-84.5101,39.0936]]]}},{"type":"Feature","id":"21119","properties":{"name":"Knott","fips":"21119"},"geometry":{"type":"Polygon","coordinates":[[[-82.7327,37.2715],[-82.8194,37.2687],[-82.9792,37.1724],[-83.0001,37.1957],[-83.1272,37.2684],[-83.1243,37.405],[-83.1347,37.4572],[-83.0623,37.5262],[-82.9485,37.5032],[-82.9442,37.5014],[-82.9454,37.4974],[-82.9417,37.4963],[-82.9413,37.4898],[-82.9344,37.494],[-82.9255,37.4865],[-82.7676,37.4278],[-82.7523,37.308],[-82.7108,37.2853],[-82.7189,37.2803],[-82.7246,37.281],[-82.7327,37.2715]]]}},{"type":"Feature","id":"21121","properties":{"name":"Knox","fips":"21121"},"geometry":{"type":"Polygon","coordinates":[[[-83.5895,36.9558],[-83.5811,36.9047],[-83.7982,36.7852],[-83.8775,36.6873],[-83.9585,36.7272],[-84.0658,36.854],[-84.0919,36.956],[-83.9594,36.9771],[-83.8713,37.0549],[-83.5895,36.9558]]]}},{"type":"Feature","id":"21123","properties":{"name":"Larue","fips":"21123"},"geometry":{"type":"Polygon","coordinates":[[[-85.5213,37.5543],[-85.4663,37.4656],[-85.5835,37.4699],[-85.6573,37.422],[-85.8928,37.4403],[-85.876,37.5433],[-85.6805,37.7323],[-85.5921,37.6935],[-85.6233,37.5516],[-85.5213,37.5543]]]}},{"type":"Feature","id":"21125","properties":{"name":"Laurel","fips":"21125"},"geometry":{"type":"Polygon","coordinates":[[[-83.8713,37.0549],[-83.9594,36.9771],[-84.0919,36.956],[-84.2974,36.9459],[-84.3459,36.9395],[-84.3682,36.9456],[-84.358,36.9594],[-84.2891,37.1517],[-84.2537,37.2395],[-84.1379,37.3198],[-83.9437,37.2506],[-83.969,37.1748],[-83.8713,37.0549]]]}},{"type":"Feature","id":"21127","properties":{"name":"Lawrence","fips":"21127"},"geometry":{"type":"Polygon","coordinates":[[[-82.4973,37.9455],[-82.4974,37.9453],[-82.5821,37.9523],[-82.6124,37.8793],[-82.9479,38.0004],[-82.989,37.964],[-83.0161,37.9742],[-83.0221,38.007],[-82.8891,38.1116],[-82.9248,38.1751],[-82.7942,38.2438],[-82.6042,38.2473],[-82.6447,38.1655],[-82.6365,38.1379],[-82.6212,38.1232],[-82.6026,38.1183],[-82.6001,38.1174],[-82.5473,38.0611],[-82.5391,38.0391],[-82.5197,38.0085],[-82.5098,38.0012],[-82.4877,37.9983],[-82.4655,37.9848],[-82.4641,37.9824],[-82.465,37.9769],[-82.4973,37.9455]]]}},{"type":"Feature","id":"21129","properties":{"name":"Lee","fips":"21129"},"geometry":{"type":"Polygon","coordinates":[[[-83.5792,37.5062],[-83.6304,37.5375],[-83.8293,37.4868],[-83.8853,37.5177],[-83.8887,37.5222],[-83.8931,37.5266],[-83.8935,37.5311],[-83.9003,37.5358],[-83.9056,37.5429],[-83.8241,37.6627],[-83.7221,37.7164],[-83.7122,37.7201],[-83.708,37.7165],[-83.5223,37.6385],[-83.5792,37.5062]]]}},{"type":"Feature","id":"21131","properties":{"name":"Leslie","fips":"21131"},"geometry":{"type":"Polygon","coordinates":[[[-83.5079,37.2359],[-83.461,37.2938],[-83.3518,37.2957],[-83.3246,37.2256],[-83.2019,37.1741],[-83.1821,37.0211],[-83.26,36.969],[-83.4898,36.8954],[-83.5004,36.8955],[-83.5048,36.9039],[-83.4894,36.9113],[-83.4943,36.9196],[-83.5095,36.9234],[-83.5091,36.9385],[-83.5513,37.1675],[-83.5079,37.2359]]]}},{"type":"Feature","id":"21133","properties":{"name":"Letcher","fips":"21133"},"geometry":{"type":"Polygon","coordinates":[[[-82.5654,37.1961],[-82.6249,37.1629],[-82.7219,37.1057],[-82.7206,37.0818],[-82.7225,37.0451],[-82.7718,37.0157],[-82.7774,37.0153],[-82.7889,37.0082],[-82.7891,37.008],[-82.7905,37.0073],[-82.7909,37.0068],[-82.8005,37.0079],[-82.8157,37.0072],[-82.818,37.0062],[-82.8306,37.0009],[-82.8291,36.9975],[-82.8308,36.9934],[-82.8338,36.992],[-82.836,36.9888],[-82.8385,36.987],[-82.8401,36.9871],[-82.8514,36.9845],[-82.8526,36.985],[-82.8629,36.98],[-82.8649,36.979],[-82.866,36.9783],[-82.8667,36.9781],[-82.8675,36.9775],[-82.8685,36.9765],[-82.8692,36.9742],[-82.9395,37.0155],[-83.1504,36.9542],[-83.1221,37.001],[-83.0546,37.02],[-83.0588,37.1241],[-83.0001,37.1957],[-82.9792,37.1724],[-82.8194,37.2687],[-82.7327,37.2715],[-82.5654,37.1961]]]}},{"type":"Feature","id":"21135","properties":{"name":"Lewis","fips":"21135"},"geometry":{"type":"Polygon","coordinates":[[[-83.643,38.6433],[-83.6362,38.6706],[-83.6269,38.6794],[-83.6157,38.6841],[-83.5748,38.6927],[-83.5333,38.7021],[-83.521,38.703],[-83.5126,38.7017],[-83.3691,38.6593],[-83.3333,38.6416],[-83.3242,38.6333],[-83.3205,38.6227],[-83.2821,38.603],[-83.2658,38.6053],[-83.1569,38.6205],[-83.1428,38.6251],[-83.135,38.6317],[-83.1277,38.6425],[-83.0309,38.7256],[-83.071,38.5952],[-83.1664,38.504],[-83.2372,38.4262],[-83.2307,38.3393],[-83.3413,38.3195],[-83.4528,38.3818],[-83.58,38.4299],[-83.6419,38.5254],[-83.6467,38.6375],[-83.643,38.6433]]]}},{"type":"Feature","id":"21137","properties":{"name":"Lincoln","fips":"21137"},"geometry":{"type":"Polygon","coordinates":[[[-84.6481,37.2904],[-84.7207,37.2383],[-84.7228,37.36],[-84.8508,37.4271],[-84.8473,37.5479],[-84.8011,37.5688],[-84.6583,37.6345],[-84.4467,37.4859],[-84.5029,37.3288],[-84.5565,37.3557],[-84.6481,37.2904]]]}},{"type":"Feature","id":"21139","properties":{"name":"Livingston","fips":"21139"},"geometry":{"type":"Polygon","coordinates":[[[-88.483,37.0226],[-88.5642,37.0784],[-88.56,37.076],[-88.5454,37.07],[-88.5316,37.0672],[-88.5144,37.0652],[-88.4903,37.0667],[-88.4829,37.0671],[-88.4589,37.0738],[-88.4446,37.0986],[-88.4244,37.1524],[-88.4478,37.2035],[-88.4588,37.2135],[-88.4718,37.2202],[-88.5093,37.2621],[-88.5159,37.284],[-88.5147,37.2909],[-88.4766,37.3869],[-88.4702,37.3963],[-88.456,37.4085],[-88.4393,37.4164],[-88.4149,37.4235],[-88.4088,37.4252],[-88.3584,37.4049],[-88.219,37.2731],[-88.1935,37.1473],[-88.2311,37.0816],[-88.2092,37.0],[-88.2404,36.9819],[-88.3656,37.0642],[-88.483,37.0226]]]}},{"type":"Feature","id":"21141","properties":{"name":"Logan","fips":"21141"},"geometry":{"type":"Polygon","coordinates":[[[-86.7633,36.6489],[-86.813,36.6476],[-86.8162,36.6477],[-86.8184,36.6476],[-86.8332,36.6472],[-86.8543,36.6469],[-86.906,36.6463],[-86.9066,36.6463],[-87.0608,36.6434],[-87.0532,37.061],[-86.9764,37.0736],[-86.9414,37.069],[-86.8453,37.0565],[-86.6745,36.9998],[-86.6116,36.8831],[-86.6907,36.8443],[-86.7633,36.6489]]]}},{"type":"Feature","id":"21143","properties":{"name":"Lyon","fips":"21143"},"geometry":{"type":"Polygon","coordinates":[[[-88.0958,37.1797],[-88.0421,37.1748],[-87.877,36.9601],[-88.1573,36.8672],[-88.2404,36.9819],[-88.2092,37.0],[-88.2311,37.0816],[-88.1935,37.1473],[-88.0958,37.1797]]]}},{"type":"Feature","id":"21151","properties":{"name":"Madison","fips":"21151"},"geometry":{"type":"Polygon","coordinates":[[[-84.3478,37.5391],[-84.5256,37.7695],[-84.4357,37.8472],[-84.3374,37.892],[-84.0803,37.8531],[-84.0904,37.5662],[-84.1995,37.5229],[-84.3478,37.5391]]]}},{"type":"Feature","id":"21153","properties":{"name":"Magoffin","fips":"21153"},"geometry":{"type":"Polygon","coordinates":[[[-82.9255,37.4865],[-82.9344,37.494],[-82.9413,37.4898],[-82.9417,37.4963],[-82.9454,37.4974],[-82.9442,37.5014],[-82.9485,37.5032],[-83.0898,37.6322],[-83.1349,37.6068],[-83.2487,37.6696],[-83.2585,37.6799],[-83.2436,37.6992],[-83.2622,37.7127],[-83.2697,37.766],[-83.1133,37.8641],[-83.0046,37.8592],[-82.9408,37.7163],[-82.8787,37.5401],[-82.9255,37.4865]]]}},{"type":"Feature","id":"21155","properties":{"name":"Marion","fips":"21155"},"geometry":{"type":"Polygon","coordinates":[[[-85.0738,37.4137],[-85.1714,37.4651],[-85.2468,37.4202],[-85.3404,37.4695],[-85.4663,37.4656],[-85.5213,37.5543],[-85.4505,37.6859],[-85.4018,37.7307],[-85.3736,37.6733],[-85.2573,37.6309],[-85.0302,37.6313],[-85.0397,37.5452],[-85.0738,37.4137]]]}},{"type":"Feature","id":"21157","properties":{"name":"Marshall","fips":"21157"},"geometry":{"type":"Polygon","coordinates":[[[-88.4857,36.7503],[-88.4841,36.9421],[-88.4853,37.0011],[-88.483,37.0226],[-88.3656,37.0642],[-88.2404,36.9819],[-88.1573,36.8672],[-88.1108,36.7471],[-88.4857,36.7503]]]}},{"type":"Feature","id":"21159","properties":{"name":"Martin","fips":"21159"},"geometry":{"type":"Polygon","coordinates":[[[-82.4974,37.9453],[-82.5004,37.9365],[-82.4747,37.9104],[-82.4177,37.8707],[-82.4002,37.8518],[-82.3299,37.7759],[-82.319,37.7589],[-82.3264,37.7408],[-82.4561,37.6688],[-82.5636,37.6848],[-82.6407,37.7202],[-82.6709,37.8518],[-82.6124,37.8793],[-82.5821,37.9523],[-82.4974,37.9453]]]}},{"type":"Feature","id":"21161","properties":{"name":"Mason","fips":"21161"},"geometry":{"type":"Polygon","coordinates":[[[-83.706,38.6371],[-83.6795,38.63],[-83.6639,38.6279],[-83.6554,38.6297],[-83.6497,38.6328],[-83.6467,38.6375],[-83.6419,38.5254],[-83.8593,38.4563],[-83.9303,38.4923],[-83.9916,38.5937],[-83.9039,38.7681],[-83.8704,38.7616],[-83.859,38.7568],[-83.8533,38.7526],[-83.7778,38.6745],[-83.7737,38.6613],[-83.7693,38.6552],[-83.7624,38.6521],[-83.706,38.6371]]]}},{"type":"Feature","id":"21145","properties":{"name":"McCracken","fips":"21145"},"geometry":{"type":"Polygon","coordinates":[[[-88.8129,36.9469],[-88.816,36.9541],[-88.9334,37.225],[-88.9334,37.225],[-88.9421,37.2288],[-88.928,37.2263],[-88.9169,37.2243],[-88.8092,37.1892],[-88.6259,37.1195],[-88.5892,37.0997],[-88.5767,37.0859],[-88.5642,37.0784],[-88.483,37.0226],[-88.4853,37.0011],[-88.4841,36.9421],[-88.8129,36.9469]]]}},{"type":"Feature","id":"21147","properties":{"name":"McCreary","fips":"21147"},"geometry":{"type":"Polygon","coordinates":[[[-84.2273,36.5917],[-84.2613,36.592],[-84.7785,36.6032],[-84.674,36.7395],[-84.5793,36.8144],[-84.5782,36.8671],[-84.358,36.9594],[-84.3682,36.9456],[-84.3459,36.9395],[-84.2974,36.9459],[-84.35,36.7807],[-84.3076,36.6768],[-84.2273,36.5917]]]}},{"type":"Feature","id":"21149","properties":{"name":"McLean","fips":"21149"},"geometry":{"type":"Polygon","coordinates":[[[-87.0383,37.5608],[-87.0494,37.5519],[-87.1031,37.4809],[-87.0998,37.416],[-87.296,37.3918],[-87.3519,37.4257],[-87.3751,37.57],[-87.4953,37.6475],[-87.4728,37.6649],[-87.4384,37.6709],[-87.4205,37.6702],[-87.4085,37.6836],[-87.2616,37.622],[-87.0383,37.5608]]]}},{"type":"Feature","id":"21163","properties":{"name":"Meade","fips":"21163"},"geometry":{"type":"Polygon","coordinates":[[[-86.1513,37.7989],[-86.2428,37.877],[-86.4909,38.0458],[-86.4909,38.0458],[-86.4669,38.0466],[-86.4522,38.0505],[-86.4382,38.0604],[-86.4328,38.0672],[-86.4301,38.0786],[-86.4265,38.0818],[-86.3987,38.1062],[-86.3326,38.1301],[-86.3268,38.1346],[-86.3235,38.139],[-86.3143,38.1426],[-86.3097,38.1444],[-86.284,38.1432],[-86.2712,38.1301],[-86.278,38.1024],[-86.2787,38.0893],[-86.2736,38.0674],[-86.2669,38.0571],[-86.2204,38.0279],[-86.179,38.0113],[-86.1722,38.0099],[-86.0295,37.9926],[-85.9986,37.9978],[-85.9759,37.8758],[-86.0074,37.8184],[-86.1513,37.7989]]]}},{"type":"Feature","id":"21165","properties":{"name":"Menifee","fips":"21165"},"geometry":{"type":"Polygon","coordinates":[[[-83.7095,38.0093],[-83.5805,38.0117],[-83.4988,38.0506],[-83.4339,38.034],[-83.4951,37.8619],[-83.6311,37.8254],[-83.7688,37.9184],[-83.7594,37.9987],[-83.757,37.9926],[-83.7518,37.9971],[-83.7496,37.9967],[-83.745,38.0016],[-83.7475,38.004],[-83.7441,38.0069],[-83.7405,38.0071],[-83.7377,38.01],[-83.7359,38.0071],[-83.7333,38.0076],[-83.731,38.0105],[-83.7272,38.0086],[-83.7271,38.007],[-83.7222,38.006],[-83.7185,38.0034],[-83.7152,38.0044],[-83.7122,38.0097],[-83.7095,38.0093]]]}},{"type":"Feature","id":"21167","properties":{"name":"Mercer","fips":"21167"},"geometry":{"type":"Polygon","coordinates":[[[-84.7099,37.862],[-84.6891,37.8548],[-84.6955,37.8454],[-84.7169,37.8409],[-84.7234,37.8329],[-84.7231,37.8205],[-84.7169,37.8154],[-84.6967,37.7228],[-84.7449,37.7131],[-85.025,37.6789],[-85.0005,37.8546],[-85.0305,37.8915],[-84.9378,37.9528],[-84.7963,37.9701],[-84.8188,37.9458],[-84.7099,37.862]]]}},{"type":"Feature","id":"21169","properties":{"name":"Metcalfe","fips":"21169"},"geometry":{"type":"Polygon","coordinates":[[[-85.7442,37.1698],[-85.7439,37.1699],[-85.6865,37.1824],[-85.6323,37.1251],[-85.5269,37.1095],[-85.4518,36.9381],[-85.5962,36.818],[-85.7393,36.8415],[-85.7442,37.1698]]]}},{"type":"Feature","id":"21171","properties":{"name":"Monroe","fips":"21171"},"geometry":{"type":"Polygon","coordinates":[[[-85.7886,36.6218],[-85.7886,36.6218],[-85.9764,36.6284],[-85.9769,36.7227],[-85.7393,36.8415],[-85.5962,36.818],[-85.4364,36.6182],[-85.4713,36.6164],[-85.5086,36.615],[-85.5515,36.6157],[-85.552,36.6158],[-85.7886,36.6218]]]}},{"type":"Feature","id":"21173","properties":{"name":"Montgomery","fips":"21173"},"geometry":{"type":"Polygon","coordinates":[[[-83.9779,38.1921],[-83.8814,38.1365],[-83.7594,37.9987],[-83.7688,37.9184],[-83.9663,37.9308],[-84.0511,38.0705],[-84.0805,38.1151],[-83.9779,38.1921]]]}},{"type":"Feature","id":"21175","properties":{"name":"Morgan","fips":"21175"},"geometry":{"type":"Polygon","coordinates":[[[-83.0221,38.007],[-83.0161,37.9742],[-82.989,37.964],[-83.0046,37.8592],[-83.1133,37.8641],[-83.2697,37.766],[-83.2622,37.7127],[-83.4951,37.8619],[-83.4339,38.034],[-83.2633,38.1154],[-83.1944,38.0106],[-83.0221,38.007]]]}},{"type":"Feature","id":"21177","properties":{"name":"Muhlenberg","fips":"21177"},"geometry":{"type":"Polygon","coordinates":[[[-87.0998,37.416],[-86.8993,37.2123],[-86.8939,37.0885],[-86.9414,37.069],[-86.9764,37.0736],[-87.0532,37.061],[-87.2503,37.0406],[-87.2594,37.0724],[-87.3337,37.1572],[-87.3888,37.2614],[-87.296,37.3918],[-87.0998,37.416]]]}},{"type":"Feature","id":"21179","properties":{"name":"Nelson","fips":"21179"},"geometry":{"type":"Polygon","coordinates":[[[-85.1528,37.8977],[-85.299,37.8312],[-85.4018,37.7307],[-85.4505,37.6859],[-85.5213,37.5543],[-85.6233,37.5516],[-85.5921,37.6935],[-85.6805,37.7323],[-85.7378,37.8118],[-85.6513,37.829],[-85.4892,37.9907],[-85.3999,37.94],[-85.1678,37.9718],[-85.1528,37.8977]]]}},{"type":"Feature","id":"21181","properties":{"name":"Nicholas","fips":"21181"},"geometry":{"type":"Polygon","coordinates":[[[-83.98,38.4392],[-83.8484,38.2969],[-83.8504,38.2963],[-83.9779,38.1921],[-84.1202,38.2755],[-84.1941,38.3717],[-84.1021,38.4594],[-83.98,38.4392]]]}},{"type":"Feature","id":"21183","properties":{"name":"Ohio","fips":"21183"},"geometry":{"type":"Polygon","coordinates":[[[-86.6182,37.3913],[-86.7595,37.3041],[-86.8172,37.3276],[-86.8993,37.2123],[-87.0998,37.416],[-87.1031,37.4809],[-87.0494,37.5519],[-87.0383,37.5608],[-86.9488,37.6305],[-86.8175,37.6738],[-86.8234,37.7378],[-86.6389,37.6619],[-86.5928,37.5644],[-86.6641,37.5461],[-86.6121,37.3951],[-86.6182,37.3913]]]}},{"type":"Feature","id":"21185","properties":{"name":"Oldham","fips":"21185"},"geometry":{"type":"Polygon","coordinates":[[[-85.4682,38.2853],[-85.638,38.3803],[-85.638,38.3803],[-85.6329,38.3957],[-85.6205,38.4231],[-85.6076,38.4393],[-85.4625,38.5126],[-85.4331,38.5239],[-85.4329,38.5241],[-85.314,38.4926],[-85.3461,38.4595],[-85.2831,38.3581],[-85.3245,38.3101],[-85.4682,38.2853]]]}},{"type":"Feature","id":"21187","properties":{"name":"Owen","fips":"21187"},"geometry":{"type":"Polygon","coordinates":[[[-84.7406,38.3524],[-84.8705,38.3568],[-84.8802,38.4162],[-84.9633,38.4374],[-84.9772,38.513],[-85.0746,38.5968],[-84.9345,38.6621],[-84.7858,38.7205],[-84.7743,38.6186],[-84.5805,38.473],[-84.7406,38.3524]]]}},{"type":"Feature","id":"21189","properties":{"name":"Owsley","fips":"21189"},"geometry":{"type":"Polygon","coordinates":[[[-83.5269,37.2585],[-83.6539,37.3581],[-83.785,37.3487],[-83.8853,37.5177],[-83.8293,37.4868],[-83.6304,37.5375],[-83.5792,37.5062],[-83.5476,37.3344],[-83.5269,37.2585]]]}},{"type":"Feature","id":"21191","properties":{"name":"Pendleton","fips":"21191"},"geometry":{"type":"Polygon","coordinates":[[[-84.2325,38.8746],[-84.2337,38.8536],[-84.2313,38.8306],[-84.23,38.8276],[-84.2053,38.582],[-84.4763,38.5427],[-84.5323,38.7919],[-84.4202,38.8057],[-84.4181,38.8066],[-84.2325,38.8746]]]}},{"type":"Feature","id":"21193","properties":{"name":"Perry","fips":"21193"},"geometry":{"type":"Polygon","coordinates":[[[-83.1221,37.001],[-83.1243,37.0057],[-83.1367,37.0042],[-83.1444,37.0137],[-83.1601,37.0139],[-83.1608,37.0207],[-83.1717,37.0172],[-83.1821,37.0211],[-83.2019,37.1741],[-83.3246,37.2256],[-83.3518,37.2957],[-83.461,37.2938],[-83.5079,37.2359],[-83.5113,37.2551],[-83.5269,37.2585],[-83.5476,37.3344],[-83.4495,37.3789],[-83.3816,37.3383],[-83.2147,37.4435],[-83.1243,37.405],[-83.1272,37.2684],[-83.0001,37.1957],[-83.0588,37.1241],[-83.0546,37.02],[-83.1221,37.001]]]}},{"type":"Feature","id":"21195","properties":{"name":"Pike","fips":"21195"},"geometry":{"type":"Polygon","coordinates":[[[-82.3264,37.7408],[-82.3257,37.7358],[-82.3072,37.7077],[-82.297,37.6873],[-82.2503,37.6578],[-82.2197,37.643],[-82.1418,37.5951],[-82.1256,37.579],[-82.1259,37.574],[-82.1166,37.5596],[-82.0485,37.5311],[-82.0083,37.5334],[-81.9998,37.5426],[-81.9982,37.5431],[-81.9683,37.5378],[-82.2919,37.3116],[-82.3059,37.3011],[-82.3108,37.2974],[-82.3509,37.2671],[-82.5108,37.2181],[-82.5535,37.2009],[-82.5653,37.1961],[-82.5654,37.1961],[-82.7327,37.2715],[-82.7246,37.281],[-82.7189,37.2803],[-82.7108,37.2853],[-82.6724,37.3068],[-82.5847,37.4666],[-82.6231,37.5035],[-82.5636,37.6848],[-82.4561,37.6688],[-82.3264,37.7408]]]}},{"type":"Feature","id":"21197","properties":{"name":"Powell","fips":"21197"},"geometry":{"type":"Polygon","coordinates":[[[-83.7221,37.7164],[-83.9063,37.7594],[-84.002,37.8376],[-83.9663,37.9308],[-83.7688,37.9184],[-83.6311,37.8254],[-83.708,37.7165],[-83.7122,37.7201],[-83.7221,37.7164]]]}},{"type":"Feature","id":"21199","properties":{"name":"Pulaski","fips":"21199"},"geometry":{"type":"Polygon","coordinates":[[[-84.7207,37.2383],[-84.6481,37.2904],[-84.5565,37.3557],[-84.5029,37.3288],[-84.2891,37.1517],[-84.358,36.9594],[-84.5782,36.8671],[-84.6792,36.9809],[-84.7702,36.9577],[-84.8357,36.9976],[-84.9058,37.0472],[-84.9011,37.1163],[-84.8093,37.175],[-84.7207,37.2383]]]}},{"type":"Feature","id":"21201","properties":{"name":"Robertson","fips":"21201"},"geometry":{"type":"Polygon","coordinates":[[[-83.9303,38.4923],[-83.97,38.464],[-83.98,38.4392],[-84.1021,38.4594],[-84.1839,38.498],[-84.162,38.5541],[-83.9916,38.5937],[-83.9303,38.4923]]]}},{"type":"Feature","id":"21203","properties":{"name":"Rockcastle","fips":"21203"},"geometry":{"type":"Polygon","coordinates":[[[-84.5029,37.3288],[-84.4467,37.4859],[-84.3744,37.4727],[-84.3478,37.5391],[-84.1995,37.5229],[-84.1379,37.3198],[-84.2537,37.2395],[-84.2891,37.1517],[-84.5029,37.3288]]]}},{"type":"Feature","id":"21205","properties":{"name":"Rowan","fips":"21205"},"geometry":{"type":"Polygon","coordinates":[[[-83.4339,38.034],[-83.4988,38.0506],[-83.6352,38.1875],[-83.5072,38.2694],[-83.4528,38.3818],[-83.3413,38.3195],[-83.3067,38.2252],[-83.2443,38.1924],[-83.2633,38.1154],[-83.4339,38.034]]]}},{"type":"Feature","id":"21207","properties":{"name":"Russell","fips":"21207"},"geometry":{"type":"Polygon","coordinates":[[[-85.0433,37.186],[-84.9544,37.1023],[-84.9011,37.1163],[-84.9058,37.0472],[-84.8357,36.9976],[-85.0643,36.8587],[-85.1184,36.8273],[-85.2154,36.8545],[-85.275,36.8979],[-85.232,36.9251],[-85.2058,36.9969],[-85.0433,37.186]]]}},{"type":"Feature","id":"21209","properties":{"name":"Scott","fips":"21209"},"geometry":{"type":"Polygon","coordinates":[[[-84.7252,38.1954],[-84.7303,38.2083],[-84.7397,38.338],[-84.7406,38.3524],[-84.5805,38.473],[-84.5607,38.4924],[-84.5574,38.4929],[-84.4438,38.3243],[-84.4328,38.2994],[-84.4407,38.2964],[-84.4427,38.2832],[-84.4018,38.2079],[-84.6206,38.1295],[-84.6251,38.1164],[-84.7252,38.1954]]]}},{"type":"Feature","id":"21211","properties":{"name":"Shelby","fips":"21211"},"geometry":{"type":"Polygon","coordinates":[[[-85.4241,38.1474],[-85.4049,38.2637],[-85.4682,38.2853],[-85.3245,38.3101],[-85.2831,38.3581],[-84.9977,38.3356],[-85.0237,38.1291],[-85.1016,38.0373],[-85.2324,38.0894],[-85.4241,38.1474]]]}},{"type":"Feature","id":"21213","properties":{"name":"Simpson","fips":"21213"},"geometry":{"type":"Polygon","coordinates":[[[-86.4685,36.6518],[-86.4722,36.6518],[-86.4734,36.6517],[-86.4735,36.6517],[-86.5641,36.6335],[-86.5643,36.6335],[-86.605,36.6521],[-86.6064,36.6521],[-86.7589,36.649],[-86.7633,36.6489],[-86.6907,36.8443],[-86.6116,36.8831],[-86.5833,36.8303],[-86.4005,36.8072],[-86.4058,36.7762],[-86.4114,36.6506],[-86.4685,36.6518]]]}},{"type":"Feature","id":"21215","properties":{"name":"Spencer","fips":"21215"},"geometry":{"type":"Polygon","coordinates":[[[-85.4892,37.9907],[-85.4288,38.1184],[-85.4241,38.1474],[-85.2324,38.0894],[-85.1016,38.0373],[-85.1678,37.9718],[-85.3999,37.94],[-85.4892,37.9907]]]}},{"type":"Feature","id":"21217","properties":{"name":"Taylor","fips":"21217"},"geometry":{"type":"Polygon","coordinates":[[[-85.4663,37.4656],[-85.3404,37.4695],[-85.2468,37.4202],[-85.1714,37.4651],[-85.0738,37.4137],[-85.1652,37.3104],[-85.3147,37.2407],[-85.3528,37.1924],[-85.4781,37.3637],[-85.5845,37.4321],[-85.5835,37.4699],[-85.4663,37.4656]]]}},{"type":"Feature","id":"21219","properties":{"name":"Todd","fips":"21219"},"geometry":{"type":"Polygon","coordinates":[[[-87.115,36.6424],[-87.2305,36.6419],[-87.231,36.6419],[-87.2477,36.6418],[-87.2784,36.6417],[-87.2815,36.6418],[-87.336,36.6415],[-87.2594,37.0724],[-87.2503,37.0406],[-87.0532,37.061],[-87.0608,36.6434],[-87.115,36.6424],[-87.115,36.6424]]]}},{"type":"Feature","id":"21221","properties":{"name":"Trigg","fips":"21221"},"geometry":{"type":"Polygon","coordinates":[[[-87.6942,36.6368],[-87.8532,36.6332],[-87.8496,36.6637],[-88.0118,36.677],[-88.0705,36.6781],[-88.0842,36.7131],[-88.1108,36.7471],[-88.1573,36.8672],[-87.877,36.9601],[-87.7334,37.0021],[-87.6597,36.9664],[-87.6942,36.6368]]]}},{"type":"Feature","id":"21223","properties":{"name":"Trimble","fips":"21223"},"geometry":{"type":"Polygon","coordinates":[[[-85.1683,38.5854],[-85.314,38.4926],[-85.4329,38.5241],[-85.4231,38.5316],[-85.4173,38.5408],[-85.4156,38.5463],[-85.4158,38.5636],[-85.4275,38.5867],[-85.4394,38.6104],[-85.457,38.6891],[-85.4521,38.7093],[-85.4341,38.7295],[-85.422,38.7348],[-85.4109,38.7371],[-85.3333,38.7405],[-85.1683,38.5854]]]}},{"type":"Feature","id":"21225","properties":{"name":"Union","fips":"21225"},"geometry":{"type":"Polygon","coordinates":[[[-88.1334,37.5742],[-88.1334,37.5743],[-88.14,37.5865],[-88.1568,37.6328],[-88.1602,37.6576],[-88.1582,37.6645],[-88.1516,37.6751],[-88.1224,37.7097],[-88.0725,37.7333],[-88.0596,37.7426],[-88.051,37.7526],[-88.045,37.7624],[-88.039,37.7755],[-88.028,37.7992],[-88.0173,37.8019],[-88.0047,37.8001],[-87.9764,37.788],[-87.9709,37.7835],[-87.9438,37.7768],[-87.9068,37.8076],[-87.9038,37.8178],[-87.9078,37.8376],[-87.9103,37.8434],[-87.9149,37.8496],[-87.9273,37.8587],[-87.9362,37.8679],[-87.94,37.875],[-87.9408,37.8833],[-87.9401,37.8877],[-87.9368,37.8926],[-87.9274,37.902],[-87.8151,37.7624],[-87.7557,37.7278],[-87.7345,37.6384],[-87.9185,37.4929],[-87.933,37.4801],[-88.0156,37.5472],[-88.0613,37.5053],[-88.0633,37.5158],[-88.0722,37.5288],[-88.1215,37.5682],[-88.1332,37.5742],[-88.1333,37.5742],[-88.1334,37.5742]]]}},{"type":"Feature","id":"21227","properties":{"name":"Warren","fips":"21227"},"geometry":{"type":"Polygon","coordinates":[[[-86.3992,37.1699],[-86.2818,37.0806],[-86.2186,37.104],[-86.1135,37.0611],[-86.1667,36.934],[-86.4058,36.7762],[-86.4005,36.8072],[-86.5833,36.8303],[-86.6116,36.8831],[-86.6745,36.9998],[-86.6182,37.1839],[-86.3992,37.1699]]]}},{"type":"Feature","id":"21229","properties":{"name":"Washington","fips":"21229"},"geometry":{"type":"Polygon","coordinates":[[[-85.4018,37.7307],[-85.299,37.8312],[-85.1528,37.8977],[-85.0305,37.8915],[-85.0005,37.8546],[-85.025,37.6789],[-85.0302,37.6313],[-85.2573,37.6309],[-85.3736,37.6733],[-85.4018,37.7307]]]}},{"type":"Feature","id":"21231","properties":{"name":"Wayne","fips":"21231"},"geometry":{"type":"Polygon","coordinates":[[[-84.7853,36.6034],[-84.7854,36.6034],[-84.8598,36.6064],[-84.8597,36.6065],[-84.9749,36.6143],[-85.0041,36.7562],[-85.0643,36.8587],[-84.8357,36.9976],[-84.7702,36.9577],[-84.6792,36.9809],[-84.5782,36.8671],[-84.5793,36.8144],[-84.674,36.7395],[-84.7785,36.6032],[-84.7853,36.6034]]]}},{"type":"Feature","id":"21233","properties":{"name":"Webster","fips":"21233"},"geometry":{"type":"Polygon","coordinates":[[[-87.8134,37.3506],[-87.828,37.3537],[-87.82,37.366],[-87.8115,37.3641],[-87.801,37.3794],[-87.903,37.3982],[-87.933,37.4801],[-87.9185,37.4929],[-87.7345,37.6384],[-87.4953,37.6475],[-87.3751,37.57],[-87.5,37.4867],[-87.5936,37.462],[-87.8134,37.3506]]]}},{"type":"Feature","id":"21235","properties":{"name":"Whitley","fips":"21235"},"geometry":{"type":"Polygon","coordinates":[[[-83.9307,36.5882],[-83.9876,36.5896],[-83.9878,36.5896],[-84.2273,36.5917],[-84.3076,36.6768],[-84.35,36.7807],[-84.2974,36.9459],[-84.0919,36.956],[-84.0658,36.854],[-83.9585,36.7272],[-83.8775,36.6873],[-83.9573,36.6422],[-83.9307,36.5882]]]}},{"type":"Feature","id":"21237","properties":{"name":"Wolfe","fips":"21237"},"geometry":{"type":"Polygon","coordinates":[[[-83.708,37.7165],[-83.6311,37.8254],[-83.4951,37.8619],[-83.2622,37.7127],[-83.2436,37.6992],[-83.2585,37.6799],[-83.2487,37.6696],[-83.4185,37.6907],[-83.5223,37.6385],[-83.708,37.7165]]]}},{"type":"Feature","id":"21239","properties":{"name":"Woodford","fips":"21239"},"geometry":{"type":"Polygon","coordinates":[[[-84.6251,38.1164],[-84.6575,38.0178],[-84.6601,38.0037],[-84.7099,37.862],[-84.8188,37.9458],[-84.7963,37.9701],[-84.8649,38.1169],[-84.7252,38.1954],[-84.6251,38.1164]]]}}]}