{"type":"FeatureCollection","features":[{"type":"Feature","id":"22001","properties":{"name":"Acadia","fips":"22001"},"geometry":{"type":"Polygon","coordinates":[[[-92.2847,30.1474],[-92.426,30.0494],[-92.5346,30.1079],[-92.6255,30.0923],[-92.5911,30.1824],[-92.6266,30.2303],[-92.632,30.4811],[-92.6291,30.4806],[-92.4933,30.4805],[-92.2448,30.4802],[-92.1764,30.4369],[-92.1422,30.2988],[-92.2847,30.1474]]]}},{"type":"Feature","id":"22003","properties":{"name":"Allen","fips":"22003"},"geometry":{"type":"Polygon","coordinates":[[[-92.5974,30.5839],[-92.6303,30.4879],[-92.7223,30.4882],[-92.7756,30.4377],[-93.0655,30.4386],[-93.1312,30.4236],[-93.1303,30.5979],[-92.9792,30.5983],[-92.9769,30.774],[-92.9785,30.8782],[-92.8239,30.89],[-92.5977,30.8961],[-92.5974,30.5839]]]}},{"type":"Feature","id":"22005","properties":{"name":"Ascension","fips":"22005"},"geometry":{"type":"Polygon","coordinates":[[[-91.106,30.0625],[-91.0593,30.2131],[-91.021,30.3215],[-90.8917,30.3452],[-90.7746,30.2498],[-90.6898,30.1766],[-90.6328,30.2214],[-90.6329,30.2199],[-90.642,30.1664],[-90.9156,30.1133],[-90.9637,30.0664],[-91.106,30.0625]]]}},{"type":"Feature","id":"22007","properties":{"name":"Assumption","fips":"22007"},"geometry":{"type":"Polygon","coordinates":[[[-91.2244,30.0253],[-91.106,30.0625],[-90.9637,30.0664],[-90.9599,29.9779],[-90.8856,29.9054],[-91.0067,29.7148],[-91.0826,29.6264],[-91.1049,29.6425],[-91.1,29.6994],[-91.0927,29.8016],[-91.1828,29.8462],[-91.2552,29.9715],[-91.2594,30.0002],[-91.2359,30.0011],[-91.2244,30.0253]]]}},{"type":"Feature","id":"22009","properties":{"name":"Avoyelles","fips":"22009"},"geometry":{"type":"Polygon","coordinates":[[[-91.8153,30.8481],[-92.2127,30.8486],[-92.2807,30.9651],[-92.2083,30.9624],[-92.2343,31.1315],[-92.2332,31.3215],[-92.0867,31.3354],[-92.0081,31.3258],[-91.9948,31.2296],[-91.9269,31.2948],[-91.8343,31.2663],[-91.6773,31.188],[-91.7501,31.0188],[-91.806,30.9726],[-91.8153,30.8481]]]}},{"type":"Feature","id":"22011","properties":{"name":"Beauregard","fips":"22011"},"geometry":{"type":"Polygon","coordinates":[[[-93.7417,30.403],[-93.7027,30.4299],[-93.6983,30.4387],[-93.6978,30.4438],[-93.7101,30.5064],[-93.74,30.5388],[-93.7278,30.5741],[-93.5784,30.802],[-93.5633,30.8185],[-93.5587,30.8688],[-93.5586,30.8694],[-93.555,30.8767],[-93.5546,30.8775],[-92.9785,30.8782],[-92.9769,30.774],[-92.9792,30.5983],[-93.1303,30.5979],[-93.1312,30.4236],[-93.1311,30.4031],[-93.3851,30.4026],[-93.3847,30.4901],[-93.4864,30.4905],[-93.4861,30.4025],[-93.7417,30.403]]]}},{"type":"Feature","id":"22013","properties":{"name":"Bienville","fips":"22013"},"geometry":{"type":"Polygon","coordinates":[[[-93.4282,32.2359],[-93.3728,32.4102],[-93.2367,32.4101],[-93.1472,32.4552],[-93.1788,32.5849],[-92.8808,32.5853],[-92.8793,32.4541],[-92.7772,32.4535],[-92.7749,32.2371],[-92.8147,32.1469],[-92.9391,32.1479],[-93.1872,32.1484],[-93.214,32.2361],[-93.4282,32.2359]]]}},{"type":"Feature","id":"22015","properties":{"name":"Bossier","fips":"22015"},"geometry":{"type":"Polygon","coordinates":[[[-93.4282,32.2359],[-93.4579,32.236],[-93.4633,32.2372],[-93.4712,32.2372],[-93.659,32.4061],[-93.6856,32.3955],[-93.6614,32.4276],[-93.6995,32.4975],[-93.7674,32.5384],[-93.7395,32.5908],[-93.7821,32.7122],[-93.8192,32.736],[-93.7832,32.7844],[-93.8243,32.7925],[-93.7852,32.8574],[-93.8426,32.9468],[-93.8146,33.0194],[-93.8049,33.0193],[-93.5315,33.0186],[-93.5249,33.0186],[-93.521,33.0186],[-93.5304,32.9754],[-93.448,32.8663],[-93.4412,32.4104],[-93.3728,32.4102],[-93.4282,32.2359]]]}},{"type":"Feature","id":"22017","properties":{"name":"Caddo","fips":"22017"},"geometry":{"type":"Polygon","coordinates":[[[-94.0431,32.693],[-94.0431,32.693],[-94.0429,32.768],[-94.043,32.7769],[-94.0429,32.7806],[-94.0428,32.7853],[-94.0427,32.787],[-94.043,32.7975],[-94.0428,32.8715],[-94.043,32.8804],[-94.0429,32.881],[-94.0429,32.8811],[-94.0429,32.8928],[-94.0429,32.8989],[-94.0431,32.91],[-94.0431,32.9379],[-94.0431,32.9556],[-94.043,33.0192],[-94.0414,33.0192],[-94.0358,33.0191],[-94.028,33.0191],[-94.0245,33.0192],[-93.8146,33.0194],[-93.8426,32.9468],[-93.7852,32.8574],[-93.8243,32.7925],[-93.7832,32.7844],[-93.8192,32.736],[-93.7821,32.7122],[-93.7395,32.5908],[-93.7674,32.5384],[-93.6995,32.4975],[-93.6614,32.4276],[-93.6856,32.3955],[-93.659,32.4061],[-93.4712,32.2372],[-93.6147,32.2375],[-93.6665,32.3174],[-93.7913,32.3402],[-93.9511,32.1955],[-94.0426,32.196],[-94.0427,32.2181],[-94.0427,32.2696],[-94.0427,32.2697],[-94.0427,32.3636],[-94.0428,32.3733],[-94.0429,32.3923],[-94.0429,32.3999],[-94.0429,32.4007],[-94.043,32.4355],[-94.0429,32.4399],[-94.0429,32.4704],[-94.0429,32.4713],[-94.0429,32.4729],[-94.043,32.478],[-94.043,32.4803],[-94.0431,32.4843],[-94.0431,32.4866],[-94.0429,32.4929],[-94.0429,32.5051],[-94.0431,32.5136],[-94.0431,32.5595],[-94.0431,32.5643],[-94.0429,32.6101],[-94.0429,32.6183],[-94.0429,32.622],[-94.0428,32.6403],[-94.0428,32.6435],[-94.0429,32.6551],[-94.0431,32.693]]]}},{"type":"Feature","id":"22019","properties":{"name":"Calcasieu","fips":"22019"},"geometry":{"type":"Polygon","coordinates":[[[-93.7225,30.0509],[-93.7216,30.0519],[-93.7121,30.0673],[-93.6957,30.1357],[-93.6953,30.1476],[-93.712,30.1943],[-93.7162,30.2443],[-93.7206,30.296],[-93.7236,30.295],[-93.7359,30.2994],[-93.7658,30.3333],[-93.7577,30.3904],[-93.7514,30.3963],[-93.7417,30.403],[-93.4861,30.4025],[-93.4864,30.4905],[-93.3847,30.4901],[-93.3851,30.4026],[-93.1311,30.4031],[-93.031,30.3794],[-92.9963,30.157],[-92.8933,30.1563],[-92.8876,30.0825],[-92.9964,30.0385],[-93.1285,30.0526],[-93.7225,30.0509]]]}},{"type":"Feature","id":"22021","properties":{"name":"Caldwell","fips":"22021"},"geometry":{"type":"Polygon","coordinates":[[[-92.3126,31.9274],[-92.3122,32.1461],[-92.3119,32.2774],[-92.0344,32.2771],[-91.9799,32.1661],[-91.8947,32.1516],[-91.8897,31.9715],[-91.9044,31.9276],[-92.0054,31.9273],[-92.3126,31.9274]]]}},{"type":"Feature","id":"22023","properties":{"name":"Cameron","fips":"22023"},"geometry":{"type":"Polygon","coordinates":[[[-93.8408,29.9144],[-93.7894,29.9878],[-93.7566,30.0142],[-93.752,30.0164],[-93.7225,30.0509],[-93.1285,30.0526],[-92.9964,30.0385],[-92.7565,30.0393],[-92.7386,30.0373],[-92.6156,30.0382],[-92.6177,29.5791],[-92.6537,29.5881],[-92.7441,29.6176],[-92.8712,29.67],[-92.9405,29.701],[-92.9743,29.714],[-93.0654,29.741],[-93.0882,29.7491],[-93.1769,29.7705],[-93.2269,29.7775],[-93.2675,29.7781],[-93.2956,29.7751],[-93.3421,29.7634],[-93.345,29.7596],[-93.3473,29.759],[-93.372,29.763],[-93.439,29.7689],[-93.4753,29.7692],[-93.5385,29.7633],[-93.5908,29.7556],[-93.6353,29.7528],[-93.6836,29.7472],[-93.7419,29.7363],[-93.766,29.7295],[-93.7993,29.7153],[-93.819,29.7041],[-93.838,29.6906],[-93.8922,29.7652],[-93.8985,29.7716],[-93.8907,29.8432],[-93.8408,29.9144]]]}},{"type":"Feature","id":"22025","properties":{"name":"Catahoula","fips":"22025"},"geometry":{"type":"Polygon","coordinates":[[[-92.0081,31.3258],[-92.0054,31.9273],[-91.9044,31.9276],[-91.8897,31.9715],[-91.8049,31.8932],[-91.7292,31.8825],[-91.6475,31.9704],[-91.5969,31.9698],[-91.5757,31.8826],[-91.5448,31.7517],[-91.6016,31.7619],[-91.6945,31.7353],[-91.7059,31.6429],[-91.7758,31.6486],[-91.8244,31.5997],[-91.7383,31.4316],[-91.8071,31.4388],[-91.8571,31.4945],[-91.8559,31.4238],[-91.7768,31.3852],[-91.845,31.3759],[-91.8622,31.3023],[-91.8343,31.2663],[-91.9269,31.2948],[-91.9948,31.2296],[-92.0081,31.3258]]]}},{"type":"Feature","id":"22027","properties":{"name":"Claiborne","fips":"22027"},"geometry":{"type":"Polygon","coordinates":[[[-92.8808,32.5853],[-93.1788,32.5849],[-93.1866,32.7168],[-93.2374,32.7163],[-93.2386,33.018],[-93.1974,33.018],[-93.1544,33.0179],[-93.1014,33.0177],[-93.101,33.0178],[-93.0814,33.0179],[-93.0732,33.0179],[-93.0707,33.0178],[-92.9887,33.0173],[-92.9711,33.0172],[-92.9466,33.0168],[-92.8675,33.0161],[-92.8542,33.0161],[-92.8443,33.0161],[-92.8441,33.016],[-92.8308,33.0157],[-92.7332,33.0143],[-92.725,33.0144],[-92.7247,33.0143],[-92.7254,32.7595],[-92.8285,32.7588],[-92.8808,32.5853]]]}},{"type":"Feature","id":"22029","properties":{"name":"Concordia","fips":"22029"},"geometry":{"type":"Polygon","coordinates":[[[-91.3799,31.733],[-91.3979,31.7094],[-91.4001,31.6882],[-91.3981,31.6559],[-91.4047,31.6379],[-91.4221,31.6313],[-91.4413,31.6313],[-91.4527,31.6313],[-91.4647,31.6289],[-91.475,31.6217],[-91.478,31.6109],[-91.478,31.6049],[-91.478,31.5982],[-91.4774,31.5922],[-91.4708,31.5856],[-91.4587,31.5832],[-91.4486,31.583],[-91.4377,31.5808],[-91.4251,31.5778],[-91.4155,31.567],[-91.4167,31.5616],[-91.4227,31.5544],[-91.4376,31.5462],[-91.45,31.5397],[-91.4797,31.5304],[-91.5112,31.5326],[-91.5158,31.5309],[-91.5229,31.5198],[-91.5151,31.4492],[-91.5104,31.4389],[-91.5053,31.4329],[-91.5004,31.419],[-91.5051,31.4009],[-91.5138,31.3869],[-91.5254,31.3789],[-91.5412,31.3568],[-91.5399,31.3373],[-91.5312,31.3266],[-91.5198,31.3112],[-91.5089,31.2916],[-91.5156,31.2782],[-91.5224,31.2734],[-91.5476,31.2644],[-91.5745,31.2613],[-91.5985,31.2055],[-91.6,31.1923],[-91.6042,31.1545],[-91.5774,31.0782],[-91.5641,31.0668],[-91.5613,31.0609],[-91.5599,31.0541],[-91.5625,31.0432],[-91.5717,31.0298],[-91.5847,31.0202],[-91.6369,30.9994],[-91.6406,30.9961],[-91.6464,30.9861],[-91.6625,30.9704],[-91.7501,31.0188],[-91.6773,31.188],[-91.8343,31.2663],[-91.8622,31.3023],[-91.845,31.3759],[-91.7768,31.3852],[-91.8559,31.4238],[-91.8571,31.4945],[-91.8071,31.4388],[-91.7383,31.4316],[-91.8244,31.5997],[-91.7758,31.6486],[-91.7059,31.6429],[-91.6945,31.7353],[-91.6016,31.7619],[-91.5448,31.7517],[-91.3799,31.733]]]}},{"type":"Feature","id":"22031","properties":{"name":"De Soto","fips":"22031"},"geometry":{"type":"Polygon","coordinates":[[[-94.0156,31.9799],[-94.0427,31.9993],[-94.0427,32.056],[-94.0423,32.1199],[-94.0427,32.138],[-94.0426,32.1581],[-94.0425,32.1668],[-94.0426,32.1669],[-94.0426,32.196],[-93.9511,32.1955],[-93.7913,32.3402],[-93.6665,32.3174],[-93.6147,32.2375],[-93.536,32.1931],[-93.5414,32.1059],[-93.4415,31.9892],[-93.3555,31.9322],[-93.4406,31.9137],[-93.4412,31.8452],[-93.8782,31.8443],[-93.8892,31.8568],[-93.9203,31.8887],[-93.9321,31.8937],[-93.9754,31.9237],[-94.0156,31.9799]]]}},{"type":"Feature","id":"22033","properties":{"name":"East Baton Rouge","fips":"22033"},"geometry":{"type":"Polygon","coordinates":[[[-91.021,30.3215],[-91.1423,30.3199],[-91.1423,30.3204],[-91.1421,30.322],[-91.142,30.3227],[-91.1421,30.3233],[-91.2415,30.3576],[-91.1972,30.5071],[-91.2627,30.5052],[-91.2977,30.6495],[-91.2544,30.7053],[-90.849,30.7193],[-90.9107,30.6494],[-90.9809,30.59],[-90.9915,30.4618],[-90.8917,30.3452],[-91.021,30.3215]]]}},{"type":"Feature","id":"22035","properties":{"name":"East Carroll","fips":"22035"},"geometry":{"type":"Polygon","coordinates":[[[-91.0908,32.564],[-91.0906,32.5627],[-91.1337,32.5379],[-91.4576,32.5378],[-91.431,32.5612],[-91.4453,32.582],[-91.3448,32.7567],[-91.3094,32.9352],[-91.265,33.0051],[-91.1661,33.0041],[-91.2018,32.9612],[-91.214,32.9303],[-91.2128,32.9221],[-91.2083,32.9154],[-91.1968,32.9068],[-91.1754,32.9],[-91.16,32.8999],[-91.1451,32.9055],[-91.134,32.9177],[-91.1321,32.9231],[-91.1309,32.9638],[-91.1386,32.9714],[-91.1344,32.9805],[-91.1251,32.9847],[-91.1066,32.9889],[-91.0943,32.9844],[-91.0868,32.9763],[-91.064,32.9241],[-91.0638,32.9037],[-91.0706,32.8887],[-91.0867,32.8734],[-91.1056,32.8584],[-91.1161,32.8556],[-91.1279,32.8551],[-91.145,32.8429],[-91.1583,32.8223],[-91.1617,32.8125],[-91.1644,32.7858],[-91.1653,32.7513],[-91.1634,32.747],[-91.1545,32.7423],[-91.1232,32.7428],[-91.0772,32.7325],[-91.0608,32.7275],[-91.0545,32.7223],[-91.057,32.7126],[-91.0639,32.7029],[-91.0761,32.6938],[-91.0988,32.6853],[-91.1183,32.6741],[-91.1521,32.6415],[-91.1538,32.6313],[-91.1513,32.6159],[-91.1462,32.6041],[-91.1411,32.5972],[-91.1279,32.5865],[-91.1199,32.5848],[-91.1041,32.5847],[-91.0968,32.5767],[-91.0908,32.564]]]}},{"type":"Feature","id":"22037","properties":{"name":"East Feliciana","fips":"22037"},"geometry":{"type":"Polygon","coordinates":[[[-90.826,30.9994],[-90.8258,30.9994],[-90.863,30.942],[-90.849,30.7193],[-91.2544,30.7053],[-91.2977,30.6495],[-91.2989,30.6505],[-91.3012,30.6516],[-91.3038,30.652],[-91.3094,30.652],[-91.3101,30.654],[-91.3207,30.6994],[-91.2362,30.7951],[-91.1761,30.9991],[-91.1083,30.9989],[-91.1081,30.9989],[-91.0808,30.9989],[-91.0683,30.9989],[-91.0602,30.9989],[-90.826,30.9994]]]}},{"type":"Feature","id":"22039","properties":{"name":"Evangeline","fips":"22039"},"geometry":{"type":"Polygon","coordinates":[[[-92.6303,30.4879],[-92.5974,30.5839],[-92.5977,30.8961],[-92.5089,30.896],[-92.4803,30.9523],[-92.3827,31.0014],[-92.2807,30.9651],[-92.2127,30.8486],[-92.1726,30.7134],[-92.2112,30.5681],[-92.2627,30.5387],[-92.4208,30.5388],[-92.4933,30.4805],[-92.6291,30.4806],[-92.632,30.4811],[-92.6335,30.4823],[-92.6338,30.4833],[-92.6319,30.4837],[-92.6307,30.4833],[-92.63,30.4836],[-92.6302,30.4851],[-92.6295,30.4856],[-92.6293,30.4869],[-92.6303,30.4879]]]}},{"type":"Feature","id":"22041","properties":{"name":"Franklin","fips":"22041"},"geometry":{"type":"Polygon","coordinates":[[[-91.5757,31.8826],[-91.5969,31.9698],[-91.6475,31.9704],[-91.7292,31.8825],[-91.8049,31.8932],[-91.8897,31.9715],[-91.8947,32.1516],[-91.775,32.2433],[-91.7644,32.33],[-91.6349,32.4054],[-91.4767,32.4058],[-91.5267,32.3007],[-91.4927,32.2033],[-91.4898,32.0924],[-91.5757,31.8826]]]}},{"type":"Feature","id":"22043","properties":{"name":"Grant","fips":"22043"},"geometry":{"type":"Polygon","coordinates":[[[-92.9735,31.7089],[-92.62,31.7096],[-92.6192,31.7971],[-92.3626,31.7966],[-92.3477,31.6966],[-92.3844,31.6204],[-92.3069,31.5895],[-92.2662,31.4928],[-92.1961,31.4779],[-92.6319,31.3905],[-92.6947,31.4072],[-92.719,31.5176],[-92.8062,31.5985],[-92.9083,31.6252],[-92.9735,31.7089]]]}},{"type":"Feature","id":"22045","properties":{"name":"Iberia","fips":"22045"},"geometry":{"type":"MultiPolygon","coordinates":[[[[-92.0004,29.6131],[-92.0,29.613],[-91.965,29.608],[-91.9399,29.6103],[-91.935,29.6122],[-91.9296,29.6188],[-91.9228,29.6332],[-91.899,29.637],[-91.8968,29.6346],[-91.8823,29.6298],[-91.8661,29.6316],[-91.863,29.6337],[-91.8413,29.6296],[-91.839,29.6245],[-91.8409,29.6199],[-91.8383,29.616],[-91.8217,29.606],[-91.8038,29.5996],[-91.785,29.5952],[-91.7785,29.5892],[-91.7748,29.5821],[-91.7747,29.5764],[-91.7463,29.5743],[-91.7191,29.5656],[-91.7156,29.5658],[-91.712,29.5647],[-91.7092,29.561],[-91.7117,29.5543],[-91.734,29.5395],[-91.7471,29.5351],[-91.7654,29.5208],[-91.7719,29.5049],[-91.7725,29.499],[-91.7701,29.4938],[-91.7705,29.489],[-91.7824,29.4829],[-91.7891,29.4821],[-91.8001,29.4868],[-91.8034,29.4869],[-91.8146,29.4821],[-91.8216,29.4739],[-91.8385,29.4789],[-91.8487,29.4841],[-91.8526,29.495],[-91.8623,29.5024],[-91.8787,29.5029],[-91.8868,29.5056],[-91.9062,29.5181],[-91.9153,29.5185],[-91.947,29.5332],[-91.9693,29.5369],[-91.9857,29.5477],[-92.0268,29.5668],[-92.0355,29.5786],[-92.0412,29.5816],[-92.0386,29.585],[-92.0292,29.5844],[-92.0254,29.5854],[-92.0195,29.593],[-92.0098,29.5984],[-92.0064,29.6082],[-92.0004,29.6131]]],[[[-91.3688,30.0588],[-91.2244,30.0253],[-91.2359,30.0011],[-91.2594,30.0002],[-91.2552,29.9715],[-91.472,29.956],[-91.6247,29.9453],[-91.7111,29.8461],[-91.8756,29.7223],[-91.8756,29.7225],[-91.8756,29.728],[-91.8784,29.735],[-91.8797,29.7427],[-91.8784,29.751],[-91.8748,29.7601],[-91.8592,29.7833],[-91.8547,29.8074],[-91.87,29.8283],[-91.8891,29.836],[-91.9069,29.8309],[-91.916,29.8157],[-91.9191,29.8154],[-91.9407,29.817],[-91.9612,29.8102],[-91.9704,29.8043],[-91.9904,29.9703],[-91.9645,30.0369],[-91.9638,30.0382],[-91.9628,30.0414],[-91.951,30.0732],[-91.8192,30.044],[-91.7652,30.1085],[-91.6589,30.1082],[-91.6004,30.0332],[-91.3688,30.0588]]]]}},{"type":"Feature","id":"22047","properties":{"name":"Iberville","fips":"22047"},"geometry":{"type":"Polygon","coordinates":[[[-91.4753,30.2292],[-91.5628,30.2419],[-91.6211,30.3099],[-91.6401,30.4427],[-91.7009,30.4974],[-91.4851,30.4971],[-91.3117,30.3225],[-91.1421,30.3233],[-91.142,30.3227],[-91.1421,30.322],[-91.1423,30.3204],[-91.1423,30.3199],[-91.021,30.3215],[-91.0593,30.2131],[-91.106,30.0625],[-91.2244,30.0253],[-91.3688,30.0588],[-91.4638,30.1025],[-91.4753,30.2292]]]}},{"type":"Feature","id":"22049","properties":{"name":"Jackson","fips":"22049"},"geometry":{"type":"Polygon","coordinates":[[[-92.3119,32.2774],[-92.3122,32.1461],[-92.8147,32.1469],[-92.7749,32.2371],[-92.7772,32.4535],[-92.6217,32.453],[-92.6223,32.4964],[-92.4154,32.4955],[-92.4154,32.4078],[-92.3118,32.3208],[-92.3119,32.2774]]]}},{"type":"Feature","id":"22051","properties":{"name":"Jefferson","fips":"22051"},"geometry":{"type":"Polygon","coordinates":[[[-90.2282,29.692],[-90.1732,29.8275],[-90.2402,29.8621],[-90.2795,29.968],[-90.2803,29.9726],[-90.2801,29.9927],[-90.2795,30.0064],[-90.2797,30.0133],[-90.2792,30.0491],[-90.2779,30.2309],[-90.243,30.2244],[-90.1055,30.1918],[-90.1194,30.0366],[-90.1185,30.0298],[-90.121,30.022],[-90.1248,29.9758],[-90.1266,29.9703],[-90.1401,29.9479],[-90.0585,29.9453],[-90.0081,29.8955],[-90.0757,29.7719],[-89.98,29.6076],[-89.962,29.4329],[-89.9646,29.4346],[-89.9729,29.4437],[-89.992,29.4635],[-90.0125,29.4628],[-90.0186,29.4521],[-90.0224,29.4445],[-90.0295,29.432],[-90.1375,29.4772],[-90.1862,29.5633],[-90.1558,29.6775],[-90.2282,29.692]]]}},{"type":"Feature","id":"22053","properties":{"name":"Jefferson Davis","fips":"22053"},"geometry":{"type":"Polygon","coordinates":[[[-93.1312,30.4236],[-93.0655,30.4386],[-92.7756,30.4377],[-92.7223,30.4882],[-92.6303,30.4879],[-92.6293,30.4869],[-92.6295,30.4856],[-92.6302,30.4851],[-92.63,30.4836],[-92.6307,30.4833],[-92.6319,30.4837],[-92.6338,30.4833],[-92.6335,30.4823],[-92.632,30.4811],[-92.6266,30.2303],[-92.5911,30.1824],[-92.6255,30.0923],[-92.7386,30.0373],[-92.7565,30.0393],[-92.9964,30.0385],[-92.8876,30.0825],[-92.8933,30.1563],[-92.9963,30.157],[-93.031,30.3794],[-93.1311,30.4031],[-93.1312,30.4236]]]}},{"type":"Feature","id":"22059","properties":{"name":"La Salle","fips":"22059"},"geometry":{"type":"Polygon","coordinates":[[[-92.1961,31.4779],[-92.2662,31.4928],[-92.3069,31.5895],[-92.3844,31.6204],[-92.3477,31.6966],[-92.3626,31.7966],[-92.3126,31.9274],[-92.0054,31.9273],[-92.0081,31.3258],[-92.0867,31.3354],[-92.1961,31.4779]]]}},{"type":"Feature","id":"22055","properties":{"name":"Lafayette","fips":"22055"},"geometry":{"type":"Polygon","coordinates":[[[-92.2847,30.1474],[-92.1422,30.2988],[-92.0561,30.3782],[-91.9887,30.3686],[-91.9428,30.2366],[-91.9803,30.1852],[-91.9055,30.1546],[-91.951,30.0732],[-91.9628,30.0414],[-91.9638,30.0382],[-91.9645,30.0369],[-92.1281,30.1159],[-92.2847,30.1474]]]}},{"type":"Feature","id":"22057","properties":{"name":"Lafourche","fips":"22057"},"geometry":{"type":"Polygon","coordinates":[[[-90.0295,29.432],[-90.0323,29.427],[-90.0315,29.4125],[-90.0333,29.3933],[-90.0295,29.3881],[-90.0296,29.3867],[-90.03,29.3831],[-90.0308,29.375],[-90.0308,29.375],[-90.0309,29.3749],[-90.0336,29.3709],[-90.0354,29.3682],[-90.0364,29.3637],[-90.0328,29.3486],[-90.0318,29.3443],[-90.0343,29.3227],[-90.0285,29.3071],[-90.0138,29.3027],[-90.0097,29.2948],[-90.0163,29.2843],[-90.0195,29.2822],[-90.0321,29.28],[-90.0433,29.2825],[-90.0571,29.2813],[-90.0611,29.2767],[-90.0597,29.2726],[-90.0605,29.2677],[-90.0706,29.2625],[-90.0867,29.2593],[-90.0911,29.2614],[-90.0977,29.262],[-90.1012,29.2598],[-90.096,29.2407],[-90.0734,29.2273],[-90.0734,29.2106],[-90.0706,29.2087],[-90.0636,29.2095],[-90.0429,29.2118],[-90.0198,29.2319],[-90.0057,29.2406],[-89.97,29.2558],[-89.9657,29.2591],[-89.9595,29.2677],[-89.9512,29.2661],[-89.9499,29.2632],[-89.9508,29.2608],[-89.9565,29.2537],[-90.022,29.2161],[-90.0585,29.1837],[-90.0793,29.17],[-90.0887,29.1626],[-90.1042,29.1504],[-90.1743,29.1053],[-90.2236,29.0851],[-90.232,29.0877],[-90.2453,29.0858],[-90.3433,29.0571],[-90.3488,29.0578],[-90.3499,29.0637],[-90.3255,29.0751],[-90.3041,29.0773],[-90.2929,29.0788],[-90.283,29.0823],[-90.2663,29.0894],[-90.2581,29.0916],[-90.2531,29.0938],[-90.2498,29.1009],[-90.25,29.1081],[-90.2438,29.1105],[-90.2342,29.1103],[-90.2344,29.1288],[-90.2434,29.1363],[-90.2486,29.1384],[-90.269,29.1392],[-90.2805,29.1425],[-90.2783,29.1507],[-90.297,29.1713],[-90.3028,29.1751],[-90.3029,29.1879],[-90.3009,29.1962],[-90.2932,29.1998],[-90.2828,29.1925],[-90.2759,29.1937],[-90.2713,29.2046],[-90.2866,29.2257],[-90.3003,29.2312],[-90.3117,29.238],[-90.3115,29.2564],[-90.3161,29.2648],[-90.3328,29.277],[-90.3672,29.2741],[-90.3682,29.2707],[-90.367,29.265],[-90.3726,29.2589],[-90.3879,29.2528],[-90.3839,29.2356],[-90.3995,29.201],[-90.4086,29.1964],[-90.4094,29.1961],[-90.3767,29.3029],[-90.3843,29.3658],[-90.5746,29.5591],[-90.7668,29.6955],[-90.8077,29.7759],[-90.8802,29.7168],[-91.0067,29.7148],[-90.8856,29.9054],[-90.7857,29.9216],[-90.6563,29.8892],[-90.5419,29.8915],[-90.4754,29.8122],[-90.372,29.7592],[-90.3462,29.6933],[-90.2282,29.692],[-90.1558,29.6775],[-90.1862,29.5633],[-90.1375,29.4772],[-90.0295,29.432]]]}},{"type":"Feature","id":"22061","properties":{"name":"Lincoln","fips":"22061"},"geometry":{"type":"Polygon","coordinates":[[[-92.4151,32.5828],[-92.4154,32.4955],[-92.6223,32.4964],[-92.6217,32.453],[-92.7772,32.4535],[-92.8793,32.4541],[-92.8808,32.5853],[-92.8285,32.7588],[-92.7254,32.7595],[-92.5713,32.7486],[-92.5184,32.6707],[-92.415,32.6701],[-92.4151,32.5828]]]}},{"type":"Feature","id":"22063","properties":{"name":"Livingston","fips":"22063"},"geometry":{"type":"Polygon","coordinates":[[[-90.7746,30.2498],[-90.8917,30.3452],[-90.9915,30.4618],[-90.9809,30.59],[-90.9107,30.6494],[-90.5672,30.65],[-90.5461,30.4303],[-90.4013,30.2855],[-90.4979,30.2559],[-90.5586,30.1937],[-90.6328,30.2214],[-90.6898,30.1766],[-90.7746,30.2498]]]}},{"type":"Feature","id":"22065","properties":{"name":"Madison","fips":"22065"},"geometry":{"type":"Polygon","coordinates":[[[-91.0906,32.5627],[-91.0894,32.5533],[-91.0937,32.5491],[-91.0979,32.5448],[-91.1167,32.5001],[-91.116,32.4831],[-91.1088,32.472],[-91.0953,32.4587],[-91.0702,32.4451],[-91.0529,32.4384],[-91.0296,32.4335],[-90.9941,32.4039],[-91.0045,32.3681],[-91.0035,32.3621],[-91.0001,32.3577],[-90.9867,32.3518],[-90.9124,32.3395],[-90.9015,32.3379],[-90.8986,32.3291],[-90.9052,32.3155],[-91.0046,32.2154],[-91.0063,32.2242],[-91.0215,32.2361],[-91.039,32.2423],[-91.0465,32.2411],[-91.1226,32.2169],[-91.1338,32.2493],[-91.3207,32.2025],[-91.4927,32.2033],[-91.5267,32.3007],[-91.4767,32.4058],[-91.4576,32.5378],[-91.1337,32.5379],[-91.0906,32.5627]]]}},{"type":"Feature","id":"22067","properties":{"name":"Morehouse","fips":"22067"},"geometry":{"type":"Polygon","coordinates":[[[-91.9131,32.5059],[-91.911,32.6611],[-92.0652,32.723],[-92.0691,33.0082],[-91.952,33.0074],[-91.95,33.0075],[-91.6267,33.0066],[-91.6176,33.0067],[-91.609,33.0066],[-91.5798,33.0065],[-91.5796,33.0065],[-91.5723,33.0069],[-91.5595,33.0068],[-91.4604,33.0062],[-91.4358,33.0061],[-91.5115,32.879],[-91.5664,32.8556],[-91.6376,32.6673],[-91.7423,32.5589],[-91.8043,32.5713],[-91.9131,32.5059]]]}},{"type":"Feature","id":"22069","properties":{"name":"Natchitoches","fips":"22069"},"geometry":{"type":"Polygon","coordinates":[[[-93.4412,31.8452],[-93.4406,31.9137],[-93.3555,31.9322],[-93.2395,31.9035],[-93.2385,31.9728],[-93.1227,31.9727],[-93.1872,32.1484],[-92.9391,32.1479],[-92.8722,31.9459],[-92.9668,31.7813],[-92.9735,31.7089],[-92.9083,31.6252],[-92.8062,31.5985],[-92.719,31.5176],[-92.913,31.3682],[-92.9815,31.3466],[-93.2361,31.3645],[-93.2367,31.5383],[-93.3375,31.5381],[-93.339,31.7143],[-93.4417,31.7145],[-93.4412,31.8452]]]}},{"type":"Feature","id":"22071","properties":{"name":"Orleans","fips":"22071"},"geometry":{"type":"Polygon","coordinates":[[[-90.1248,29.9758],[-90.121,30.022],[-90.1185,30.0298],[-90.1194,30.0366],[-90.1055,30.1918],[-89.9943,30.15],[-89.8787,30.1992],[-89.7941,30.1513],[-89.7492,30.1764],[-89.6229,30.1524],[-89.6251,30.1507],[-89.641,30.1386],[-89.6445,30.1341],[-89.6505,30.1266],[-89.657,30.1184],[-89.6586,30.1174],[-89.6682,30.1113],[-89.6686,30.111],[-89.6692,30.1107],[-89.6692,30.1107],[-89.6729,30.1105],[-89.6741,30.1104],[-89.6746,30.1104],[-89.675,30.1102],[-89.6758,30.1097],[-89.6761,30.1095],[-89.6782,30.1083],[-89.6782,30.1083],[-89.6783,30.1077],[-89.6785,30.1071],[-89.6785,30.1069],[-89.6797,30.1021],[-89.6798,30.1014],[-89.6798,30.1013],[-89.68,30.1005],[-89.6804,30.0992],[-89.6805,30.0986],[-89.6813,30.0954],[-89.6819,30.0927],[-89.6821,30.0921],[-89.6822,30.0915],[-89.6822,30.0915],[-89.6823,30.0906],[-89.6823,30.0905],[-89.6823,30.09],[-89.6824,30.0896],[-89.6824,30.0894],[-89.6824,30.0892],[-89.6827,30.0864],[-89.6831,30.0827],[-89.6832,30.0815],[-89.6837,30.076],[-89.6976,30.0708],[-89.6985,30.0705],[-89.6985,30.0705],[-89.6989,30.0705],[-89.6991,30.0704],[-89.6996,30.0704],[-89.7118,30.0692],[-89.7129,30.0691],[-89.713,30.0691],[-89.7141,30.0686],[-89.7148,30.0683],[-89.7155,30.068],[-89.7159,30.0678],[-89.7162,30.0676],[-89.7164,30.0675],[-89.7168,30.0674],[-89.7169,30.0673],[-89.722,30.0651],[-89.7244,30.064],[-89.7263,30.0632],[-89.7275,30.0627],[-89.728,30.0618],[-89.7296,30.0596],[-89.7297,30.0595],[-89.7298,30.0593],[-89.7299,30.0591],[-89.731,30.0576],[-89.731,30.0576],[-89.7312,30.0546],[-89.7314,30.0514],[-89.7315,30.051],[-89.7315,30.0497],[-89.7315,30.0497],[-89.7315,30.0497],[-89.7163,30.0281],[-89.7163,30.0281],[-89.7163,30.0281],[-89.7163,30.0274],[-89.7163,30.0272],[-89.7164,30.0267],[-89.7164,30.0262],[-89.7246,30.0225],[-89.7247,30.0225],[-89.7258,30.0224],[-89.7333,30.0221],[-89.7344,30.0229],[-89.739,30.0266],[-89.7396,30.0271],[-89.7409,30.0281],[-89.7458,30.0321],[-89.7463,30.0324],[-89.7465,30.0326],[-89.7465,30.0326],[-89.7571,30.0387],[-89.7632,30.0421],[-89.7825,30.0454],[-89.7846,30.0453],[-89.8137,30.0436],[-89.8186,30.0433],[-89.8298,30.0333],[-89.8304,30.0327],[-89.8322,30.0311],[-89.833,30.0304],[-89.8338,30.0297],[-89.8346,30.0289],[-89.8352,30.0284],[-89.8399,30.0242],[-89.8399,30.0241],[-89.841,30.023],[-89.8417,30.0221],[-89.8545,30.0078],[-89.9899,29.9895],[-90.0121,29.946],[-89.921,29.9157],[-89.911,29.8685],[-90.0081,29.8955],[-90.0585,29.9453],[-90.1401,29.9479],[-90.1266,29.9703],[-90.1248,29.9758]]]}},{"type":"Feature","id":"22073","properties":{"name":"Ouachita","fips":"22073"},"geometry":{"type":"Polygon","coordinates":[[[-92.0652,32.723],[-91.911,32.6611],[-91.9131,32.5059],[-92.0043,32.3805],[-92.0344,32.2771],[-92.3119,32.2774],[-92.3118,32.3208],[-92.4154,32.4078],[-92.4154,32.4955],[-92.4151,32.5828],[-92.2723,32.581],[-92.0652,32.723]]]}},{"type":"Feature","id":"22075","properties":{"name":"Plaquemines","fips":"22075"},"geometry":{"type":"Polygon","coordinates":[[[-89.911,29.8685],[-89.8697,29.7955],[-89.721,29.7577],[-89.6282,29.6807],[-89.5186,29.6491],[-89.4867,29.621],[-89.4869,29.6204],[-89.5047,29.6315],[-89.523,29.6394],[-89.5352,29.6486],[-89.5833,29.6528],[-89.6089,29.6577],[-89.6211,29.6571],[-89.6235,29.6626],[-89.6327,29.6717],[-89.6443,29.6754],[-89.6497,29.6729],[-89.6412,29.648],[-89.6412,29.6358],[-89.6473,29.6254],[-89.6577,29.6242],[-89.6747,29.6266],[-89.6845,29.6248],[-89.6881,29.6151],[-89.6845,29.6029],[-89.6711,29.5882],[-89.6686,29.5803],[-89.6845,29.5633],[-89.6845,29.5511],[-89.6811,29.5345],[-89.6962,29.525],[-89.6997,29.5234],[-89.7008,29.5208],[-89.7005,29.516],[-89.6939,29.5086],[-89.6658,29.49],[-89.644,29.4923],[-89.6353,29.4893],[-89.6176,29.4683],[-89.5965,29.4563],[-89.5925,29.4498],[-89.5895,29.4377],[-89.5771,29.4337],[-89.5746,29.4357],[-89.5747,29.4411],[-89.5487,29.4657],[-89.5284,29.4547],[-89.5322,29.4346],[-89.5319,29.4257],[-89.5184,29.4002],[-89.5086,29.3862],[-89.505,29.386],[-89.4873,29.3933],[-89.4844,29.3975],[-89.4823,29.4062],[-89.4771,29.4112],[-89.4701,29.4015],[-89.4573,29.3931],[-89.4224,29.3906],[-89.38,29.3918],[-89.3731,29.3872],[-89.3555,29.3816],[-89.3403,29.3814],[-89.3366,29.3782],[-89.3476,29.365],[-89.3507,29.3495],[-89.3232,29.344],[-89.3038,29.3575],[-89.283,29.3565],[-89.2725,29.3512],[-89.2653,29.3454],[-89.2579,29.3369],[-89.2535,29.3228],[-89.2409,29.3101],[-89.2242,29.3138],[-89.2234,29.3181],[-89.2197,29.3244],[-89.2047,29.3387],[-89.2004,29.3444],[-89.2006,29.3477],[-89.1894,29.3451],[-89.1795,29.3396],[-89.1774,29.3352],[-89.1782,29.327],[-89.165,29.303],[-89.1576,29.2967],[-89.1403,29.2911],[-89.1343,29.2793],[-89.137,29.2752],[-89.1297,29.2656],[-89.1001,29.2502],[-89.0962,29.2429],[-89.0955,29.238],[-89.0984,29.233],[-89.1058,29.2316],[-89.1062,29.2159],[-89.1007,29.2063],[-89.0907,29.2],[-89.0683,29.2042],[-89.0674,29.2086],[-89.0291,29.221],[-89.0219,29.2182],[-89.0152,29.2116],[-89.0007,29.1801],[-89.0053,29.1649],[-89.0133,29.1633],[-89.0183,29.165],[-89.0243,29.17],[-89.0439,29.1625],[-89.0472,29.1578],[-89.0387,29.1424],[-89.032,29.1447],[-89.0241,29.1373],[-89.0239,29.1337],[-89.026,29.1301],[-89.052,29.1066],[-89.0555,29.0842],[-89.0623,29.0702],[-89.0913,29.0669],[-89.0981,29.068],[-89.105,29.0736],[-89.1215,29.0691],[-89.1435,29.0476],[-89.1563,29.0288],[-89.162,29.0159],[-89.1623,29.0117],[-89.1648,29.0087],[-89.1698,29.0087],[-89.1757,29.0121],[-89.1861,29.018],[-89.1821,29.0255],[-89.1899,29.0326],[-89.1979,29.0297],[-89.2026,29.0316],[-89.2111,29.0408],[-89.2161,29.0564],[-89.2155,29.0614],[-89.2172,29.0673],[-89.2259,29.0787],[-89.2363,29.0846],[-89.2547,29.0833],[-89.2573,29.0811],[-89.2569,29.0738],[-89.2536,29.065],[-89.2594,29.0584],[-89.2832,29.0533],[-89.2911,29.0531],[-89.3049,29.0464],[-89.3154,29.0391],[-89.3181,29.0353],[-89.3152,29.0327],[-89.3248,29.0138],[-89.3352,29.015],[-89.3382,29.0129],[-89.3838,28.9474],[-89.4115,28.925],[-89.4199,28.9297],[-89.4124,28.9575],[-89.4082,28.9653],[-89.3981,28.977],[-89.3821,28.9815],[-89.375,28.9854],[-89.3347,29.0403],[-89.3398,29.0522],[-89.3548,29.0725],[-89.3745,29.0842],[-89.4057,29.0869],[-89.4112,29.1058],[-89.4094,29.1279],[-89.4177,29.1387],[-89.429,29.1445],[-89.4329,29.149],[-89.4475,29.1786],[-89.4558,29.191],[-89.4723,29.2076],[-89.4828,29.2151],[-89.5366,29.2362],[-89.6067,29.252],[-89.6718,29.289],[-89.6973,29.2967],[-89.7262,29.304],[-89.7821,29.3111],[-89.8199,29.3102],[-89.8503,29.3118],[-89.8551,29.335],[-89.8537,29.3406],[-89.8471,29.3492],[-89.835,29.359],[-89.8208,29.3775],[-89.8169,29.3844],[-89.8162,29.3935],[-89.8169,29.3988],[-89.8192,29.4042],[-89.8222,29.4095],[-89.826,29.4156],[-89.8354,29.4185],[-89.8436,29.4217],[-89.8451,29.4346],[-89.8368,29.454],[-89.8337,29.4567],[-89.8337,29.4597],[-89.8329,29.4635],[-89.8337,29.4673],[-89.8344,29.4704],[-89.8405,29.4734],[-89.8496,29.478],[-89.8626,29.4765],[-89.8762,29.4722],[-89.9022,29.46],[-89.919,29.4443],[-89.9326,29.4293],[-89.9554,29.4285],[-89.962,29.4329],[-89.98,29.6076],[-90.0757,29.7719],[-90.0081,29.8955],[-89.911,29.8685]]]}},{"type":"Feature","id":"22077","properties":{"name":"Pointe Coupee","fips":"22077"},"geometry":{"type":"Polygon","coordinates":[[[-91.4149,30.5352],[-91.4851,30.4971],[-91.7009,30.4974],[-91.7562,30.4977],[-91.7337,30.7017],[-91.8153,30.8481],[-91.806,30.9726],[-91.7501,31.0188],[-91.6625,30.9704],[-91.6614,30.8571],[-91.5156,30.8614],[-91.553,30.7308],[-91.3806,30.7588],[-91.3531,30.7218],[-91.3407,30.6702],[-91.3309,30.6587],[-91.4149,30.5352]]]}},{"type":"Feature","id":"22079","properties":{"name":"Rapides","fips":"22079"},"geometry":{"type":"Polygon","coordinates":[[[-92.5977,30.8961],[-92.8239,30.89],[-92.8297,31.2523],[-92.8798,31.3174],[-92.9815,31.3466],[-92.913,31.3682],[-92.719,31.5176],[-92.6947,31.4072],[-92.6319,31.3905],[-92.1961,31.4779],[-92.0867,31.3354],[-92.2332,31.3215],[-92.2343,31.1315],[-92.2083,30.9624],[-92.2807,30.9651],[-92.3827,31.0014],[-92.4803,30.9523],[-92.5089,30.896],[-92.5977,30.8961]]]}},{"type":"Feature","id":"22081","properties":{"name":"Red River","fips":"22081"},"geometry":{"type":"Polygon","coordinates":[[[-93.6147,32.2375],[-93.4712,32.2372],[-93.4633,32.2372],[-93.4579,32.236],[-93.4282,32.2359],[-93.214,32.2361],[-93.1872,32.1484],[-93.1227,31.9727],[-93.2385,31.9728],[-93.2395,31.9035],[-93.3555,31.9322],[-93.4415,31.9892],[-93.5414,32.1059],[-93.536,32.1931],[-93.6147,32.2375]]]}},{"type":"Feature","id":"22083","properties":{"name":"Richland","fips":"22083"},"geometry":{"type":"Polygon","coordinates":[[[-91.4767,32.4058],[-91.6349,32.4054],[-91.7644,32.33],[-91.775,32.2433],[-91.8947,32.1516],[-91.9799,32.1661],[-92.0344,32.2771],[-92.0043,32.3805],[-91.9131,32.5059],[-91.8043,32.5713],[-91.7423,32.5589],[-91.6376,32.6673],[-91.596,32.5822],[-91.4453,32.582],[-91.431,32.5612],[-91.4576,32.5378],[-91.4767,32.4058]]]}},{"type":"Feature","id":"22085","properties":{"name":"Sabine","fips":"22085"},"geometry":{"type":"Polygon","coordinates":[[[-93.8186,31.5548],[-93.8349,31.5862],[-93.8349,31.5862],[-93.8263,31.6149],[-93.8171,31.6717],[-93.8125,31.7152],[-93.84,31.8006],[-93.8782,31.8443],[-93.4412,31.8452],[-93.4417,31.7145],[-93.339,31.7143],[-93.3375,31.5381],[-93.2367,31.5383],[-93.2361,31.3645],[-93.3905,31.3641],[-93.4426,31.2767],[-93.5349,31.2766],[-93.5525,31.1856],[-93.5526,31.1856],[-93.5792,31.1674],[-93.5885,31.1656],[-93.5988,31.1747],[-93.5997,31.1765],[-93.6023,31.1817],[-93.6072,31.2048],[-93.6082,31.2278],[-93.6144,31.2609],[-93.6208,31.2713],[-93.6444,31.2771],[-93.6717,31.2996],[-93.6408,31.3725],[-93.6702,31.3872],[-93.6959,31.4094],[-93.7296,31.4879],[-93.7981,31.534],[-93.8186,31.5548]]]}},{"type":"Feature","id":"22087","properties":{"name":"St. Bernard","fips":"22087"},"geometry":{"type":"MultiPolygon","coordinates":[[[[-89.911,29.8685],[-89.921,29.9157],[-90.0121,29.946],[-89.9899,29.9895],[-89.8545,30.0078],[-89.8576,30.0044],[-89.8523,29.9777],[-89.8442,29.9556],[-89.8385,29.9458],[-89.829,29.9392],[-89.818,29.9341],[-89.8045,29.9326],[-89.7755,29.9374],[-89.7485,29.9458],[-89.7279,29.9588],[-89.7191,29.9537],[-89.7129,29.9463],[-89.7363,29.9363],[-89.7427,29.9359],[-89.7463,29.9282],[-89.7425,29.9082],[-89.7112,29.8793],[-89.692,29.8687],[-89.6716,29.8675],[-89.6606,29.8629],[-89.638,29.8641],[-89.6132,29.8722],[-89.5981,29.8814],[-89.5912,29.897],[-89.5923,29.9173],[-89.5831,29.9317],[-89.5831,29.9456],[-89.575,29.9595],[-89.5744,29.9837],[-89.5814,29.9947],[-89.5715,29.9999],[-89.5513,30.0057],[-89.5016,30.034],[-89.4941,30.041],[-89.4946,30.0508],[-89.4993,30.0589],[-89.4935,30.0722],[-89.4819,30.0791],[-89.4589,30.0634],[-89.4446,30.061],[-89.429,30.0522],[-89.4185,30.0497],[-89.3724,30.0547],[-89.3686,30.0473],[-89.3724,30.0367],[-89.3811,30.0304],[-89.3936,30.0298],[-89.416,30.0205],[-89.4228,30.0155],[-89.4328,30.008],[-89.4334,29.9912],[-89.4328,29.9788],[-89.4054,29.9657],[-89.3936,29.9663],[-89.3792,29.9638],[-89.3786,29.9196],[-89.368,29.9115],[-89.3319,29.9158],[-89.3155,29.9232],[-89.2836,29.9733],[-89.2733,29.9938],[-89.2505,30.0024],[-89.2437,29.9972],[-89.25,29.9756],[-89.2181,29.9728],[-89.2238,29.9619],[-89.2312,29.9255],[-89.2448,29.93],[-89.2631,29.9295],[-89.2801,29.9249],[-89.3183,29.8981],[-89.3223,29.8873],[-89.3115,29.8816],[-89.2893,29.8805],[-89.2722,29.8868],[-89.2414,29.8896],[-89.2363,29.8868],[-89.2363,29.8771],[-89.2545,29.8646],[-89.2699,29.86],[-89.295,29.8571],[-89.3177,29.8509],[-89.3633,29.8458],[-89.3838,29.8389],[-89.3832,29.8304],[-89.373,29.8253],[-89.3456,29.8201],[-89.3428,29.7985],[-89.332,29.7905],[-89.3183,29.7888],[-89.2933,29.8031],[-89.2773,29.8076],[-89.2773,29.7996],[-89.2841,29.7956],[-89.2847,29.77],[-89.2693,29.7609],[-89.271,29.7564],[-89.3052,29.7569],[-89.316,29.7609],[-89.3251,29.7723],[-89.3377,29.7791],[-89.3542,29.7814],[-89.3673,29.7751],[-89.3861,29.7888],[-89.3946,29.7848],[-89.3992,29.7706],[-89.4145,29.7524],[-89.4282,29.7416],[-89.4242,29.6976],[-89.4481,29.7033],[-89.472,29.7186],[-89.487,29.7259],[-89.5061,29.7317],[-89.5303,29.7437],[-89.5401,29.7437],[-89.5602,29.7355],[-89.5729,29.7466],[-89.5981,29.7476],[-89.634,29.753],[-89.6512,29.7495],[-89.6497,29.7199],[-89.6446,29.711],[-89.6184,29.7008],[-89.599,29.7049],[-89.593,29.702],[-89.5997,29.6903],[-89.5968,29.6842],[-89.5739,29.674],[-89.5573,29.6702],[-89.5338,29.6702],[-89.4879,29.6304],[-89.4854,29.6244],[-89.4867,29.621],[-89.5186,29.6491],[-89.6282,29.6807],[-89.721,29.7577],[-89.8697,29.7955],[-89.911,29.8685]]],[[[-88.8651,29.7527],[-88.8898,29.7182],[-88.9403,29.6572],[-88.9444,29.6588],[-88.9463,29.6626],[-88.9416,29.6748],[-88.9202,29.6943],[-88.9118,29.6993],[-88.8901,29.7292],[-88.8736,29.758],[-88.868,29.7723],[-88.868,29.7913],[-88.8613,29.8058],[-88.8465,29.8171],[-88.843,29.826],[-88.8363,29.8552],[-88.8368,29.859],[-88.8433,29.8638],[-88.8312,29.8788],[-88.8282,29.9207],[-88.8374,29.9449],[-88.8387,29.9623],[-88.8355,29.9677],[-88.8355,29.9741],[-88.8398,29.9838],[-88.8409,29.9956],[-88.8484,30.0133],[-88.8574,30.0278],[-88.8697,30.0438],[-88.8815,30.0532],[-88.8705,30.0492],[-88.8556,30.0344],[-88.8412,30.0128],[-88.8337,29.9988],[-88.8242,29.9705],[-88.817,29.9342],[-88.8181,29.8891],[-88.8265,29.8471],[-88.8327,29.8241],[-88.8441,29.7957],[-88.8651,29.7527]]]]}},{"type":"Feature","id":"22089","properties":{"name":"St. Charles","fips":"22089"},"geometry":{"type":"Polygon","coordinates":[[[-90.1732,29.8275],[-90.2282,29.692],[-90.3462,29.6933],[-90.372,29.7592],[-90.4754,29.8122],[-90.5419,29.8915],[-90.5381,30.0169],[-90.4491,30.0329],[-90.2779,30.2309],[-90.2792,30.0491],[-90.2797,30.0133],[-90.2795,30.0064],[-90.2801,29.9927],[-90.2803,29.9726],[-90.2795,29.968],[-90.2402,29.8621],[-90.1732,29.8275]]]}},{"type":"Feature","id":"22091","properties":{"name":"St. Helena","fips":"22091"},"geometry":{"type":"Polygon","coordinates":[[[-90.8258,30.9994],[-90.7837,30.9994],[-90.7799,30.9995],[-90.776,30.9995],[-90.7693,30.9994],[-90.7588,30.9996],[-90.7346,30.9992],[-90.7345,30.9992],[-90.6512,30.9995],[-90.6487,30.9995],[-90.5887,30.9996],[-90.5874,30.9996],[-90.5844,30.9997],[-90.5835,30.9997],[-90.5672,30.9997],[-90.5659,30.6639],[-90.5672,30.65],[-90.9107,30.6494],[-90.849,30.7193],[-90.863,30.942],[-90.8258,30.9994]]]}},{"type":"Feature","id":"22093","properties":{"name":"St. James","fips":"22093"},"geometry":{"type":"Polygon","coordinates":[[[-90.9637,30.0664],[-90.9156,30.1133],[-90.642,30.1664],[-90.6889,30.036],[-90.6563,29.8892],[-90.7857,29.9216],[-90.8856,29.9054],[-90.9599,29.9779],[-90.9637,30.0664]]]}},{"type":"Feature","id":"22095","properties":{"name":"St. John the Baptist","fips":"22095"},"geometry":{"type":"Polygon","coordinates":[[[-90.642,30.1664],[-90.6329,30.2199],[-90.6328,30.2214],[-90.5586,30.1937],[-90.4979,30.2559],[-90.4013,30.2855],[-90.2974,30.2937],[-90.2779,30.2309],[-90.4491,30.0329],[-90.5381,30.0169],[-90.5419,29.8915],[-90.6563,29.8892],[-90.6889,30.036],[-90.642,30.1664]]]}},{"type":"Feature","id":"22097","properties":{"name":"St. Landry","fips":"22097"},"geometry":{"type":"Polygon","coordinates":[[[-92.4933,30.4805],[-92.4208,30.5388],[-92.2627,30.5387],[-92.2112,30.5681],[-92.1726,30.7134],[-92.2127,30.8486],[-91.8153,30.8481],[-91.7337,30.7017],[-91.7562,30.4977],[-91.6789,30.3947],[-91.8693,30.4172],[-91.9887,30.3686],[-92.0561,30.3782],[-92.1422,30.2988],[-92.1764,30.4369],[-92.2448,30.4802],[-92.4933,30.4805]]]}},{"type":"Feature","id":"22099","properties":{"name":"St. Martin","fips":"22099"},"geometry":{"type":"MultiPolygon","coordinates":[[[[-91.472,29.956],[-91.2552,29.9715],[-91.1828,29.8462],[-91.0927,29.8016],[-91.1,29.6994],[-91.2152,29.7512],[-91.3865,29.7837],[-91.3736,29.8344],[-91.472,29.956]]],[[[-91.7009,30.4974],[-91.6401,30.4427],[-91.6211,30.3099],[-91.5628,30.2419],[-91.4753,30.2292],[-91.4638,30.1025],[-91.3688,30.0588],[-91.6004,30.0332],[-91.6589,30.1082],[-91.7652,30.1085],[-91.8192,30.044],[-91.951,30.0732],[-91.9055,30.1546],[-91.9803,30.1852],[-91.9428,30.2366],[-91.9887,30.3686],[-91.8693,30.4172],[-91.6789,30.3947],[-91.7562,30.4977],[-91.7009,30.4974]]]]}},{"type":"Feature","id":"22101","properties":{"name":"St. Mary","fips":"22101"},"geometry":{"type":"Polygon","coordinates":[[[-91.0826,29.6264],[-91.178,29.6097],[-91.2607,29.5445],[-91.2656,29.4724],[-91.2813,29.4815],[-91.2943,29.4769],[-91.3357,29.4859],[-91.3436,29.4926],[-91.3459,29.5045],[-91.3566,29.5152],[-91.4022,29.5119],[-91.4204,29.5157],[-91.4271,29.5202],[-91.4323,29.5328],[-91.4399,29.5404],[-91.4473,29.5447],[-91.4687,29.5443],[-91.5173,29.5297],[-91.531,29.5315],[-91.5315,29.5354],[-91.5258,29.5459],[-91.5255,29.5519],[-91.5292,29.5586],[-91.5374,29.5659],[-91.542,29.5944],[-91.5535,29.6328],[-91.5609,29.6374],[-91.5706,29.6383],[-91.5818,29.6372],[-91.6002,29.6312],[-91.6251,29.6262],[-91.6438,29.6306],[-91.6489,29.6336],[-91.6487,29.6367],[-91.6465,29.6394],[-91.6432,29.6403],[-91.6373,29.6472],[-91.6273,29.6621],[-91.6251,29.6717],[-91.6268,29.6848],[-91.6238,29.6992],[-91.6185,29.7108],[-91.6181,29.7207],[-91.6215,29.7354],[-91.6328,29.7426],[-91.6671,29.7458],[-91.7109,29.739],[-91.7373,29.7494],[-91.7523,29.7483],[-91.7837,29.7407],[-91.8305,29.7189],[-91.846,29.7088],[-91.8586,29.7031],[-91.8665,29.7071],[-91.8808,29.7108],[-91.881,29.7133],[-91.8783,29.7161],[-91.8756,29.7223],[-91.7111,29.8461],[-91.6247,29.9453],[-91.472,29.956],[-91.3736,29.8344],[-91.3865,29.7837],[-91.2152,29.7512],[-91.1,29.6994],[-91.1049,29.6425],[-91.0826,29.6264]]]}},{"type":"Feature","id":"22103","properties":{"name":"St. Tammany","fips":"22103"},"geometry":{"type":"Polygon","coordinates":[[[-89.6906,30.4588],[-89.6834,30.4518],[-89.6299,30.3394],[-89.6299,30.321],[-89.6407,30.3013],[-89.6436,30.2931],[-89.6434,30.2877],[-89.6077,30.2171],[-89.5808,30.1862],[-89.5727,30.1809],[-89.5245,30.1808],[-89.5312,30.1771],[-89.5375,30.1717],[-89.555,30.1708],[-89.5628,30.1687],[-89.5683,30.1639],[-89.5721,30.1604],[-89.5871,30.1506],[-89.595,30.1499],[-89.598,30.1524],[-89.6175,30.1564],[-89.6229,30.1524],[-89.7492,30.1764],[-89.7941,30.1513],[-89.8787,30.1992],[-89.9943,30.15],[-90.1055,30.1918],[-90.243,30.2244],[-90.2556,30.7119],[-89.9942,30.6654],[-89.8426,30.666],[-89.8234,30.6085],[-89.8068,30.572],[-89.7606,30.5158],[-89.7326,30.4925],[-89.7246,30.4919],[-89.6906,30.4588]]]}},{"type":"Feature","id":"22105","properties":{"name":"Tangipahoa","fips":"22105"},"geometry":{"type":"Polygon","coordinates":[[[-90.3694,31.0003],[-90.3472,31.0004],[-90.2556,30.7119],[-90.243,30.2244],[-90.2779,30.2309],[-90.2974,30.2937],[-90.4013,30.2855],[-90.5461,30.4303],[-90.5672,30.65],[-90.5659,30.6639],[-90.5672,30.9997],[-90.5476,30.9997],[-90.4867,30.9997],[-90.4859,30.9997],[-90.4773,30.9997],[-90.4759,30.9997],[-90.4741,30.9998],[-90.4425,30.9997],[-90.4417,30.9997],[-90.4374,30.9997],[-90.4268,30.9998],[-90.4221,30.9998],[-90.3694,31.0003]]]}},{"type":"Feature","id":"22107","properties":{"name":"Tensas","fips":"22107"},"geometry":{"type":"Polygon","coordinates":[[[-91.0279,32.1127],[-91.0347,32.1011],[-91.128,31.9859],[-91.2481,31.8698],[-91.2934,31.8602],[-91.3269,31.855],[-91.3384,31.8513],[-91.3457,31.8429],[-91.3595,31.7994],[-91.3637,31.7804],[-91.3656,31.7608],[-91.3651,31.7527],[-91.3694,31.7469],[-91.3799,31.733],[-91.5448,31.7517],[-91.5757,31.8826],[-91.4898,32.0924],[-91.4927,32.2033],[-91.3207,32.2025],[-91.1338,32.2493],[-91.1226,32.2169],[-91.1336,32.2134],[-91.158,32.202],[-91.1642,32.1969],[-91.171,32.1765],[-91.1746,32.155],[-91.1717,32.1442],[-91.1655,32.1343],[-91.1628,32.1327],[-91.1314,32.1262],[-91.067,32.1321],[-91.0575,32.1355],[-91.0523,32.1373],[-91.0466,32.1388],[-91.0405,32.1373],[-91.0344,32.1348],[-91.0302,32.1298],[-91.0269,32.1237],[-91.0271,32.1204],[-91.0275,32.1134],[-91.0279,32.1127]]]}},{"type":"Feature","id":"22109","properties":{"name":"Terrebonne","fips":"22109"},"geometry":{"type":"Polygon","coordinates":[[[-91.0067,29.7148],[-90.8802,29.7168],[-90.8077,29.7759],[-90.7668,29.6955],[-90.5746,29.5591],[-90.3843,29.3658],[-90.3767,29.3029],[-90.4094,29.1961],[-90.4329,29.1881],[-90.4359,29.1884],[-90.444,29.1958],[-90.4725,29.1927],[-90.4733,29.1952],[-90.4688,29.1985],[-90.4672,29.2025],[-90.4858,29.2098],[-90.4949,29.2167],[-90.491,29.2209],[-90.4683,29.2275],[-90.4658,29.243],[-90.4629,29.2498],[-90.4507,29.2637],[-90.4522,29.2662],[-90.4728,29.2726],[-90.4953,29.2873],[-90.5106,29.2909],[-90.5173,29.2827],[-90.5262,29.2765],[-90.552,29.2785],[-90.5654,29.2851],[-90.5825,29.276],[-90.5897,29.2485],[-90.5885,29.2459],[-90.5839,29.2429],[-90.5765,29.244],[-90.5654,29.2425],[-90.5445,29.2307],[-90.5432,29.2278],[-90.5443,29.2243],[-90.5565,29.2199],[-90.5574,29.2079],[-90.5609,29.2043],[-90.5753,29.2068],[-90.6184,29.2033],[-90.6242,29.2104],[-90.6274,29.211],[-90.6338,29.2091],[-90.6402,29.1966],[-90.6456,29.1759],[-90.6452,29.173],[-90.6409,29.1713],[-90.637,29.1646],[-90.647,29.1286],[-90.6777,29.1187],[-90.6911,29.1217],[-90.7009,29.1215],[-90.718,29.1166],[-90.7312,29.1229],[-90.7642,29.1134],[-90.7735,29.1001],[-90.7994,29.0874],[-90.8021,29.0833],[-90.8037,29.0637],[-90.7987,29.0548],[-90.782,29.0494],[-90.7652,29.0494],[-90.7501,29.0532],[-90.7253,29.0666],[-90.7091,29.0643],[-90.7053,29.0627],[-90.7021,29.0603],[-90.6922,29.0596],[-90.6836,29.0609],[-90.677,29.0636],[-90.6656,29.0672],[-90.6523,29.0692],[-90.6442,29.0715],[-90.6412,29.0723],[-90.6392,29.0728],[-90.6376,29.0721],[-90.636,29.0698],[-90.6375,29.0666],[-90.6481,29.0626],[-90.7309,29.0423],[-90.7557,29.039],[-90.7977,29.0397],[-90.8115,29.0366],[-90.8393,29.0392],[-90.8428,29.0429],[-90.8448,29.0487],[-90.8412,29.0543],[-90.8446,29.0673],[-90.8628,29.0949],[-90.8678,29.0954],[-90.8776,29.1049],[-90.8854,29.117],[-90.8982,29.1313],[-90.9258,29.1531],[-90.9419,29.1624],[-90.9481,29.1741],[-90.9613,29.1808],[-90.9815,29.1712],[-91.0001,29.1695],[-91.024,29.1748],[-91.0318,29.1822],[-91.0586,29.1817],[-91.094,29.1877],[-91.1148,29.2079],[-91.1291,29.2159],[-91.1996,29.2213],[-91.219,29.2261],[-91.2788,29.2478],[-91.3027,29.266],[-91.3349,29.2988],[-91.3328,29.3058],[-91.3093,29.3057],[-91.2991,29.309],[-91.2918,29.3114],[-91.2904,29.3131],[-91.2797,29.3261],[-91.2766,29.3298],[-91.2762,29.3328],[-91.2743,29.3449],[-91.2706,29.3554],[-91.2701,29.3569],[-91.2699,29.3572],[-91.2666,29.3612],[-91.2655,29.3618],[-91.2515,29.3687],[-91.2512,29.3688],[-91.2495,29.3697],[-91.2491,29.3699],[-91.2456,29.3706],[-91.2385,29.372],[-91.2353,29.3706],[-91.2224,29.3607],[-91.2073,29.3607],[-91.1975,29.3699],[-91.2001,29.3895],[-91.2185,29.4072],[-91.216,29.4125],[-91.2143,29.4161],[-91.212,29.4209],[-91.2151,29.4275],[-91.2174,29.4325],[-91.2181,29.4332],[-91.2192,29.4344],[-91.2212,29.4364],[-91.2416,29.441],[-91.2513,29.4445],[-91.2582,29.447],[-91.2595,29.458],[-91.2598,29.4606],[-91.26,29.4618],[-91.26,29.4621],[-91.2616,29.465],[-91.2656,29.4724],[-91.2607,29.5445],[-91.178,29.6097],[-91.0826,29.6264],[-91.0067,29.7148]]]}},{"type":"Feature","id":"22111","properties":{"name":"Union","fips":"22111"},"geometry":{"type":"Polygon","coordinates":[[[-92.0652,32.723],[-92.2723,32.581],[-92.4151,32.5828],[-92.415,32.6701],[-92.5184,32.6707],[-92.5713,32.7486],[-92.7254,32.7595],[-92.7247,33.0143],[-92.7236,33.0143],[-92.7159,33.0144],[-92.7113,33.0143],[-92.5038,33.0122],[-92.5014,33.0122],[-92.4698,33.012],[-92.3703,33.0107],[-92.3629,33.0106],[-92.3359,33.0103],[-92.2927,33.0101],[-92.2228,33.0091],[-92.0691,33.0082],[-92.0652,32.723]]]}},{"type":"Feature","id":"22113","properties":{"name":"Vermilion","fips":"22113"},"geometry":{"type":"Polygon","coordinates":[[[-92.0412,29.5816],[-92.0463,29.5844],[-92.0665,29.5838],[-92.1059,29.5863],[-92.1586,29.5816],[-92.2126,29.5625],[-92.2519,29.5394],[-92.2804,29.5334],[-92.3094,29.533],[-92.3472,29.5394],[-92.4022,29.5513],[-92.4736,29.5611],[-92.5586,29.5699],[-92.6163,29.5787],[-92.6177,29.5791],[-92.6156,30.0382],[-92.7386,30.0373],[-92.6255,30.0923],[-92.5346,30.1079],[-92.426,30.0494],[-92.2847,30.1474],[-92.1281,30.1159],[-91.9645,30.0369],[-91.9904,29.9703],[-91.9704,29.8043],[-91.9784,29.7992],[-91.9839,29.7945],[-92.0357,29.7817],[-92.0564,29.7723],[-92.1075,29.7444],[-92.1444,29.7164],[-92.1493,29.6971],[-92.1343,29.6695],[-92.1328,29.6605],[-92.1118,29.6218],[-92.0934,29.6187],[-92.0656,29.62],[-92.0477,29.6245],[-92.0253,29.6256],[-92.0163,29.6187],[-92.0004,29.6131],[-92.0064,29.6082],[-92.0098,29.5984],[-92.0195,29.593],[-92.0254,29.5854],[-92.0292,29.5844],[-92.0386,29.585],[-92.0412,29.5816]]]}},{"type":"Feature","id":"22115","properties":{"name":"Vernon","fips":"22115"},"geometry":{"type":"Polygon","coordinates":[[[-93.5546,30.8775],[-93.5309,30.9245],[-93.5404,31.0081],[-93.5276,31.0745],[-93.5317,31.1808],[-93.5351,31.1856],[-93.5489,31.1866],[-93.5525,31.1856],[-93.5349,31.2766],[-93.4426,31.2767],[-93.3905,31.3641],[-93.2361,31.3645],[-92.9815,31.3466],[-92.8798,31.3174],[-92.8297,31.2523],[-92.8239,30.89],[-92.9785,30.8782],[-93.5546,30.8775]]]}},{"type":"Feature","id":"22117","properties":{"name":"Washington","fips":"22117"},"geometry":{"type":"Polygon","coordinates":[[[-90.3472,31.0004],[-90.3472,31.0004],[-90.346,31.0004],[-90.2596,31.0007],[-90.1647,31.001],[-90.1643,31.001],[-90.1314,31.0009],[-90.1284,31.001],[-90.0507,31.0012],[-90.0296,31.0012],[-90.0222,31.0013],[-90.0053,31.0014],[-89.9754,31.0017],[-89.9728,31.0014],[-89.9272,31.0014],[-89.9231,31.0014],[-89.8975,31.0019],[-89.8927,31.0018],[-89.8569,31.0021],[-89.8359,31.0021],[-89.8355,31.0021],[-89.8246,31.0021],[-89.8164,31.0021],[-89.7526,31.0019],[-89.7325,31.0048],[-89.7281,31.0024],[-89.7281,31.0023],[-89.7284,30.9711],[-89.7448,30.9189],[-89.7565,30.9004],[-89.7709,30.8994],[-89.7734,30.8977],[-89.7899,30.8515],[-89.8262,30.7366],[-89.8426,30.666],[-89.8426,30.666],[-89.9942,30.6654],[-90.2556,30.7119],[-90.3472,31.0004]]]}},{"type":"Feature","id":"22119","properties":{"name":"Webster","fips":"22119"},"geometry":{"type":"Polygon","coordinates":[[[-93.3728,32.4102],[-93.4412,32.4104],[-93.448,32.8663],[-93.5304,32.9754],[-93.521,33.0186],[-93.521,33.0186],[-93.4909,33.0184],[-93.4905,33.0184],[-93.4895,33.0184],[-93.467,33.0186],[-93.3771,33.0182],[-93.3404,33.0183],[-93.3084,33.0182],[-93.3082,33.0182],[-93.2386,33.018],[-93.2374,32.7163],[-93.1866,32.7168],[-93.1788,32.5849],[-93.1472,32.4552],[-93.2367,32.4101],[-93.3728,32.4102]]]}},{"type":"Feature","id":"22121","properties":{"name":"West Baton Rouge","fips":"22121"},"geometry":{"type":"Polygon","coordinates":[[[-91.4149,30.5352],[-91.3309,30.6587],[-91.3223,30.656],[-91.3101,30.654],[-91.3094,30.652],[-91.3038,30.652],[-91.3012,30.6516],[-91.2989,30.6505],[-91.2977,30.6495],[-91.2627,30.5052],[-91.1972,30.5071],[-91.2415,30.3576],[-91.1421,30.3233],[-91.3117,30.3225],[-91.4851,30.4971],[-91.4149,30.5352]]]}},{"type":"Feature","id":"22123","properties":{"name":"West Carroll","fips":"22123"},"geometry":{"type":"Polygon","coordinates":[[[-91.265,33.0051],[-91.3094,32.9352],[-91.3448,32.7567],[-91.4453,32.582],[-91.596,32.5822],[-91.6376,32.6673],[-91.5664,32.8556],[-91.5115,32.879],[-91.4358,33.0061],[-91.4255,33.006],[-91.376,33.0058],[-91.333,33.0055],[-91.3298,33.0054],[-91.3264,33.0054],[-91.325,33.0054],[-91.3225,33.0053],[-91.312,33.0053],[-91.2844,33.005],[-91.265,33.0051]]]}},{"type":"Feature","id":"22125","properties":{"name":"West Feliciana","fips":"22125"},"geometry":{"type":"Polygon","coordinates":[[[-91.3309,30.6587],[-91.3407,30.6702],[-91.3531,30.7218],[-91.3806,30.7588],[-91.553,30.7308],[-91.5156,30.8614],[-91.6614,30.8571],[-91.6625,30.9704],[-91.6464,30.9861],[-91.6406,30.9961],[-91.6369,30.9994],[-91.6251,30.9992],[-91.5387,30.9994],[-91.4257,30.999],[-91.4236,30.999],[-91.2248,30.9992],[-91.2241,30.9992],[-91.1762,30.9991],[-91.1761,30.9991],[-91.2362,30.7951],[-91.3207,30.6994],[-91.3101,30.654],[-91.3223,30.656],[-91.3309,30.6587]]]}},{"type":"Feature","id":"22127","properties":{"name":"Winn","fips":"22127"},"geometry":{"type":"Polygon","coordinates":[[[-92.3626,31.7966],[-92.6192,31.7971],[-92.62,31.7096],[-92.9735,31.7089],[-92.9668,31.7813],[-92.8722,31.9459],[-92.9391,32.1479],[-92.8147,32.1469],[-92.3122,32.1461],[-92.3126,31.9274],[-92.3626,31.7966]]]}}]}