{"type":"FeatureCollection","features":[{"type":"Feature","id":"25001","properties":{"name":"Barnstable","fips":"25001"},"geometry":{"type":"Polygon","coordinates":[[[-70.1474,42.0616],[-70.1483,42.062],[-70.1554,42.0624],[-70.1698,42.0597],[-70.1785,42.0564],[-70.1868,42.0504],[-70.1945,42.0395],[-70.1953,42.0342],[-70.1931,42.0276],[-70.1863,42.0213],[-70.1867,42.0199],[-70.1908,42.02],[-70.1967,42.0224],[-70.208,42.0307],[-70.2187,42.0458],[-70.2333,42.0577],[-70.2389,42.0605],[-70.2435,42.0606],[-70.2454,42.0637],[-70.2381,42.0729],[-70.2256,42.0786],[-70.2069,42.0819],[-70.1893,42.0823],[-70.1602,42.0786],[-70.1542,42.0771],[-70.116,42.0676],[-70.0826,42.0547],[-70.0585,42.0404],[-70.0348,42.0189],[-70.0335,42.0177],[-70.0311,42.0146],[-70.03,42.0131],[-70.0294,42.0125],[-70.0163,41.9954],[-70.0141,41.9926],[-70.0139,41.9923],[-70.012,41.9898],[-70.0119,41.9897],[-70.0105,41.9876],[-70.0057,41.9801],[-70.0055,41.9797],[-70.0053,41.9795],[-70.0046,41.9784],[-70.0043,41.9779],[-69.9862,41.9498],[-69.9861,41.9496],[-69.986,41.9495],[-69.9686,41.9117],[-69.9453,41.8452],[-69.936,41.8094],[-69.9287,41.7413],[-69.9283,41.698],[-69.9283,41.6977],[-69.9283,41.6935],[-69.9283,41.6922],[-69.9283,41.6922],[-69.9283,41.6917],[-69.9287,41.6896],[-69.9294,41.6867],[-69.9295,41.6864],[-69.9309,41.6799],[-69.9331,41.67],[-69.9331,41.67],[-69.9341,41.6683],[-69.9427,41.6536],[-69.9435,41.6524],[-69.9476,41.6454],[-69.9512,41.6408],[-69.9519,41.6407],[-69.9528,41.6405],[-69.9539,41.6403],[-69.9569,41.6397],[-69.9583,41.6394],[-69.9632,41.6338],[-69.9679,41.6275],[-69.9765,41.6037],[-69.9828,41.5818],[-69.9882,41.5547],[-69.9885,41.5544],[-69.9965,41.5454],[-69.9981,41.5436],[-69.9991,41.5434],[-70.0038,41.5422],[-70.0041,41.5421],[-70.0046,41.5422],[-70.0112,41.5429],[-70.0115,41.5429],[-70.0117,41.5431],[-70.0145,41.5455],[-70.0166,41.5508],[-70.0151,41.553],[-70.0116,41.5528],[-70.0106,41.5527],[-70.0089,41.5545],[-70.0015,41.562],[-70.0013,41.5625],[-70.0009,41.5632],[-70.0006,41.5638],[-69.9944,41.5768],[-69.9917,41.5885],[-69.9872,41.6086],[-69.9871,41.6088],[-69.9829,41.6183],[-69.9804,41.6241],[-69.9775,41.6308],[-69.9769,41.6322],[-69.9766,41.6328],[-69.9756,41.6352],[-69.9752,41.636],[-69.973,41.641],[-69.973,41.6411],[-69.9732,41.647],[-69.9757,41.6537],[-69.9758,41.6538],[-69.9907,41.6635],[-69.9907,41.6635],[-69.9907,41.6635],[-69.9907,41.6635],[-69.9908,41.6636],[-69.9962,41.6671],[-69.9964,41.6672],[-69.9965,41.6672],[-70.0027,41.6698],[-70.003,41.6699],[-70.0068,41.6715],[-70.007,41.6716],[-70.0072,41.6716],[-70.0142,41.672],[-70.0158,41.6715],[-70.021,41.6701],[-70.0291,41.6678],[-70.0293,41.6678],[-70.0293,41.6677],[-70.0371,41.6669],[-70.0373,41.6669],[-70.0378,41.6668],[-70.0555,41.6648],[-70.0892,41.6628],[-70.1199,41.6555],[-70.1209,41.6552],[-70.1214,41.6551],[-70.1226,41.6548],[-70.1227,41.6548],[-70.1347,41.6519],[-70.1402,41.6506],[-70.1402,41.6506],[-70.1404,41.6505],[-70.1409,41.6504],[-70.141,41.6504],[-70.1411,41.6504],[-70.1426,41.6504],[-70.1459,41.6504],[-70.147,41.6504],[-70.1484,41.6504],[-70.1586,41.6504],[-70.1911,41.6453],[-70.2459,41.6285],[-70.2562,41.6207],[-70.2554,41.6175],[-70.2596,41.6109],[-70.2654,41.6093],[-70.2676,41.6109],[-70.2697,41.6178],[-70.2691,41.6257],[-70.2745,41.6329],[-70.2813,41.6351],[-70.2906,41.6352],[-70.3216,41.6305],[-70.3299,41.6346],[-70.3381,41.6363],[-70.3516,41.6347],[-70.3604,41.6311],[-70.3649,41.6267],[-70.3647,41.6237],[-70.3699,41.6159],[-70.3792,41.6114],[-70.4006,41.6064],[-70.4011,41.6065],[-70.4085,41.6073],[-70.4139,41.607],[-70.4372,41.6053],[-70.4379,41.6042],[-70.4406,41.5998],[-70.4422,41.597],[-70.4444,41.5934],[-70.4453,41.5918],[-70.4465,41.5902],[-70.4504,41.5854],[-70.4561,41.5784],[-70.4574,41.5767],[-70.4611,41.5721],[-70.4613,41.5718],[-70.462,41.5712],[-70.4622,41.571],[-70.4622,41.571],[-70.4728,41.5616],[-70.4733,41.5611],[-70.4762,41.5585],[-70.4763,41.5585],[-70.4763,41.5585],[-70.4834,41.5553],[-70.4852,41.5544],[-70.4856,41.5542],[-70.4868,41.5539],[-70.4932,41.552],[-70.522,41.549],[-70.5223,41.549],[-70.5316,41.5488],[-70.5595,41.5483],[-70.5597,41.5483],[-70.5597,41.5483],[-70.5609,41.5482],[-70.5613,41.5482],[-70.574,41.5468],[-70.5884,41.5453],[-70.5885,41.5453],[-70.5888,41.5453],[-70.5889,41.5453],[-70.5896,41.5452],[-70.5966,41.5445],[-70.6111,41.543],[-70.6111,41.543],[-70.613,41.5426],[-70.6144,41.5423],[-70.6167,41.5418],[-70.6172,41.5417],[-70.6176,41.5416],[-70.6179,41.5416],[-70.6336,41.5383],[-70.6337,41.5382],[-70.6338,41.5381],[-70.6436,41.5324],[-70.6501,41.5242],[-70.6501,41.5241],[-70.6516,41.5223],[-70.6521,41.5216],[-70.6541,41.519],[-70.6542,41.519],[-70.6639,41.514],[-70.6695,41.5133],[-70.6723,41.5158],[-70.6746,41.5194],[-70.6814,41.5175],[-70.6884,41.5168],[-70.6914,41.5178],[-70.6948,41.5256],[-70.6587,41.5434],[-70.6543,41.5499],[-70.6554,41.5575],[-70.6539,41.5652],[-70.6488,41.5699],[-70.6427,41.5724],[-70.6409,41.5773],[-70.642,41.5831],[-70.6524,41.6052],[-70.652,41.6102],[-70.64,41.6246],[-70.6453,41.6335],[-70.6526,41.6378],[-70.6504,41.6442],[-70.6387,41.6494],[-70.6376,41.6546],[-70.6463,41.6784],[-70.6493,41.6809],[-70.6615,41.6818],[-70.646,41.6938],[-70.6254,41.6987],[-70.6237,41.7074],[-70.6265,41.713],[-70.6429,41.7184],[-70.6216,41.749],[-70.6326,41.7628],[-70.5653,41.7867],[-70.5373,41.8109],[-70.5338,41.8063],[-70.5333,41.8056],[-70.5327,41.8048],[-70.5251,41.7979],[-70.5185,41.7919],[-70.5176,41.7911],[-70.5174,41.791],[-70.5169,41.7906],[-70.5167,41.7904],[-70.5161,41.79],[-70.5146,41.7889],[-70.5145,41.7888],[-70.5144,41.7888],[-70.494,41.7739],[-70.493,41.7733],[-70.4929,41.7732],[-70.4835,41.7681],[-70.4822,41.7674],[-70.4741,41.7629],[-70.4737,41.7627],[-70.4733,41.7625],[-70.472,41.7618],[-70.472,41.7618],[-70.4718,41.7617],[-70.4716,41.7616],[-70.459,41.7579],[-70.4137,41.7448],[-70.4125,41.7444],[-70.4121,41.7443],[-70.377,41.739],[-70.3753,41.7388],[-70.3753,41.7388],[-70.3181,41.7357],[-70.3153,41.7356],[-70.3147,41.7356],[-70.2913,41.7343],[-70.291,41.7343],[-70.2908,41.7342],[-70.2883,41.7329],[-70.2771,41.7271],[-70.2754,41.7262],[-70.2752,41.7261],[-70.2752,41.7261],[-70.2742,41.7245],[-70.2723,41.7213],[-70.2638,41.7143],[-70.2637,41.7141],[-70.2631,41.7141],[-70.2614,41.714],[-70.2592,41.714],[-70.2564,41.7162],[-70.2527,41.7192],[-70.2518,41.72],[-70.2507,41.7209],[-70.2479,41.7231],[-70.2474,41.7236],[-70.2471,41.7238],[-70.2374,41.7316],[-70.235,41.7336],[-70.2348,41.7337],[-70.2259,41.7381],[-70.2253,41.7384],[-70.2245,41.7388],[-70.224,41.7391],[-70.2208,41.7406],[-70.2167,41.7427],[-70.2161,41.743],[-70.198,41.749],[-70.1975,41.7492],[-70.1932,41.7507],[-70.1893,41.752],[-70.1891,41.752],[-70.1821,41.7509],[-70.1766,41.7521],[-70.1591,41.7561],[-70.1438,41.7595],[-70.1434,41.7596],[-70.1415,41.7601],[-70.1415,41.7601],[-70.1404,41.76],[-70.136,41.7597],[-70.1291,41.7593],[-70.1244,41.759],[-70.1241,41.759],[-70.1221,41.7589],[-70.122,41.7588],[-70.1159,41.7606],[-70.1151,41.7609],[-70.1093,41.7626],[-70.0977,41.7661],[-70.0977,41.7661],[-70.0968,41.7663],[-70.0961,41.7665],[-70.0864,41.7685],[-70.0818,41.7694],[-70.0676,41.7722],[-70.0651,41.7727],[-70.0643,41.7728],[-70.0607,41.7742],[-70.0344,41.7838],[-70.0339,41.784],[-70.0332,41.7843],[-70.0247,41.7874],[-70.0247,41.7874],[-70.0231,41.7887],[-70.0228,41.789],[-70.0224,41.7893],[-70.0099,41.7996],[-70.0089,41.8004],[-70.0085,41.8008],[-70.0038,41.8085],[-70.0045,41.8388],[-70.009,41.8766],[-70.0002,41.8869],[-70.0029,41.8903],[-70.0122,41.8917],[-70.0243,41.8988],[-70.0256,41.9117],[-70.0305,41.9292],[-70.045,41.93],[-70.0545,41.9274],[-70.0657,41.9117],[-70.0657,41.8996],[-70.0654,41.8877],[-70.0641,41.8789],[-70.066,41.877],[-70.0676,41.8778],[-70.0709,41.883],[-70.073,41.8998],[-70.074,41.9387],[-70.0774,41.9855],[-70.0838,42.012],[-70.0896,42.0249],[-70.0956,42.0328],[-70.1081,42.0436],[-70.123,42.0517],[-70.1474,42.0616]]]}},{"type":"Feature","id":"25003","properties":{"name":"Berkshire","fips":"25003"},"geometry":{"type":"Polygon","coordinates":[[[-73.0001,42.3127],[-73.0018,42.2511],[-73.008,42.2384],[-73.0712,42.1482],[-73.0533,42.0399],[-73.1273,42.042],[-73.2298,42.0449],[-73.2311,42.0449],[-73.2931,42.0469],[-73.2944,42.047],[-73.4873,42.0496],[-73.4969,42.0497],[-73.5081,42.0863],[-73.4106,42.3517],[-73.3525,42.51],[-73.307,42.6327],[-73.265,42.7459],[-73.1425,42.7435],[-73.0229,42.7411],[-72.9497,42.7051],[-72.951,42.641],[-72.9754,42.5559],[-73.0001,42.3127]]]}},{"type":"Feature","id":"25005","properties":{"name":"Bristol","fips":"25005"},"geometry":{"type":"MultiPolygon","coordinates":[[[[-70.821,41.5873],[-70.8217,41.5837],[-70.8219,41.5828],[-70.8301,41.5854],[-70.8376,41.5954],[-70.8381,41.5961],[-70.8385,41.5965],[-70.8345,41.6026],[-70.832,41.6065],[-70.8318,41.6063],[-70.828,41.6027],[-70.8274,41.6021],[-70.8237,41.5986],[-70.8209,41.5877],[-70.821,41.5873]]],[[[-70.8542,41.6184],[-70.8542,41.6183],[-70.8534,41.6136],[-70.8502,41.5935],[-70.8522,41.5892],[-70.8525,41.5887],[-70.8526,41.5885],[-70.8531,41.5873],[-70.8532,41.5873],[-70.8572,41.5877],[-70.8629,41.6007],[-70.863,41.601],[-70.8635,41.6021],[-70.8685,41.6137],[-70.8689,41.6147],[-70.8684,41.6227],[-70.8696,41.6256],[-70.8727,41.6278],[-70.879,41.6298],[-70.8876,41.6324],[-70.8892,41.6329],[-70.8893,41.6329],[-70.8896,41.6327],[-70.9045,41.6242],[-70.9058,41.6235],[-70.9132,41.6193],[-70.9045,41.6104],[-70.9,41.5935],[-70.9014,41.5925],[-70.9108,41.5955],[-70.9166,41.6075],[-70.9201,41.6108],[-70.9272,41.6113],[-70.9297,41.6095],[-70.93,41.6004],[-70.9274,41.5941],[-70.9313,41.5842],[-70.938,41.5774],[-70.9416,41.581],[-70.9469,41.5811],[-70.9488,41.579],[-70.9473,41.5737],[-70.9378,41.5652],[-70.9315,41.5402],[-70.9418,41.5401],[-70.9792,41.5304],[-70.9834,41.5206],[-71.0033,41.5119],[-71.0194,41.5089],[-71.0235,41.5063],[-71.0355,41.499],[-71.0584,41.506],[-71.0857,41.5093],[-71.1206,41.4974],[-71.1334,41.6295],[-71.1336,41.6322],[-71.1338,41.6341],[-71.1345,41.6412],[-71.1345,41.6413],[-71.1347,41.6605],[-71.1352,41.6605],[-71.1459,41.6628],[-71.154,41.6641],[-71.1761,41.6681],[-71.1761,41.6685],[-71.176,41.6714],[-71.1813,41.6725],[-71.1912,41.6743],[-71.1912,41.6742],[-71.1944,41.6748],[-71.1956,41.6751],[-71.2248,41.7105],[-71.2614,41.7523],[-71.3178,41.7761],[-71.3178,41.7761],[-71.3279,41.7805],[-71.3393,41.8065],[-71.3396,41.832],[-71.3376,41.8337],[-71.3393,41.8934],[-71.3393,41.8936],[-71.3527,41.8967],[-71.3547,41.8965],[-71.3625,41.8956],[-71.3647,41.8954],[-71.3654,41.8953],[-71.371,41.8946],[-71.3738,41.8944],[-71.3766,41.894],[-71.3817,41.9227],[-71.3816,41.9229],[-71.3814,41.9648],[-71.3815,41.9667],[-71.3815,41.985],[-71.3649,41.9852],[-71.2883,42.0144],[-71.2883,42.0145],[-71.2883,42.0145],[-71.1687,42.0612],[-71.1386,42.0728],[-71.1386,42.0728],[-71.0802,42.0957],[-71.0547,41.9851],[-71.0495,41.9631],[-70.9997,41.9296],[-71.0366,41.8165],[-70.9218,41.7912],[-70.8432,41.6285],[-70.8435,41.6287],[-70.8435,41.6287],[-70.8442,41.629],[-70.8525,41.6269],[-70.855,41.6243],[-70.8552,41.6241],[-70.8542,41.6184]]]]}},{"type":"Feature","id":"25007","properties":{"name":"Dukes","fips":"25007"},"geometry":{"type":"MultiPolygon","coordinates":[[[[-70.6948,41.5256],[-70.6914,41.5178],[-70.6884,41.5168],[-70.6814,41.5175],[-70.6746,41.5194],[-70.6723,41.5158],[-70.6695,41.5133],[-70.6754,41.5126],[-70.7052,41.4967],[-70.7343,41.4863],[-70.7572,41.4699],[-70.7565,41.466],[-70.7609,41.4609],[-70.7903,41.4463],[-70.8175,41.4456],[-70.8359,41.4419],[-70.8575,41.4258],[-70.8669,41.4224],[-70.9028,41.4211],[-70.9282,41.4158],[-70.9373,41.4116],[-70.9484,41.4092],[-70.951,41.4118],[-70.9499,41.4153],[-70.9282,41.4313],[-70.9237,41.4307],[-70.919,41.4253],[-70.9116,41.4245],[-70.906,41.4257],[-70.8832,41.4322],[-70.8553,41.4489],[-70.8285,41.4564],[-70.8022,41.4609],[-70.7878,41.4746],[-70.7753,41.4775],[-70.7539,41.4923],[-70.7451,41.501],[-70.6948,41.5256]]],[[[-70.5963,41.4719],[-70.5748,41.4683],[-70.5674,41.4712],[-70.5633,41.4691],[-70.5533,41.453],[-70.5529,41.4434],[-70.5556,41.4309],[-70.5531,41.424],[-70.5476,41.4158],[-70.5383,41.4092],[-70.5286,41.4051],[-70.5176,41.4038],[-70.507,41.4002],[-70.5024,41.392],[-70.5013,41.3854],[-70.499,41.3843],[-70.4908,41.3836],[-70.4845,41.3863],[-70.4726,41.3991],[-70.473,41.4088],[-70.4708,41.4129],[-70.4638,41.4191],[-70.4504,41.4207],[-70.4462,41.3965],[-70.4493,41.3804],[-70.4483,41.3537],[-70.4511,41.3482],[-70.4962,41.3465],[-70.5383,41.349],[-70.5992,41.3493],[-70.7098,41.3417],[-70.7333,41.3362],[-70.7475,41.33],[-70.7642,41.3187],[-70.768,41.312],[-70.7662,41.309],[-70.7687,41.3037],[-70.7757,41.301],[-70.8021,41.3142],[-70.8194,41.3272],[-70.8388,41.3472],[-70.8338,41.3534],[-70.8123,41.3557],[-70.8003,41.3538],[-70.7833,41.3478],[-70.775,41.3492],[-70.7689,41.3532],[-70.7292,41.3977],[-70.7244,41.3989],[-70.7124,41.4089],[-70.7115,41.4155],[-70.7014,41.4309],[-70.6869,41.4413],[-70.6493,41.4611],[-70.6036,41.4824],[-70.5984,41.4812],[-70.5963,41.4719]]]]}},{"type":"Feature","id":"25009","properties":{"name":"Essex","fips":"25009"},"geometry":{"type":"Polygon","coordinates":[[[-71.2081,42.7433],[-71.1818,42.7376],[-71.1861,42.7907],[-71.1656,42.8087],[-71.1497,42.8155],[-71.1139,42.8279],[-71.0584,42.847],[-71.0379,42.8541],[-70.9969,42.8646],[-70.9317,42.8842],[-70.9308,42.8846],[-70.9149,42.8866],[-70.9149,42.8866],[-70.9028,42.8865],[-70.8861,42.8826],[-70.8486,42.8609],[-70.8173,42.8723],[-70.8177,42.8506],[-70.8052,42.7818],[-70.7929,42.7471],[-70.7723,42.7111],[-70.7705,42.7048],[-70.7786,42.6985],[-70.7787,42.6936],[-70.7644,42.6857],[-70.7488,42.6839],[-70.7444,42.6821],[-70.7298,42.6696],[-70.7288,42.6639],[-70.6894,42.6533],[-70.6826,42.6545],[-70.6816,42.6623],[-70.6635,42.6776],[-70.6451,42.6894],[-70.6301,42.6927],[-70.62,42.688],[-70.6229,42.676],[-70.6238,42.6655],[-70.6228,42.6609],[-70.6148,42.6576],[-70.5955,42.6603],[-70.5917,42.6485],[-70.5915,42.6398],[-70.594,42.635],[-70.6056,42.6349],[-70.6184,42.6286],[-70.6356,42.6002],[-70.6547,42.5822],[-70.6649,42.5804],[-70.668,42.5817],[-70.6681,42.5854],[-70.6685,42.5896],[-70.6704,42.5922],[-70.6726,42.5943],[-70.6757,42.5947],[-70.6788,42.5944],[-70.6814,42.5932],[-70.6845,42.5889],[-70.6986,42.5774],[-70.7297,42.5715],[-70.737,42.5769],[-70.7573,42.5705],[-70.8041,42.5616],[-70.8154,42.5542],[-70.8233,42.5515],[-70.8485,42.5502],[-70.8714,42.5464],[-70.8724,42.543],[-70.8663,42.5226],[-70.8598,42.5204],[-70.8571,42.5215],[-70.8421,42.5195],[-70.8311,42.5036],[-70.836,42.4905],[-70.8416,42.4876],[-70.8474,42.4915],[-70.8578,42.4903],[-70.8797,42.4788],[-70.8865,42.4702],[-70.888,42.4671],[-70.8873,42.4649],[-70.8943,42.4609],[-70.9081,42.4669],[-70.9177,42.468],[-70.922,42.4667],[-70.935,42.4579],[-70.9343,42.4446],[-70.9332,42.4378],[-70.9282,42.431],[-70.9132,42.4277],[-70.9084,42.4252],[-70.902,42.4203],[-70.9057,42.4162],[-70.9364,42.4181],[-70.9433,42.4362],[-70.9436,42.4521],[-70.947,42.4562],[-70.9605,42.4462],[-70.9606,42.4438],[-70.9823,42.4313],[-71.0258,42.4448],[-71.0259,42.4447],[-71.0373,42.4577],[-71.0391,42.4595],[-71.04,42.4607],[-71.0447,42.4657],[-71.0448,42.4662],[-71.0516,42.4739],[-71.0535,42.4759],[-71.0761,42.6041],[-71.1353,42.5991],[-71.1486,42.6132],[-71.1586,42.6129],[-71.165,42.598],[-71.2561,42.6567],[-71.2545,42.7341],[-71.2455,42.7426],[-71.2083,42.7433],[-71.2082,42.7433],[-71.2081,42.7433]]]}},{"type":"Feature","id":"25011","properties":{"name":"Franklin","fips":"25011"},"geometry":{"type":"Polygon","coordinates":[[[-72.8769,42.5412],[-72.9754,42.5559],[-72.951,42.641],[-72.9497,42.7051],[-73.0229,42.7411],[-73.0186,42.741],[-72.9303,42.7388],[-72.9273,42.7387],[-72.8642,42.7371],[-72.4585,42.7269],[-72.4513,42.7267],[-72.412,42.7256],[-72.283,42.722],[-72.2248,42.639],[-72.245,42.5136],[-72.3146,42.3435],[-72.3566,42.3033],[-72.3554,42.3407],[-72.375,42.4208],[-72.5442,42.4271],[-72.5811,42.4225],[-72.7043,42.4055],[-72.7637,42.4636],[-72.8712,42.4842],[-72.8769,42.5412]]]}},{"type":"Feature","id":"25013","properties":{"name":"Hampden","fips":"25013"},"geometry":{"type":"Polygon","coordinates":[[[-72.1418,42.1609],[-72.135,42.1617],[-72.135,42.0907],[-72.1357,42.0302],[-72.1988,42.031],[-72.3974,42.0333],[-72.5092,42.0346],[-72.6959,42.0368],[-72.7141,42.0366],[-72.7558,42.0362],[-72.7575,42.0209],[-72.7582,42.0209],[-72.7661,42.0077],[-72.7667,42.003],[-72.7748,42.0021],[-72.8167,41.9976],[-72.8135,42.0365],[-72.8636,42.0377],[-72.8637,42.0377],[-73.0087,42.0394],[-73.0533,42.0399],[-73.0712,42.1482],[-73.008,42.2384],[-73.0018,42.2511],[-73.0001,42.3127],[-72.8852,42.3326],[-72.9123,42.2391],[-72.7934,42.2369],[-72.6869,42.1834],[-72.6131,42.2863],[-72.5934,42.2117],[-72.5924,42.2117],[-72.5464,42.2165],[-72.4039,42.2318],[-72.3955,42.1858],[-72.2212,42.2453],[-72.2639,42.1839],[-72.1418,42.1609]]]}},{"type":"Feature","id":"25015","properties":{"name":"Hampshire","fips":"25015"},"geometry":{"type":"Polygon","coordinates":[[[-72.2139,42.2943],[-72.2108,42.2945],[-72.2034,42.2912],[-72.2072,42.2852],[-72.2121,42.2827],[-72.2129,42.2699],[-72.2179,42.2701],[-72.2161,42.2561],[-72.2113,42.2556],[-72.2111,42.2513],[-72.2105,42.2472],[-72.2146,42.2476],[-72.2148,42.249],[-72.2181,42.2486],[-72.2212,42.2453],[-72.3955,42.1858],[-72.4039,42.2318],[-72.5464,42.2165],[-72.5924,42.2117],[-72.5934,42.2117],[-72.6131,42.2863],[-72.6869,42.1834],[-72.7934,42.2369],[-72.9123,42.2391],[-72.8852,42.3326],[-73.0001,42.3127],[-72.9754,42.5559],[-72.8769,42.5412],[-72.8712,42.4842],[-72.7637,42.4636],[-72.7043,42.4055],[-72.5811,42.4225],[-72.5442,42.4271],[-72.375,42.4208],[-72.3554,42.3407],[-72.3566,42.3033],[-72.3146,42.3435],[-72.2139,42.2943]]]}},{"type":"Feature","id":"25017","properties":{"name":"Middlesex","fips":"25017"},"geometry":{"type":"Polygon","coordinates":[[[-71.5852,42.311],[-71.5925,42.3179],[-71.5974,42.3211],[-71.6019,42.327],[-71.6052,42.3303],[-71.6036,42.3317],[-71.6041,42.3368],[-71.6116,42.339],[-71.6191,42.3433],[-71.6258,42.3497],[-71.6247,42.3505],[-71.5433,42.4665],[-71.5389,42.5431],[-71.6358,42.5241],[-71.6506,42.5262],[-71.6517,42.5264],[-71.6554,42.5269],[-71.6646,42.5283],[-71.6655,42.5284],[-71.6757,42.53],[-71.679,42.5304],[-71.6777,42.5394],[-71.6646,42.6116],[-71.7757,42.6442],[-71.8584,42.6338],[-71.8987,42.7115],[-71.8054,42.7091],[-71.7725,42.7083],[-71.6362,42.7049],[-71.6318,42.7048],[-71.5425,42.7027],[-71.2942,42.697],[-71.2545,42.7341],[-71.2561,42.6567],[-71.165,42.598],[-71.1586,42.6129],[-71.1486,42.6132],[-71.1353,42.5991],[-71.0761,42.6041],[-71.0535,42.4759],[-71.0516,42.4739],[-71.0448,42.4662],[-71.0447,42.4657],[-71.04,42.4607],[-71.0391,42.4595],[-71.0373,42.4577],[-71.0259,42.4447],[-71.0258,42.4448],[-71.0204,42.4382],[-71.0332,42.4142],[-71.0553,42.3871],[-71.0735,42.3918],[-71.0806,42.381],[-71.0641,42.369],[-71.0698,42.3691],[-71.0771,42.3587],[-71.0992,42.3528],[-71.1171,42.3556],[-71.1172,42.3672],[-71.131,42.3738],[-71.1435,42.365],[-71.1486,42.3612],[-71.1676,42.3601],[-71.1748,42.3503],[-71.1676,42.3334],[-71.1568,42.3302],[-71.1789,42.3143],[-71.1648,42.3038],[-71.1786,42.2946],[-71.1912,42.2831],[-71.2699,42.3281],[-71.3324,42.2477],[-71.3292,42.245],[-71.3296,42.2337],[-71.3408,42.2246],[-71.3431,42.2202],[-71.3398,42.2139],[-71.347,42.2156],[-71.352,42.2073],[-71.3442,42.2007],[-71.4044,42.1882],[-71.4022,42.1788],[-71.4302,42.1794],[-71.4441,42.1749],[-71.464,42.1582],[-71.4781,42.1568],[-71.5993,42.226],[-71.5868,42.2595],[-71.5495,42.2661],[-71.513,42.2671],[-71.497,42.2898],[-71.4861,42.3109],[-71.4868,42.3301],[-71.5511,42.3264],[-71.5852,42.311]]]}},{"type":"Feature","id":"25019","properties":{"name":"Nantucket","fips":"25019"},"geometry":{"type":"Polygon","coordinates":[[[-70.0921,41.2977],[-70.0821,41.2991],[-70.0626,41.3087],[-70.0461,41.3217],[-70.0313,41.3393],[-70.0288,41.3599],[-70.0309,41.3675],[-70.0352,41.3722],[-70.0385,41.3764],[-70.0456,41.3836],[-70.0496,41.3879],[-70.0491,41.3917],[-70.0335,41.3858],[-70.0184,41.3686],[-69.9603,41.2787],[-69.9602,41.2645],[-69.9644,41.2546],[-69.9657,41.2525],[-69.975,41.2474],[-70.0016,41.2394],[-70.0152,41.238],[-70.0528,41.2427],[-70.0832,41.2444],[-70.097,41.2409],[-70.1187,41.2424],[-70.1707,41.2559],[-70.2372,41.2827],[-70.2562,41.2881],[-70.2668,41.2945],[-70.2735,41.3015],[-70.2755,41.3105],[-70.2606,41.3101],[-70.2493,41.3056],[-70.2444,41.3032],[-70.2402,41.2954],[-70.2295,41.2902],[-70.2087,41.2902],[-70.1963,41.2946],[-70.1245,41.2939],[-70.0921,41.2977]]]}},{"type":"Feature","id":"25021","properties":{"name":"Norfolk","fips":"25021"},"geometry":{"type":"Polygon","coordinates":[[[-71.4983,42.0172],[-71.4983,42.0278],[-71.4979,42.0315],[-71.4983,42.0313],[-71.4983,42.0648],[-71.5009,42.117],[-71.4785,42.1314],[-71.4781,42.1568],[-71.464,42.1582],[-71.4441,42.1749],[-71.4302,42.1794],[-71.4022,42.1788],[-71.4044,42.1882],[-71.3442,42.2007],[-71.352,42.2073],[-71.347,42.2156],[-71.3398,42.2139],[-71.3431,42.2202],[-71.3408,42.2246],[-71.3296,42.2337],[-71.3292,42.245],[-71.3324,42.2477],[-71.2699,42.3281],[-71.1912,42.2831],[-71.1308,42.2279],[-71.1129,42.2586],[-71.1027,42.2599],[-71.0887,42.2697],[-71.083,42.2685],[-71.0657,42.2711],[-71.0616,42.2673],[-71.0534,42.2723],[-71.0555,42.2757],[-71.0428,42.277],[-71.0417,42.3053],[-71.0054,42.3072],[-71.0009,42.3025],[-71.0062,42.2881],[-71.0049,42.2827],[-70.9961,42.2712],[-70.9891,42.2674],[-70.9674,42.2682],[-70.949,42.2725],[-70.9455,42.2691],[-70.9359,42.2642],[-70.9232,42.2632],[-70.9109,42.2654],[-70.9063,42.2716],[-70.9249,42.1576],[-70.9813,42.1355],[-70.9931,42.1309],[-71.002,42.1265],[-71.0802,42.0957],[-71.1386,42.0728],[-71.1386,42.0728],[-71.1687,42.0612],[-71.2883,42.0145],[-71.2883,42.0145],[-71.2883,42.0144],[-71.3649,41.9852],[-71.3815,41.985],[-71.3814,42.0188],[-71.4581,42.0178],[-71.4983,42.0172]]]}},{"type":"Feature","id":"25023","properties":{"name":"Plymouth","fips":"25023"},"geometry":{"type":"Polygon","coordinates":[[[-70.9218,41.7912],[-71.0366,41.8165],[-70.9997,41.9296],[-71.0495,41.9631],[-71.0547,41.9851],[-71.0802,42.0957],[-71.002,42.1265],[-70.9931,42.1309],[-70.9813,42.1355],[-70.9249,42.1576],[-70.9063,42.2716],[-70.8963,42.2851],[-70.8958,42.2924],[-70.8971,42.2959],[-70.9156,42.3025],[-70.9175,42.3057],[-70.9076,42.3079],[-70.8828,42.3089],[-70.8812,42.3007],[-70.8709,42.2857],[-70.8618,42.276],[-70.8511,42.2683],[-70.8311,42.2674],[-70.8247,42.2659],[-70.8117,42.2629],[-70.7887,42.2539],[-70.7807,42.2518],[-70.771,42.2492],[-70.7648,42.2441],[-70.7545,42.2287],[-70.7472,42.2218],[-70.7306,42.2109],[-70.7223,42.208],[-70.7187,42.1849],[-70.7143,42.1688],[-70.7063,42.1631],[-70.6853,42.133],[-70.6639,42.1083],[-70.6402,42.0886],[-70.6385,42.0816],[-70.6473,42.0763],[-70.6482,42.0684],[-70.6432,42.0508],[-70.6443,42.0459],[-70.6509,42.0462],[-70.6694,42.0371],[-70.6717,42.0214],[-70.6675,42.0123],[-70.6709,42.0078],[-70.6788,42.0055],[-70.6868,42.0128],[-70.6958,42.0133],[-70.7122,42.0076],[-70.71,41.9995],[-70.699,41.9871],[-70.6625,41.9606],[-70.6517,41.9587],[-70.6484,41.9617],[-70.6313,41.9505],[-70.6235,41.9433],[-70.6165,41.9402],[-70.6082,41.9407],[-70.5981,41.9478],[-70.5836,41.95],[-70.5529,41.9296],[-70.5464,41.9168],[-70.5474,41.9119],[-70.5459,41.9072],[-70.5321,41.8896],[-70.5256,41.8587],[-70.5355,41.8394],[-70.5421,41.8313],[-70.5432,41.8244],[-70.541,41.8158],[-70.5373,41.8109],[-70.5653,41.7867],[-70.6326,41.7628],[-70.6216,41.749],[-70.6429,41.7184],[-70.6446,41.719],[-70.6511,41.7157],[-70.6566,41.7154],[-70.6705,41.7219],[-70.7082,41.731],[-70.7187,41.7357],[-70.7263,41.7327],[-70.7289,41.7234],[-70.7213,41.713],[-70.7175,41.694],[-70.7196,41.685],[-70.7294,41.6881],[-70.7444,41.697],[-70.7553,41.6943],[-70.7615,41.6768],[-70.7615,41.6766],[-70.7624,41.6677],[-70.7582,41.6612],[-70.7576,41.6543],[-70.7655,41.6416],[-70.7693,41.6411],[-70.7737,41.645],[-70.7758,41.6491],[-70.7767,41.6508],[-70.8091,41.6564],[-70.8133,41.6557],[-70.8157,41.6528],[-70.8164,41.646],[-70.8047,41.6412],[-70.8002,41.6318],[-70.8011,41.6295],[-70.8103,41.6249],[-70.8353,41.6245],[-70.8432,41.6285],[-70.9218,41.7912]]]}},{"type":"Feature","id":"25025","properties":{"name":"Suffolk","fips":"25025"},"geometry":{"type":"Polygon","coordinates":[[[-71.0428,42.277],[-71.0555,42.2757],[-71.0534,42.2723],[-71.0616,42.2673],[-71.0657,42.2711],[-71.083,42.2685],[-71.0887,42.2697],[-71.1027,42.2599],[-71.1129,42.2586],[-71.1308,42.2279],[-71.1912,42.2831],[-71.1786,42.2946],[-71.1648,42.3038],[-71.1789,42.3143],[-71.1568,42.3302],[-71.1676,42.3334],[-71.1748,42.3503],[-71.1676,42.3601],[-71.1486,42.3612],[-71.1435,42.365],[-71.131,42.3738],[-71.1172,42.3672],[-71.1171,42.3556],[-71.0992,42.3528],[-71.0771,42.3587],[-71.0698,42.3691],[-71.0641,42.369],[-71.0806,42.381],[-71.0735,42.3918],[-71.0553,42.3871],[-71.0332,42.4142],[-71.0204,42.4382],[-71.0258,42.4448],[-70.9823,42.4313],[-70.9606,42.4438],[-70.9608,42.4413],[-70.983,42.424],[-70.9877,42.4167],[-70.9906,42.4071],[-70.9892,42.4026],[-70.9851,42.402],[-70.9834,42.3962],[-70.9803,42.3915],[-70.9727,42.39],[-70.9702,42.388],[-70.9717,42.3871],[-70.9725,42.385],[-70.9727,42.3818],[-70.9722,42.3773],[-70.9608,42.3606],[-70.9533,42.3497],[-70.953,42.344],[-70.9636,42.3469],[-70.9724,42.3539],[-70.9749,42.3558],[-70.9799,42.3564],[-70.9823,42.3559],[-70.9983,42.3528],[-71.0069,42.347],[-71.0101,42.3392],[-71.0118,42.3353],[-71.0157,42.326],[-71.0132,42.3154],[-71.0054,42.3072],[-71.0417,42.3053],[-71.0428,42.277]]]}},{"type":"Feature","id":"25027","properties":{"name":"Worcester","fips":"25027"},"geometry":{"type":"Polygon","coordinates":[[[-72.2111,42.2513],[-72.2113,42.2556],[-72.2161,42.2561],[-72.2179,42.2701],[-72.2129,42.2699],[-72.2121,42.2827],[-72.2072,42.2852],[-72.2034,42.2912],[-72.2108,42.2945],[-72.2139,42.2943],[-72.3146,42.3435],[-72.245,42.5136],[-72.2248,42.639],[-72.283,42.722],[-72.1111,42.7173],[-72.0785,42.7164],[-71.9288,42.7122],[-71.8987,42.7115],[-71.8584,42.6338],[-71.7757,42.6442],[-71.6646,42.6116],[-71.6777,42.5394],[-71.679,42.5304],[-71.6757,42.53],[-71.6655,42.5284],[-71.6646,42.5283],[-71.6554,42.5269],[-71.6517,42.5264],[-71.6506,42.5262],[-71.6358,42.5241],[-71.5389,42.5431],[-71.5433,42.4665],[-71.6247,42.3505],[-71.6258,42.3497],[-71.6191,42.3433],[-71.6116,42.339],[-71.6041,42.3368],[-71.6036,42.3317],[-71.6052,42.3303],[-71.6019,42.327],[-71.5974,42.3211],[-71.5925,42.3179],[-71.5852,42.311],[-71.5511,42.3264],[-71.4868,42.3301],[-71.4861,42.3109],[-71.497,42.2898],[-71.513,42.2671],[-71.5495,42.2661],[-71.5868,42.2595],[-71.5993,42.226],[-71.4781,42.1568],[-71.4785,42.1314],[-71.5009,42.117],[-71.4983,42.0648],[-71.4983,42.0313],[-71.4979,42.0315],[-71.4983,42.0278],[-71.4983,42.0172],[-71.4999,42.0172],[-71.5009,42.0171],[-71.5273,42.0151],[-71.5276,42.015],[-71.5594,42.0143],[-71.5769,42.0141],[-71.5911,42.0137],[-71.7992,42.0081],[-71.8007,42.0236],[-72.0598,42.0273],[-72.1022,42.029],[-72.1357,42.0302],[-72.1357,42.0302],[-72.135,42.0907],[-72.135,42.1617],[-72.1418,42.1609],[-72.2639,42.1839],[-72.2212,42.2453],[-72.2181,42.2486],[-72.2148,42.249],[-72.2146,42.2476],[-72.2105,42.2472],[-72.2111,42.2513]]]}}]}