{"type":"FeatureCollection","features":[{"type":"Feature","geometry":{"type":"Polygon","coordinates":[[[-70.9891,43.7921],[-70.9728,43.5704],[-70.9573,43.5613],[-70.9506,43.5513],[-70.9535,43.5406],[-70.9638,43.5394],[-70.9539,43.5223],[-70.9547,43.5093],[-70.9683,43.4895],[-70.9675,43.4809],[-70.976,43.4784],[-70.9611,43.4692],[-70.9666,43.4513],[-70.961,43.4384],[-70.9871,43.4131],[-70.9823,43.3983],[-70.9879,43.3899],[-70.9746,43.3636],[-70.9781,43.3584],[-70.9562,43.3341],[-70.9328,43.3372],[-70.9244,43.3238],[-70.9114,43.3197],[-70.9138,43.3089],[-70.8963,43.2984],[-70.9075,43.2933],[-70.8973,43.2927],[-70.8967,43.2853],[-70.8836,43.2834],[-70.8831,43.273],[-70.8629,43.2648],[-70.8575,43.2558],[-70.8428,43.2542],[-70.8379,43.2424],[-70.8274,43.2434],[-70.8178,43.2382],[-70.8172,43.2293],[-70.8095,43.2249],[-70.8169,43.2145],[-70.8193,43.193],[-70.8283,43.1878],[-70.8236,43.1742],[-70.8336,43.1461],[-70.8271,43.1274],[-70.7797,43.0962],[-70.7659,43.0925],[-70.7564,43.0802],[-70.738,43.0737],[-70.7063,43.0753],[-70.7012,43.0452],[-70.6307,42.9853],[-70.6112,42.979],[-70.5876,42.9492],[-70.5751,42.9171],[-70.553,42.9293],[-70.5402,42.944],[-70.5289,43.0058],[-70.5325,43.02],[-70.5521,43.043],[-70.5731,43.0529],[-70.5997,43.0569],[-70.5906,43.0674],[-70.5822,43.0955],[-70.562,43.1099],[-70.5558,43.1215],[-70.5401,43.1305],[-70.5374,43.1059],[-70.5251,43.0893],[-70.493,43.073],[-70.4591,43.0715],[-70.4211,43.0867],[-70.4041,43.1094],[-70.4072,43.1384],[-70.4409,43.1666],[-70.4864,43.1703],[-70.5217,43.1549],[-70.5229,43.1789],[-70.5063,43.2188],[-70.5124,43.2427],[-70.5208,43.2521],[-70.5022,43.2681],[-70.4932,43.2868],[-70.4218,43.2975],[-70.3674,43.3233],[-70.3516,43.3391],[-70.3462,43.3582],[-70.3189,43.3901],[-70.2804,43.4087],[-70.2684,43.4264],[-70.156,43.5244],[-69.8552,43.6469],[-69.8088,43.6473],[-69.7866,43.6581],[-69.7495,43.654],[-69.7304,43.6573],[-69.7083,43.6682],[-69.6934,43.6834],[-69.6863,43.6982],[-69.6647,43.7117],[-69.6173,43.6998],[-69.5509,43.7071],[-69.5353,43.7145],[-69.5191,43.7321],[-69.5158,43.761],[-69.5058,43.7785],[-69.4699,43.7939],[-69.4093,43.8108],[-69.3873,43.799],[-69.3972,43.7634],[-69.3876,43.7361],[-69.3564,43.7109],[-69.3351,43.7045],[-69.309,43.705],[-69.2829,43.7138],[-69.262,43.7254],[-69.2381,43.7501],[-69.2333,43.781],[-69.2425,43.7998],[-69.2623,43.8154],[-69.2366,43.8256],[-69.2266,43.8122],[-69.1972,43.796],[-69.1498,43.7957],[-69.083,43.8256],[-69.0649,43.8419],[-69.0559,43.8589],[-69.0228,43.8425],[-69.0243,43.8198],[-69.0099,43.7984],[-68.9812,43.7838],[-68.9498,43.7802],[-68.9444,43.7679],[-68.9255,43.7501],[-68.8706,43.7336],[-68.8269,43.7357],[-68.8054,43.746],[-68.7861,43.7684],[-68.7812,43.7851],[-68.7853,43.8043],[-68.7495,43.8325],[-68.7128,43.8384],[-68.6847,43.8546],[-68.6694,43.8696],[-68.6638,43.8939],[-68.6793,43.9235],[-68.707,43.9392],[-68.7426,43.9431],[-68.7215,43.9619],[-68.7072,43.9638],[-68.6897,43.9542],[-68.6596,43.948],[-68.6187,43.9559],[-68.5942,43.9537],[-68.5684,43.958],[-68.5473,43.9686],[-68.5307,43.9866],[-68.4931,44.0106],[-68.4846,44.0283],[-68.4995,44.0738],[-68.5154,44.0786],[-68.5417,44.0983],[-68.5496,44.1104],[-68.5488,44.1299],[-68.5793,44.1287],[-68.6111,44.1129],[-68.6538,44.1203],[-68.7299,44.1167],[-68.7535,44.134],[-68.765,44.1638],[-68.7759,44.1785],[-68.8305,44.21],[-68.871,44.1988],[-68.8964,44.2099],[-68.9166,44.1667],[-69.0,44.1667],[-69.0048,44.2032],[-69.0132,44.2106],[-69.0284,44.249],[-69.0431,44.2595],[-69.1216,44.2556],[-69.2689,44.3647],[-69.3466,44.3083],[-69.3944,44.3429],[-69.4023,44.3431],[-69.4091,44.3364],[-69.4046,44.3329],[-69.4096,44.328],[-69.5064,44.3429],[-69.4455,44.4638],[-69.396,44.4571],[-69.3724,44.5446],[-69.4168,44.5511],[-69.3931,44.6404],[-69.4613,44.6474],[-69.4559,44.6622],[-69.4479,44.6622],[-69.4429,44.6724],[-69.4756,44.6767],[-69.4773,44.6921],[-69.4717,44.6929],[-69.4675,44.708],[-69.4732,44.7087],[-69.4704,44.7182],[-69.4838,44.7202],[-69.6331,44.7004],[-69.6288,44.6727],[-69.6176,44.657],[-69.5791,44.627],[-69.5927,44.6034],[-69.5909,44.5846],[-69.6057,44.5773],[-69.6676,44.5857],[-69.6695,44.558],[-69.7184,44.5134],[-69.7199,44.5075],[-69.6766,44.5005],[-69.687,44.458],[-69.7016,44.4269],[-69.7267,44.4001],[-69.729,44.3777],[-69.6257,44.3618],[-69.6654,44.2276],[-69.6815,44.234],[-69.6882,44.2349],[-69.6894,44.2313],[-69.7236,44.2368],[-69.7251,44.2311],[-69.7357,44.2273],[-69.7626,44.2238],[-69.7627,44.2034],[-69.7522,44.1841],[-69.7561,44.17],[-69.7634,44.164],[-69.7636,44.1532],[-69.855,44.1679],[-69.8483,44.1701],[-69.8327,44.1911],[-69.8069,44.2054],[-69.8015,44.2133],[-69.8073,44.221],[-69.8,44.2425],[-69.8472,44.2386],[-69.8457,44.2434],[-69.8555,44.2465],[-69.8482,44.2516],[-69.8774,44.2563],[-69.9014,44.2673],[-69.9232,44.2709],[-69.9374,44.2677],[-69.9684,44.1762],[-69.9938,44.1806],[-69.9988,44.1668],[-70.0103,44.1687],[-70.014,44.1576],[-70.0185,44.1579],[-70.0274,44.1306],[-70.0055,44.1245],[-70.0272,44.0434],[-70.0251,44.0364],[-70.0365,44.0268],[-70.0328,44.0213],[-70.0383,44.0182],[-70.0318,44.0029],[-70.0376,43.9996],[-70.0432,44.0025],[-70.0518,43.991],[-70.0342,43.9757],[-70.0808,43.9265],[-70.0923,43.932],[-70.1159,43.9067],[-70.2036,43.9479],[-70.2003,43.952],[-70.3154,44.0378],[-70.3639,43.9864],[-70.3953,44.0031],[-70.402,43.9901],[-70.445,44.0128],[-70.4486,44.0094],[-70.5024,44.0426],[-70.509,44.0415],[-70.5441,44.0056],[-70.5639,44.025],[-70.574,44.0156],[-70.5812,44.0179],[-70.5963,44.0326],[-70.5927,44.0353],[-70.6038,44.0415],[-70.6037,44.0502],[-70.6141,44.062],[-70.603,44.0888],[-70.6062,44.1013],[-70.5872,44.1242],[-70.5987,44.1498],[-70.6243,44.171],[-70.6959,44.1342],[-70.6997,44.1391],[-70.8218,44.0771],[-70.8585,44.0953],[-70.8578,44.088],[-70.8666,44.0802],[-70.8613,44.0772],[-70.8585,44.0596],[-70.8481,44.0495],[-70.7925,44.0401],[-70.7917,44.0287],[-70.7818,44.0314],[-70.7154,43.9618],[-70.7475,43.9459],[-70.7297,43.9284],[-70.7579,43.9069],[-70.7552,43.8886],[-70.7439,43.8858],[-70.7653,43.8715],[-70.7663,43.8772],[-70.7805,43.8682],[-70.7815,43.8739],[-70.7982,43.8633],[-70.7933,43.8575],[-70.8015,43.8565],[-70.7924,43.8469],[-70.7944,43.8344],[-70.7871,43.8326],[-70.7816,43.8236],[-70.783,43.8141],[-70.7913,43.8131],[-70.7978,43.8062],[-70.815,43.8115],[-70.8219,43.8072],[-70.8408,43.81],[-70.8613,43.8047],[-70.8809,43.8108],[-70.9127,43.8009],[-70.9271,43.7903],[-70.9426,43.7923],[-70.9575,43.7851],[-70.9723,43.7852],[-70.9819,43.7935],[-70.9891,43.7921]]]},"properties":{"name":"CD1","district_number":1,"fips":"23-01"}},{"type":"Feature","geometry":{"type":"Polygon","coordinates":[[[-71.0839,45.3055],[-71.0326,44.6832],[-71.0057,44.2027],[-70.9891,43.7921],[-70.9819,43.7935],[-70.9712,43.785],[-70.9645,43.7881],[-70.9569,43.7852],[-70.9426,43.7923],[-70.9271,43.7903],[-70.9127,43.8009],[-70.8809,43.8108],[-70.8613,43.8047],[-70.8408,43.81],[-70.8219,43.8072],[-70.815,43.8115],[-70.7978,43.8062],[-70.7913,43.8131],[-70.783,43.8141],[-70.7816,43.8236],[-70.7871,43.8326],[-70.7944,43.8344],[-70.7924,43.8469],[-70.8015,43.8565],[-70.7933,43.8575],[-70.7982,43.8633],[-70.7815,43.8739],[-70.7805,43.8682],[-70.7663,43.8772],[-70.7653,43.8715],[-70.7439,43.8858],[-70.7552,43.8886],[-70.7579,43.9069],[-70.7297,43.9284],[-70.7475,43.9459],[-70.7154,43.9618],[-70.7818,44.0314],[-70.7917,44.0287],[-70.7925,44.0401],[-70.8481,44.0495],[-70.8585,44.0596],[-70.8613,44.0772],[-70.8666,44.0799],[-70.8578,44.088],[-70.8585,44.0953],[-70.8218,44.0771],[-70.6997,44.1391],[-70.6959,44.1342],[-70.6243,44.171],[-70.5987,44.1498],[-70.5872,44.1242],[-70.6062,44.1013],[-70.603,44.0888],[-70.6141,44.062],[-70.6037,44.0502],[-70.6038,44.0415],[-70.5927,44.0353],[-70.5963,44.0326],[-70.5812,44.0179],[-70.574,44.0156],[-70.5639,44.025],[-70.5441,44.0056],[-70.509,44.0415],[-70.5024,44.0426],[-70.4486,44.0094],[-70.445,44.0128],[-70.402,43.9901],[-70.3953,44.0031],[-70.3639,43.9864],[-70.3154,44.0378],[-70.2003,43.952],[-70.2036,43.9479],[-70.1159,43.9067],[-70.0923,43.932],[-70.0808,43.9265],[-70.0342,43.9757],[-70.0518,43.991],[-70.0432,44.0025],[-70.0376,43.9996],[-70.0318,44.0029],[-70.0383,44.0182],[-70.0328,44.0213],[-70.0365,44.0268],[-70.0251,44.0364],[-70.0272,44.0434],[-70.0055,44.1245],[-70.0274,44.1306],[-70.0185,44.1579],[-70.014,44.1576],[-70.0103,44.1687],[-69.9988,44.1668],[-69.9938,44.1806],[-69.9684,44.1762],[-69.9374,44.2677],[-69.9232,44.2709],[-69.9014,44.2673],[-69.8774,44.2563],[-69.8482,44.2516],[-69.8555,44.2465],[-69.8457,44.2434],[-69.8472,44.2386],[-69.8,44.2425],[-69.8073,44.221],[-69.8015,44.2133],[-69.8069,44.2054],[-69.8327,44.1911],[-69.8483,44.1701],[-69.855,44.1679],[-69.7636,44.1532],[-69.7634,44.164],[-69.7561,44.17],[-69.7522,44.1841],[-69.7627,44.2034],[-69.7626,44.2238],[-69.7357,44.2273],[-69.7251,44.2311],[-69.7236,44.2368],[-69.6894,44.2313],[-69.6882,44.2349],[-69.6815,44.234],[-69.6654,44.2276],[-69.6257,44.3618],[-69.729,44.3777],[-69.7298,44.3887],[-69.7232,44.4053],[-69.7012,44.4275],[-69.6868,44.4585],[-69.6766,44.5005],[-69.7199,44.5075],[-69.7184,44.5134],[-69.6695,44.558],[-69.6687,44.5848],[-69.6057,44.5773],[-69.5927,44.5824],[-69.5893,44.5889],[-69.5927,44.6034],[-69.5791,44.627],[-69.6176,44.657],[-69.6288,44.6727],[-69.6331,44.7004],[-69.4838,44.7202],[-69.4704,44.7182],[-69.4732,44.7087],[-69.4675,44.708],[-69.4717,44.6929],[-69.4773,44.6921],[-69.4756,44.6767],[-69.4429,44.6724],[-69.4479,44.6622],[-69.4559,44.6622],[-69.4614,44.6476],[-69.3931,44.6404],[-69.4168,44.5511],[-69.3724,44.5446],[-69.396,44.4571],[-69.4455,44.4638],[-69.5064,44.3429],[-69.4096,44.328],[-69.4046,44.3329],[-69.4091,44.3364],[-69.4023,44.3431],[-69.3944,44.3429],[-69.3466,44.3083],[-69.2689,44.3647],[-69.1216,44.2556],[-69.0431,44.2595],[-69.0284,44.249],[-69.0132,44.2106],[-69.0048,44.2032],[-69.0,44.1667],[-68.9166,44.1667],[-68.8964,44.2099],[-68.871,44.1988],[-68.8305,44.21],[-68.7759,44.1785],[-68.765,44.1638],[-68.7535,44.134],[-68.7299,44.1167],[-68.6538,44.1203],[-68.6111,44.1129],[-68.5793,44.1287],[-68.5488,44.1299],[-68.5496,44.1104],[-68.5417,44.0983],[-68.5154,44.0786],[-68.4995,44.0738],[-68.4846,44.0283],[-68.463,44.0321],[-68.4368,44.0532],[-68.3688,44.0452],[-68.3114,44.0534],[-68.2792,44.0699],[-68.2631,44.0906],[-68.2302,44.0905],[-68.2034,44.0996],[-68.1759,44.1251],[-68.1684,44.1729],[-68.1708,44.1901],[-68.1376,44.2069],[-68.1226,44.226],[-68.1207,44.2443],[-68.1283,44.2643],[-68.061,44.2783],[-68.0278,44.2742],[-67.9994,44.2802],[-67.9736,44.2952],[-67.9608,44.3193],[-67.9424,44.3261],[-67.9252,44.3414],[-67.8982,44.3221],[-67.8744,44.3169],[-67.8583,44.317],[-67.8237,44.327],[-67.8097,44.3365],[-67.7953,44.3612],[-67.796,44.3795],[-67.8056,44.391],[-67.7747,44.4113],[-67.7586,44.3983],[-67.7295,44.3877],[-67.6958,44.3877],[-67.6746,44.3946],[-67.655,44.3867],[-67.6274,44.3835],[-67.574,44.395],[-67.5128,44.4207],[-67.4926,44.4322],[-67.4552,44.4649],[-67.4442,44.4811],[-67.4434,44.5053],[-67.4139,44.5096],[-67.3882,44.5204],[-67.3404,44.5213],[-67.3178,44.5315],[-67.3008,44.5499],[-67.246,44.5553],[-67.1915,44.5795],[-67.1743,44.5947],[-67.1409,44.6083],[-67.1274,44.6214],[-67.1038,44.6334],[-67.0875,44.6535],[-67.0502,44.681],[-67.0393,44.697],[-67.0108,44.7173],[-66.9775,44.7312],[-66.9523,44.7604],[-66.9026,44.7766],[-66.8854,44.7942],[-66.9326,44.8255],[-66.9653,44.8289],[-66.9749,44.8416],[-66.9821,44.8673],[-66.9687,44.9104],[-66.9968,44.9284],[-67.0217,44.9539],[-67.0946,45.0745],[-67.1126,45.1126],[-67.1589,45.162],[-67.2051,45.1714],[-67.2273,45.1634],[-67.2428,45.1724],[-67.2474,45.1809],[-67.2834,45.1919],[-67.291,45.1876],[-67.2914,45.171],[-67.2993,45.1692],[-67.3027,45.1607],[-67.2942,45.1536],[-67.296,45.1478],[-67.32,45.1424],[-67.3208,45.1313],[-67.3305,45.1318],[-67.3408,45.125],[-67.3534,45.1292],[-67.3807,45.1521],[-67.405,45.1601],[-67.4048,45.1668],[-67.3992,45.169],[-67.4005,45.1777],[-67.4293,45.1935],[-67.428,45.2018],[-67.437,45.2227],[-67.4538,45.2412],[-67.4642,45.2451],[-67.4731,45.2586],[-67.4764,45.2754],[-67.4897,45.2821],[-67.4851,45.2912],[-67.4761,45.2886],[-67.4661,45.2939],[-67.4681,45.299],[-67.4603,45.3],[-67.4518,45.3177],[-67.4569,45.3253],[-67.4312,45.3411],[-67.4315,45.3498],[-67.4254,45.3574],[-67.4345,45.365],[-67.4192,45.3771],[-67.4276,45.391],[-67.4527,45.4097],[-67.4612,45.4222],[-67.4727,45.4232],[-67.4804,45.4409],[-67.4765,45.4433],[-67.485,45.4528],[-67.4821,45.4594],[-67.5037,45.4867],[-67.5001,45.4909],[-67.4895,45.4892],[-67.4855,45.4956],[-67.4637,45.4971],[-67.4712,45.5009],[-67.4636,45.5084],[-67.4516,45.4991],[-67.4489,45.5021],[-67.4535,45.5088],[-67.4501,45.5103],[-67.4301,45.501],[-67.4228,45.5055],[-67.4162,45.5013],[-67.4349,45.5281],[-67.4325,45.5404],[-67.4251,45.5403],[-67.4207,45.5497],[-67.4289,45.5683],[-67.4232,45.5716],[-67.45,45.6025],[-67.4933,45.6013],[-67.488,45.5958],[-67.499,45.5867],[-67.5192,45.5876],[-67.548,45.5978],[-67.5617,45.5947],[-67.5899,45.6068],[-67.6084,45.6061],[-67.6391,45.6251],[-67.644,45.6231],[-67.6398,45.6161],[-67.6456,45.6133],[-67.6752,45.6307],[-67.6923,45.6501],[-67.7096,45.6813],[-67.7178,45.6794],[-67.7283,45.6892],[-67.7346,45.6889],[-67.73,45.6767],[-67.7179,45.6677],[-67.7201,45.6623],[-67.7272,45.6626],[-67.7444,45.6729],[-67.7543,45.6676],[-67.7687,45.6775],[-67.8036,45.6777],[-67.818,45.6938],[-67.8029,45.6961],[-67.8096,45.7296],[-67.7818,45.7311],[-67.7929,45.7501],[-67.8063,45.7552],[-67.8065,45.7944],[-67.8021,45.803],[-67.7807,45.8178],[-67.7553,45.8234],[-67.7971,45.86],[-67.7962,45.8652],[-67.8045,45.8694],[-67.8039,45.8829],[-67.7875,45.8947],[-67.7681,45.8981],[-67.7653,45.9098],[-67.7554,45.9117],[-67.7506,45.9176],[-67.7586,45.9264],[-67.7778,45.9342],[-67.7812,45.9434],[-67.7902,47.0672],[-67.8211,47.0834],[-67.8829,47.1044],[-67.8882,47.1098],[-67.8909,47.1266],[-67.9098,47.1472],[-67.9287,47.1562],[-67.9515,47.1835],[-67.9519,47.1945],[-67.9572,47.1996],[-67.9897,47.21],[-68.0197,47.2385],[-68.074,47.2592],[-68.0819,47.271],[-68.1359,47.2956],[-68.1522,47.3097],[-68.1547,47.3252],[-68.2145,47.3396],[-68.2345,47.3553],[-68.2649,47.3522],[-68.2848,47.3603],[-68.3033,47.3552],[-68.3277,47.3601],[-68.3631,47.3547],[-68.3777,47.3436],[-68.3847,47.3241],[-68.3808,47.3082],[-68.3848,47.3037],[-68.3763,47.2952],[-68.3779,47.2874],[-68.4098,47.288],[-68.4298,47.2813],[-68.4488,47.282],[-68.475,47.2971],[-68.5168,47.2961],[-68.5498,47.2821],[-68.5801,47.2871],[-68.5977,47.2702],[-68.5935,47.2588],[-68.6175,47.2434],[-68.6598,47.2361],[-68.6872,47.2444],[-68.7051,47.2379],[-68.717,47.2405],[-68.7643,47.222],[-68.8115,47.2151],[-68.8574,47.1903],[-68.8955,47.1824],[-68.9,47.1777],[-68.9198,47.1899],[-68.9237,47.1974],[-68.9411,47.2061],[-68.9508,47.202],[-68.9529,47.2069],[-68.9612,47.2057],[-68.9653,47.2125],[-68.9804,47.2201],[-69.0338,47.2404],[-69.0507,47.2565],[-69.0468,47.2716],[-69.0535,47.2972],[-69.0492,47.3058],[-69.0549,47.3153],[-69.0549,47.3777],[-69.0396,47.3842],[-69.0454,47.393],[-69.0438,47.3974],[-69.0376,47.3968],[-69.0427,47.402],[-69.0352,47.4018],[-69.0425,47.4047],[-69.0324,47.4022],[-69.0306,47.4074],[-69.0366,47.4077],[-69.0345,47.4146],[-69.0422,47.4157],[-69.0392,47.4197],[-69.0432,47.4268],[-69.0522,47.4221],[-69.0485,47.4242],[-69.0521,47.43],[-69.0635,47.4341],[-69.0619,47.4306],[-69.0684,47.4274],[-69.0901,47.4241],[-69.0989,47.4314],[-69.1077,47.4277],[-69.1078,47.4354],[-69.122,47.4427],[-69.1411,47.444],[-69.1565,47.4516],[-69.1623,47.4474],[-69.1789,47.4574],[-69.2052,47.452],[-69.2245,47.4598],[-69.9971,46.6955],[-70.0565,46.4156],[-70.0969,46.4095],[-70.0952,46.4064],[-70.1009,46.4053],[-70.0988,46.4011],[-70.1099,46.3903],[-70.1078,46.3877],[-70.1166,46.3882],[-70.127,46.3804],[-70.127,46.3708],[-70.1364,46.3699],[-70.1481,46.359],[-70.1729,46.3592],[-70.1912,46.3502],[-70.2089,46.3295],[-70.203,46.3144],[-70.2059,46.2997],[-70.2316,46.291],[-70.2531,46.2588],[-70.2509,46.2491],[-70.2675,46.2194],[-70.2736,46.2168],[-70.2711,46.2108],[-70.2927,46.1915],[-70.2906,46.1851],[-70.2363,46.1452],[-70.2545,46.1137],[-70.2531,46.1001],[-70.2859,46.0998],[-70.292,46.0868],[-70.3019,46.0824],[-70.3025,46.0704],[-70.311,46.0642],[-70.3004,46.0606],[-70.2842,46.0627],[-70.2783,46.0563],[-70.2974,46.0407],[-70.3014,46.0276],[-70.318,46.0191],[-70.3061,46.0098],[-70.3024,45.9987],[-70.2839,45.9955],[-70.307,45.9827],[-70.3159,45.963],[-70.277,45.9673],[-70.2745,45.9614],[-70.2657,45.9642],[-70.258,45.959],[-70.2605,45.9523],[-70.2528,45.9554],[-70.2391,45.9439],[-70.2631,45.924],[-70.2572,45.9176],[-70.2595,45.9098],[-70.2534,45.9074],[-70.2657,45.8937],[-70.2588,45.8912],[-70.3078,45.8588],[-70.3419,45.8523],[-70.3594,45.8354],[-70.3708,45.8352],[-70.3722,45.828],[-70.3967,45.8081],[-70.3962,45.7987],[-70.4169,45.7955],[-70.4157,45.7853],[-70.4056,45.7765],[-70.407,45.7625],[-70.3884,45.7502],[-70.3939,45.7401],[-70.3838,45.7346],[-70.3901,45.7285],[-70.3965,45.7291],[-70.4003,45.7197],[-70.4392,45.7039],[-70.4655,45.7065],[-70.5264,45.6664],[-70.5339,45.671],[-70.5586,45.6665],[-70.5649,45.6548],[-70.5836,45.6424],[-70.5909,45.6305],[-70.607,45.6257],[-70.6191,45.612],[-70.6446,45.607],[-70.6781,45.5705],[-70.6877,45.5694],[-70.6851,45.5666],[-70.6892,45.5622],[-70.6771,45.5522],[-70.687,45.5493],[-70.6965,45.54],[-70.6991,45.5301],[-70.7226,45.5137],[-70.7227,45.5065],[-70.7116,45.5018],[-70.7164,45.4865],[-70.6917,45.4743],[-70.6929,45.4664],[-70.6818,45.4617],[-70.6811,45.4522],[-70.6507,45.4449],[-70.6404,45.4308],[-70.6298,45.4263],[-70.6278,45.4207],[-70.6351,45.4111],[-70.6213,45.4027],[-70.6363,45.3952],[-70.6389,45.3888],[-70.6349,45.3834],[-70.6518,45.377],[-70.6608,45.3781],[-70.6617,45.3863],[-70.6782,45.3943],[-70.712,45.3905],[-70.7297,45.3991],[-70.7304,45.4044],[-70.7436,45.4119],[-70.744,45.4212],[-70.7546,45.4283],[-70.7644,45.4259],[-70.7814,45.4312],[-70.7981,45.4265],[-70.8259,45.3984],[-70.8239,45.391],[-70.8138,45.3878],[-70.8028,45.3675],[-70.8145,45.3567],[-70.8098,45.3487],[-70.8199,45.3402],[-70.8164,45.3308],[-70.8076,45.3277],[-70.8084,45.3118],[-70.8146,45.3082],[-70.8115,45.3038],[-70.8163,45.2982],[-70.8355,45.294],[-70.8299,45.2902],[-70.8319,45.2789],[-70.8489,45.2631],[-70.8486,45.2452],[-70.8376,45.235],[-70.8575,45.2291],[-70.8969,45.2419],[-70.8985,45.2583],[-70.9059,45.2608],[-70.9075,45.2684],[-70.9213,45.2792],[-70.912,45.2963],[-70.9196,45.3053],[-70.9178,45.3117],[-70.9389,45.32],[-70.9524,45.3391],[-70.9673,45.3322],[-70.985,45.3319],[-71.0107,45.3477],[-71.0121,45.3339],[-71.0019,45.3284],[-71.0085,45.3192],[-71.0327,45.3102],[-71.0591,45.3138],[-71.0839,45.3055]]]},"properties":{"name":"CD2","district_number":2,"fips":"23-02"}}],"source":"U.S. Census Bureau TIGERweb, 120th Congressional Districts (January 1, 2026 vintage)"}