{"type":"FeatureCollection","features":[{"type":"Feature","id":"23001","properties":{"name":"Androscoggin","fips":"23001"},"geometry":{"type":"Polygon","coordinates":[[[-70.0808,43.9265],[-70.2292,43.9741],[-70.3154,44.0378],[-70.3639,43.9864],[-70.4801,44.0321],[-70.3917,44.1536],[-70.3341,44.2108],[-70.3252,44.2084],[-70.2652,44.3629],[-70.2768,44.4075],[-70.2683,44.4164],[-70.2744,44.4406],[-70.2389,44.4589],[-70.2013,44.478],[-70.1294,44.4872],[-70.1005,44.3839],[-70.0743,44.2902],[-70.0757,44.2062],[-69.9938,44.1806],[-70.0103,44.1687],[-70.0274,44.1306],[-70.0055,44.1245],[-70.0518,43.991],[-70.047,43.9881],[-70.0466,43.9856],[-70.0364,43.9787],[-70.0342,43.9757],[-70.0808,43.9265]]]}},{"type":"Feature","id":"23003","properties":{"name":"Aroostook","fips":"23003"},"geometry":{"type":"Polygon","coordinates":[[[-68.433,45.5812],[-68.4364,46.3821],[-68.6949,46.3826],[-68.6949,46.3955],[-68.8194,46.3958],[-68.8214,46.5725],[-69.7211,46.5741],[-70.023,46.5735],[-69.9971,46.6952],[-69.8186,46.875],[-69.5664,47.125],[-69.2244,47.4597],[-69.1464,47.4489],[-69.0555,47.4323],[-69.0427,47.4267],[-69.0329,47.4079],[-69.0311,47.4031],[-69.0408,47.3981],[-69.0417,47.3973],[-69.0393,47.3851],[-69.044,47.3837],[-69.0464,47.3839],[-69.0538,47.375],[-69.0503,47.2566],[-69.0402,47.2451],[-69.0335,47.241],[-68.982,47.2203],[-68.9419,47.2062],[-68.9264,47.1979],[-68.901,47.1785],[-68.8534,47.1934],[-68.7232,47.2396],[-68.5804,47.287],[-68.4749,47.2975],[-68.3616,47.3556],[-68.3337,47.3601],[-68.2841,47.3604],[-68.2402,47.3542],[-68.224,47.3485],[-68.1535,47.314],[-67.9557,47.1995],[-67.9523,47.1961],[-67.9494,47.1825],[-67.9359,47.1648],[-67.8892,47.1188],[-67.8469,47.0924],[-67.8163,47.0812],[-67.7905,47.0679],[-67.7895,47.0625],[-67.7894,46.7655],[-67.7893,46.7582],[-67.7821,46.2794],[-67.7811,45.943],[-67.7687,45.902],[-67.764,45.83],[-67.7638,45.8203],[-67.7804,45.8162],[-67.802,45.8035],[-67.8066,45.7947],[-67.8179,45.6937],[-67.8055,45.6802],[-68.048,45.6399],[-68.4109,45.5733],[-68.4144,45.5728],[-68.433,45.5785],[-68.433,45.5812]]]}},{"type":"Feature","id":"23005","properties":{"name":"Cumberland","fips":"23005"},"geometry":{"type":"MultiPolygon","coordinates":[[[[-70.1197,43.7486],[-70.1131,43.7491],[-70.0973,43.7573],[-70.095,43.7532],[-70.1002,43.7421],[-70.1078,43.7346],[-70.1096,43.7305],[-70.109,43.7223],[-70.1241,43.7083],[-70.1294,43.7083],[-70.1381,43.7182],[-70.1387,43.7276],[-70.1271,43.7427],[-70.1197,43.7486]]],[[[-70.1712,43.6635],[-70.1711,43.6633],[-70.1903,43.643],[-70.2059,43.6336],[-70.2072,43.6337],[-70.2111,43.6418],[-70.2001,43.663],[-70.188,43.6738],[-70.1847,43.6747],[-70.1712,43.6635]]],[[[-70.1862,43.6827],[-70.1875,43.6787],[-70.1926,43.6731],[-70.2073,43.6626],[-70.2108,43.6617],[-70.2131,43.663],[-70.2139,43.6662],[-70.2096,43.6763],[-70.2019,43.6855],[-70.1965,43.6888],[-70.191,43.6891],[-70.1862,43.6827]]],[[[-70.1639,43.6924],[-70.1568,43.6947],[-70.1461,43.7016],[-70.1356,43.7007],[-70.1545,43.6809],[-70.1682,43.6751],[-70.1703,43.6754],[-70.1736,43.6837],[-70.1713,43.6875],[-70.1639,43.6924]]],[[[-70.0876,43.6999],[-70.0937,43.6918],[-70.0996,43.6954],[-70.1159,43.683],[-70.1183,43.6833],[-70.1182,43.6864],[-70.116,43.6892],[-70.1007,43.706],[-70.0957,43.7093],[-70.0931,43.7105],[-70.0921,43.7095],[-70.0972,43.7009],[-70.0919,43.6981],[-70.0876,43.6999]]],[[[-70.5956,44.0321],[-70.4801,44.0321],[-70.3639,43.9864],[-70.3154,44.0378],[-70.2292,43.9741],[-70.0808,43.9265],[-70.0342,43.9757],[-69.9762,43.9153],[-69.857,43.9447],[-69.8874,43.7771],[-69.9032,43.7724],[-69.9156,43.7751],[-69.927,43.7802],[-69.9485,43.7659],[-69.9532,43.7688],[-69.9581,43.7678],[-69.9826,43.7508],[-69.9891,43.7432],[-69.9945,43.7285],[-69.9924,43.7269],[-69.9926,43.7248],[-70.0016,43.7177],[-70.007,43.7171],[-70.0052,43.7276],[-70.0011,43.7334],[-69.9988,43.7404],[-70.0017,43.7445],[-70.0414,43.7381],[-70.0408,43.745],[-70.0344,43.759],[-70.0256,43.7695],[-70.0052,43.7876],[-69.9982,43.7987],[-69.9994,43.8051],[-70.0029,43.8121],[-70.011,43.8109],[-70.0262,43.8226],[-70.0262,43.829],[-70.0233,43.8342],[-70.007,43.8442],[-70.0029,43.8482],[-70.0029,43.8529],[-70.0099,43.8593],[-70.0192,43.8587],[-70.0228,43.8562],[-70.032,43.85],[-70.0536,43.8284],[-70.053,43.8214],[-70.0647,43.8133],[-70.0664,43.8197],[-70.081,43.8197],[-70.1072,43.8092],[-70.1428,43.7917],[-70.1539,43.7812],[-70.1539,43.7748],[-70.176,43.7608],[-70.1778,43.7649],[-70.1725,43.7736],[-70.1754,43.7771],[-70.19,43.7719],[-70.1947,43.766],[-70.1976,43.7532],[-70.1941,43.7456],[-70.1947,43.7421],[-70.218,43.72],[-70.2192,43.7159],[-70.2157,43.7077],[-70.2168,43.7048],[-70.2279,43.7019],[-70.232,43.7048],[-70.2518,43.6833],[-70.2541,43.6768],[-70.253,43.675],[-70.2473,43.672],[-70.2423,43.6695],[-70.2395,43.666],[-70.2401,43.6647],[-70.2419,43.6633],[-70.241,43.6591],[-70.223,43.639],[-70.2112,43.6258],[-70.2171,43.5967],[-70.2144,43.5904],[-70.2011,43.5865],[-70.1969,43.5651],[-70.2061,43.5576],[-70.2168,43.5569],[-70.2198,43.5621],[-70.232,43.5611],[-70.2443,43.5518],[-70.2619,43.5537],[-70.2725,43.5626],[-70.2992,43.5506],[-70.3078,43.5443],[-70.3418,43.5405],[-70.3528,43.5359],[-70.3534,43.5354],[-70.492,43.6068],[-70.4577,43.6424],[-70.55,43.7158],[-70.6596,43.7109],[-70.653,43.7875],[-70.783,43.8141],[-70.7298,43.9283],[-70.7475,43.9459],[-70.7154,43.9618],[-70.8218,44.0771],[-70.6243,44.171],[-70.5873,44.1225],[-70.5956,44.0321]]]]}},{"type":"Feature","id":"23007","properties":{"name":"Franklin","fips":"23007"},"geometry":{"type":"Polygon","coordinates":[[[-69.9305,44.6109],[-69.9441,44.5378],[-70.0305,44.5088],[-70.0423,44.4852],[-70.1294,44.4872],[-70.2013,44.478],[-70.2389,44.4589],[-70.2809,44.5051],[-70.2807,44.5696],[-70.55,44.6107],[-70.5106,44.6272],[-70.615,44.7956],[-70.7692,44.7322],[-70.8316,45.2601],[-70.8083,45.3258],[-70.8077,45.3781],[-70.8241,45.3911],[-70.8256,45.4003],[-70.7985,45.4247],[-70.7815,45.4312],[-70.754,45.4278],[-70.7441,45.4211],[-70.7438,45.4119],[-70.73,45.3994],[-70.7123,45.3906],[-70.66,45.3779],[-70.652,45.3771],[-70.6347,45.3836],[-70.6265,45.407],[-70.6355,45.4278],[-70.6502,45.4437],[-70.6637,45.447],[-70.6759,45.4526],[-70.7163,45.4869],[-70.7232,45.5076],[-70.7216,45.5151],[-70.7008,45.5328],[-70.6865,45.55],[-70.6882,45.564],[-70.6593,45.5869],[-70.5648,45.6551],[-70.551,45.6619],[-70.4185,45.144],[-70.3085,45.1632],[-70.2938,45.1099],[-70.1594,45.1284],[-70.1104,44.9473],[-70.1491,44.8961],[-70.1299,44.8508],[-70.0333,44.8645],[-69.9962,44.6775],[-69.9305,44.6109]]]}},{"type":"Feature","id":"23009","properties":{"name":"Hancock","fips":"23009"},"geometry":{"type":"MultiPolygon","coordinates":[[[[-68.4995,44.1242],[-68.4929,44.1169],[-68.4915,44.1098],[-68.5029,44.0997],[-68.5171,44.1034],[-68.5187,44.1132],[-68.5113,44.1251],[-68.507,44.1272],[-68.4995,44.1242]]],[[[-68.3584,44.1251],[-68.353,44.1279],[-68.3467,44.1277],[-68.3307,44.1106],[-68.331,44.1076],[-68.338,44.1015],[-68.3652,44.1015],[-68.3766,44.1122],[-68.3766,44.1138],[-68.3754,44.1165],[-68.3655,44.1241],[-68.3584,44.1251]]],[[[-68.4532,44.19],[-68.4378,44.1882],[-68.4244,44.1908],[-68.4164,44.187],[-68.4082,44.1763],[-68.3849,44.155],[-68.3966,44.1407],[-68.4275,44.1193],[-68.4385,44.1162],[-68.4486,44.1256],[-68.4475,44.1335],[-68.4568,44.1453],[-68.4799,44.1478],[-68.4847,44.1465],[-68.4966,44.1469],[-68.5021,44.1524],[-68.5008,44.16],[-68.4955,44.1624],[-68.4744,44.1819],[-68.4532,44.19]]],[[[-68.6808,44.2792],[-68.6754,44.2798],[-68.6682,44.2765],[-68.6588,44.2686],[-68.6236,44.2556],[-68.6117,44.2448],[-68.6059,44.2308],[-68.6127,44.2077],[-68.625,44.1976],[-68.6257,44.1948],[-68.6196,44.1894],[-68.6185,44.1865],[-68.6189,44.1811],[-68.643,44.1577],[-68.6524,44.1537],[-68.67,44.1515],[-68.6715,44.1386],[-68.6751,44.1371],[-68.6819,44.1382],[-68.6866,44.1472],[-68.6923,44.1537],[-68.701,44.1584],[-68.7096,44.1587],[-68.7132,44.1605],[-68.7165,44.1627],[-68.7204,44.1692],[-68.719,44.1832],[-68.715,44.1912],[-68.7143,44.2038],[-68.7212,44.2124],[-68.723,44.2196],[-68.723,44.2236],[-68.7186,44.2286],[-68.7118,44.229],[-68.7006,44.234],[-68.6941,44.2488],[-68.6805,44.2621],[-68.6776,44.2689],[-68.6776,44.2754],[-68.6808,44.2792]]],[[[-68.3553,44.1991],[-68.3332,44.2073],[-68.3242,44.2057],[-68.3161,44.2002],[-68.3148,44.1972],[-68.3185,44.1966],[-68.3212,44.199],[-68.3326,44.1921],[-68.339,44.1718],[-68.3474,44.1695],[-68.3789,44.1842],[-68.3712,44.193],[-68.3645,44.1975],[-68.3553,44.1991]]],[[[-68.4728,44.2198],[-68.4602,44.2125],[-68.4538,44.2017],[-68.4542,44.1995],[-68.4592,44.1977],[-68.4845,44.2029],[-68.4872,44.2095],[-68.4827,44.2271],[-68.4806,44.2286],[-68.4703,44.2283],[-68.4686,44.224],[-68.4728,44.2198]]],[[[-68.7921,44.2378],[-68.7698,44.2228],[-68.769,44.2134],[-68.7801,44.2031],[-68.7899,44.2039],[-68.8013,44.2086],[-68.8091,44.2126],[-68.8154,44.2141],[-68.8229,44.2165],[-68.8296,44.2169],[-68.8378,44.2271],[-68.8394,44.2365],[-68.8335,44.2409],[-68.8276,44.2428],[-68.8256,44.2426],[-68.7921,44.2378]]],[[[-68.2364,44.2663],[-68.2146,44.2632],[-68.2113,44.2571],[-68.2125,44.2554],[-68.2214,44.2573],[-68.2315,44.256],[-68.2371,44.2534],[-68.2403,44.2516],[-68.2415,44.2475],[-68.2408,44.2397],[-68.2489,44.2354],[-68.2667,44.234],[-68.2744,44.2371],[-68.2769,44.2408],[-68.2747,44.2587],[-68.2621,44.2608],[-68.2542,44.2578],[-68.2466,44.2578],[-68.2411,44.2604],[-68.2364,44.2663]]],[[[-68.4986,44.3697],[-68.4788,44.3196],[-68.4896,44.3137],[-68.5152,44.3248],[-68.5304,44.3336],[-68.5286,44.3446],[-68.5207,44.3584],[-68.5219,44.3676],[-68.5186,44.381],[-68.5127,44.3848],[-68.5077,44.3852],[-68.5014,44.3823],[-68.4986,44.3697]]],[[[-68.8418,44.6111],[-68.8469,44.6253],[-68.8224,44.664],[-68.8118,44.6705],[-68.8158,44.6838],[-68.6909,44.7217],[-68.6471,44.7036],[-68.6167,44.741],[-68.5285,44.7522],[-68.4452,44.763],[-68.4549,44.8015],[-68.478,44.8891],[-68.5011,44.9807],[-68.3759,44.9974],[-68.3969,45.0833],[-68.2705,45.1001],[-68.2954,45.1904],[-68.3037,45.2215],[-68.055,45.2526],[-67.9819,44.9559],[-68.105,44.9391],[-67.9936,44.5922],[-67.9571,44.4154],[-67.9616,44.4125],[-67.9616,44.3991],[-67.9789,44.387],[-67.9857,44.3869],[-67.9973,44.3999],[-68.0006,44.4066],[-68.0061,44.4096],[-68.0107,44.4075],[-68.0195,44.397],[-68.014,44.3903],[-68.0342,44.3605],[-68.0397,44.3609],[-68.0443,44.3579],[-68.0447,44.3512],[-68.043,44.3437],[-68.0493,44.3307],[-68.0604,44.332],[-68.067,44.3357],[-68.0761,44.3479],[-68.0779,44.373],[-68.0863,44.3764],[-68.09,44.3714],[-68.093,44.3709],[-68.1038,44.3851],[-68.1123,44.4016],[-68.1127,44.4213],[-68.1165,44.4293],[-68.1198,44.4457],[-68.1194,44.4595],[-68.1152,44.4679],[-68.1177,44.475],[-68.1232,44.4788],[-68.1509,44.4824],[-68.1593,44.4794],[-68.1627,44.4773],[-68.1631,44.4731],[-68.171,44.4702],[-68.1946,44.4719],[-68.1895,44.4786],[-68.1899,44.4849],[-68.192,44.4874],[-68.2139,44.4925],[-68.2239,44.487],[-68.2273,44.4799],[-68.2244,44.4643],[-68.2294,44.4635],[-68.2445,44.4711],[-68.2525,44.4832],[-68.2617,44.4841],[-68.268,44.4715],[-68.2705,44.4597],[-68.281,44.4513],[-68.2982,44.4492],[-68.2991,44.4379],[-68.2949,44.4329],[-68.2684,44.4404],[-68.2474,44.4333],[-68.2445,44.4299],[-68.2437,44.4207],[-68.25,44.4177],[-68.25,44.4148],[-68.2155,44.3905],[-68.2097,44.393],[-68.2035,44.3924],[-68.1969,44.3864],[-68.1845,44.3691],[-68.1747,44.3436],[-68.1736,44.3284],[-68.1919,44.3067],[-68.2334,44.2886],[-68.2751,44.2889],[-68.2894,44.2839],[-68.2982,44.2763],[-68.2986,44.2666],[-68.2976,44.263],[-68.2953,44.2617],[-68.2908,44.2477],[-68.3176,44.2251],[-68.3395,44.2229],[-68.3431,44.2295],[-68.3654,44.2379],[-68.3698,44.2433],[-68.378,44.2476],[-68.3898,44.2471],[-68.4013,44.2522],[-68.4197,44.2746],[-68.4213,44.2845],[-68.4261,44.2951],[-68.4309,44.2986],[-68.4309,44.3126],[-68.412,44.3223],[-68.409,44.3256],[-68.4099,44.3294],[-68.4216,44.3361],[-68.4215,44.3378],[-68.4099,44.3563],[-68.4061,44.3567],[-68.3966,44.3639],[-68.3955,44.3696],[-68.398,44.3762],[-68.3676,44.3907],[-68.3637,44.3889],[-68.3603,44.3897],[-68.3581,44.3923],[-68.3591,44.4028],[-68.3724,44.4237],[-68.3791,44.43],[-68.3877,44.4309],[-68.3909,44.4274],[-68.3926,44.4181],[-68.4164,44.398],[-68.4218,44.3964],[-68.4279,44.3968],[-68.4339,44.4015],[-68.4326,44.4266],[-68.4296,44.4391],[-68.4393,44.448],[-68.448,44.4495],[-68.4551,44.4475],[-68.46,44.4433],[-68.4638,44.4366],[-68.4588,44.4121],[-68.4641,44.3981],[-68.4643,44.3911],[-68.4611,44.3856],[-68.4611,44.3785],[-68.4661,44.3772],[-68.4783,44.3781],[-68.4833,44.3882],[-68.4808,44.3974],[-68.4728,44.4041],[-68.4804,44.4326],[-68.4854,44.4343],[-68.4946,44.4297],[-68.4997,44.4142],[-68.5056,44.4117],[-68.5145,44.4133],[-68.5299,44.3991],[-68.5345,44.3978],[-68.5551,44.4037],[-68.561,44.4028],[-68.5652,44.3991],[-68.5664,44.3945],[-68.5647,44.3852],[-68.5593,44.3743],[-68.5501,44.3718],[-68.5454,44.355],[-68.5539,44.3463],[-68.5632,44.333],[-68.5669,44.3176],[-68.5662,44.313],[-68.564,44.308],[-68.5562,44.3008],[-68.5386,44.2999],[-68.5315,44.2904],[-68.5323,44.2863],[-68.5286,44.2761],[-68.5195,44.265],[-68.5198,44.2602],[-68.5298,44.2496],[-68.5282,44.2413],[-68.5235,44.2358],[-68.5253,44.2276],[-68.5346,44.2293],[-68.5508,44.2365],[-68.5512,44.2383],[-68.5627,44.2481],[-68.5728,44.2527],[-68.6034,44.2747],[-68.6156,44.2754],[-68.6261,44.2805],[-68.6275,44.2844],[-68.63,44.2862],[-68.683,44.2992],[-68.7257,44.3216],[-68.733,44.3284],[-68.7462,44.3311],[-68.762,44.3296],[-68.7662,44.327],[-68.7715,44.3205],[-68.7951,44.3079],[-68.8272,44.3122],[-68.8284,44.3165],[-68.8254,44.3345],[-68.8213,44.3496],[-68.8176,44.3531],[-68.8148,44.3622],[-68.8187,44.3751],[-68.8218,44.4089],[-68.8153,44.4281],[-68.8016,44.4348],[-68.7859,44.4626],[-68.7837,44.4739],[-68.7962,44.4714],[-68.8418,44.6111]]]]}},{"type":"Feature","id":"23011","properties":{"name":"Kennebec","fips":"23011"},"geometry":{"type":"Polygon","coordinates":[[[-69.7928,44.5773],[-69.7763,44.6082],[-69.7443,44.6026],[-69.7421,44.5982],[-69.6057,44.5773],[-69.5791,44.627],[-69.6285,44.672],[-69.633,44.6988],[-69.4717,44.6929],[-69.4756,44.6767],[-69.4429,44.6724],[-69.4606,44.6556],[-69.4606,44.6471],[-69.3931,44.6404],[-69.396,44.4571],[-69.4354,44.4624],[-69.4455,44.4638],[-69.5064,44.3429],[-69.5213,44.2807],[-69.5282,44.2754],[-69.5344,44.2722],[-69.5348,44.2674],[-69.5422,44.2627],[-69.5474,44.261],[-69.6502,44.2796],[-69.6654,44.2276],[-69.6569,44.1255],[-69.6567,44.1224],[-69.6663,44.124],[-69.7582,44.1393],[-69.7636,44.1532],[-69.855,44.1679],[-69.8978,44.1077],[-70.0055,44.1245],[-70.0274,44.1306],[-70.0103,44.1687],[-69.9938,44.1806],[-70.0757,44.2062],[-70.0743,44.2902],[-70.1005,44.3839],[-70.1294,44.4872],[-70.0423,44.4852],[-70.0305,44.5088],[-69.9441,44.5378],[-69.9305,44.6109],[-69.7928,44.5773]]]}},{"type":"Feature","id":"23013","properties":{"name":"Knox","fips":"23013"},"geometry":{"type":"MultiPolygon","coordinates":[[[[-68.8802,43.8634],[-68.8826,43.8485],[-68.8762,43.8366],[-68.8867,43.8222],[-68.8983,43.821],[-68.8991,43.8219],[-68.8935,43.8315],[-68.8947,43.844],[-68.898,43.8495],[-68.904,43.8487],[-68.9082,43.8499],[-68.9026,43.8689],[-68.8894,43.8755],[-68.8802,43.8634]]],[[[-69.044,44.0057],[-69.0782,43.9741],[-69.093,43.9791],[-69.062,44.015],[-69.0476,44.014],[-69.044,44.0057]]],[[[-68.6182,44.0124],[-68.6353,44.0189],[-68.6474,44.0145],[-68.6519,44.0099],[-68.6529,44.0038],[-68.657,44.0038],[-68.66,44.016],[-68.6599,44.0228],[-68.6574,44.0244],[-68.6508,44.0399],[-68.6548,44.0596],[-68.6616,44.0758],[-68.6279,44.0881],[-68.6253,44.0929],[-68.6181,44.0967],[-68.6097,44.0947],[-68.6029,44.0866],[-68.5896,44.0756],[-68.5859,44.0753],[-68.5841,44.0706],[-68.5881,44.0613],[-68.5908,44.0587],[-68.6011,44.0584],[-68.6115,44.0252],[-68.6107,44.0134],[-68.6159,44.0098],[-68.6182,44.0124]]],[[[-68.7856,44.0535],[-68.7906,44.0538],[-68.8073,44.0358],[-68.8184,44.032],[-68.8285,44.0321],[-68.8628,44.025],[-68.8741,44.0254],[-68.8897,44.0325],[-68.9,44.067],[-68.9051,44.0773],[-68.9134,44.0852],[-68.9078,44.1055],[-68.909,44.11],[-68.9431,44.1097],[-68.9446,44.1128],[-68.9353,44.1304],[-68.9173,44.1482],[-68.8886,44.1596],[-68.8787,44.1666],[-68.8472,44.183],[-68.8251,44.1863],[-68.8192,44.1805],[-68.8222,44.1788],[-68.8228,44.1737],[-68.8184,44.161],[-68.7922,44.146],[-68.7869,44.144],[-68.7824,44.1453],[-68.7807,44.1433],[-68.7921,44.1368],[-68.8022,44.1379],[-68.818,44.1369],[-68.8197,44.1354],[-68.8205,44.1302],[-68.8195,44.1221],[-68.8156,44.1158],[-68.8068,44.1163],[-68.7905,44.0929],[-68.7818,44.0843],[-68.7726,44.0784],[-68.7703,44.0696],[-68.7797,44.0578],[-68.7856,44.0535]]],[[[-69.3215,44.1729],[-69.5282,44.2754],[-69.5213,44.2807],[-69.5064,44.3429],[-69.3944,44.3429],[-69.3466,44.3083],[-69.2689,44.3647],[-69.1216,44.2556],[-69.0286,44.2491],[-69.0294,44.2486],[-69.0402,44.2337],[-69.0436,44.225],[-69.0428,44.2152],[-69.0518,44.1959],[-69.0527,44.1881],[-69.0545,44.1715],[-69.0612,44.1655],[-69.0778,44.165],[-69.0798,44.161],[-69.081,44.1568],[-69.0796,44.144],[-69.0757,44.13],[-69.0803,44.1178],[-69.1009,44.1045],[-69.1011,44.0936],[-69.092,44.0857],[-69.0891,44.0853],[-69.0765,44.0906],[-69.0563,44.0952],[-69.0508,44.0949],[-69.0434,44.0922],[-69.0319,44.079],[-69.0489,44.0625],[-69.0506,44.0632],[-69.0506,44.068],[-69.0561,44.0695],[-69.0643,44.0699],[-69.0679,44.0676],[-69.0798,44.0553],[-69.0738,44.0461],[-69.0811,44.0413],[-69.0942,44.039],[-69.1131,44.0289],[-69.1257,44.0196],[-69.1281,44.0173],[-69.1245,44.0074],[-69.1286,44.0059],[-69.1489,43.9986],[-69.1626,43.999],[-69.1703,43.9956],[-69.1938,43.9755],[-69.1978,43.9675],[-69.1938,43.9598],[-69.1963,43.9505],[-69.2037,43.9418],[-69.2142,43.9356],[-69.2374,43.9316],[-69.2427,43.9255],[-69.2598,43.9214],[-69.2653,43.9334],[-69.2675,43.9437],[-69.2805,43.9574],[-69.2826,43.9581],[-69.284,43.9586],[-69.2885,43.9577],[-69.3078,43.9435],[-69.3143,43.943],[-69.3198,43.9449],[-69.3052,43.9567],[-69.3043,43.9621],[-69.3218,43.97],[-69.2818,44.0225],[-69.3215,44.1729]]]]}},{"type":"Feature","id":"23015","properties":{"name":"Lincoln","fips":"23015"},"geometry":{"type":"MultiPolygon","coordinates":[[[[-69.3079,43.7738],[-69.3068,43.7751],[-69.303,43.7746],[-69.3004,43.7721],[-69.3008,43.7686],[-69.3143,43.7567],[-69.3226,43.7559],[-69.3236,43.759],[-69.3211,43.7658],[-69.3136,43.7728],[-69.3079,43.7738]]],[[[-69.4279,43.9288],[-69.4233,43.9229],[-69.4222,43.9177],[-69.4233,43.9155],[-69.4381,43.9095],[-69.4409,43.9098],[-69.4419,43.9163],[-69.4338,43.9494],[-69.4298,43.9484],[-69.4211,43.9383],[-69.4279,43.9288]]],[[[-69.5282,44.2754],[-69.3215,44.1729],[-69.2818,44.0225],[-69.3218,43.97],[-69.3314,43.9743],[-69.352,43.9747],[-69.3667,43.9648],[-69.3755,43.9646],[-69.3881,43.9643],[-69.3985,43.9718],[-69.4162,43.9773],[-69.4288,43.9579],[-69.4317,43.9645],[-69.4365,43.9669],[-69.4416,43.9643],[-69.4511,43.942],[-69.4596,43.9033],[-69.4835,43.8803],[-69.4862,43.8691],[-69.5033,43.8377],[-69.5149,43.8313],[-69.5162,43.8372],[-69.5133,43.8448],[-69.5203,43.8685],[-69.5247,43.8756],[-69.5439,43.8816],[-69.5494,43.88],[-69.5509,43.878],[-69.5506,43.8726],[-69.545,43.8612],[-69.5526,43.8413],[-69.5581,43.8407],[-69.5683,43.8444],[-69.5727,43.844],[-69.5755,43.842],[-69.5785,43.8233],[-69.5886,43.8184],[-69.6042,43.8136],[-69.6059,43.8149],[-69.6046,43.8258],[-69.5985,43.8255],[-69.5924,43.8309],[-69.5892,43.8513],[-69.5947,43.8589],[-69.6046,43.858],[-69.6132,43.845],[-69.6131,43.8375],[-69.6151,43.8316],[-69.6211,43.8268],[-69.6303,43.837],[-69.6297,43.8434],[-69.6349,43.8459],[-69.6498,43.8363],[-69.6531,43.8172],[-69.6508,43.8038],[-69.6533,43.791],[-69.6649,43.791],[-69.6855,43.8163],[-69.6856,43.8205],[-69.6924,43.8243],[-69.6972,43.8251],[-69.6979,43.8249],[-69.6972,43.8327],[-69.6897,43.8438],[-69.6921,43.8572],[-69.7436,43.8933],[-69.7001,44.0067],[-69.8135,44.026],[-69.7582,44.1393],[-69.6663,44.124],[-69.6567,44.1224],[-69.6569,44.1255],[-69.6654,44.2276],[-69.6502,44.2796],[-69.5474,44.261],[-69.5422,44.2627],[-69.5348,44.2674],[-69.5344,44.2722],[-69.5282,44.2754]]]]}},{"type":"Feature","id":"23017","properties":{"name":"Oxford","fips":"23017"},"geometry":{"type":"Polygon","coordinates":[[[-70.5956,44.0321],[-70.5873,44.1225],[-70.6243,44.171],[-70.8218,44.0771],[-70.7154,43.9618],[-70.7475,43.9459],[-70.7298,43.9283],[-70.783,43.8141],[-70.989,43.7922],[-70.9891,43.7924],[-70.9921,43.8863],[-70.993,43.9142],[-71.0014,44.0929],[-71.0013,44.0932],[-71.0088,44.2584],[-71.0087,44.2588],[-71.0102,44.2848],[-71.0135,44.3409],[-71.0291,44.6103],[-71.0375,44.7556],[-71.0601,45.0197],[-71.0756,45.2241],[-71.0843,45.3053],[-71.0306,45.3127],[-71.0143,45.3168],[-71.0091,45.319],[-71.0024,45.328],[-71.0051,45.3315],[-70.9902,45.3363],[-70.9508,45.3345],[-70.9179,45.3119],[-70.9122,45.2968],[-70.9137,45.2927],[-70.908,45.2693],[-70.8969,45.242],[-70.885,45.2349],[-70.857,45.2292],[-70.8428,45.2344],[-70.8395,45.2378],[-70.8316,45.2601],[-70.7692,44.7322],[-70.615,44.7956],[-70.5106,44.6272],[-70.55,44.6107],[-70.2807,44.5696],[-70.2809,44.5051],[-70.2389,44.4589],[-70.2744,44.4406],[-70.2683,44.4164],[-70.2768,44.4075],[-70.2652,44.3629],[-70.3252,44.2084],[-70.3341,44.2108],[-70.3917,44.1536],[-70.4801,44.0321],[-70.5956,44.0321]]]}},{"type":"Feature","id":"23019","properties":{"name":"Penobscot","fips":"23019"},"geometry":{"type":"Polygon","coordinates":[[[-68.8158,44.6838],[-69.0142,44.6718],[-69.1837,44.644],[-69.2052,44.7296],[-69.2668,44.7219],[-69.3055,44.896],[-69.3557,45.0735],[-69.232,45.0902],[-68.8566,45.1428],[-68.8809,45.2249],[-68.7761,45.2403],[-68.8009,45.3291],[-68.8573,45.5273],[-68.9647,45.5124],[-68.9589,45.6622],[-68.827,45.6848],[-68.8194,46.3958],[-68.6949,46.3955],[-68.6949,46.3826],[-68.4364,46.3821],[-68.433,45.5812],[-68.433,45.5785],[-68.4144,45.5728],[-68.4109,45.5733],[-68.048,45.6399],[-67.9398,45.2678],[-68.055,45.2526],[-68.3037,45.2215],[-68.2954,45.1904],[-68.2705,45.1001],[-68.3969,45.0833],[-68.3759,44.9974],[-68.5011,44.9807],[-68.478,44.8891],[-68.4549,44.8015],[-68.4452,44.763],[-68.5285,44.7522],[-68.6167,44.741],[-68.6471,44.7036],[-68.6909,44.7217],[-68.8158,44.6838]]]}},{"type":"Feature","id":"23021","properties":{"name":"Piscataquis","fips":"23021"},"geometry":{"type":"Polygon","coordinates":[[[-69.232,45.0902],[-69.3557,45.0735],[-69.4999,45.0538],[-69.621,45.011],[-69.7799,45.5428],[-69.6918,45.645],[-69.8328,45.7387],[-69.7849,45.7852],[-69.7326,45.756],[-69.7057,45.854],[-69.6468,45.8632],[-69.6836,45.9836],[-69.7286,45.9769],[-69.7323,46.394],[-69.7211,46.5741],[-68.8214,46.5725],[-68.8194,46.3958],[-68.827,45.6848],[-68.9589,45.6622],[-68.9647,45.5124],[-68.8573,45.5273],[-68.8009,45.3291],[-68.7761,45.2403],[-68.8809,45.2249],[-68.8566,45.1428],[-69.232,45.0902]]]}},{"type":"Feature","id":"23023","properties":{"name":"Sagadahoc","fips":"23023"},"geometry":{"type":"Polygon","coordinates":[[[-70.0518,43.991],[-70.0055,44.1245],[-69.8978,44.1077],[-69.855,44.1679],[-69.7636,44.1532],[-69.7582,44.1393],[-69.8135,44.026],[-69.7001,44.0067],[-69.7436,43.8933],[-69.6921,43.8572],[-69.6897,43.8438],[-69.6972,43.8327],[-69.6979,43.8249],[-69.7058,43.823],[-69.7149,43.8103],[-69.7178,43.801],[-69.7171,43.7924],[-69.7197,43.7867],[-69.7528,43.7559],[-69.7616,43.757],[-69.7801,43.7554],[-69.7824,43.7538],[-69.7823,43.7512],[-69.7785,43.7471],[-69.7783,43.7446],[-69.8353,43.7211],[-69.8387,43.7051],[-69.8513,43.7036],[-69.8551,43.7047],[-69.8579,43.7239],[-69.8556,43.7327],[-69.8589,43.7405],[-69.8687,43.7427],[-69.8622,43.759],[-69.8697,43.7757],[-69.8841,43.778],[-69.8874,43.7771],[-69.857,43.9447],[-69.9762,43.9153],[-70.0342,43.9757],[-70.0364,43.9787],[-70.0466,43.9856],[-70.047,43.9881],[-70.0518,43.991]]]}},{"type":"Feature","id":"23025","properties":{"name":"Somerset","fips":"23025"},"geometry":{"type":"Polygon","coordinates":[[[-69.633,44.6988],[-69.6285,44.672],[-69.5791,44.627],[-69.6057,44.5773],[-69.7421,44.5982],[-69.7443,44.6026],[-69.7763,44.6082],[-69.7928,44.5773],[-69.9305,44.6109],[-69.9962,44.6775],[-70.0333,44.8645],[-70.1299,44.8508],[-70.1491,44.8961],[-70.1104,44.9473],[-70.1594,45.1284],[-70.2938,45.1099],[-70.3085,45.1632],[-70.4185,45.144],[-70.551,45.6619],[-70.4699,45.7016],[-70.4515,45.7044],[-70.3972,45.7569],[-70.4077,45.7737],[-70.4177,45.7946],[-70.3964,45.8027],[-70.3982,45.8041],[-70.3972,45.8076],[-70.3879,45.819],[-70.367,45.835],[-70.3424,45.8522],[-70.3078,45.8589],[-70.2842,45.872],[-70.2627,45.8879],[-70.2537,45.903],[-70.2402,45.9437],[-70.2522,45.9548],[-70.2654,45.9627],[-70.3121,45.9715],[-70.3134,46.0164],[-70.3106,46.0645],[-70.2898,46.0943],[-70.2846,46.0987],[-70.2524,46.1062],[-70.2379,46.1474],[-70.278,46.175],[-70.2909,46.1858],[-70.2927,46.1916],[-70.2074,46.3313],[-70.188,46.35],[-70.1747,46.3585],[-70.1334,46.3689],[-70.0564,46.4166],[-70.023,46.5735],[-69.7211,46.5741],[-69.7323,46.394],[-69.7286,45.9769],[-69.6836,45.9836],[-69.6468,45.8632],[-69.7057,45.854],[-69.7326,45.756],[-69.7849,45.7852],[-69.8328,45.7387],[-69.6918,45.645],[-69.7799,45.5428],[-69.621,45.011],[-69.4999,45.0538],[-69.3557,45.0735],[-69.3055,44.896],[-69.2668,44.7219],[-69.3984,44.7446],[-69.4717,44.6929],[-69.633,44.6988]]]}},{"type":"Feature","id":"23027","properties":{"name":"Waldo","fips":"23027"},"geometry":{"type":"MultiPolygon","coordinates":[[[[-68.9428,44.2811],[-68.9193,44.3099],[-68.9193,44.3354],[-68.9116,44.365],[-68.9035,44.3786],[-68.8789,44.3866],[-68.8684,44.3814],[-68.8606,44.3644],[-68.8643,44.355],[-68.8717,44.3447],[-68.8831,44.3382],[-68.8887,44.3382],[-68.8928,44.3347],[-68.8966,44.322],[-68.8875,44.3031],[-68.8994,44.2838],[-68.9043,44.2799],[-68.9169,44.2429],[-68.9265,44.233],[-68.946,44.2208],[-68.9519,44.2187],[-68.9471,44.2268],[-68.9553,44.2439],[-68.9595,44.2474],[-68.9659,44.2498],[-68.9671,44.252],[-68.9653,44.2593],[-68.9537,44.2723],[-68.9428,44.2811]]],[[[-69.0142,44.6718],[-68.8158,44.6838],[-68.8118,44.6705],[-68.8224,44.664],[-68.8469,44.6253],[-68.8418,44.6111],[-68.7962,44.4714],[-68.8101,44.4687],[-68.8292,44.4622],[-68.859,44.4449],[-68.8803,44.4281],[-68.8865,44.4307],[-68.8908,44.438],[-68.8928,44.4434],[-68.8921,44.4451],[-68.8971,44.4506],[-68.9009,44.4521],[-68.9275,44.448],[-68.9319,44.4387],[-68.9466,44.4291],[-68.9824,44.4262],[-68.9908,44.415],[-68.9844,44.3969],[-68.9788,44.3863],[-68.9673,44.3811],[-68.9611,44.3751],[-68.9482,44.3559],[-68.9545,44.324],[-68.9589,44.3144],[-68.979,44.2963],[-69.0037,44.2946],[-69.0051,44.2741],[-69.0171,44.2571],[-69.0286,44.2491],[-69.1216,44.2556],[-69.2689,44.3647],[-69.3466,44.3083],[-69.3944,44.3429],[-69.5064,44.3429],[-69.4455,44.4638],[-69.4354,44.4624],[-69.396,44.4571],[-69.3931,44.6404],[-69.4606,44.6471],[-69.4606,44.6556],[-69.4429,44.6724],[-69.4756,44.6767],[-69.4717,44.6929],[-69.3984,44.7446],[-69.2668,44.7219],[-69.2052,44.7296],[-69.1837,44.644],[-69.0142,44.6718]]]]}},{"type":"Feature","id":"23029","properties":{"name":"Washington","fips":"23029"},"geometry":{"type":"MultiPolygon","coordinates":[[[[-67.6198,44.5198],[-67.6154,44.522],[-67.5877,44.5162],[-67.5821,44.5135],[-67.5893,44.5008],[-67.5906,44.4941],[-67.5803,44.4881],[-67.5627,44.4721],[-67.5692,44.4555],[-67.5718,44.4534],[-67.5742,44.4517],[-67.5883,44.4498],[-67.5928,44.4586],[-67.6049,44.5021],[-67.6072,44.5036],[-67.615,44.5036],[-67.6192,44.506],[-67.6198,44.5198]]],[[[-67.8055,45.6802],[-67.8033,45.6779],[-67.7542,45.6678],[-67.6458,45.6136],[-67.5614,45.5949],[-67.5186,45.5879],[-67.4994,45.587],[-67.4909,45.5915],[-67.4885,45.5946],[-67.4911,45.5989],[-67.4898,45.6012],[-67.4767,45.6042],[-67.4554,45.6047],[-67.4497,45.6029],[-67.4255,45.5791],[-67.4236,45.5722],[-67.4209,45.5506],[-67.4257,45.5029],[-67.4487,45.5106],[-67.4635,45.5085],[-67.5038,45.4885],[-67.4734,45.4253],[-67.4603,45.4196],[-67.43,45.393],[-67.4222,45.3797],[-67.4292,45.3442],[-67.4601,45.3012],[-67.4658,45.2972],[-67.4857,45.2914],[-67.4893,45.2813],[-67.4636,45.2441],[-67.4052,45.1657],[-67.3543,45.1299],[-67.345,45.1262],[-67.3399,45.1256],[-67.3055,45.1448],[-67.3026,45.1613],[-67.2906,45.1876],[-67.2836,45.192],[-67.2711,45.1911],[-67.1612,45.1629],[-67.1289,45.1322],[-67.1124,45.1123],[-67.0908,45.0687],[-67.1059,45.0658],[-67.1177,45.0567],[-67.0997,45.045],[-67.0821,45.0296],[-67.0749,45.0193],[-67.0728,45.0083],[-67.0683,45.001],[-67.0546,44.9868],[-67.0383,44.9454],[-67.0335,44.9399],[-67.0021,44.9188],[-66.9909,44.9178],[-66.9845,44.9126],[-66.9836,44.9033],[-66.9859,44.8972],[-66.9892,44.8965],[-66.9904,44.8826],[-66.981,44.8628],[-66.9781,44.857],[-66.993,44.8492],[-66.9965,44.8447],[-66.9863,44.8207],[-66.975,44.8155],[-66.9665,44.8191],[-66.9521,44.8201],[-66.9499,44.8174],[-66.9506,44.8145],[-66.9611,44.8073],[-66.97,44.8057],[-66.9763,44.8083],[-66.9797,44.8074],[-66.9894,44.7988],[-66.9952,44.7911],[-67.0199,44.7714],[-67.0262,44.7682],[-67.0434,44.7651],[-67.0552,44.7714],[-67.0622,44.7695],[-67.0633,44.7582],[-67.0734,44.742],[-67.0835,44.7399],[-67.0925,44.7427],[-67.0989,44.7413],[-67.104,44.7174],[-67.1288,44.6954],[-67.1392,44.6938],[-67.1481,44.6841],[-67.1551,44.6694],[-67.1545,44.6681],[-67.1699,44.6621],[-67.1818,44.6637],[-67.1866,44.6626],[-67.1921,44.6555],[-67.1914,44.6478],[-67.1894,44.6455],[-67.213,44.6392],[-67.2343,44.6372],[-67.2473,44.6417],[-67.2512,44.6408],[-67.2741,44.6263],[-67.2771,44.618],[-67.2731,44.6109],[-67.2792,44.6068],[-67.2934,44.5993],[-67.3024,44.5973],[-67.3149,44.5982],[-67.323,44.6094],[-67.3225,44.6125],[-67.3107,44.6132],[-67.2937,44.6343],[-67.2925,44.6485],[-67.2984,44.6544],[-67.3096,44.6593],[-67.3079,44.6913],[-67.3001,44.6968],[-67.2992,44.7057],[-67.3085,44.7075],[-67.3478,44.6995],[-67.356,44.6991],[-67.3767,44.6819],[-67.3811,44.6695],[-67.3791,44.6655],[-67.374,44.663],[-67.3673,44.6525],[-67.3632,44.6318],[-67.3683,44.6247],[-67.3776,44.6198],[-67.3866,44.627],[-67.3887,44.6266],[-67.3958,44.6129],[-67.399,44.6026],[-67.4055,44.5942],[-67.4118,44.597],[-67.4189,44.6035],[-67.4206,44.6079],[-67.4284,44.6091],[-67.4437,44.6058],[-67.4475,44.6033],[-67.4485,44.6003],[-67.4577,44.598],[-67.4924,44.618],[-67.4936,44.6289],[-67.5058,44.6368],[-67.5228,44.6331],[-67.5241,44.6266],[-67.5308,44.6219],[-67.5339,44.6215],[-67.5402,44.6263],[-67.5434,44.6266],[-67.5511,44.6219],[-67.5524,44.6196],[-67.5751,44.5607],[-67.5698,44.5568],[-67.5623,44.5394],[-67.5682,44.5311],[-67.6485,44.5254],[-67.6531,44.5258],[-67.6569,44.5359],[-67.6607,44.5376],[-67.6859,44.5372],[-67.6964,44.5338],[-67.7026,44.5279],[-67.6989,44.5157],[-67.7035,44.5048],[-67.7142,44.4952],[-67.7229,44.4985],[-67.734,44.4963],[-67.7434,44.4974],[-67.7428,44.5062],[-67.7401,44.5089],[-67.7429,44.5265],[-67.7539,44.5437],[-67.7589,44.5466],[-67.7673,44.5483],[-67.774,44.5474],[-67.7795,44.5437],[-67.782,44.534],[-67.7816,44.5206],[-67.7973,44.5207],[-67.8025,44.5239],[-67.8055,44.5298],[-67.8055,44.5369],[-67.8088,44.5441],[-67.8298,44.5575],[-67.8399,44.5588],[-67.8445,44.5563],[-67.8458,44.5516],[-67.8433,44.5428],[-67.8567,44.5239],[-67.8537,44.4975],[-67.8512,44.4925],[-67.8516,44.4849],[-67.8556,44.4787],[-67.861,44.4776],[-67.8668,44.4718],[-67.8688,44.4653],[-67.8689,44.4569],[-67.8518,44.4287],[-67.8517,44.4243],[-67.8551,44.4194],[-67.8689,44.4247],[-67.8785,44.4356],[-67.8873,44.4331],[-67.8873,44.4264],[-67.892,44.4097],[-67.8996,44.3941],[-67.9117,44.4192],[-67.9133,44.4301],[-67.9213,44.4331],[-67.9264,44.4318],[-67.9306,44.4289],[-67.9276,44.4213],[-67.9315,44.4118],[-67.9365,44.4112],[-67.9473,44.4159],[-67.9557,44.4163],[-67.9571,44.4154],[-67.9936,44.5922],[-68.105,44.9391],[-67.9819,44.9559],[-68.055,45.2526],[-67.9398,45.2678],[-68.048,45.6399],[-67.8055,45.6802]]]]}},{"type":"Feature","id":"23031","properties":{"name":"York","fips":"23031"},"geometry":{"type":"Polygon","coordinates":[[[-70.5367,43.3356],[-70.5539,43.3219],[-70.5628,43.3106],[-70.5852,43.2701],[-70.5939,43.2493],[-70.591,43.2379],[-70.5758,43.2219],[-70.5767,43.2177],[-70.5878,43.1999],[-70.619,43.1636],[-70.6345,43.1276],[-70.6343,43.1222],[-70.6384,43.1142],[-70.6542,43.0991],[-70.6553,43.098],[-70.6562,43.0932],[-70.666,43.0762],[-70.6731,43.0703],[-70.7039,43.0596],[-70.7564,43.08],[-70.7841,43.099],[-70.8195,43.1232],[-70.8281,43.1291],[-70.8338,43.1469],[-70.8292,43.1804],[-70.8283,43.1867],[-70.8162,43.235],[-70.8178,43.2374],[-70.8179,43.2379],[-70.823,43.2402],[-70.8233,43.2403],[-70.8251,43.2409],[-70.8267,43.2413],[-70.828,43.2416],[-70.8337,43.2429],[-70.8397,43.2504],[-70.8392,43.2512],[-70.8632,43.2651],[-70.8632,43.2651],[-70.9098,43.3067],[-70.9125,43.3083],[-70.9168,43.3177],[-70.9308,43.3296],[-70.9524,43.334],[-70.9672,43.3438],[-70.9843,43.3761],[-70.9843,43.3768],[-70.9877,43.3915],[-70.9868,43.4143],[-70.9644,43.4733],[-70.9645,43.4733],[-70.9637,43.4762],[-70.9548,43.5098],[-70.9626,43.5343],[-70.959,43.5376],[-70.9553,43.541],[-70.9553,43.5407],[-70.9533,43.5527],[-70.9727,43.5703],[-70.98,43.6732],[-70.9808,43.6841],[-70.9819,43.701],[-70.982,43.702],[-70.9822,43.7119],[-70.9821,43.715],[-70.989,43.7922],[-70.783,43.8141],[-70.653,43.7875],[-70.6596,43.7109],[-70.55,43.7158],[-70.4577,43.6424],[-70.492,43.6068],[-70.3534,43.5354],[-70.3612,43.5292],[-70.3791,43.5072],[-70.3849,43.496],[-70.3856,43.487],[-70.3829,43.4697],[-70.3802,43.4642],[-70.3722,43.4551],[-70.3497,43.442],[-70.362,43.4391],[-70.3705,43.4341],[-70.3849,43.4188],[-70.384,43.4129],[-70.3909,43.4026],[-70.4,43.3999],[-70.4017,43.4013],[-70.4064,43.4009],[-70.4213,43.3958],[-70.4277,43.3893],[-70.4244,43.3797],[-70.425,43.3759],[-70.4424,43.3565],[-70.4607,43.3432],[-70.466,43.3402],[-70.4729,43.344],[-70.4853,43.3464],[-70.5177,43.344],[-70.5352,43.3368],[-70.5367,43.3356]]]}}]}