{"type":"FeatureCollection","features":[{"type":"Feature","id":"26001","properties":{"name":"Alcona","fips":"26001"},"geometry":{"type":"Polygon","coordinates":[[[-83.3211,44.8585],[-83.3212,44.8531],[-83.3212,44.853],[-83.3211,44.8527],[-83.3184,44.8484],[-83.3144,44.8422],[-83.3143,44.8421],[-83.3129,44.8409],[-83.3128,44.8408],[-83.3125,44.8405],[-83.3086,44.837],[-83.3069,44.8354],[-83.3006,44.8298],[-83.2997,44.8234],[-83.2986,44.8154],[-83.2955,44.7935],[-83.2955,44.7934],[-83.2956,44.7902],[-83.2957,44.7891],[-83.2961,44.7788],[-83.297,44.7585],[-83.297,44.7585],[-83.298,44.7556],[-83.2983,44.7549],[-83.2982,44.7545],[-83.2978,44.7505],[-83.2975,44.7481],[-83.2974,44.7472],[-83.2973,44.7461],[-83.2963,44.7435],[-83.2909,44.73],[-83.2907,44.7293],[-83.2882,44.7265],[-83.2847,44.7225],[-83.2841,44.7218],[-83.2831,44.721],[-83.2772,44.7167],[-83.2747,44.7149],[-83.2741,44.7144],[-83.2734,44.7139],[-83.2747,44.7048],[-83.2751,44.7019],[-83.2753,44.7004],[-83.2753,44.7002],[-83.2755,44.6989],[-83.2755,44.6986],[-83.2756,44.6982],[-83.2761,44.6943],[-83.2768,44.6894],[-83.2775,44.6875],[-83.2791,44.6827],[-83.2793,44.6823],[-83.286,44.6629],[-83.2869,44.6604],[-83.2872,44.6594],[-83.2876,44.6583],[-83.2878,44.6577],[-83.2894,44.653],[-83.2954,44.6454],[-83.3071,44.6303],[-83.3075,44.6298],[-83.3092,44.6247],[-83.3098,44.6229],[-83.3099,44.6227],[-83.3144,44.6089],[-83.3145,44.6087],[-83.3145,44.6085],[-83.315,44.6022],[-83.315,44.6022],[-83.3153,44.5992],[-83.3154,44.5972],[-83.3156,44.5951],[-83.3155,44.5935],[-83.3141,44.572],[-83.3141,44.5716],[-83.314,44.5703],[-83.3139,44.5689],[-83.3139,44.5684],[-83.3138,44.5671],[-83.3138,44.5668],[-83.3137,44.5661],[-83.3136,44.5646],[-83.3136,44.5645],[-83.3092,44.5494],[-83.3091,44.549],[-83.3089,44.5484],[-83.3089,44.5481],[-83.3085,44.5399],[-83.3094,44.5375],[-83.3102,44.5354],[-83.3104,44.535],[-83.3112,44.5327],[-83.3115,44.532],[-83.3181,44.5149],[-83.3183,44.5144],[-83.3183,44.5143],[-83.3182,44.5117],[-83.8866,44.509],[-83.8885,44.8565],[-83.3211,44.8585]]]}},{"type":"Feature","id":"26003","properties":{"name":"Alger","fips":"26003"},"geometry":{"type":"Polygon","coordinates":[[[-87.1161,46.1589],[-87.1166,46.4952],[-87.1076,46.4961],[-87.0988,46.5036],[-87.0773,46.5153],[-87.046,46.52],[-87.0299,46.5256],[-87.0171,46.5335],[-87.0087,46.5327],[-86.977,46.5266],[-86.9645,46.5165],[-86.9628,46.5096],[-86.947,46.4846],[-86.9462,46.4791],[-86.9495,46.4763],[-86.9471,46.4721],[-86.9277,46.4646],[-86.9037,46.4661],[-86.8891,46.4585],[-86.884,46.451],[-86.8839,46.4415],[-86.8752,46.4373],[-86.8501,46.4341],[-86.8374,46.4342],[-86.816,46.4379],[-86.811,46.4497],[-86.8088,46.4606],[-86.8036,46.4667],[-86.7879,46.4777],[-86.7685,46.4791],[-86.7502,46.4791],[-86.7359,46.4752],[-86.7311,46.4718],[-86.7308,46.4681],[-86.7106,46.4449],[-86.7032,46.4394],[-86.6981,46.4386],[-86.6864,46.455],[-86.6888,46.4632],[-86.6865,46.4717],[-86.6838,46.4981],[-86.696,46.5032],[-86.7019,46.5116],[-86.7093,46.5439],[-86.6956,46.555],[-86.6782,46.561],[-86.6758,46.5571],[-86.6709,46.5565],[-86.6565,46.5585],[-86.6529,46.5606],[-86.6274,46.5337],[-86.6291,46.5181],[-86.6321,46.5089],[-86.6345,46.5045],[-86.6411,46.5004],[-86.6455,46.492],[-86.6464,46.4858],[-86.6367,46.4783],[-86.6274,46.4775],[-86.6206,46.4839],[-86.6181,46.4895],[-86.6122,46.4933],[-86.6094,46.493],[-86.6069,46.4785],[-86.609,46.4702],[-86.5862,46.4633],[-86.5577,46.4874],[-86.525,46.5054],[-86.4951,46.5249],[-86.484,46.536],[-86.482,46.5427],[-86.4693,46.5514],[-86.4599,46.5519],[-86.4444,46.5481],[-86.4372,46.549],[-86.3904,46.5632],[-86.3499,46.578],[-86.188,46.654],[-86.1617,46.6695],[-86.1383,46.6729],[-86.1199,46.6573],[-86.1121,46.655],[-86.0998,46.6546],[-86.0742,46.6578],[-86.037,46.6676],[-85.995,46.6737],[-85.9537,46.6769],[-85.924,46.6847],[-85.8779,46.6909],[-85.8645,46.6902],[-85.8649,46.5048],[-86.365,46.5059],[-86.3653,46.3319],[-86.6154,46.3333],[-86.6156,46.1587],[-87.1161,46.1589]]]}},{"type":"Feature","id":"26005","properties":{"name":"Allegan","fips":"26005"},"geometry":{"type":"Polygon","coordinates":[[[-85.7825,42.7682],[-85.7127,42.7682],[-85.5456,42.7681],[-85.5432,42.4214],[-85.7644,42.4207],[-86.2739,42.4193],[-86.2616,42.4439],[-86.2497,42.4802],[-86.2414,42.5347],[-86.2406,42.54],[-86.2353,42.565],[-86.2353,42.565],[-86.2348,42.5663],[-86.2346,42.5667],[-86.2312,42.5754],[-86.2281,42.5834],[-86.226,42.5928],[-86.226,42.5931],[-86.2256,42.5948],[-86.2291,42.6377],[-86.2266,42.6449],[-86.216,42.6644],[-86.2087,42.6921],[-86.2068,42.7194],[-86.2083,42.7628],[-86.2089,42.7675],[-85.7825,42.7682]]]}},{"type":"Feature","id":"26007","properties":{"name":"Alpena","fips":"26007"},"geometry":{"type":"Polygon","coordinates":[[[-83.3876,45.2071],[-83.3843,45.2035],[-83.3816,45.2034],[-83.3689,45.1822],[-83.368,45.1725],[-83.3637,45.1665],[-83.3599,45.163],[-83.3487,45.1615],[-83.3378,45.1471],[-83.3161,45.142],[-83.3159,45.14],[-83.3193,45.1377],[-83.3184,45.1289],[-83.3079,45.0991],[-83.2983,45.0905],[-83.2908,45.0692],[-83.2913,45.0626],[-83.2803,45.046],[-83.277,45.0448],[-83.2715,45.0381],[-83.2659,45.0268],[-83.2715,45.0234],[-83.288,45.0265],[-83.3022,45.0323],[-83.3403,45.0415],[-83.3576,45.0506],[-83.3675,45.0623],[-83.3993,45.0704],[-83.4338,45.0576],[-83.4421,45.0511],[-83.4534,45.0353],[-83.4542,45.0319],[-83.4463,45.0167],[-83.4352,45.0119],[-83.4313,45.008],[-83.4358,45.0],[-83.4389,45.0],[-83.45,44.9902],[-83.4437,44.9522],[-83.4389,44.9408],[-83.433,44.9329],[-83.4253,44.9267],[-83.4046,44.9188],[-83.3989,44.9064],[-83.394,44.9031],[-83.3528,44.8862],[-83.3205,44.8806],[-83.3211,44.8585],[-83.8885,44.8565],[-83.8812,45.2021],[-83.3876,45.2071]]]}},{"type":"Feature","id":"26009","properties":{"name":"Antrim","fips":"26009"},"geometry":{"type":"Polygon","coordinates":[[[-85.3328,44.8124],[-85.4423,44.8598],[-85.4258,44.8816],[-85.423,44.895],[-85.4062,44.9118],[-85.3958,44.931],[-85.3783,44.9986],[-85.3817,45.0184],[-85.3807,45.0463],[-85.3776,45.0557],[-85.3664,45.069],[-85.3669,45.1169],[-85.3726,45.1262],[-85.3769,45.1429],[-85.3805,45.1809],[-85.3867,45.1895],[-85.3875,45.2076],[-85.2227,45.2056],[-85.2237,45.1178],[-84.8575,45.1167],[-84.8473,44.858],[-85.2917,44.8596],[-85.3328,44.8124]]]}},{"type":"Feature","id":"26011","properties":{"name":"Arenac","fips":"26011"},"geometry":{"type":"Polygon","coordinates":[[[-83.5652,44.1635],[-83.5653,44.1634],[-83.566,44.1612],[-83.5664,44.1601],[-83.5677,44.1559],[-83.5679,44.151],[-83.5682,44.1445],[-83.5682,44.1436],[-83.5682,44.1435],[-83.5688,44.1295],[-83.5688,44.1288],[-83.5689,44.1267],[-83.5685,44.1243],[-83.568,44.1212],[-83.5677,44.1197],[-83.5731,44.1013],[-83.588,44.0868],[-83.5914,44.0792],[-83.5904,44.0696],[-83.5841,44.0567],[-83.6012,44.0547],[-83.6211,44.0562],[-83.6501,44.0524],[-83.6797,44.0364],[-83.6879,44.0207],[-83.6801,43.9942],[-83.7087,43.993],[-83.7438,43.9915],[-83.7468,43.9888],[-83.7571,43.9866],[-83.7628,43.9854],[-83.763,43.9853],[-83.7633,43.9853],[-83.7638,43.9852],[-83.7791,43.9852],[-83.7879,43.9853],[-83.8281,43.989],[-83.8284,43.989],[-83.8291,43.9891],[-83.8291,43.9891],[-83.8291,43.9891],[-83.8483,43.9816],[-83.8515,43.9794],[-83.8517,43.9792],[-83.8519,43.9791],[-83.8536,43.978],[-83.8549,43.9771],[-83.8552,43.976],[-83.8555,43.9749],[-83.8556,43.9747],[-83.8556,43.9746],[-83.8557,43.9744],[-83.8561,43.9728],[-83.8561,43.9726],[-83.8564,43.9724],[-83.8584,43.9706],[-83.8585,43.9705],[-83.8591,43.97],[-83.8593,43.9698],[-83.8595,43.9696],[-83.8596,43.9695],[-83.8597,43.9694],[-83.8694,43.9607],[-83.8696,43.9607],[-83.877,43.9594],[-83.8777,43.9592],[-83.88,43.9554],[-83.8801,43.9553],[-83.8853,43.9467],[-83.8855,43.9462],[-83.8855,43.9462],[-83.8901,43.9347],[-83.8909,43.9233],[-83.9074,43.9181],[-83.9111,43.9105],[-84.0448,43.9111],[-84.0454,43.997],[-84.1664,43.9969],[-84.1661,44.1618],[-83.884,44.1618],[-83.5652,44.1635]]]}},{"type":"Feature","id":"26013","properties":{"name":"Baraga","fips":"26013"},"geometry":{"type":"Polygon","coordinates":[[[-88.233,46.934],[-88.1944,46.9486],[-88.1768,46.9552],[-88.1674,46.9588],[-88.1672,46.9589],[-88.1647,46.9602],[-88.1641,46.9605],[-88.1629,46.9611],[-88.1628,46.9612],[-88.1624,46.9614],[-88.1606,46.9623],[-88.1601,46.9626],[-88.1563,46.9646],[-88.1554,46.965],[-88.1554,46.9651],[-88.1456,46.9664],[-88.1437,46.9667],[-88.1436,46.9666],[-88.1429,46.9663],[-88.1428,46.9663],[-88.1425,46.9662],[-88.1423,46.9661],[-88.1421,46.966],[-88.1418,46.9659],[-88.133,46.9622],[-88.1329,46.9622],[-88.1352,46.9597],[-88.1501,46.9436],[-88.1564,46.9395],[-88.168,46.9319],[-88.1709,46.9299],[-88.1713,46.9297],[-88.1756,46.9269],[-88.1762,46.9265],[-88.1779,46.9253],[-88.186,46.92],[-88.1875,46.919],[-88.183,46.9136],[-88.1819,46.9124],[-88.1752,46.9046],[-88.1619,46.9049],[-88.1607,46.9051],[-88.1303,46.9094],[-88.1269,46.9098],[-88.1264,46.91],[-88.1249,46.9104],[-88.1246,46.9105],[-88.1229,46.911],[-88.1064,46.9158],[-88.1052,46.9161],[-88.1028,46.9168],[-88.1024,46.9169],[-88.1015,46.9172],[-88.1013,46.9172],[-88.1001,46.9174],[-88.0992,46.9176],[-88.0989,46.9176],[-88.0989,46.9176],[-88.0976,46.9178],[-88.0839,46.9201],[-88.0838,46.9201],[-88.0823,46.9204],[-88.0819,46.9205],[-88.0801,46.9203],[-88.0747,46.9196],[-88.0652,46.9186],[-88.0636,46.9181],[-88.0446,46.9125],[-88.0447,46.7654],[-87.9915,46.6791],[-88.1158,46.6784],[-88.1166,46.42],[-88.6794,46.4201],[-88.679,46.8518],[-88.5519,46.8518],[-88.5522,46.9385],[-88.4512,46.939],[-88.4508,46.939],[-88.4521,46.9346],[-88.4524,46.9338],[-88.4543,46.927],[-88.4544,46.9269],[-88.4548,46.9255],[-88.4551,46.9243],[-88.4554,46.9233],[-88.4578,46.919],[-88.4742,46.889],[-88.4759,46.886],[-88.4761,46.882],[-88.4769,46.8679],[-88.4776,46.8559],[-88.4777,46.8549],[-88.4778,46.8521],[-88.4779,46.8506],[-88.4837,46.8317],[-88.4826,46.8262],[-88.4733,46.8062],[-88.4623,46.7867],[-88.4384,46.7867],[-88.4338,46.7935],[-88.4152,46.8117],[-88.3814,46.8385],[-88.3822,46.8445],[-88.3819,46.8461],[-88.3817,46.8479],[-88.3808,46.8501],[-88.3802,46.8525],[-88.3784,46.8549],[-88.3756,46.8573],[-88.3725,46.8582],[-88.3688,46.8573],[-88.3625,46.8564],[-88.3619,46.8564],[-88.3609,46.8562],[-88.3603,46.8563],[-88.3521,46.857],[-88.3519,46.857],[-88.3517,46.8572],[-88.3474,46.8606],[-88.3346,46.8706],[-88.3332,46.8718],[-88.3331,46.8718],[-88.3107,46.8894],[-88.3103,46.8897],[-88.3088,46.8906],[-88.308,46.8911],[-88.3073,46.8915],[-88.305,46.8928],[-88.2995,46.896],[-88.2965,46.8978],[-88.2893,46.9019],[-88.2888,46.9023],[-88.2865,46.9036],[-88.2821,46.9061],[-88.2821,46.9062],[-88.2812,46.9066],[-88.2769,46.9086],[-88.2747,46.9096],[-88.2739,46.9099],[-88.2725,46.9106],[-88.2616,46.9155],[-88.2581,46.9184],[-88.2501,46.9249],[-88.247,46.9275],[-88.2469,46.9276],[-88.2444,46.9296],[-88.2432,46.9301],[-88.2419,46.9306],[-88.2413,46.9308],[-88.2409,46.9309],[-88.2408,46.931],[-88.2383,46.9319],[-88.2358,46.9329],[-88.2357,46.9329],[-88.2333,46.9338],[-88.233,46.934]]]}},{"type":"Feature","id":"26015","properties":{"name":"Barry","fips":"26015"},"geometry":{"type":"Polygon","coordinates":[[[-85.0742,42.7708],[-85.0716,42.4214],[-85.2989,42.4198],[-85.5432,42.4214],[-85.5456,42.7681],[-85.3096,42.7699],[-85.0742,42.7708]]]}},{"type":"Feature","id":"26017","properties":{"name":"Bay","fips":"26017"},"geometry":{"type":"Polygon","coordinates":[[[-83.6988,43.479],[-83.8177,43.4791],[-83.9161,43.5226],[-84.051,43.5241],[-84.05,43.5673],[-84.1681,43.5689],[-84.1673,43.8259],[-84.1664,43.9969],[-84.0454,43.997],[-84.0448,43.9111],[-83.9111,43.9105],[-83.9168,43.8991],[-83.9179,43.8565],[-83.9263,43.7874],[-83.9294,43.7771],[-83.9454,43.7599],[-83.9548,43.7609],[-83.956,43.7593],[-83.9543,43.7506],[-83.9393,43.7154],[-83.9295,43.7013],[-83.9095,43.6726],[-83.8971,43.664],[-83.8521,43.6449],[-83.8147,43.643],[-83.8068,43.6412],[-83.7789,43.6301],[-83.7707,43.6287],[-83.7699,43.6349],[-83.7258,43.6187],[-83.7034,43.5976],[-83.6993,43.5968],[-83.6994,43.5953],[-83.6988,43.479]]]}},{"type":"Feature","id":"26019","properties":{"name":"Benzie","fips":"26019"},"geometry":{"type":"Polygon","coordinates":[[[-86.2335,44.5183],[-86.2238,44.549],[-86.2207,44.5667],[-86.2254,44.5946],[-86.2318,44.6091],[-86.254,44.6481],[-86.259,44.6637],[-86.2568,44.6868],[-86.255,44.6919],[-86.2485,44.699],[-86.2325,44.706],[-86.1722,44.7206],[-86.1693,44.7224],[-86.1606,44.728],[-86.1603,44.7282],[-86.1229,44.728],[-86.1225,44.728],[-86.1211,44.728],[-86.1208,44.728],[-86.1083,44.7306],[-86.1062,44.7311],[-86.1055,44.7315],[-86.0907,44.7405],[-86.0892,44.7415],[-86.0779,44.7582],[-86.0771,44.7605],[-86.0768,44.7612],[-86.0767,44.7614],[-86.0747,44.7668],[-86.0735,44.7698],[-86.0731,44.7784],[-85.8151,44.7745],[-85.8178,44.513],[-86.2335,44.5183]]]}},{"type":"Feature","id":"26021","properties":{"name":"Berrien","fips":"26021"},"geometry":{"type":"Polygon","coordinates":[[[-86.5815,41.9438],[-86.5647,41.9814],[-86.5643,41.9824],[-86.5641,41.9829],[-86.5639,41.9833],[-86.5636,41.9839],[-86.5615,41.9886],[-86.5565,41.9998],[-86.5564,42.0],[-86.5493,42.0109],[-86.5492,42.0111],[-86.5453,42.0171],[-86.5449,42.0178],[-86.5417,42.0226],[-86.5411,42.0236],[-86.5361,42.0313],[-86.5339,42.0346],[-86.5329,42.0361],[-86.5326,42.0365],[-86.5322,42.0372],[-86.5089,42.073],[-86.5013,42.0845],[-86.4901,42.1051],[-86.4852,42.1182],[-86.479,42.1235],[-86.4666,42.1341],[-86.4663,42.1344],[-86.4649,42.1358],[-86.4649,42.1358],[-86.4644,42.1363],[-86.464,42.1367],[-86.4637,42.137],[-86.4408,42.1598],[-86.4394,42.1612],[-86.4379,42.1627],[-86.4371,42.1635],[-86.4041,42.1964],[-86.4022,42.1985],[-86.3989,42.2021],[-86.3985,42.2026],[-86.3977,42.2035],[-86.395,42.2065],[-86.3942,42.2074],[-86.3936,42.208],[-86.3935,42.2081],[-86.3866,42.2157],[-86.3852,42.2173],[-86.3837,42.2192],[-86.3836,42.2193],[-86.3814,42.222],[-86.3804,42.2234],[-86.38,42.2238],[-86.3649,42.2431],[-86.2236,42.2434],[-86.2229,42.0715],[-86.2261,41.76],[-86.2655,41.7602],[-86.5018,41.7596],[-86.5193,41.7594],[-86.5242,41.7595],[-86.64,41.7597],[-86.6412,41.7596],[-86.7465,41.76],[-86.7481,41.76],[-86.8006,41.7603],[-86.8007,41.7602],[-86.8016,41.7602],[-86.8044,41.7602],[-86.8236,41.7602],[-86.8248,41.7602],[-86.8235,41.7609],[-86.8021,41.772],[-86.8018,41.7721],[-86.7947,41.7757],[-86.7946,41.7758],[-86.7935,41.7764],[-86.7779,41.7844],[-86.7772,41.7847],[-86.7761,41.7854],[-86.7748,41.7861],[-86.7513,41.7997],[-86.7352,41.8089],[-86.717,41.8193],[-86.7156,41.8203],[-86.6975,41.8325],[-86.6797,41.8446],[-86.6794,41.8448],[-86.649,41.8697],[-86.6476,41.8708],[-86.6453,41.8727],[-86.644,41.8737],[-86.644,41.8738],[-86.6299,41.8853],[-86.6293,41.8857],[-86.6238,41.8902],[-86.6238,41.8903],[-86.6213,41.8923],[-86.6194,41.8938],[-86.617,41.8966],[-86.6169,41.8967],[-86.616,41.8977],[-86.6123,41.902],[-86.6121,41.9022],[-86.6115,41.9028],[-86.6109,41.9035],[-86.6005,41.9153],[-86.5979,41.9183],[-86.5968,41.92],[-86.5887,41.9324],[-86.5878,41.9337],[-86.5878,41.9338],[-86.5867,41.9353],[-86.5857,41.9369],[-86.5853,41.9376],[-86.5829,41.9412],[-86.5822,41.9422],[-86.5815,41.9438]]]}},{"type":"Feature","id":"26023","properties":{"name":"Branch","fips":"26023"},"geometry":{"type":"Polygon","coordinates":[[[-85.2598,42.0719],[-84.8265,42.0725],[-84.8251,41.76],[-84.8252,41.76],[-84.9325,41.7597],[-84.9609,41.7594],[-84.9616,41.7596],[-84.9716,41.7595],[-84.9728,41.7594],[-85.0378,41.7598],[-85.0394,41.76],[-85.1173,41.7597],[-85.1231,41.7597],[-85.1722,41.7596],[-85.1966,41.7597],[-85.1968,41.7597],[-85.2328,41.7598],[-85.2722,41.76],[-85.273,41.7599],[-85.2737,41.7598],[-85.2921,41.76],[-85.2922,41.76],[-85.2936,42.0716],[-85.2598,42.0719]]]}},{"type":"Feature","id":"26025","properties":{"name":"Calhoun","fips":"26025"},"geometry":{"type":"Polygon","coordinates":[[[-85.2598,42.0719],[-85.2936,42.0716],[-85.297,42.2461],[-85.2995,42.4168],[-85.2989,42.4198],[-85.0716,42.4214],[-84.7185,42.4215],[-84.7096,42.0704],[-84.8265,42.0725],[-85.2598,42.0719]]]}},{"type":"Feature","id":"26027","properties":{"name":"Cass","fips":"26027"},"geometry":{"type":"Polygon","coordinates":[[[-86.2229,42.0715],[-85.7629,42.0693],[-85.7602,41.7988],[-85.7913,41.7591],[-85.7914,41.7591],[-85.872,41.7594],[-85.875,41.7593],[-85.8888,41.7594],[-85.9749,41.7598],[-85.975,41.7598],[-85.9913,41.7599],[-86.0037,41.76],[-86.0626,41.7603],[-86.1251,41.7606],[-86.1255,41.7606],[-86.1278,41.7606],[-86.2176,41.76],[-86.2261,41.76],[-86.2261,41.76],[-86.2229,42.0715]]]}},{"type":"Feature","id":"26029","properties":{"name":"Charlevoix","fips":"26029"},"geometry":{"type":"MultiPolygon","coordinates":[[[[-85.5664,45.7602],[-85.5496,45.7573],[-85.5438,45.7514],[-85.5356,45.7504],[-85.5252,45.7505],[-85.5061,45.7547],[-85.5013,45.7544],[-85.4977,45.7462],[-85.5038,45.7428],[-85.5088,45.7424],[-85.5101,45.7429],[-85.5085,45.745],[-85.509,45.7485],[-85.5151,45.7495],[-85.5206,45.7447],[-85.5219,45.7394],[-85.5208,45.7372],[-85.5109,45.7344],[-85.4988,45.7263],[-85.4942,45.7054],[-85.494,45.6985],[-85.5028,45.691],[-85.5061,45.6811],[-85.5038,45.6705],[-85.5005,45.6643],[-85.4903,45.6521],[-85.487,45.6212],[-85.4913,45.6097],[-85.5093,45.5965],[-85.518,45.5929],[-85.5269,45.5916],[-85.5303,45.5893],[-85.5341,45.5782],[-85.5411,45.575],[-85.5616,45.5722],[-85.618,45.5826],[-85.6227,45.586],[-85.63,45.5982],[-85.6198,45.6245],[-85.6087,45.632],[-85.6045,45.6393],[-85.605,45.6476],[-85.6093,45.6581],[-85.6049,45.6819],[-85.6008,45.6889],[-85.5908,45.6981],[-85.5837,45.7008],[-85.5723,45.7114],[-85.5651,45.7307],[-85.5648,45.7455],[-85.5671,45.7504],[-85.5678,45.7577],[-85.5664,45.7602]]],[[[-84.7343,45.2019],[-84.7348,45.1149],[-84.8575,45.1167],[-85.2237,45.1178],[-85.2227,45.2056],[-85.3875,45.2076],[-85.3886,45.2352],[-85.3716,45.2708],[-85.3555,45.2828],[-85.335,45.294],[-85.3239,45.3034],[-85.3076,45.3131],[-85.2948,45.3164],[-85.2896,45.3141],[-85.2738,45.3154],[-85.263,45.3195],[-85.255,45.3257],[-85.2522,45.3309],[-85.2356,45.3394],[-85.2097,45.3569],[-85.1967,45.3606],[-85.1825,45.3608],[-85.1437,45.3704],[-85.096,45.367],[-85.0118,45.2787],[-84.7327,45.2894],[-84.7344,45.203],[-84.7343,45.2019]]]]}},{"type":"Feature","id":"26031","properties":{"name":"Cheboygan","fips":"26031"},"geometry":{"type":"Polygon","coordinates":[[[-84.7324,45.7879],[-84.7262,45.7869],[-84.7189,45.7776],[-84.716,45.7662],[-84.682,45.7562],[-84.6795,45.7491],[-84.6448,45.74],[-84.6047,45.7217],[-84.5736,45.7104],[-84.5555,45.7023],[-84.5533,45.6986],[-84.5392,45.6905],[-84.5392,45.6905],[-84.539,45.6904],[-84.4617,45.6524],[-84.4423,45.6548],[-84.4354,45.6641],[-84.4275,45.6692],[-84.4136,45.6694],[-84.4003,45.6633],[-84.3764,45.6556],[-84.3295,45.6644],[-84.2897,45.6533],[-84.2702,45.6448],[-84.2153,45.6348],[-84.2042,45.6271],[-84.252,45.626],[-84.2466,45.1987],[-84.3668,45.1988],[-84.7343,45.2019],[-84.7344,45.203],[-84.7327,45.2894],[-84.7324,45.7879]]]}},{"type":"Feature","id":"26033","properties":{"name":"Chippewa","fips":"26033"},"geometry":{"type":"Polygon","coordinates":[[[-84.1081,46.2412],[-84.1182,46.234],[-84.125,46.2329],[-84.1347,46.2321],[-84.1459,46.225],[-84.1471,46.2242],[-84.1492,46.2238],[-84.1507,46.2238],[-84.1517,46.2242],[-84.152,46.2249],[-84.1522,46.2263],[-84.1525,46.2279],[-84.1595,46.2332],[-84.1827,46.2355],[-84.2195,46.232],[-84.2331,46.224],[-84.2492,46.2065],[-84.2452,46.1926],[-84.2477,46.1799],[-84.2514,46.1759],[-84.221,46.1631],[-84.1967,46.1662],[-84.1773,46.184],[-84.1716,46.1817],[-84.125,46.1802],[-84.1149,46.1741],[-84.1133,46.1689],[-84.1001,46.1508],[-84.0958,46.1477],[-84.0893,46.1464],[-84.0604,46.1461],[-84.0265,46.1316],[-84.031,46.1232],[-84.0387,46.1256],[-84.0519,46.1198],[-84.0613,46.1135],[-84.0691,46.104],[-84.0724,46.0967],[-84.0717,46.0924],[-84.0663,46.0874],[-84.0517,46.0792],[-84.0279,46.0548],[-84.0061,46.0446],[-83.9895,46.0328],[-83.9638,46.0278],[-83.9514,46.029],[-83.9439,46.0315],[-83.939,46.0292],[-83.9355,46.0204],[-83.9312,46.0179],[-83.9086,46.0115],[-83.9005,45.9989],[-83.8731,45.9934],[-83.8682,45.9951],[-83.8454,46.0257],[-83.8301,46.0223],[-83.8182,46.0024],[-83.7941,45.9958],[-83.7764,46.0042],[-83.7653,46.0184],[-83.7652,46.0319],[-83.7738,46.0515],[-83.7966,46.0567],[-83.8125,46.0735],[-83.824,46.1036],[-83.8158,46.1085],[-83.8124,46.1086],[-83.7929,46.102],[-83.78,46.0935],[-83.7718,46.091],[-83.756,46.0922],[-83.7282,46.091],[-83.7233,46.0938],[-83.7198,46.101],[-83.7039,46.1034],[-83.6612,46.1003],[-83.635,46.104],[-83.6256,46.1022],[-83.6153,46.096],[-83.5986,46.0901],[-83.5813,46.0896],[-83.5761,46.0835],[-83.5726,46.0749],[-83.5726,46.0699],[-83.5654,46.0619],[-83.5541,46.0589],[-83.5472,46.0479],[-83.5434,46.0372],[-83.5408,46.0212],[-83.5329,46.0113],[-83.4948,45.9995],[-83.4883,45.9995],[-83.4806,45.9962],[-83.4739,45.9886],[-83.4732,45.9844],[-83.4818,45.9719],[-83.4888,45.9687],[-83.5106,45.9293],[-83.5172,45.9236],[-83.5263,45.9186],[-83.5618,45.9126],[-83.5831,45.9159],[-83.6322,45.9323],[-83.6577,45.9455],[-83.6877,45.9354],[-83.7194,45.9341],[-83.733,45.9376],[-83.7428,45.938],[-83.7662,45.9352],[-83.7689,45.9321],[-83.7861,45.9334],[-83.801,45.9376],[-83.8033,45.9434],[-83.8081,45.9457],[-83.8228,45.944],[-83.8276,45.9412],[-83.8355,45.9418],[-83.8409,45.9527],[-83.8464,45.9532],[-83.8649,45.9595],[-83.8796,45.9662],[-83.8811,45.9682],[-83.9108,45.9656],[-83.9213,45.9581],[-83.9522,45.9655],[-83.9851,45.9671],[-83.9965,45.9615],[-84.0176,45.959],[-84.0801,45.9708],[-84.0904,45.9673],[-84.1054,45.9729],[-84.1072,45.9772],[-84.1112,45.9787],[-84.1143,45.9783],[-84.2393,45.9849],[-84.2388,46.0715],[-84.3631,46.0716],[-84.3635,46.158],[-85.1124,46.1582],[-85.1131,46.2457],[-85.2378,46.2454],[-85.2379,46.7557],[-85.173,46.7636],[-85.0636,46.7579],[-85.0363,46.7604],[-85.0092,46.7692],[-84.9895,46.7724],[-84.9647,46.7728],[-84.954,46.7714],[-84.9516,46.7695],[-84.9875,46.7455],[-85.0076,46.7283],[-85.0202,46.7125],[-85.0275,46.6975],[-85.0301,46.6848],[-85.0283,46.6751],[-85.0355,46.625],[-85.0371,46.601],[-85.0355,46.5815],[-85.0315,46.5687],[-85.0296,46.5544],[-85.0274,46.5538],[-85.0255,46.5464],[-85.0271,46.543],[-85.0455,46.5377],[-85.053,46.5328],[-85.0561,46.5265],[-85.0549,46.5147],[-85.0498,46.504],[-85.0338,46.4877],[-85.0256,46.483],[-85.0152,46.4797],[-84.9695,46.4763],[-84.9553,46.4803],[-84.9473,46.4874],[-84.9371,46.4893],[-84.9344,46.4803],[-84.9219,46.47],[-84.9152,46.4675],[-84.8934,46.4654],[-84.8751,46.4668],[-84.8614,46.4699],[-84.8498,46.4602],[-84.8439,46.4487],[-84.8295,46.4441],[-84.8001,46.4462],[-84.7692,46.4535],[-84.7233,46.4683],[-84.6897,46.4839],[-84.6784,46.4877],[-84.6539,46.4823],[-84.631,46.4849],[-84.6165,46.4719],[-84.6079,46.4567],[-84.5842,46.4394],[-84.5735,46.4279],[-84.5515,46.4185],[-84.5037,46.4392],[-84.4934,46.4403],[-84.4795,46.4326],[-84.4718,46.4343],[-84.4626,46.4409],[-84.4555,46.4539],[-84.4553,46.4628],[-84.4633,46.4674],[-84.4451,46.489],[-84.4203,46.5011],[-84.3947,46.4992],[-84.375,46.5087],[-84.3254,46.5],[-84.2643,46.4951],[-84.2261,46.5339],[-84.1937,46.5399],[-84.1394,46.5322],[-84.1289,46.5301],[-84.1179,46.5176],[-84.1112,46.5041],[-84.125,46.4701],[-84.1462,46.4185],[-84.1389,46.3722],[-84.1156,46.2682],[-84.1081,46.2412]]]}},{"type":"Feature","id":"26035","properties":{"name":"Clare","fips":"26035"},"geometry":{"type":"Polygon","coordinates":[[[-84.6081,44.1605],[-84.608,44.1586],[-84.606,43.8152],[-85.0888,43.8137],[-85.087,44.1642],[-84.8517,44.1614],[-84.6081,44.1605]]]}},{"type":"Feature","id":"26037","properties":{"name":"Clinton","fips":"26037"},"geometry":{"type":"Polygon","coordinates":[[[-84.3678,43.1179],[-84.3657,42.9551],[-84.3637,42.7758],[-84.3637,42.77],[-84.6028,42.7699],[-84.8371,42.7705],[-84.8369,43.1189],[-84.3678,43.1179]]]}},{"type":"Feature","id":"26039","properties":{"name":"Crawford","fips":"26039"},"geometry":{"type":"Polygon","coordinates":[[[-84.3718,44.855],[-84.3706,44.5072],[-84.8509,44.5111],[-84.8473,44.858],[-84.3718,44.855]]]}},{"type":"Feature","id":"26041","properties":{"name":"Delta","fips":"26041"},"geometry":{"type":"Polygon","coordinates":[[[-86.4599,45.758],[-86.466,45.7597],[-86.4791,45.7574],[-86.486,45.7466],[-86.4963,45.7493],[-86.5042,45.7542],[-86.5146,45.7523],[-86.5183,45.7477],[-86.5232,45.7365],[-86.5252,45.7208],[-86.5333,45.7108],[-86.5373,45.7084],[-86.5414,45.7081],[-86.5706,45.7164],[-86.5809,45.7119],[-86.5858,45.7049],[-86.5848,45.682],[-86.5875,45.6665],[-86.5936,45.6656],[-86.6113,45.6697],[-86.6204,45.6671],[-86.6251,45.6638],[-86.6279,45.6593],[-86.617,45.6206],[-86.6169,45.6068],[-86.6239,45.6133],[-86.6332,45.6182],[-86.6484,45.616],[-86.6661,45.6217],[-86.6872,45.6343],[-86.6888,45.64],[-86.6953,45.6482],[-86.708,45.6492],[-86.7178,45.6681],[-86.7182,45.6773],[-86.7158,45.6839],[-86.7052,45.6909],[-86.6891,45.6879],[-86.6762,45.6919],[-86.6657,45.7022],[-86.6655,45.709],[-86.6693,45.7109],[-86.6715,45.7205],[-86.6628,45.729],[-86.6473,45.7326],[-86.6331,45.7477],[-86.6349,45.7635],[-86.631,45.782],[-86.6173,45.7835],[-86.6121,45.7794],[-86.5977,45.7754],[-86.5834,45.7782],[-86.5769,45.7885],[-86.5811,45.7918],[-86.5818,45.7948],[-86.5769,45.8015],[-86.5712,45.8055],[-86.5634,45.8045],[-86.5572,45.8082],[-86.5555,45.8135],[-86.559,45.8223],[-86.5552,45.8317],[-86.5497,45.836],[-86.5456,45.8365],[-86.5388,45.8401],[-86.5292,45.853],[-86.5282,45.857],[-86.5296,45.875],[-86.533,45.8827],[-86.5415,45.8902],[-86.5536,45.8965],[-86.5677,45.9005],[-86.5833,45.8988],[-86.5932,45.8851],[-86.6033,45.8766],[-86.6135,45.876],[-86.6257,45.8683],[-86.6332,45.8601],[-86.6325,45.8433],[-86.646,45.8339],[-86.7211,45.8454],[-86.7285,45.8488],[-86.7425,45.8647],[-86.7496,45.8678],[-86.7584,45.8673],[-86.7821,45.8602],[-86.7842,45.8546],[-86.7823,45.8299],[-86.7772,45.8272],[-86.7746,45.8217],[-86.7733,45.8114],[-86.7857,45.7945],[-86.8015,45.78],[-86.8215,45.7704],[-86.8237,45.7655],[-86.8209,45.7608],[-86.8218,45.7572],[-86.8387,45.7418],[-86.8418,45.7291],[-86.8387,45.7223],[-86.8704,45.7101],[-86.8769,45.7119],[-86.8953,45.7115],[-86.9041,45.7095],[-86.9211,45.6979],[-86.9442,45.6958],[-86.9643,45.6728],[-86.9669,45.675],[-86.9673,45.6849],[-86.9698,45.6919],[-86.9813,45.6965],[-86.9846,45.7058],[-86.9824,45.7199],[-86.9777,45.7288],[-86.9752,45.7531],[-86.9813,45.7662],[-86.9816,45.7922],[-86.9884,45.8106],[-87.0051,45.8317],[-87.0061,45.8322],[-87.0062,45.8323],[-87.0189,45.8389],[-87.0314,45.8372],[-87.0398,45.8342],[-87.0501,45.8238],[-87.052,45.8219],[-87.0574,45.8125],[-87.0579,45.8092],[-87.0579,45.809],[-87.0582,45.8065],[-87.0583,45.8059],[-87.0585,45.8043],[-87.0588,45.8015],[-87.0587,45.7964],[-87.0586,45.7948],[-87.0584,45.7881],[-87.0581,45.7792],[-87.0586,45.7781],[-87.064,45.7665],[-87.0643,45.7588],[-87.0624,45.7533],[-87.0555,45.7515],[-87.0529,45.748],[-87.0574,45.7368],[-87.0617,45.7328],[-87.0704,45.7188],[-87.06,45.7089],[-87.0595,45.7085],[-87.0613,45.7081],[-87.0739,45.7055],[-87.0748,45.7053],[-87.0749,45.7053],[-87.0934,45.7015],[-87.0955,45.701],[-87.0994,45.6986],[-87.0994,45.6985],[-87.0997,45.6952],[-87.1003,45.6948],[-87.1116,45.6859],[-87.1125,45.6857],[-87.1286,45.6819],[-87.1294,45.6817],[-87.1467,45.6737],[-87.1503,45.672],[-87.1616,45.6667],[-87.1722,45.6618],[-87.1735,45.6605],[-87.1915,45.6418],[-87.1969,45.6363],[-87.2112,45.6165],[-87.2156,45.6104],[-87.219,45.6058],[-87.2236,45.5993],[-87.2325,45.5909],[-87.2346,45.5888],[-87.2501,45.5691],[-87.2607,45.5556],[-87.262,45.554],[-87.2635,45.552],[-87.2638,45.5515],[-87.2644,45.5501],[-87.3275,45.5505],[-87.3257,45.8986],[-87.3678,45.9853],[-87.2429,45.9851],[-87.2416,46.1589],[-87.1161,46.1589],[-86.6156,46.1587],[-86.4901,46.1581],[-86.4903,45.8963],[-86.4599,45.758]]]}},{"type":"Feature","id":"26043","properties":{"name":"Dickinson","fips":"26043"},"geometry":{"type":"Polygon","coordinates":[[[-87.8288,45.7228],[-87.8681,45.7495],[-87.9914,45.7954],[-88.0397,45.7896],[-88.0506,45.781],[-88.0583,45.7807],[-88.0721,45.7803],[-88.094,45.7857],[-88.1304,45.81],[-88.1361,45.819],[-88.1336,45.8231],[-88.1143,45.8379],[-88.1066,45.8411],[-88.0888,45.8559],[-88.0731,45.872],[-88.0739,45.8756],[-88.1026,45.9099],[-88.1185,45.9186],[-88.1168,45.9216],[-88.1174,46.2466],[-87.6159,46.2468],[-87.617,45.986],[-87.6176,45.8988],[-87.6969,45.8988],[-87.6972,45.723],[-87.8288,45.7228]]]}},{"type":"Feature","id":"26045","properties":{"name":"Eaton","fips":"26045"},"geometry":{"type":"Polygon","coordinates":[[[-84.6004,42.422],[-84.7185,42.4215],[-85.0716,42.4214],[-85.0742,42.7708],[-84.8371,42.7705],[-84.6028,42.7699],[-84.6004,42.422]]]}},{"type":"Feature","id":"26047","properties":{"name":"Emmet","fips":"26047"},"geometry":{"type":"Polygon","coordinates":[[[-85.096,45.367],[-85.0736,45.3654],[-85.067,45.365],[-85.0643,45.3648],[-85.0635,45.3647],[-85.0609,45.3645],[-85.0548,45.3641],[-85.0466,45.3623],[-85.0455,45.362],[-85.0437,45.3616],[-85.0434,45.3616],[-85.0431,45.3615],[-85.0328,45.3613],[-85.0222,45.3667],[-84.9986,45.3702],[-84.9754,45.3736],[-84.9591,45.376],[-84.9159,45.3931],[-84.9125,45.4028],[-84.913,45.4098],[-84.9162,45.4176],[-84.922,45.4219],[-84.9764,45.4288],[-84.9766,45.4288],[-84.979,45.4291],[-84.9805,45.4293],[-84.981,45.4294],[-84.9812,45.4293],[-84.99,45.4276],[-84.9908,45.4253],[-84.9892,45.4243],[-84.9874,45.4231],[-84.9871,45.4229],[-84.9849,45.4215],[-84.9838,45.4208],[-84.9784,45.4202],[-84.9771,45.42],[-84.9786,45.4187],[-84.9942,45.4232],[-85.0349,45.4349],[-85.0377,45.4358],[-85.0403,45.4365],[-85.0409,45.4367],[-85.0469,45.4414],[-85.0502,45.444],[-85.0507,45.4444],[-85.053,45.4462],[-85.0696,45.4592],[-85.0705,45.4601],[-85.0878,45.4763],[-85.0884,45.4769],[-85.0971,45.4957],[-85.1039,45.5103],[-85.1093,45.5216],[-85.1094,45.5219],[-85.1109,45.5263],[-85.111,45.5265],[-85.1155,45.5394],[-85.1158,45.5415],[-85.1159,45.5421],[-85.1174,45.5528],[-85.1177,45.5545],[-85.1195,45.5673],[-85.1197,45.5686],[-85.1197,45.5689],[-85.1197,45.569],[-85.119,45.573],[-85.1188,45.5741],[-85.1186,45.5752],[-85.1184,45.5756],[-85.1178,45.5765],[-85.1124,45.585],[-85.1124,45.585],[-85.1119,45.5858],[-85.1117,45.586],[-85.1077,45.5891],[-85.1069,45.5897],[-85.1062,45.5902],[-85.1055,45.5908],[-85.1035,45.5924],[-85.1031,45.5927],[-85.1029,45.5928],[-85.1022,45.5934],[-85.102,45.5936],[-85.0968,45.5976],[-85.0955,45.5986],[-85.0935,45.6001],[-85.0795,45.6171],[-85.0794,45.6174],[-85.0763,45.6227],[-85.0757,45.6237],[-85.0757,45.6237],[-85.0755,45.6253],[-85.0749,45.6292],[-85.0742,45.6298],[-85.0714,45.6319],[-85.0657,45.6363],[-85.064,45.6376],[-85.0615,45.6395],[-85.061,45.6396],[-85.0449,45.6438],[-85.041,45.6448],[-85.0356,45.6463],[-85.0201,45.6503],[-85.0194,45.6505],[-85.0153,45.6516],[-85.0144,45.6521],[-85.0132,45.6528],[-85.007,45.6564],[-85.0056,45.6575],[-85.0023,45.6602],[-85.0012,45.6612],[-84.9974,45.6678],[-84.9963,45.6697],[-84.9961,45.6699],[-84.9742,45.6842],[-84.971,45.6863],[-84.9702,45.687],[-84.9457,45.7086],[-84.9438,45.7103],[-84.9426,45.7143],[-84.9411,45.7199],[-84.9405,45.7218],[-84.9421,45.7283],[-84.9421,45.7285],[-84.9425,45.7289],[-84.944,45.7303],[-84.946,45.7322],[-84.9473,45.7334],[-84.9502,45.7363],[-84.9508,45.7369],[-84.9517,45.7373],[-84.9543,45.7385],[-84.9554,45.7391],[-84.9581,45.7404],[-84.9683,45.7453],[-84.9823,45.752],[-84.983,45.752],[-84.9833,45.7521],[-84.9838,45.7521],[-84.9839,45.7521],[-84.9846,45.7522],[-84.9853,45.7522],[-84.9968,45.7533],[-85.0017,45.7538],[-85.0029,45.7539],[-85.0114,45.758],[-85.0145,45.7603],[-85.0092,45.7625],[-85.0074,45.7632],[-84.9951,45.7599],[-84.9383,45.7599],[-84.9378,45.7598],[-84.9315,45.7584],[-84.9268,45.7574],[-84.9252,45.757],[-84.9247,45.7569],[-84.9225,45.7558],[-84.9207,45.755],[-84.92,45.7546],[-84.9104,45.75],[-84.867,45.7521],[-84.841,45.7448],[-84.811,45.746],[-84.8104,45.746],[-84.8083,45.7461],[-84.8066,45.7462],[-84.8051,45.7464],[-84.8007,45.747],[-84.7996,45.7471],[-84.7925,45.7505],[-84.7896,45.7519],[-84.7889,45.7522],[-84.7888,45.7523],[-84.7888,45.7523],[-84.782,45.7603],[-84.7814,45.7611],[-84.7798,45.7696],[-84.7872,45.7749],[-84.7923,45.7785],[-84.7923,45.7785],[-84.7932,45.7805],[-84.7803,45.7872],[-84.7742,45.7889],[-84.774,45.789],[-84.7728,45.7893],[-84.7516,45.7827],[-84.742,45.7841],[-84.7341,45.7882],[-84.7324,45.7879],[-84.7327,45.2894],[-85.0118,45.2787],[-85.096,45.367]]]}},{"type":"Feature","id":"26049","properties":{"name":"Genesee","fips":"26049"},"geometry":{"type":"Polygon","coordinates":[[[-83.9276,42.8807],[-83.9291,43.1328],[-83.9321,43.2204],[-83.8145,43.2212],[-83.6965,43.2214],[-83.6956,43.2214],[-83.4607,43.2231],[-83.4534,42.8804],[-83.6894,42.8713],[-83.6865,42.7833],[-83.9225,42.7808],[-83.9276,42.8807]]]}},{"type":"Feature","id":"26051","properties":{"name":"Gladwin","fips":"26051"},"geometry":{"type":"Polygon","coordinates":[[[-84.6081,44.1605],[-84.368,44.1605],[-84.1661,44.1618],[-84.1664,43.9969],[-84.1673,43.8259],[-84.606,43.8152],[-84.608,44.1586],[-84.6081,44.1605]]]}},{"type":"Feature","id":"26053","properties":{"name":"Gogebic","fips":"26053"},"geometry":{"type":"Polygon","coordinates":[[[-88.9909,46.0973],[-89.0587,46.125],[-89.1251,46.1445],[-89.1618,46.1518],[-89.1669,46.1529],[-89.1945,46.1579],[-89.2013,46.1594],[-89.2033,46.16],[-89.2057,46.1604],[-89.2182,46.163],[-89.22,46.1633],[-89.2765,46.174],[-89.2769,46.1741],[-89.9082,46.296],[-89.9099,46.2964],[-89.9291,46.3001],[-90.1205,46.3369],[-90.1197,46.3598],[-90.1198,46.3597],[-90.1347,46.3749],[-90.1347,46.375],[-90.1669,46.4393],[-90.1669,46.4399],[-90.1779,46.4405],[-90.2046,46.479],[-90.2845,46.5187],[-90.3077,46.5184],[-90.3138,46.5162],[-90.3139,46.5162],[-90.3577,46.5403],[-90.3745,46.5392],[-90.4,46.5444],[-90.4004,46.5444],[-90.4145,46.5573],[-90.4146,46.5573],[-90.4181,46.5661],[-90.4179,46.5662],[-90.3985,46.5758],[-90.3974,46.5764],[-90.3973,46.5764],[-90.3968,46.5767],[-90.3949,46.5776],[-90.3717,46.5891],[-90.3553,46.5972],[-90.3533,46.5982],[-90.3484,46.6006],[-90.3478,46.6008],[-90.3276,46.6077],[-90.3276,46.6077],[-90.3066,46.6027],[-90.2955,46.607],[-90.2845,46.6112],[-90.2842,46.6113],[-90.2832,46.6117],[-90.2797,46.613],[-90.2783,46.6136],[-90.2653,46.6185],[-90.2653,46.6185],[-90.2517,46.6215],[-90.2502,46.6218],[-90.2376,46.6245],[-90.164,46.6455],[-90.1007,46.6551],[-90.0454,46.6683],[-90.0284,46.6744],[-89.996,46.6932],[-89.9858,46.7032],[-89.9738,46.7103],[-89.9571,46.7169],[-89.9185,46.7403],[-89.9075,46.7499],[-89.8924,46.7631],[-89.8887,46.7658],[-89.8877,46.7658],[-89.8645,46.5928],[-89.7403,46.5921],[-89.7415,46.5052],[-89.3653,46.5056],[-89.3654,46.333],[-88.9906,46.3333],[-88.9909,46.0973]]]}},{"type":"Feature","id":"26055","properties":{"name":"Grand Traverse","fips":"26055"},"geometry":{"type":"Polygon","coordinates":[[[-85.6402,44.7751],[-85.6361,44.7713],[-85.628,44.7675],[-85.6245,44.767],[-85.6236,44.7669],[-85.6206,44.7665],[-85.6196,44.7664],[-85.6108,44.7652],[-85.6077,44.7654],[-85.6056,44.7655],[-85.5999,44.7659],[-85.5993,44.7659],[-85.5991,44.766],[-85.5938,44.7687],[-85.5936,44.7688],[-85.5935,44.7693],[-85.5934,44.7695],[-85.5919,44.7788],[-85.5911,44.783],[-85.5911,44.7831],[-85.591,44.7839],[-85.5817,44.8078],[-85.5814,44.8083],[-85.5459,44.864],[-85.539,44.8689],[-85.5329,44.8732],[-85.5307,44.8892],[-85.5307,44.8893],[-85.5306,44.8898],[-85.5533,44.8909],[-85.5535,44.8909],[-85.5595,44.8881],[-85.5645,44.8952],[-85.5629,44.8966],[-85.5625,44.897],[-85.5573,44.9015],[-85.5566,44.9021],[-85.5565,44.9022],[-85.5516,44.9065],[-85.5397,44.9168],[-85.5389,44.9179],[-85.5383,44.9188],[-85.5336,44.9258],[-85.5305,44.9337],[-85.5292,44.937],[-85.5202,44.9603],[-85.5204,44.9611],[-85.5207,44.962],[-85.5221,44.9667],[-85.5219,44.9674],[-85.5208,44.9713],[-85.52,44.974],[-85.5189,44.9747],[-85.4926,44.9898],[-85.4924,44.9898],[-85.4752,44.9911],[-85.4727,44.9856],[-85.4717,44.9835],[-85.4705,44.9807],[-85.4702,44.9799],[-85.4683,44.973],[-85.468,44.972],[-85.4668,44.9679],[-85.4649,44.9611],[-85.4667,44.9588],[-85.4707,44.9592],[-85.4713,44.9593],[-85.4716,44.9593],[-85.4723,44.9594],[-85.4743,44.9585],[-85.4857,44.9536],[-85.489,44.9381],[-85.4899,44.9341],[-85.4907,44.9303],[-85.4912,44.9279],[-85.4912,44.9278],[-85.4913,44.9276],[-85.4914,44.9259],[-85.4914,44.9257],[-85.4914,44.9255],[-85.4915,44.9246],[-85.4915,44.9242],[-85.4924,44.9097],[-85.4925,44.9082],[-85.4895,44.9031],[-85.4889,44.9022],[-85.4886,44.9017],[-85.4897,44.8975],[-85.4899,44.8967],[-85.498,44.8655],[-85.5009,44.8588],[-85.5022,44.8558],[-85.5024,44.8556],[-85.5082,44.8484],[-85.5086,44.8479],[-85.5118,44.8471],[-85.5136,44.8467],[-85.517,44.8458],[-85.5188,44.8454],[-85.5191,44.8453],[-85.5272,44.841],[-85.5334,44.8376],[-85.5385,44.8349],[-85.5399,44.8342],[-85.5427,44.8314],[-85.546,44.8281],[-85.5471,44.827],[-85.5518,44.8223],[-85.5529,44.8213],[-85.5538,44.8203],[-85.5559,44.8183],[-85.558,44.8144],[-85.5602,44.8101],[-85.5602,44.81],[-85.5603,44.8084],[-85.5603,44.8008],[-85.5604,44.8005],[-85.5604,44.7967],[-85.5604,44.7959],[-85.5604,44.7948],[-85.5605,44.7897],[-85.5605,44.7897],[-85.5688,44.7745],[-85.571,44.7704],[-85.5752,44.7628],[-85.5762,44.7608],[-85.5766,44.7602],[-85.5759,44.7596],[-85.5713,44.7553],[-85.5548,44.7489],[-85.5543,44.7487],[-85.5541,44.7487],[-85.5383,44.7468],[-85.5272,44.7482],[-85.5233,44.7517],[-85.5094,44.764],[-85.5048,44.7681],[-85.5048,44.7681],[-85.5047,44.7685],[-85.5039,44.773],[-85.5041,44.7739],[-85.5048,44.7786],[-85.5052,44.7816],[-85.5071,44.7843],[-85.5093,44.7873],[-85.5085,44.7887],[-85.5075,44.7904],[-85.4996,44.8038],[-85.4963,44.8053],[-85.4847,44.8105],[-85.482,44.8117],[-85.4774,44.8138],[-85.4757,44.8145],[-85.4751,44.8148],[-85.4748,44.815],[-85.4746,44.8151],[-85.4629,44.825],[-85.4629,44.8251],[-85.4629,44.8251],[-85.4626,44.8263],[-85.4604,44.8357],[-85.4575,44.8396],[-85.4575,44.8396],[-85.4573,44.8398],[-85.456,44.8416],[-85.4553,44.8424],[-85.4527,44.846],[-85.4423,44.8598],[-85.3328,44.8124],[-85.334,44.5123],[-85.8178,44.513],[-85.8151,44.7745],[-85.6402,44.7751]]]}},{"type":"Feature","id":"26057","properties":{"name":"Gratiot","fips":"26057"},"geometry":{"type":"Polygon","coordinates":[[[-84.6075,43.466],[-84.3699,43.466],[-84.3679,43.1285],[-84.3679,43.1247],[-84.3679,43.1245],[-84.3678,43.1179],[-84.8369,43.1189],[-84.846,43.4662],[-84.6075,43.466]]]}},{"type":"Feature","id":"26059","properties":{"name":"Hillsdale","fips":"26059"},"geometry":{"type":"Polygon","coordinates":[[[-84.3965,41.7059],[-84.3994,41.7058],[-84.3995,41.7058],[-84.4381,41.7049],[-84.8061,41.6961],[-84.806,41.7075],[-84.806,41.7205],[-84.8061,41.7329],[-84.8061,41.7376],[-84.8061,41.7431],[-84.8189,41.7601],[-84.8251,41.76],[-84.8265,42.0725],[-84.7096,42.0704],[-84.3633,42.0735],[-84.3604,41.7069],[-84.3965,41.7059]]]}},{"type":"Feature","id":"26061","properties":{"name":"Houghton","fips":"26061"},"geometry":{"type":"Polygon","coordinates":[[[-88.4508,46.939],[-88.4512,46.939],[-88.5522,46.9385],[-88.5519,46.8518],[-88.679,46.8518],[-88.6794,46.4201],[-88.9912,46.4197],[-88.9895,46.6801],[-88.8645,46.6792],[-88.8639,46.765],[-88.9325,46.7648],[-88.9333,47.0322],[-88.9256,47.0409],[-88.9245,47.0422],[-88.9235,47.0439],[-88.915,47.0579],[-88.9142,47.0592],[-88.9083,47.0744],[-88.9039,47.0856],[-88.9037,47.0862],[-88.8999,47.09],[-88.8907,47.099],[-88.8904,47.0993],[-88.8901,47.0996],[-88.8891,47.1006],[-88.8854,47.1021],[-88.8854,47.1021],[-88.8721,47.1075],[-88.8554,47.1143],[-88.8551,47.1143],[-88.8547,47.1143],[-88.8482,47.1151],[-88.826,47.1326],[-88.8256,47.1329],[-88.8255,47.133],[-88.8167,47.1399],[-88.8166,47.14],[-88.8154,47.1409],[-88.8154,47.141],[-88.8148,47.1414],[-88.8137,47.1418],[-88.7988,47.1475],[-88.7898,47.1509],[-88.7846,47.1507],[-88.7838,47.1507],[-88.7792,47.1505],[-88.778,47.1505],[-88.7644,47.1558],[-88.7505,47.1678],[-88.7467,47.1711],[-88.7467,47.1711],[-88.7297,47.1858],[-88.7285,47.1866],[-88.7283,47.1867],[-88.7121,47.1969],[-88.7021,47.2033],[-88.702,47.2033],[-88.7,47.2046],[-88.6997,47.2048],[-88.6989,47.2052],[-88.6983,47.2056],[-88.6766,47.2169],[-88.6749,47.2178],[-88.6738,47.2184],[-88.6732,47.2187],[-88.6724,47.2191],[-88.6666,47.2215],[-88.6575,47.2252],[-88.6564,47.2256],[-88.648,47.2262],[-88.642,47.2267],[-88.6403,47.2268],[-88.6339,47.2289],[-88.6251,47.2318],[-88.6236,47.2324],[-88.6233,47.2325],[-88.6186,47.2347],[-88.6099,47.2389],[-88.6098,47.2389],[-88.6081,47.2391],[-88.5986,47.2405],[-88.5852,47.2423],[-88.5849,47.2424],[-88.5847,47.2424],[-88.574,47.246],[-88.5733,47.2464],[-88.5733,47.2464],[-88.5717,47.2475],[-88.5268,47.2766],[-88.5181,47.2823],[-88.5153,47.2841],[-88.5148,47.2844],[-88.5124,47.2859],[-88.299,47.2861],[-88.2984,47.1998],[-88.2276,47.1999],[-88.229,47.199],[-88.2291,47.1989],[-88.235,47.1915],[-88.2369,47.1892],[-88.237,47.1889],[-88.2403,47.1796],[-88.242,47.1748],[-88.2421,47.1722],[-88.2421,47.1714],[-88.2422,47.171],[-88.2426,47.1609],[-88.2427,47.1584],[-88.2421,47.1571],[-88.2395,47.1512],[-88.2395,47.1511],[-88.2384,47.1504],[-88.237,47.1494],[-88.2367,47.1493],[-88.2366,47.1493],[-88.2343,47.1494],[-88.2318,47.1496],[-88.2322,47.146],[-88.2399,47.1394],[-88.2476,47.136],[-88.2496,47.1362],[-88.2498,47.1371],[-88.2506,47.1398],[-88.2508,47.1402],[-88.2508,47.1402],[-88.2538,47.1425],[-88.2542,47.1428],[-88.2543,47.1429],[-88.2553,47.1436],[-88.2557,47.1437],[-88.2625,47.1451],[-88.263,47.1452],[-88.2633,47.1451],[-88.272,47.1435],[-88.2817,47.1382],[-88.2817,47.1382],[-88.2817,47.1382],[-88.289,47.1297],[-88.289,47.1297],[-88.2891,47.1296],[-88.2895,47.1266],[-88.2887,47.1259],[-88.2885,47.1258],[-88.2879,47.1254],[-88.2878,47.1248],[-88.2873,47.121],[-88.2872,47.1204],[-88.2873,47.1197],[-88.2878,47.1172],[-88.2879,47.1168],[-88.288,47.1164],[-88.2883,47.1147],[-88.2883,47.1145],[-88.2887,47.114],[-88.2889,47.1135],[-88.289,47.1134],[-88.2895,47.1125],[-88.2906,47.1107],[-88.2907,47.1105],[-88.2912,47.1096],[-88.2917,47.1088],[-88.2941,47.1046],[-88.2966,47.1002],[-88.2975,47.0986],[-88.2976,47.0985],[-88.2978,47.0984],[-88.313,47.092],[-88.3151,47.0911],[-88.3331,47.0835],[-88.3374,47.0816],[-88.3401,47.0805],[-88.3447,47.0797],[-88.3465,47.0794],[-88.3467,47.0794],[-88.3472,47.0789],[-88.35,47.0764],[-88.3532,47.0691],[-88.354,47.058],[-88.354,47.0578],[-88.3569,47.0475],[-88.3576,47.0451],[-88.3577,47.0447],[-88.3582,47.0428],[-88.3585,47.0415],[-88.3589,47.0404],[-88.3591,47.0397],[-88.3591,47.0395],[-88.3676,47.0192],[-88.3681,47.0187],[-88.3684,47.0184],[-88.374,47.0123],[-88.3742,47.0121],[-88.3793,47.0087],[-88.3844,47.0053],[-88.3853,47.0047],[-88.3855,47.0046],[-88.3856,47.0045],[-88.3862,47.0039],[-88.3865,47.0035],[-88.3876,47.0023],[-88.3886,47.0012],[-88.3897,46.9999],[-88.4045,46.9834],[-88.4054,46.9827],[-88.4062,46.982],[-88.4102,46.9788],[-88.4109,46.9782],[-88.4111,46.978],[-88.4162,46.9771],[-88.4164,46.9771],[-88.4439,46.9723],[-88.4486,46.9468],[-88.4508,46.939]]]}},{"type":"Feature","id":"26063","properties":{"name":"Huron","fips":"26063"},"geometry":{"type":"Polygon","coordinates":[[[-82.6062,43.6904],[-83.1178,43.6755],[-83.4666,43.6676],[-83.4674,43.7289],[-83.4651,43.7338],[-83.4596,43.7409],[-83.4402,43.7617],[-83.4389,43.7671],[-83.4416,43.7702],[-83.4468,43.7719],[-83.4383,43.7868],[-83.4261,43.7999],[-83.4164,43.801],[-83.4115,43.805],[-83.4107,43.8077],[-83.4125,43.8176],[-83.4109,43.8256],[-83.4076,43.832],[-83.3903,43.8391],[-83.389,43.8405],[-83.3894,43.8442],[-83.3589,43.8574],[-83.3323,43.8805],[-83.3318,43.8939],[-83.3335,43.8985],[-83.341,43.9045],[-83.348,43.9064],[-83.3486,43.9099],[-83.3474,43.9122],[-83.3381,43.9157],[-83.3187,43.9176],[-83.3057,43.9225],[-83.2823,43.938],[-83.269,43.9561],[-83.2618,43.969],[-83.2615,43.9735],[-83.2271,43.981],[-83.1957,43.9831],[-83.1806,43.9821],[-83.1454,43.9894],[-83.1349,43.9931],[-83.1207,44.001],[-83.1078,44.0032],[-83.0793,44.0011],[-83.066,44.0034],[-83.0587,44.0062],[-83.0466,44.0157],[-83.0299,44.0412],[-83.0246,44.0452],[-82.9993,44.0465],[-82.9907,44.0488],[-82.9674,44.0661],[-82.9587,44.0658],[-82.9567,44.0633],[-82.9474,44.0622],[-82.9289,44.0694],[-82.916,44.0705],[-82.8898,44.051],[-82.8759,44.045],[-82.8331,44.0369],[-82.7932,44.0232],[-82.7883,44.0137],[-82.7832,44.0094],[-82.765,44.0068],[-82.7463,43.996],[-82.739,43.9895],[-82.7285,43.9726],[-82.7122,43.9496],[-82.7098,43.9482],[-82.6935,43.918],[-82.6786,43.8837],[-82.6555,43.8679],[-82.6432,43.8525],[-82.6429,43.8464],[-82.6475,43.8445],[-82.6478,43.8427],[-82.6443,43.8375],[-82.6336,43.8312],[-82.618,43.7686],[-82.6191,43.7561],[-82.6172,43.7468],[-82.6122,43.7398],[-82.6062,43.6904]]]}},{"type":"Feature","id":"26065","properties":{"name":"Ingham","fips":"26065"},"geometry":{"type":"Polygon","coordinates":[[[-84.1582,42.7766],[-84.152,42.7107],[-84.1407,42.4246],[-84.6004,42.422],[-84.6028,42.7699],[-84.3637,42.77],[-84.3637,42.7758],[-84.1582,42.7766]]]}},{"type":"Feature","id":"26067","properties":{"name":"Ionia","fips":"26067"},"geometry":{"type":"Polygon","coordinates":[[[-85.3125,43.1188],[-84.8369,43.1189],[-84.8371,42.7705],[-85.0742,42.7708],[-85.3096,42.7699],[-85.3125,43.1188]]]}},{"type":"Feature","id":"26069","properties":{"name":"Iosco","fips":"26069"},"geometry":{"type":"Polygon","coordinates":[[[-83.3182,44.5117],[-83.3176,44.4861],[-83.3268,44.4444],[-83.3272,44.4292],[-83.3246,44.415],[-83.3216,44.4091],[-83.3216,44.4045],[-83.3338,44.3725],[-83.3352,44.358],[-83.3325,44.3405],[-83.337,44.3329],[-83.3437,44.3298],[-83.3521,44.3324],[-83.3643,44.3326],[-83.3736,44.3278],[-83.4018,44.3018],[-83.4143,44.2945],[-83.4192,44.2878],[-83.4258,44.2725],[-83.4297,44.2697],[-83.4427,44.2654],[-83.4458,44.2734],[-83.4477,44.274],[-83.461,44.2782],[-83.463,44.2788],[-83.4795,44.2801],[-83.5004,44.2766],[-83.5088,44.2737],[-83.5248,44.2616],[-83.5377,44.2482],[-83.5491,44.2273],[-83.5529,44.2107],[-83.5538,44.198],[-83.5652,44.1635],[-83.884,44.1618],[-83.8866,44.509],[-83.3182,44.5117]]]}},{"type":"Feature","id":"26071","properties":{"name":"Iron","fips":"26071"},"geometry":{"type":"Polygon","coordinates":[[[-88.9326,46.0736],[-88.9433,46.0779],[-88.9487,46.0802],[-88.9908,46.0973],[-88.9909,46.0973],[-88.9906,46.3333],[-88.9912,46.4197],[-88.6794,46.4201],[-88.1166,46.42],[-88.1174,46.2466],[-88.1168,45.9216],[-88.1185,45.9186],[-88.1394,45.9299],[-88.1755,45.9449],[-88.2022,45.9496],[-88.2112,45.9445],[-88.2397,45.949],[-88.2445,45.9521],[-88.2501,45.9631],[-88.2956,45.9515],[-88.3764,45.9895],[-88.4234,45.9819],[-88.4896,45.9914],[-88.4974,45.9951],[-88.5001,46.0005],[-88.5072,46.0183],[-88.5324,46.0212],[-88.6131,45.9906],[-88.6164,45.9877],[-88.6375,45.985],[-88.6661,45.9882],[-88.6709,46.0],[-88.6701,46.0],[-88.6746,46.0106],[-88.6791,46.0135],[-88.6832,46.0146],[-88.7307,46.0265],[-88.74,46.0273],[-88.7697,46.019],[-88.8156,46.0223],[-88.8406,46.0311],[-88.8485,46.0389],[-88.8503,46.0403],[-88.9326,46.0736]]]}},{"type":"Feature","id":"26073","properties":{"name":"Isabella","fips":"26073"},"geometry":{"type":"Polygon","coordinates":[[[-85.085,43.4662],[-85.0888,43.8137],[-84.606,43.8152],[-84.6075,43.466],[-84.846,43.4662],[-85.085,43.4662]]]}},{"type":"Feature","id":"26075","properties":{"name":"Jackson","fips":"26075"},"geometry":{"type":"Polygon","coordinates":[[[-84.132,42.0716],[-84.3633,42.0735],[-84.7096,42.0704],[-84.7185,42.4215],[-84.6004,42.422],[-84.1407,42.4246],[-84.1311,42.4246],[-84.132,42.0716]]]}},{"type":"Feature","id":"26077","properties":{"name":"Kalamazoo","fips":"26077"},"geometry":{"type":"Polygon","coordinates":[[[-85.2989,42.4198],[-85.2995,42.4168],[-85.297,42.2461],[-85.2936,42.0716],[-85.7629,42.0693],[-85.7644,42.4207],[-85.5432,42.4214],[-85.2989,42.4198]]]}},{"type":"Feature","id":"26079","properties":{"name":"Kalkaska","fips":"26079"},"geometry":{"type":"Polygon","coordinates":[[[-84.8509,44.5111],[-85.334,44.5123],[-85.3328,44.8124],[-85.2917,44.8596],[-84.8473,44.858],[-84.8509,44.5111]]]}},{"type":"Feature","id":"26081","properties":{"name":"Kent","fips":"26081"},"geometry":{"type":"Polygon","coordinates":[[[-85.7904,43.293],[-85.5716,43.2943],[-85.5625,43.2943],[-85.3124,43.2942],[-85.3125,43.1188],[-85.3096,42.7699],[-85.5456,42.7681],[-85.7127,42.7682],[-85.7825,42.7682],[-85.7853,42.9869],[-85.7885,43.0309],[-85.7907,43.2052],[-85.7904,43.293]]]}},{"type":"Feature","id":"26083","properties":{"name":"Keweenaw","fips":"26083"},"geometry":{"type":"MultiPolygon","coordinates":[[[[-88.6844,48.1158],[-88.6756,48.1204],[-88.6764,48.1249],[-88.6742,48.1272],[-88.6569,48.1392],[-88.614,48.1548],[-88.5784,48.1624],[-88.547,48.1749],[-88.5248,48.1653],[-88.5011,48.1682],[-88.492,48.1755],[-88.482,48.1799],[-88.4597,48.1838],[-88.4472,48.1829],[-88.4226,48.191],[-88.4182,48.1804],[-88.4199,48.1707],[-88.4274,48.1668],[-88.4495,48.1633],[-88.4597,48.1586],[-88.4696,48.1529],[-88.4857,48.1377],[-88.5119,48.1217],[-88.5669,48.0937],[-88.5781,48.0844],[-88.5784,48.078],[-88.5759,48.0752],[-88.5739,48.0689],[-88.575,48.0642],[-88.5798,48.0587],[-88.6701,48.0114],[-88.7186,47.9951],[-88.7724,47.9811],[-88.792,47.9789],[-88.8321,47.9652],[-88.8529,47.9653],[-88.8992,47.9533],[-88.918,47.9456],[-88.9236,47.938],[-88.9627,47.9235],[-88.9689,47.9095],[-88.9689,47.9017],[-88.958,47.8954],[-88.9424,47.8954],[-88.8997,47.9024],[-88.899,47.9007],[-88.9117,47.8913],[-88.9989,47.8675],[-89.0227,47.8585],[-89.0445,47.8558],[-89.0564,47.8526],[-89.108,47.8357],[-89.1241,47.8286],[-89.1577,47.824],[-89.1902,47.8316],[-89.1927,47.8334],[-89.1922,47.8411],[-89.2018,47.8502],[-89.2345,47.8517],[-89.2356,47.8538],[-89.2345,47.8554],[-89.2285,47.858],[-89.2468,47.871],[-89.2509,47.8704],[-89.2552,47.8761],[-89.2471,47.8885],[-89.2263,47.8954],[-89.2207,47.9008],[-89.2213,47.9081],[-89.2145,47.9139],[-89.1792,47.935],[-89.0952,47.9679],[-89.0183,47.9925],[-88.9942,48.0023],[-88.9409,48.0196],[-88.9315,48.0216],[-88.9275,48.0196],[-88.915,48.0207],[-88.8951,48.0291],[-88.8963,48.0318],[-88.8937,48.0348],[-88.8357,48.0568],[-88.8161,48.057],[-88.8105,48.0552],[-88.7876,48.063],[-88.7721,48.0705],[-88.7718,48.0795],[-88.7643,48.0852],[-88.7445,48.0928],[-88.7282,48.1019],[-88.7056,48.111],[-88.6954,48.1105],[-88.6844,48.1158]]],[[[-88.5124,47.2859],[-88.5049,47.2908],[-88.5012,47.2933],[-88.5008,47.2935],[-88.4988,47.2953],[-88.4871,47.3053],[-88.479,47.3124],[-88.4777,47.3135],[-88.4711,47.3264],[-88.4705,47.3277],[-88.4659,47.3327],[-88.4651,47.3335],[-88.4593,47.3399],[-88.459,47.3401],[-88.4322,47.3608],[-88.4318,47.3611],[-88.4314,47.3613],[-88.4188,47.3711],[-88.4187,47.3712],[-88.4002,47.3796],[-88.3997,47.3798],[-88.3942,47.3823],[-88.3914,47.3835],[-88.3895,47.3844],[-88.3789,47.3875],[-88.3603,47.393],[-88.3241,47.4035],[-88.3034,47.4122],[-88.3012,47.4135],[-88.2856,47.4221],[-88.2852,47.4224],[-88.2841,47.4226],[-88.2747,47.4241],[-88.2394,47.4299],[-88.2392,47.43],[-88.2381,47.4304],[-88.2286,47.4346],[-88.2274,47.4351],[-88.2258,47.4363],[-88.2184,47.4416],[-88.217,47.4455],[-88.2178,47.4487],[-88.2177,47.4488],[-88.2131,47.4499],[-88.2131,47.4499],[-88.2079,47.4512],[-88.2072,47.4514],[-88.206,47.4517],[-88.1818,47.4577],[-88.1818,47.4577],[-88.18,47.4578],[-88.1694,47.4586],[-88.1677,47.4588],[-88.167,47.4588],[-88.1508,47.4601],[-88.1506,47.4601],[-88.1504,47.4601],[-88.1436,47.4618],[-88.1405,47.4625],[-88.1397,47.4627],[-88.1377,47.4629],[-88.1293,47.4639],[-88.1285,47.464],[-88.0903,47.4684],[-88.09,47.4684],[-88.0853,47.469],[-88.0849,47.4689],[-88.0836,47.4687],[-88.0819,47.4685],[-88.0813,47.4684],[-88.0809,47.4684],[-88.0808,47.4684],[-88.0803,47.4683],[-88.0792,47.4681],[-88.0764,47.4678],[-88.0747,47.4679],[-88.074,47.4679],[-88.0736,47.468],[-88.067,47.4685],[-88.0493,47.4698],[-88.0482,47.47],[-88.0481,47.475],[-88.0479,47.475],[-88.0467,47.4752],[-88.0403,47.476],[-88.0402,47.476],[-88.0366,47.4762],[-88.0311,47.4765],[-88.0311,47.4765],[-88.0271,47.4767],[-88.0216,47.477],[-88.0173,47.4773],[-88.0155,47.4774],[-88.0145,47.4774],[-88.0108,47.4776],[-88.0104,47.4777],[-88.0097,47.4777],[-87.9822,47.4792],[-87.9817,47.4793],[-87.9789,47.4794],[-87.9781,47.4794],[-87.9625,47.4792],[-87.9592,47.4791],[-87.958,47.4791],[-87.9576,47.4791],[-87.9567,47.4791],[-87.9554,47.4791],[-87.9547,47.4791],[-87.9545,47.4791],[-87.9519,47.479],[-87.9483,47.479],[-87.9297,47.4787],[-87.9293,47.4787],[-87.9287,47.4787],[-87.9281,47.4787],[-87.9275,47.4786],[-87.9222,47.4783],[-87.9211,47.4782],[-87.9203,47.4782],[-87.9203,47.4782],[-87.9024,47.477],[-87.898,47.4749],[-87.817,47.472],[-87.8012,47.4733],[-87.7567,47.4607],[-87.7308,47.4491],[-87.7159,47.4398],[-87.7105,47.4062],[-87.7124,47.4014],[-87.7213,47.401],[-87.7424,47.4058],[-87.7514,47.4051],[-87.7591,47.403],[-87.765,47.3987],[-87.8003,47.3921],[-87.8154,47.3848],[-87.8271,47.3862],[-87.8348,47.3905],[-87.8483,47.3949],[-87.8567,47.3954],[-87.8822,47.3956],[-87.9416,47.3901],[-87.9571,47.3873],[-87.9651,47.3744],[-87.9656,47.3686],[-87.9626,47.3625],[-87.9548,47.3568],[-87.9474,47.3555],[-87.9388,47.3468],[-87.9382,47.3423],[-87.9434,47.3359],[-87.9464,47.3343],[-87.9584,47.3344],[-87.9686,47.3326],[-87.9891,47.3226],[-88.0165,47.3063],[-88.0548,47.2982],[-88.0601,47.2958],[-88.0715,47.2868],[-88.0969,47.2614],[-88.1088,47.2591],[-88.1175,47.2552],[-88.1319,47.2396],[-88.1631,47.2163],[-88.1942,47.2092],[-88.2048,47.2105],[-88.2124,47.2094],[-88.2276,47.1999],[-88.2984,47.1998],[-88.299,47.2861],[-88.5124,47.2859]]]]}},{"type":"Feature","id":"26085","properties":{"name":"Lake","fips":"26085"},"geometry":{"type":"Polygon","coordinates":[[[-86.042,44.1671],[-85.8212,44.1642],[-85.8198,44.1643],[-85.5646,44.1649],[-85.5624,43.8156],[-86.0379,43.8156],[-86.0389,43.819],[-86.042,44.1671]]]}},{"type":"Feature","id":"26087","properties":{"name":"Lapeer","fips":"26087"},"geometry":{"type":"Polygon","coordinates":[[[-83.4607,43.2231],[-83.3517,43.2352],[-83.3544,43.3223],[-83.1204,43.327],[-83.119,43.2837],[-83.0004,43.2849],[-82.9963,43.1541],[-82.9836,42.8937],[-83.003,42.8932],[-83.0236,42.8905],[-83.1029,42.8886],[-83.4534,42.8804],[-83.4607,43.2231]]]}},{"type":"Feature","id":"26089","properties":{"name":"Leelanau","fips":"26089"},"geometry":{"type":"MultiPolygon","coordinates":[[[[-85.6402,44.7751],[-85.8151,44.7745],[-86.0731,44.7784],[-86.0717,44.8047],[-86.066,44.8215],[-86.066,44.8349],[-86.0711,44.8654],[-86.0725,44.8848],[-86.071,44.8959],[-86.0667,44.9057],[-86.0589,44.911],[-86.0383,44.9157],[-86.0312,44.9073],[-86.0215,44.9028],[-86.0094,44.8995],[-85.9925,44.9],[-85.9802,44.9061],[-85.9728,44.9148],[-85.9672,44.9295],[-85.9616,44.9356],[-85.9527,44.9408],[-85.9421,44.9543],[-85.9386,44.9646],[-85.9316,44.9688],[-85.9159,44.9683],[-85.8976,44.962],[-85.8915,44.9578],[-85.8799,44.9433],[-85.8699,44.939],[-85.8543,44.9381],[-85.8362,44.9403],[-85.8155,44.9456],[-85.8074,44.9498],[-85.7804,44.9779],[-85.7783,44.9831],[-85.7762,45.0006],[-85.7714,45.0152],[-85.7619,45.0235],[-85.7464,45.0512],[-85.7408,45.0556],[-85.7123,45.0656],[-85.6957,45.0765],[-85.6811,45.0927],[-85.6757,45.1055],[-85.6749,45.1162],[-85.656,45.1458],[-85.6186,45.1868],[-85.6132,45.1846],[-85.6117,45.1811],[-85.607,45.1785],[-85.5931,45.1785],[-85.586,45.1804],[-85.5647,45.1925],[-85.5618,45.2005],[-85.5511,45.2107],[-85.5405,45.2102],[-85.5267,45.1893],[-85.5315,45.1772],[-85.5369,45.1734],[-85.5522,45.1674],[-85.5617,45.1589],[-85.5621,45.157],[-85.5631,45.1554],[-85.5639,45.1544],[-85.5649,45.154],[-85.5665,45.1538],[-85.5685,45.1538],[-85.5702,45.1551],[-85.5739,45.1555],[-85.5904,45.1532],[-85.5998,45.1493],[-85.6143,45.1276],[-85.6093,45.1135],[-85.5832,45.0713],[-85.5734,45.0684],[-85.5661,45.0592],[-85.5661,45.0436],[-85.5702,45.0413],[-85.574,45.0434],[-85.5972,45.0405],[-85.5997,45.0217],[-85.6091,45.0131],[-85.6219,45.0045],[-85.6066,44.9907],[-85.6043,44.991],[-85.6024,44.9743],[-85.602,44.9267],[-85.6214,44.9231],[-85.6255,44.9211],[-85.6398,44.8903],[-85.6455,44.8836],[-85.6489,44.874],[-85.6524,44.8491],[-85.6514,44.8316],[-85.6417,44.8108],[-85.637,44.7901],[-85.6408,44.7756],[-85.6402,44.7751]]],[[[-86.0935,45.0078],[-86.1157,44.9991],[-86.1337,44.9969],[-86.1548,45.0024],[-86.1567,45.0105],[-86.1546,45.0181],[-86.1416,45.0403],[-86.1381,45.043],[-86.1179,45.0485],[-86.0932,45.0415],[-86.0791,45.0308],[-86.0935,45.0317],[-86.0971,45.0301],[-86.1003,45.0262],[-86.1019,45.0228],[-86.1012,45.0181],[-86.0935,45.0078]]],[[[-86.0332,45.1584],[-86.0059,45.1558],[-85.9932,45.1528],[-85.9894,45.1511],[-85.9768,45.1384],[-85.9764,45.1207],[-85.9804,45.113],[-85.9841,45.0871],[-85.9828,45.0808],[-85.9771,45.073],[-85.9769,45.0627],[-85.9974,45.0559],[-86.0131,45.0638],[-86.0199,45.0717],[-86.0371,45.0866],[-86.0524,45.0953],[-86.0587,45.1008],[-86.0604,45.1046],[-86.065,45.1403],[-86.0594,45.1523],[-86.0505,45.1584],[-86.0444,45.1596],[-86.0332,45.1584]]]]}},{"type":"Feature","id":"26091","properties":{"name":"Lenawee","fips":"26091"},"geometry":{"type":"Polygon","coordinates":[[[-83.8805,41.7201],[-84.3604,41.7069],[-84.3633,42.0735],[-84.132,42.0716],[-83.7739,42.0824],[-83.7632,41.7239],[-83.8804,41.7201],[-83.8805,41.7201]]]}},{"type":"Feature","id":"26093","properties":{"name":"Livingston","fips":"26093"},"geometry":{"type":"Polygon","coordinates":[[[-83.6865,42.7833],[-83.6827,42.6956],[-83.6648,42.4312],[-83.9446,42.4241],[-84.1311,42.4246],[-84.1407,42.4246],[-84.152,42.7107],[-84.1582,42.7766],[-83.9225,42.7808],[-83.6865,42.7833]]]}},{"type":"Feature","id":"26095","properties":{"name":"Luce","fips":"26095"},"geometry":{"type":"Polygon","coordinates":[[[-85.8645,46.6902],[-85.8578,46.6898],[-85.8566,46.6897],[-85.8411,46.6889],[-85.8402,46.6888],[-85.8157,46.6846],[-85.7966,46.6814],[-85.7949,46.6811],[-85.7925,46.6809],[-85.7513,46.6774],[-85.7506,46.6774],[-85.7428,46.6773],[-85.7399,46.6773],[-85.7386,46.6773],[-85.7144,46.6772],[-85.7009,46.6781],[-85.674,46.68],[-85.6688,46.6804],[-85.6637,46.6802],[-85.6474,46.6797],[-85.6246,46.6789],[-85.6175,46.6781],[-85.5958,46.6756],[-85.5942,46.6754],[-85.5936,46.6753],[-85.5877,46.6747],[-85.5873,46.6746],[-85.585,46.6746],[-85.5588,46.6744],[-85.5476,46.6743],[-85.5425,46.6743],[-85.5095,46.6758],[-85.483,46.6803],[-85.4821,46.6804],[-85.3698,46.7138],[-85.3626,46.7165],[-85.347,46.7225],[-85.2964,46.7421],[-85.2898,46.7446],[-85.258,46.7531],[-85.2569,46.7534],[-85.256,46.7535],[-85.2379,46.7557],[-85.2378,46.2454],[-85.865,46.2446],[-85.8649,46.5048],[-85.8645,46.6902]]]}},{"type":"Feature","id":"26097","properties":{"name":"Mackinac","fips":"26097"},"geometry":{"type":"MultiPolygon","coordinates":[[[[-84.5932,45.8174],[-84.5942,45.8188],[-84.597,45.8226],[-84.6118,45.8334],[-84.6119,45.8335],[-84.6128,45.8345],[-84.6239,45.8466],[-84.6292,45.85],[-84.6397,45.8526],[-84.6508,45.8592],[-84.6513,45.8628],[-84.6469,45.8846],[-84.6418,45.8855],[-84.6294,45.8826],[-84.6225,45.8775],[-84.6082,45.8616],[-84.6029,45.8516],[-84.5893,45.8258],[-84.5783,45.8201],[-84.5384,45.8078],[-84.5144,45.8101],[-84.493,45.8053],[-84.4325,45.7867],[-84.4267,45.7882],[-84.4213,45.7927],[-84.4197,45.7998],[-84.4216,45.8057],[-84.4193,45.8067],[-84.4109,45.7972],[-84.4032,45.7844],[-84.356,45.7719],[-84.3563,45.7695],[-84.3702,45.7562],[-84.3722,45.7458],[-84.3943,45.7353],[-84.3956,45.7329],[-84.394,45.7276],[-84.4059,45.7224],[-84.4189,45.7217],[-84.43,45.7263],[-84.451,45.728],[-84.4692,45.7322],[-84.4841,45.7307],[-84.5009,45.7373],[-84.5075,45.7446],[-84.5093,45.7543],[-84.5251,45.7642],[-84.5499,45.7899],[-84.5616,45.7962],[-84.582,45.8026],[-84.5876,45.8067],[-84.5902,45.8132],[-84.5932,45.8174]]],[[[-84.1143,45.9783],[-84.1405,45.9753],[-84.1408,45.9753],[-84.1694,45.9669],[-84.1723,45.9661],[-84.1748,45.9674],[-84.1752,45.9677],[-84.1781,45.9692],[-84.2031,45.9685],[-84.2139,45.9682],[-84.219,45.9681],[-84.2382,45.9676],[-84.254,45.9567],[-84.255,45.9561],[-84.2613,45.9561],[-84.2619,45.9561],[-84.2667,45.9561],[-84.2817,45.9561],[-84.3174,45.9562],[-84.3196,45.9562],[-84.32,45.9562],[-84.3205,45.9562],[-84.3246,45.9562],[-84.3251,45.9562],[-84.3258,45.9562],[-84.3264,45.9562],[-84.3272,45.9562],[-84.33,45.9562],[-84.3303,45.956],[-84.3316,45.9553],[-84.3455,45.9466],[-84.3533,45.9417],[-84.3533,45.9417],[-84.3537,45.9415],[-84.3575,45.9399],[-84.3764,45.932],[-84.3764,45.932],[-84.3874,45.9375],[-84.3915,45.9396],[-84.398,45.9429],[-84.3983,45.943],[-84.3985,45.9431],[-84.3991,45.9434],[-84.3995,45.9436],[-84.3996,45.9437],[-84.4112,45.9495],[-84.4282,45.9581],[-84.4287,45.9584],[-84.4365,45.9717],[-84.4366,45.9719],[-84.4376,45.9738],[-84.4431,45.9778],[-84.4431,45.9779],[-84.4431,45.9779],[-84.4433,45.9778],[-84.46,45.9703],[-84.4631,45.9689],[-84.4737,45.9743],[-84.4786,45.9768],[-84.4804,45.9778],[-84.4808,45.9784],[-84.4826,45.9814],[-84.4831,45.9822],[-84.4825,45.9851],[-84.4824,45.9854],[-84.4828,45.986],[-84.484,45.9883],[-84.4856,45.9885],[-84.4885,45.9888],[-84.5072,45.9912],[-84.5141,45.9872],[-84.5141,45.9713],[-84.5251,45.9686],[-84.5324,45.9694],[-84.5344,45.9728],[-84.5346,45.9781],[-84.5304,45.9914],[-84.5334,46.0057],[-84.541,46.0195],[-84.5444,46.0229],[-84.5639,46.0325],[-84.5811,46.031],[-84.5866,46.0266],[-84.6091,46.0264],[-84.6476,46.0497],[-84.6566,46.0527],[-84.6667,46.0505],[-84.6758,46.046],[-84.6873,46.0349],[-84.6927,46.027],[-84.6927,46.017],[-84.6863,45.9791],[-84.6844,45.9775],[-84.6853,45.9735],[-84.6877,45.9713],[-84.7039,45.9709],[-84.723,45.9673],[-84.7302,45.9612],[-84.7388,45.9458],[-84.7394,45.9418],[-84.733,45.9328],[-84.719,45.9274],[-84.7136,45.9204],[-84.7133,45.916],[-84.734,45.907],[-84.7303,45.8973],[-84.7295,45.8953],[-84.7213,45.8739],[-84.7213,45.8739],[-84.7155,45.866],[-84.7155,45.8659],[-84.7154,45.8658],[-84.7097,45.8608],[-84.7021,45.8539],[-84.7016,45.8535],[-84.7012,45.8531],[-84.7023,45.8506],[-84.7023,45.8505],[-84.7046,45.8494],[-84.705,45.8493],[-84.7059,45.8489],[-84.706,45.8488],[-84.7064,45.8487],[-84.7077,45.8486],[-84.7093,45.8485],[-84.7206,45.8481],[-84.7208,45.8481],[-84.721,45.848],[-84.7215,45.8476],[-84.7228,45.8466],[-84.723,45.8458],[-84.7236,45.8441],[-84.7257,45.837],[-84.7269,45.837],[-84.747,45.8356],[-84.747,45.8356],[-84.7515,45.8379],[-84.7547,45.8395],[-84.7583,45.8413],[-84.7738,45.8491],[-84.7754,45.8499],[-84.7928,45.8587],[-84.8206,45.8683],[-84.829,45.8712],[-84.8314,45.872],[-84.8319,45.8728],[-84.8342,45.8758],[-84.8342,45.8758],[-84.8351,45.8771],[-84.8383,45.8813],[-84.8384,45.8815],[-84.8385,45.8815],[-84.8382,45.8837],[-84.8378,45.8871],[-84.8377,45.8882],[-84.8376,45.8891],[-84.8376,45.8891],[-84.8396,45.893],[-84.8407,45.8951],[-84.8421,45.898],[-84.8422,45.8982],[-84.8431,45.8983],[-84.8446,45.8986],[-84.846,45.8989],[-84.8506,45.8997],[-84.8529,45.9001],[-84.8533,45.9003],[-84.856,45.9016],[-84.859,45.903],[-84.8605,45.9038],[-84.8615,45.9042],[-84.8679,45.9072],[-84.8704,45.9084],[-84.8733,45.9098],[-84.8733,45.9098],[-84.8773,45.9135],[-84.879,45.9151],[-84.8795,45.9155],[-84.8798,45.9158],[-84.9026,45.9236],[-84.9029,45.9237],[-84.9173,45.9306],[-84.9175,45.9307],[-84.9366,45.9552],[-84.937,45.9557],[-84.9371,45.9559],[-84.9712,45.9842],[-84.9736,45.9861],[-84.9747,45.9869],[-84.9747,45.9869],[-84.9925,45.9988],[-85.0036,46.0061],[-85.0102,46.0091],[-85.0109,46.0094],[-85.014,46.0108],[-85.021,46.0128],[-85.047,46.0206],[-85.048,46.0209],[-85.049,46.0212],[-85.0543,46.0228],[-85.0556,46.0231],[-85.0819,46.0273],[-85.0883,46.0283],[-85.0888,46.0284],[-85.1029,46.0325],[-85.1029,46.0325],[-85.1051,46.0336],[-85.1067,46.0344],[-85.1136,46.0378],[-85.1248,46.0433],[-85.1252,46.0435],[-85.127,46.0444],[-85.1272,46.0445],[-85.1304,46.0461],[-85.1337,46.0472],[-85.1376,46.0485],[-85.1396,46.0492],[-85.1408,46.0496],[-85.1425,46.0498],[-85.1452,46.05],[-85.1471,46.0502],[-85.1517,46.0507],[-85.1518,46.0507],[-85.152,46.0507],[-85.1906,46.0476],[-85.1947,46.046],[-85.1952,46.0458],[-85.1975,46.0449],[-85.2108,46.0533],[-85.2147,46.0557],[-85.2177,46.0576],[-85.2203,46.0593],[-85.2212,46.0599],[-85.2224,46.0606],[-85.2225,46.0607],[-85.223,46.0607],[-85.2251,46.061],[-85.2484,46.0637],[-85.2554,46.0645],[-85.2664,46.0658],[-85.2683,46.0664],[-85.2783,46.0694],[-85.2877,46.0723],[-85.2879,46.0724],[-85.29,46.0735],[-85.2953,46.0761],[-85.3042,46.0806],[-85.3106,46.0838],[-85.3163,46.0866],[-85.3355,46.0925],[-85.3359,46.0926],[-85.3363,46.0926],[-85.3561,46.0921],[-85.3562,46.0921],[-85.3563,46.092],[-85.3666,46.0868],[-85.3672,46.0866],[-85.3813,46.0821],[-85.3814,46.082],[-85.3823,46.083],[-85.3828,46.0835],[-85.3829,46.0837],[-85.39,46.0914],[-85.3938,46.0955],[-85.4042,46.0989],[-85.4095,46.1006],[-85.4121,46.1014],[-85.4269,46.102],[-85.4292,46.101],[-85.4295,46.1009],[-85.4321,46.0998],[-85.4374,46.0977],[-85.4378,46.0975],[-85.4416,46.0959],[-85.4419,46.0958],[-85.4419,46.0958],[-85.4419,46.0958],[-85.4421,46.0949],[-85.4423,46.0939],[-85.4423,46.0939],[-85.4409,46.0931],[-85.4402,46.0926],[-85.4458,46.0864],[-85.446,46.0863],[-85.447,46.0852],[-85.4531,46.0872],[-85.4668,46.0918],[-85.4689,46.0925],[-85.4761,46.0949],[-85.4803,46.0963],[-85.4806,46.0964],[-85.4807,46.0964],[-85.4863,46.0965],[-85.4994,46.0969],[-85.5001,46.0969],[-85.5002,46.0969],[-85.5127,46.0947],[-85.5214,46.0913],[-85.5216,46.0913],[-85.5216,46.0912],[-85.5284,46.0871],[-85.5289,46.0868],[-85.5291,46.0867],[-85.5333,46.0841],[-85.5395,46.0804],[-85.5409,46.0796],[-85.543,46.0779],[-85.546,46.0756],[-85.5611,46.0638],[-85.5636,46.0618],[-85.6038,46.0304],[-85.6157,46.0117],[-85.6176,46.0087],[-85.6177,46.0085],[-85.6251,46.0025],[-85.6283,46.0],[-85.629,45.9994],[-85.6293,45.9991],[-85.6463,45.9855],[-85.6464,45.9855],[-85.6474,45.9846],[-85.6476,45.9845],[-85.6486,45.9837],[-85.6489,45.9831],[-85.6504,45.9807],[-85.6509,45.9798],[-85.6547,45.9737],[-85.6547,45.9736],[-85.664,45.967],[-85.6646,45.9669],[-85.6881,45.962],[-85.6972,45.9602],[-85.6976,45.9602],[-85.7016,45.961],[-85.7042,45.9615],[-85.705,45.9617],[-85.7065,45.962],[-85.7162,45.9639],[-85.7242,45.9654],[-85.7252,45.9654],[-85.7318,45.9653],[-85.7435,45.9652],[-85.7436,45.9652],[-85.7602,45.9689],[-85.7709,45.9713],[-85.7741,45.9723],[-85.7903,45.9775],[-85.7906,45.9776],[-85.7918,45.9777],[-85.8092,45.9799],[-85.8104,45.9801],[-85.8111,45.98],[-85.8171,45.9795],[-85.8176,45.9794],[-85.818,45.9793],[-85.8207,45.9782],[-85.8258,45.9763],[-85.826,45.976],[-85.8263,45.9757],[-85.8298,45.9713],[-85.8323,45.9682],[-85.8326,45.9677],[-85.8345,45.9673],[-85.8352,45.9671],[-85.8355,45.967],[-85.8381,45.9663],[-85.8384,45.9663],[-85.839,45.9661],[-85.8424,45.9652],[-85.843,45.9653],[-85.8602,45.968],[-85.8612,45.9682],[-85.8654,45.9683],[-85.865,46.2446],[-85.2378,46.2454],[-85.1131,46.2457],[-85.1124,46.1582],[-84.3635,46.158],[-84.3631,46.0716],[-84.2388,46.0715],[-84.2393,45.9849],[-84.1143,45.9783]]]]}},{"type":"Feature","id":"26099","properties":{"name":"Macomb","fips":"26099"},"geometry":{"type":"Polygon","coordinates":[[[-83.0834,42.4472],[-83.0869,42.5348],[-83.0882,42.5494],[-83.0888,42.5638],[-83.0994,42.8006],[-83.1029,42.8886],[-83.0236,42.8905],[-83.003,42.8932],[-82.9836,42.8937],[-82.739,42.8975],[-82.7078,42.6835],[-82.7264,42.6828],[-82.7533,42.6697],[-82.7656,42.6557],[-82.7808,42.6522],[-82.7924,42.6551],[-82.7973,42.654],[-82.8135,42.6408],[-82.8201,42.6263],[-82.819,42.6163],[-82.811,42.6109],[-82.789,42.6034],[-82.7876,42.5983],[-82.789,42.5927],[-82.7881,42.5828],[-82.7815,42.5716],[-82.7824,42.5648],[-82.7845,42.5636],[-82.7891,42.5684],[-82.7967,42.571],[-82.821,42.5707],[-82.8342,42.5678],[-82.8459,42.5606],[-82.8493,42.5557],[-82.851,42.5489],[-82.8593,42.5419],[-82.8602,42.5408],[-82.8744,42.5235],[-82.8823,42.501],[-82.8839,42.4718],[-82.8706,42.4512],[-83.0834,42.4472]]]}},{"type":"Feature","id":"26101","properties":{"name":"Manistee","fips":"26101"},"geometry":{"type":"Polygon","coordinates":[[[-86.3869,44.1787],[-86.3802,44.1893],[-86.3801,44.1895],[-86.3628,44.2081],[-86.3546,44.2238],[-86.3543,44.2243],[-86.3516,44.2294],[-86.3493,44.2355],[-86.3438,44.2496],[-86.3273,44.2631],[-86.3269,44.2638],[-86.3191,44.2785],[-86.3183,44.2799],[-86.3167,44.283],[-86.3165,44.2833],[-86.316,44.2842],[-86.3136,44.2879],[-86.3128,44.2892],[-86.3119,44.2904],[-86.3047,44.3015],[-86.3044,44.3019],[-86.3003,44.3082],[-86.2687,44.3453],[-86.2519,44.401],[-86.2481,44.4209],[-86.2483,44.4348],[-86.2518,44.4516],[-86.2516,44.4654],[-86.2489,44.483],[-86.2489,44.483],[-86.2488,44.4831],[-86.2437,44.4889],[-86.2387,44.5017],[-86.2335,44.5183],[-85.8178,44.513],[-85.8212,44.1642],[-86.042,44.1671],[-86.3869,44.1787]]]}},{"type":"Feature","id":"26103","properties":{"name":"Marquette","fips":"26103"},"geometry":{"type":"Polygon","coordinates":[[[-88.0446,46.9125],[-88.0329,46.909],[-88.0324,46.9089],[-88.0301,46.9087],[-88.0294,46.9087],[-88.0043,46.907],[-88.0037,46.9069],[-87.9863,46.906],[-87.9861,46.906],[-87.9833,46.9062],[-87.9823,46.9064],[-87.9755,46.907],[-87.9583,46.9088],[-87.9571,46.9089],[-87.956,46.9091],[-87.9557,46.9091],[-87.9547,46.9091],[-87.9159,46.9095],[-87.9145,46.9095],[-87.9115,46.9096],[-87.9106,46.9096],[-87.9088,46.9096],[-87.9007,46.9097],[-87.9003,46.9097],[-87.9001,46.9095],[-87.8879,46.9015],[-87.8751,46.8929],[-87.8745,46.8926],[-87.8739,46.8924],[-87.847,46.8842],[-87.8462,46.8839],[-87.8446,46.884],[-87.8412,46.8844],[-87.8389,46.8853],[-87.8302,46.8886],[-87.8272,46.8897],[-87.8168,46.8912],[-87.8141,46.8888],[-87.8132,46.888],[-87.8132,46.888],[-87.7932,46.8808],[-87.7882,46.8804],[-87.7832,46.8799],[-87.7825,46.8799],[-87.782,46.8796],[-87.7777,46.8772],[-87.7775,46.8771],[-87.7772,46.8769],[-87.7769,46.8767],[-87.7767,46.875],[-87.7766,46.8743],[-87.7763,46.8726],[-87.7763,46.8726],[-87.7783,46.8708],[-87.7788,46.8704],[-87.7768,46.8668],[-87.7662,46.8614],[-87.766,46.8613],[-87.7658,46.8613],[-87.7559,46.8605],[-87.7559,46.8605],[-87.7557,46.8605],[-87.7544,46.8612],[-87.7485,46.8644],[-87.7466,46.8654],[-87.7457,46.8654],[-87.7449,46.8654],[-87.7444,46.8654],[-87.7419,46.8653],[-87.741,46.8652],[-87.7409,46.865],[-87.7408,46.8648],[-87.7349,46.8501],[-87.735,46.8499],[-87.7351,46.8498],[-87.7367,46.8472],[-87.7365,46.8464],[-87.7365,46.8461],[-87.7343,46.837],[-87.7315,46.8312],[-87.7274,46.8277],[-87.7259,46.8274],[-87.7256,46.8274],[-87.7137,46.8255],[-87.6946,46.8272],[-87.6858,46.8325],[-87.6857,46.8325],[-87.6857,46.8326],[-87.6879,46.8392],[-87.6879,46.8393],[-87.6873,46.8414],[-87.6872,46.8417],[-87.6867,46.8418],[-87.6816,46.8424],[-87.6807,46.8425],[-87.6796,46.8415],[-87.675,46.8374],[-87.6745,46.837],[-87.6735,46.8296],[-87.6734,46.8293],[-87.6732,46.8276],[-87.6733,46.8273],[-87.674,46.8252],[-87.6743,46.824],[-87.672,46.8204],[-87.6623,46.8152],[-87.6515,46.8124],[-87.6465,46.8131],[-87.6428,46.8136],[-87.6419,46.8137],[-87.6408,46.8135],[-87.6333,46.8121],[-87.6288,46.8061],[-87.6283,46.8054],[-87.6281,46.8052],[-87.6274,46.8046],[-87.6271,46.8044],[-87.6197,46.7982],[-87.6179,46.7966],[-87.6168,46.7958],[-87.6137,46.7931],[-87.6136,46.7931],[-87.6106,46.7906],[-87.609,46.7893],[-87.608,46.7884],[-87.5953,46.7829],[-87.5953,46.7827],[-87.5944,46.7769],[-87.5931,46.7687],[-87.5922,46.7626],[-87.5922,46.7626],[-87.592,46.761],[-87.5919,46.7605],[-87.5915,46.7575],[-87.5914,46.7569],[-87.5911,46.7551],[-87.5909,46.7537],[-87.5908,46.753],[-87.5905,46.7523],[-87.5897,46.7499],[-87.5878,46.7446],[-87.5876,46.7442],[-87.5846,46.7356],[-87.5836,46.7328],[-87.5827,46.7305],[-87.5817,46.7294],[-87.5732,46.7205],[-87.5673,46.7167],[-87.5574,46.7104],[-87.553,46.7076],[-87.552,46.7069],[-87.5491,46.705],[-87.5439,46.7017],[-87.5345,46.6957],[-87.5335,46.695],[-87.5326,46.6945],[-87.5233,46.6885],[-87.5234,46.688],[-87.5237,46.6843],[-87.5244,46.6778],[-87.5244,46.6776],[-87.5192,46.6702],[-87.5067,46.6526],[-87.5032,46.6478],[-87.503,46.6475],[-87.5015,46.6468],[-87.4934,46.6428],[-87.4929,46.6426],[-87.4924,46.6424],[-87.469,46.6359],[-87.468,46.6356],[-87.4665,46.6316],[-87.4676,46.6262],[-87.4641,46.6148],[-87.4514,46.6059],[-87.4426,46.6028],[-87.4112,46.6017],[-87.4033,46.5952],[-87.384,46.5931],[-87.3816,46.5801],[-87.393,46.5725],[-87.3928,46.5709],[-87.3822,46.5537],[-87.3756,46.5471],[-87.3903,46.5426],[-87.394,46.5332],[-87.3893,46.5245],[-87.3813,46.5173],[-87.3668,46.5073],[-87.3524,46.5013],[-87.3511,46.5007],[-87.3121,46.4923],[-87.3108,46.492],[-87.3094,46.4919],[-87.2591,46.4883],[-87.2587,46.4883],[-87.2581,46.4883],[-87.2051,46.4907],[-87.2024,46.4908],[-87.2001,46.4914],[-87.1751,46.4975],[-87.1751,46.4975],[-87.1459,46.4954],[-87.1274,46.494],[-87.1166,46.4952],[-87.1161,46.1589],[-87.2416,46.1589],[-87.2429,45.9851],[-87.3678,45.9853],[-87.617,45.986],[-87.6159,46.2468],[-88.1174,46.2466],[-88.1166,46.42],[-88.1158,46.6784],[-87.9915,46.6791],[-88.0447,46.7654],[-88.0446,46.9125]]]}},{"type":"Feature","id":"26105","properties":{"name":"Mason","fips":"26105"},"geometry":{"type":"Polygon","coordinates":[[[-86.4311,43.8194],[-86.4312,43.8366],[-86.4312,43.8372],[-86.4312,43.8381],[-86.4312,43.8407],[-86.4312,43.8409],[-86.4329,43.85],[-86.4335,43.8532],[-86.4339,43.8556],[-86.4341,43.8561],[-86.4343,43.8566],[-86.435,43.8588],[-86.4455,43.8897],[-86.4457,43.8929],[-86.4459,43.8953],[-86.4465,43.9013],[-86.4479,43.9181],[-86.448,43.9184],[-86.4481,43.9189],[-86.4496,43.9238],[-86.4513,43.9298],[-86.4544,43.9406],[-86.4628,43.9697],[-86.4631,43.9708],[-86.4631,43.971],[-86.4632,43.9711],[-86.4816,43.9986],[-86.4833,44.0012],[-86.4844,44.0024],[-86.5017,44.0219],[-86.503,44.0238],[-86.5041,44.0256],[-86.5044,44.026],[-86.5088,44.0328],[-86.5147,44.0479],[-86.5147,44.0577],[-86.5147,44.0581],[-86.5146,44.0583],[-86.5091,44.0674],[-86.5088,44.0679],[-86.5084,44.0682],[-86.5012,44.0749],[-86.5005,44.0756],[-86.4979,44.077],[-86.4693,44.0933],[-86.4549,44.1014],[-86.4477,44.1055],[-86.4471,44.1058],[-86.4469,44.106],[-86.4466,44.1062],[-86.4299,44.1198],[-86.4269,44.1231],[-86.4259,44.1242],[-86.4252,44.125],[-86.4216,44.129],[-86.4211,44.1295],[-86.4006,44.1568],[-86.3979,44.1612],[-86.397,44.1626],[-86.3965,44.1634],[-86.3869,44.1787],[-86.042,44.1671],[-86.0389,43.819],[-86.0379,43.8156],[-86.4165,43.8196],[-86.4311,43.8194]]]}},{"type":"Feature","id":"26107","properties":{"name":"Mecosta","fips":"26107"},"geometry":{"type":"Polygon","coordinates":[[[-85.5624,43.4682],[-85.5624,43.8156],[-85.0888,43.8137],[-85.085,43.4662],[-85.5624,43.4682]]]}},{"type":"Feature","id":"26109","properties":{"name":"Menominee","fips":"26109"},"geometry":{"type":"Polygon","coordinates":[[[-87.3061,45.4755],[-87.3174,45.4667],[-87.3197,45.4649],[-87.3303,45.451],[-87.3331,45.4472],[-87.3334,45.4461],[-87.334,45.4433],[-87.3342,45.4423],[-87.3333,45.4373],[-87.3332,45.4369],[-87.3311,45.4337],[-87.33,45.4319],[-87.3286,45.4313],[-87.3274,45.4307],[-87.3269,45.4305],[-87.3258,45.43],[-87.3261,45.4295],[-87.3277,45.4253],[-87.3282,45.4247],[-87.3295,45.4232],[-87.3309,45.4216],[-87.3362,45.4154],[-87.3381,45.4144],[-87.3509,45.4077],[-87.3513,45.4073],[-87.3595,45.3998],[-87.3601,45.3985],[-87.3605,45.3975],[-87.3644,45.3885],[-87.3713,45.3837],[-87.3879,45.3723],[-87.3892,45.3713],[-87.3895,45.3711],[-87.3898,45.3709],[-87.3914,45.3698],[-87.3925,45.369],[-87.3945,45.3637],[-87.4,45.3493],[-87.41,45.3389],[-87.4274,45.3209],[-87.4317,45.3164],[-87.4361,45.3077],[-87.4373,45.3055],[-87.4375,45.3037],[-87.4389,45.2934],[-87.4555,45.2807],[-87.4564,45.2801],[-87.4648,45.2737],[-87.4652,45.2734],[-87.4969,45.2404],[-87.5033,45.2337],[-87.5042,45.2327],[-87.5123,45.2243],[-87.5305,45.2081],[-87.5353,45.2037],[-87.549,45.1916],[-87.5525,45.1898],[-87.5563,45.1878],[-87.5634,45.1841],[-87.5823,45.169],[-87.5857,45.1664],[-87.5878,45.1636],[-87.5966,45.1523],[-87.6008,45.1468],[-87.6078,45.1348],[-87.608,45.1346],[-87.6093,45.1323],[-87.612,45.1234],[-87.6118,45.1224],[-87.6115,45.1209],[-87.6115,45.1209],[-87.6112,45.1196],[-87.6101,45.1141],[-87.609,45.1129],[-87.6068,45.1104],[-87.6052,45.1087],[-87.6045,45.1079],[-87.6025,45.1057],[-87.6022,45.1054],[-87.6022,45.1053],[-87.602,45.1051],[-87.6016,45.1047],[-87.6011,45.1041],[-87.6001,45.103],[-87.5987,45.1021],[-87.5977,45.1014],[-87.5923,45.0978],[-87.5903,45.0964],[-87.5894,45.0965],[-87.582,45.0972],[-87.5902,45.0953],[-87.66,45.1075],[-87.7314,45.171],[-87.7353,45.1766],[-87.7417,45.1982],[-87.7395,45.2021],[-87.7317,45.2068],[-87.7117,45.2435],[-87.7078,45.2583],[-87.7091,45.2603],[-87.6481,45.3394],[-87.6477,45.3507],[-87.6573,45.3688],[-87.675,45.3825],[-87.6859,45.3887],[-87.694,45.3899],[-87.7189,45.3775],[-87.7515,45.3518],[-87.7714,45.3512],[-87.7903,45.3534],[-87.8326,45.3522],[-87.8353,45.351],[-87.8381,45.3451],[-87.8501,45.3404],[-87.8852,45.3517],[-87.8881,45.3547],[-87.8604,45.4235],[-87.8203,45.4603],[-87.813,45.4642],[-87.8063,45.4723],[-87.799,45.4851],[-87.7928,45.5],[-87.7888,45.5659],[-87.792,45.6168],[-87.7959,45.6188],[-87.8241,45.6471],[-87.8237,45.6598],[-87.7816,45.6733],[-87.7808,45.6803],[-87.8071,45.708],[-87.8288,45.7228],[-87.6972,45.723],[-87.6969,45.8988],[-87.6176,45.8988],[-87.617,45.986],[-87.3678,45.9853],[-87.3257,45.8986],[-87.3275,45.5505],[-87.2644,45.5501],[-87.2807,45.5176],[-87.2887,45.5016],[-87.2894,45.5005],[-87.3061,45.4755]]]}},{"type":"Feature","id":"26111","properties":{"name":"Midland","fips":"26111"},"geometry":{"type":"Polygon","coordinates":[[[-84.3699,43.466],[-84.6075,43.466],[-84.606,43.8152],[-84.1673,43.8259],[-84.1681,43.5689],[-84.1706,43.482],[-84.3699,43.466]]]}},{"type":"Feature","id":"26113","properties":{"name":"Missaukee","fips":"26113"},"geometry":{"type":"Polygon","coordinates":[[[-84.8509,44.5111],[-84.8558,44.422],[-84.8517,44.1614],[-85.087,44.1642],[-85.3348,44.1651],[-85.334,44.5123],[-84.8509,44.5111]]]}},{"type":"Feature","id":"26115","properties":{"name":"Monroe","fips":"26115"},"geometry":{"type":"Polygon","coordinates":[[[-83.3722,41.8741],[-83.3724,41.8745],[-83.3797,41.8717],[-83.382,41.8709],[-83.3893,41.8617],[-83.3938,41.856],[-83.3962,41.853],[-83.4082,41.8327],[-83.4096,41.8303],[-83.4223,41.8223],[-83.4224,41.8223],[-83.4254,41.8213],[-83.4263,41.821],[-83.4312,41.8195],[-83.4342,41.8186],[-83.4359,41.8168],[-83.4363,41.8165],[-83.4396,41.8132],[-83.4417,41.8086],[-83.4423,41.8012],[-83.4425,41.7988],[-83.4428,41.7951],[-83.4434,41.7891],[-83.4379,41.7711],[-83.4375,41.7697],[-83.4372,41.7692],[-83.4372,41.7691],[-83.4356,41.766],[-83.4342,41.7634],[-83.433,41.761],[-83.4328,41.7608],[-83.4321,41.7593],[-83.432,41.7591],[-83.4311,41.7575],[-83.4274,41.7503],[-83.4273,41.7503],[-83.4273,41.7502],[-83.4264,41.7476],[-83.4242,41.741],[-83.4241,41.7407],[-83.4242,41.7407],[-83.4344,41.7371],[-83.4519,41.7345],[-83.4538,41.7326],[-83.4977,41.7318],[-83.4997,41.7316],[-83.5034,41.7315],[-83.5043,41.7315],[-83.5852,41.7293],[-83.5938,41.7291],[-83.5952,41.7291],[-83.6366,41.7278],[-83.6396,41.7277],[-83.6659,41.7269],[-83.6853,41.7264],[-83.7632,41.7239],[-83.7739,42.0824],[-83.5394,42.0856],[-83.2953,42.0942],[-83.1858,42.0294],[-83.1815,42.0193],[-83.1872,42.0076],[-83.1905,42.0062],[-83.2086,42.005],[-83.2094,41.9957],[-83.2168,41.9886],[-83.2169,41.9886],[-83.2234,41.9892],[-83.2234,41.9892],[-83.2249,41.9886],[-83.2277,41.9876],[-83.2284,41.9873],[-83.2285,41.9873],[-83.2286,41.9872],[-83.2293,41.9867],[-83.2487,41.9727],[-83.2492,41.9724],[-83.2498,41.9714],[-83.2551,41.9628],[-83.2568,41.96],[-83.257,41.9597],[-83.257,41.9586],[-83.2571,41.9554],[-83.2572,41.9537],[-83.2573,41.9507],[-83.2695,41.939],[-83.2705,41.9393],[-83.2871,41.9444],[-83.2928,41.9446],[-83.293,41.9446],[-83.296,41.9447],[-83.2982,41.9442],[-83.2995,41.9439],[-83.3029,41.9431],[-83.3035,41.9428],[-83.3056,41.9416],[-83.3159,41.9359],[-83.326,41.925],[-83.326,41.925],[-83.326,41.9249],[-83.3271,41.9226],[-83.3305,41.9146],[-83.333,41.9088],[-83.3336,41.9073],[-83.3342,41.9032],[-83.3343,41.9019],[-83.3351,41.8962],[-83.3351,41.896],[-83.3357,41.892],[-83.336,41.8897],[-83.3416,41.88],[-83.3595,41.8678],[-83.3662,41.8655],[-83.3722,41.8741]]]}},{"type":"Feature","id":"26117","properties":{"name":"Montcalm","fips":"26117"},"geometry":{"type":"Polygon","coordinates":[[[-85.3125,43.1188],[-85.3124,43.2942],[-85.5625,43.2943],[-85.5624,43.4682],[-85.085,43.4662],[-84.846,43.4662],[-84.8369,43.1189],[-85.3125,43.1188]]]}},{"type":"Feature","id":"26119","properties":{"name":"Montmorency","fips":"26119"},"geometry":{"type":"Polygon","coordinates":[[[-84.3718,44.855],[-84.3668,45.1988],[-84.2466,45.1987],[-83.8812,45.2021],[-83.8885,44.8565],[-84.3718,44.855]]]}},{"type":"Feature","id":"26121","properties":{"name":"Muskegon","fips":"26121"},"geometry":{"type":"Polygon","coordinates":[[[-86.4622,43.4723],[-86.4613,43.4723],[-86.0395,43.4674],[-86.039,43.2935],[-85.7904,43.293],[-85.7907,43.2052],[-85.9084,43.2059],[-85.9074,43.1189],[-86.272,43.1184],[-86.2808,43.136],[-86.299,43.1665],[-86.3113,43.1869],[-86.3119,43.1878],[-86.3163,43.1951],[-86.3298,43.2158],[-86.3446,43.2384],[-86.3486,43.2445],[-86.3489,43.2449],[-86.3498,43.2462],[-86.35,43.2466],[-86.3522,43.2499],[-86.3523,43.25],[-86.3545,43.2534],[-86.358,43.2587],[-86.3829,43.2966],[-86.3838,43.2981],[-86.3861,43.3015],[-86.3864,43.3019],[-86.3885,43.3052],[-86.3894,43.3066],[-86.3921,43.3107],[-86.3934,43.3126],[-86.3958,43.3162],[-86.4017,43.3271],[-86.403,43.3296],[-86.4035,43.3305],[-86.4048,43.3329],[-86.4078,43.3384],[-86.4119,43.3472],[-86.4276,43.3806],[-86.4348,43.3959],[-86.4348,43.3961],[-86.4351,43.3967],[-86.4353,43.3971],[-86.4379,43.4039],[-86.438,43.4042],[-86.4383,43.4049],[-86.4389,43.4064],[-86.4485,43.4313],[-86.4487,43.432],[-86.4546,43.4495],[-86.4561,43.454],[-86.4568,43.4563],[-86.4576,43.4584],[-86.4622,43.4723]]]}},{"type":"Feature","id":"26123","properties":{"name":"Newaygo","fips":"26123"},"geometry":{"type":"Polygon","coordinates":[[[-85.5625,43.2943],[-85.5716,43.2943],[-85.7904,43.293],[-86.039,43.2935],[-86.0395,43.4674],[-86.0379,43.8156],[-85.5624,43.8156],[-85.5624,43.4682],[-85.5625,43.2943]]]}},{"type":"Feature","id":"26125","properties":{"name":"Oakland","fips":"26125"},"geometry":{"type":"Polygon","coordinates":[[[-83.3168,42.442],[-83.4337,42.4389],[-83.5519,42.4352],[-83.6648,42.4312],[-83.6827,42.6956],[-83.6865,42.7833],[-83.6894,42.8713],[-83.4534,42.8804],[-83.1029,42.8886],[-83.0994,42.8006],[-83.0888,42.5638],[-83.0882,42.5494],[-83.0869,42.5348],[-83.0834,42.4472],[-83.288,42.4427],[-83.3168,42.442]]]}},{"type":"Feature","id":"26127","properties":{"name":"Oceana","fips":"26127"},"geometry":{"type":"Polygon","coordinates":[[[-86.4622,43.4723],[-86.4687,43.492],[-86.4688,43.492],[-86.4689,43.4923],[-86.477,43.5102],[-86.4774,43.5112],[-86.4787,43.5141],[-86.4793,43.5153],[-86.4796,43.5157],[-86.4812,43.5182],[-86.4817,43.5189],[-86.4819,43.5192],[-86.4823,43.5198],[-86.483,43.521],[-86.4831,43.521],[-86.5058,43.5551],[-86.5092,43.5602],[-86.5093,43.5604],[-86.5123,43.5649],[-86.5142,43.5677],[-86.5151,43.5691],[-86.5158,43.5702],[-86.5163,43.5709],[-86.5167,43.5715],[-86.5175,43.5727],[-86.5187,43.5745],[-86.5199,43.5763],[-86.5202,43.5767],[-86.5202,43.5768],[-86.5295,43.5935],[-86.5379,43.616],[-86.5385,43.6175],[-86.5389,43.62],[-86.5389,43.6202],[-86.5391,43.6214],[-86.5393,43.6226],[-86.5393,43.6227],[-86.5409,43.6332],[-86.5409,43.634],[-86.5409,43.635],[-86.5408,43.6425],[-86.5408,43.6446],[-86.5406,43.6455],[-86.5388,43.6571],[-86.5385,43.6588],[-86.5382,43.6594],[-86.5297,43.6768],[-86.5292,43.6779],[-86.5277,43.6796],[-86.5269,43.6804],[-86.5179,43.6903],[-86.5162,43.6922],[-86.5144,43.6942],[-86.511,43.6979],[-86.5103,43.6986],[-86.5076,43.7011],[-86.5067,43.702],[-86.5047,43.7039],[-86.5032,43.7053],[-86.503,43.7055],[-86.5019,43.7065],[-86.4962,43.7118],[-86.4884,43.7191],[-86.487,43.7204],[-86.4819,43.7251],[-86.4807,43.7264],[-86.4806,43.7264],[-86.4803,43.7268],[-86.4634,43.7447],[-86.4616,43.7467],[-86.4604,43.7484],[-86.4455,43.7709],[-86.4451,43.7716],[-86.4449,43.7721],[-86.4428,43.7769],[-86.4377,43.7886],[-86.4374,43.7893],[-86.4311,43.8156],[-86.431,43.816],[-86.4311,43.8192],[-86.4311,43.8194],[-86.4165,43.8196],[-86.0379,43.8156],[-86.0395,43.4674],[-86.4613,43.4723],[-86.4622,43.4723]]]}},{"type":"Feature","id":"26129","properties":{"name":"Ogemaw","fips":"26129"},"geometry":{"type":"Polygon","coordinates":[[[-84.3706,44.5072],[-83.8866,44.509],[-83.884,44.1618],[-84.1661,44.1618],[-84.368,44.1605],[-84.3663,44.1755],[-84.3706,44.5072]]]}},{"type":"Feature","id":"26131","properties":{"name":"Ontonagon","fips":"26131"},"geometry":{"type":"Polygon","coordinates":[[[-89.1685,46.9653],[-89.1682,46.9655],[-89.1426,46.9849],[-89.1424,46.985],[-89.1423,46.985],[-89.1287,46.9926],[-89.1281,46.9927],[-89.1248,46.9932],[-89.1183,46.9942],[-89.1181,46.994],[-89.1159,46.9919],[-89.1132,46.9894],[-89.1063,46.9865],[-89.0867,46.9853],[-89.0631,46.9885],[-89.0586,46.9906],[-89.0482,46.9954],[-89.0395,46.9994],[-89.0381,46.9996],[-89.0289,47.0011],[-89.0276,46.9998],[-89.023,46.9951],[-88.9989,46.9953],[-88.9984,46.9953],[-88.9924,46.9963],[-88.9917,46.9965],[-88.9872,46.9972],[-88.9825,46.9988],[-88.9788,47.0001],[-88.9784,47.0002],[-88.9728,47.0021],[-88.9603,47.0081],[-88.9594,47.0085],[-88.9573,47.0101],[-88.944,47.0201],[-88.9333,47.0322],[-88.9325,46.7648],[-88.8639,46.765],[-88.8645,46.6792],[-88.9895,46.6801],[-88.9912,46.4197],[-88.9906,46.3333],[-89.3654,46.333],[-89.3653,46.5056],[-89.7415,46.5052],[-89.7403,46.5921],[-89.8645,46.5928],[-89.8877,46.7658],[-89.8887,46.7658],[-89.8751,46.776],[-89.8625,46.7853],[-89.852,46.7932],[-89.851,46.794],[-89.8487,46.7957],[-89.847,46.7966],[-89.8447,46.7977],[-89.8415,46.7993],[-89.832,46.8041],[-89.8309,46.8044],[-89.8301,46.8047],[-89.8281,46.8054],[-89.7907,46.8185],[-89.7884,46.8189],[-89.7871,46.8191],[-89.7576,46.8241],[-89.7245,46.8297],[-89.7203,46.8304],[-89.7178,46.8306],[-89.7134,46.8308],[-89.7101,46.831],[-89.7089,46.8311],[-89.7083,46.8311],[-89.7081,46.8311],[-89.6785,46.8329],[-89.6778,46.833],[-89.6769,46.833],[-89.6734,46.8332],[-89.6606,46.8311],[-89.6597,46.8308],[-89.6518,46.8283],[-89.6469,46.8268],[-89.6434,46.8257],[-89.6423,46.8253],[-89.6373,46.8214],[-89.6349,46.8195],[-89.6193,46.8189],[-89.5985,46.8243],[-89.5782,46.8297],[-89.5724,46.8312],[-89.5703,46.8317],[-89.5698,46.8319],[-89.5645,46.8325],[-89.5424,46.8351],[-89.5407,46.8353],[-89.5389,46.8355],[-89.5357,46.8359],[-89.5343,46.8362],[-89.5257,46.8386],[-89.5169,46.841],[-89.5157,46.8414],[-89.5139,46.8418],[-89.5002,46.8416],[-89.4992,46.8416],[-89.4991,46.8416],[-89.4978,46.8411],[-89.494,46.8396],[-89.4913,46.8385],[-89.4913,46.8384],[-89.4911,46.8384],[-89.4852,46.8381],[-89.4753,46.8376],[-89.4718,46.8374],[-89.4715,46.8374],[-89.4709,46.8374],[-89.4706,46.8374],[-89.4705,46.8374],[-89.4697,46.8375],[-89.4694,46.8375],[-89.4532,46.8385],[-89.4485,46.8388],[-89.4484,46.8388],[-89.4466,46.8389],[-89.446,46.839],[-89.4453,46.839],[-89.4401,46.8393],[-89.437,46.8395],[-89.434,46.8401],[-89.4152,46.844],[-89.4134,46.8445],[-89.4011,46.8483],[-89.3954,46.8501],[-89.372,46.8574],[-89.3708,46.8579],[-89.3361,46.8708],[-89.3174,46.8778],[-89.3046,46.8826],[-89.2858,46.8896],[-89.2786,46.8923],[-89.2499,46.903],[-89.2491,46.9033],[-89.2284,46.9128],[-89.2279,46.913],[-89.2262,46.9141],[-89.2028,46.9303],[-89.2015,46.9311],[-89.1996,46.9331],[-89.1837,46.9495],[-89.1685,46.9653]]]}},{"type":"Feature","id":"26133","properties":{"name":"Osceola","fips":"26133"},"geometry":{"type":"Polygon","coordinates":[[[-85.087,44.1642],[-85.0888,43.8137],[-85.5624,43.8156],[-85.5646,44.1649],[-85.3348,44.1651],[-85.087,44.1642]]]}},{"type":"Feature","id":"26135","properties":{"name":"Oscoda","fips":"26135"},"geometry":{"type":"Polygon","coordinates":[[[-84.3718,44.855],[-83.8885,44.8565],[-83.8866,44.509],[-84.3706,44.5072],[-84.3718,44.855]]]}},{"type":"Feature","id":"26137","properties":{"name":"Otsego","fips":"26137"},"geometry":{"type":"Polygon","coordinates":[[[-84.3718,44.855],[-84.8473,44.858],[-84.8575,45.1167],[-84.7348,45.1149],[-84.7343,45.2019],[-84.3668,45.1988],[-84.3718,44.855]]]}},{"type":"Feature","id":"26139","properties":{"name":"Ottawa","fips":"26139"},"geometry":{"type":"Polygon","coordinates":[[[-85.7907,43.2052],[-85.7885,43.0309],[-85.7853,42.9869],[-85.7825,42.7682],[-86.2089,42.7675],[-86.2109,42.7838],[-86.2118,42.8332],[-86.2107,42.8591],[-86.2141,42.8836],[-86.2162,42.919],[-86.2263,42.9883],[-86.2327,43.0158],[-86.2443,43.0497],[-86.2501,43.0575],[-86.2505,43.067],[-86.2546,43.0834],[-86.272,43.1184],[-85.9074,43.1189],[-85.9084,43.2059],[-85.7907,43.2052]]]}},{"type":"Feature","id":"26141","properties":{"name":"Presque Isle","fips":"26141"},"geometry":{"type":"Polygon","coordinates":[[[-84.2042,45.6271],[-84.196,45.6215],[-84.1805,45.6046],[-84.1571,45.5853],[-84.1395,45.5737],[-84.1289,45.5623],[-84.1265,45.5566],[-84.127,45.5424],[-84.1223,45.5238],[-84.1167,45.513],[-84.1092,45.5052],[-84.0959,45.4973],[-84.0758,45.4905],[-84.0561,45.4893],[-84.04,45.4937],[-84.0363,45.4962],[-84.0288,45.4972],[-84.0096,45.4951],[-83.9984,45.4912],[-83.978,45.4941],[-83.9393,45.4932],[-83.9095,45.4858],[-83.8818,45.4679],[-83.8586,45.4469],[-83.8415,45.4353],[-83.8066,45.4192],[-83.7888,45.4164],[-83.7732,45.4173],[-83.7556,45.411],[-83.7373,45.4109],[-83.7218,45.4133],[-83.6973,45.3962],[-83.6679,45.3847],[-83.6438,45.3717],[-83.5993,45.3526],[-83.5704,45.3472],[-83.5503,45.3508],[-83.5468,45.3526],[-83.5457,45.3584],[-83.5383,45.3582],[-83.5203,45.3472],[-83.5147,45.3465],[-83.4967,45.3575],[-83.4888,45.3559],[-83.4778,45.3419],[-83.4777,45.3418],[-83.4681,45.3325],[-83.4457,45.3106],[-83.433,45.3037],[-83.4251,45.2968],[-83.4232,45.2925],[-83.4225,45.291],[-83.4224,45.2908],[-83.4223,45.2907],[-83.4205,45.2898],[-83.4011,45.2796],[-83.4009,45.2795],[-83.4008,45.2795],[-83.4003,45.2794],[-83.3988,45.2791],[-83.3883,45.2769],[-83.3851,45.2742],[-83.3817,45.269],[-83.388,45.255],[-83.4126,45.2458],[-83.4124,45.2389],[-83.4059,45.2272],[-83.3876,45.2071],[-83.8812,45.2021],[-84.2466,45.1987],[-84.252,45.626],[-84.2042,45.6271]]]}},{"type":"Feature","id":"26143","properties":{"name":"Roscommon","fips":"26143"},"geometry":{"type":"Polygon","coordinates":[[[-84.6081,44.1605],[-84.8517,44.1614],[-84.8558,44.422],[-84.8509,44.5111],[-84.3706,44.5072],[-84.3663,44.1755],[-84.368,44.1605],[-84.6081,44.1605]]]}},{"type":"Feature","id":"26145","properties":{"name":"Saginaw","fips":"26145"},"geometry":{"type":"Polygon","coordinates":[[[-84.05,43.5673],[-84.051,43.5241],[-83.9161,43.5226],[-83.8177,43.4791],[-83.6988,43.479],[-83.6956,43.2214],[-83.6965,43.2214],[-83.8145,43.2212],[-83.9321,43.2204],[-83.9291,43.1328],[-84.3679,43.1285],[-84.3699,43.466],[-84.1706,43.482],[-84.1681,43.5689],[-84.05,43.5673]]]}},{"type":"Feature","id":"26151","properties":{"name":"Sanilac","fips":"26151"},"geometry":{"type":"Polygon","coordinates":[[[-82.9963,43.1541],[-83.0004,43.2849],[-83.119,43.2837],[-83.1204,43.327],[-83.1038,43.3274],[-83.1178,43.6755],[-82.6062,43.6904],[-82.6048,43.6789],[-82.6058,43.6695],[-82.6005,43.6029],[-82.5979,43.59],[-82.5938,43.5815],[-82.5857,43.544],[-82.5657,43.5029],[-82.5655,43.4971],[-82.5535,43.4641],[-82.5395,43.4375],[-82.5386,43.4316],[-82.5399,43.4224],[-82.5356,43.3681],[-82.5368,43.3485],[-82.5301,43.3338],[-82.5294,43.3162],[-82.5324,43.3058],[-82.5231,43.2254],[-82.5191,43.2127],[-82.5089,43.1967],[-82.5032,43.1689],[-82.9963,43.1541]]]}},{"type":"Feature","id":"26153","properties":{"name":"Schoolcraft","fips":"26153"},"geometry":{"type":"Polygon","coordinates":[[[-85.8654,45.9683],[-85.8824,45.9686],[-85.8932,45.9673],[-85.9091,45.9591],[-85.9124,45.9565],[-85.9126,45.9563],[-85.9227,45.9483],[-85.9262,45.9381],[-85.926,45.9321],[-85.9172,45.9278],[-85.9103,45.9221],[-85.9138,45.9194],[-85.9206,45.921],[-85.9541,45.9366],[-85.9989,45.951],[-86.051,45.9622],[-86.0721,45.9653],[-86.0948,45.9667],[-86.1236,45.9647],[-86.1457,45.9574],[-86.1502,45.9545],[-86.1594,45.9538],[-86.1966,45.9632],[-86.2083,45.963],[-86.2205,45.9589],[-86.2291,45.9486],[-86.2336,45.9458],[-86.248,45.9448],[-86.2548,45.9486],[-86.278,45.9421],[-86.316,45.9152],[-86.3242,45.9061],[-86.3326,45.8518],[-86.3491,45.8342],[-86.3551,45.8054],[-86.3517,45.7981],[-86.3638,45.7901],[-86.3699,45.7893],[-86.3958,45.7897],[-86.4017,45.7954],[-86.416,45.7938],[-86.4248,45.7897],[-86.4284,45.7856],[-86.4289,45.7825],[-86.4272,45.779],[-86.4283,45.7756],[-86.4319,45.7678],[-86.4355,45.7645],[-86.4355,45.7645],[-86.4397,45.7607],[-86.4403,45.7605],[-86.4423,45.76],[-86.4555,45.7569],[-86.4599,45.758],[-86.4903,45.8963],[-86.4901,46.1581],[-86.6156,46.1587],[-86.6154,46.3333],[-86.3653,46.3319],[-86.365,46.5059],[-85.8649,46.5048],[-85.865,46.2446],[-85.8654,45.9683]]]}},{"type":"Feature","id":"26155","properties":{"name":"Shiawassee","fips":"26155"},"geometry":{"type":"Polygon","coordinates":[[[-84.3657,42.9551],[-84.3678,43.1179],[-84.3679,43.1245],[-84.3679,43.1247],[-84.3679,43.1285],[-83.9291,43.1328],[-83.9276,42.8807],[-83.9225,42.7808],[-84.1582,42.7766],[-84.3637,42.7758],[-84.3657,42.9551]]]}},{"type":"Feature","id":"26147","properties":{"name":"St. Clair","fips":"26147"},"geometry":{"type":"Polygon","coordinates":[[[-82.5032,43.1689],[-82.503,43.1681],[-82.5017,43.1617],[-82.5015,43.1614],[-82.5001,43.1578],[-82.4957,43.1473],[-82.4942,43.1437],[-82.4941,43.1429],[-82.4941,43.1427],[-82.494,43.1425],[-82.494,43.1422],[-82.4933,43.1377],[-82.493,43.1354],[-82.491,43.1208],[-82.4906,43.1183],[-82.4906,43.1182],[-82.4905,43.1178],[-82.4867,43.1047],[-82.486,43.1025],[-82.4711,43.0876],[-82.4573,43.0615],[-82.4572,43.0613],[-82.4507,43.0512],[-82.4434,43.0399],[-82.4228,43.008],[-82.4159,43.0056],[-82.4478,42.9371],[-82.455,42.9269],[-82.4699,42.8875],[-82.4837,42.7332],[-82.5099,42.6373],[-82.5188,42.6139],[-82.5233,42.6075],[-82.584,42.554],[-82.5898,42.5507],[-82.6071,42.5488],[-82.6249,42.5572],[-82.6791,42.5222],[-82.6864,42.5186],[-82.6854,42.5287],[-82.6795,42.5355],[-82.671,42.538],[-82.6643,42.5462],[-82.6808,42.5579],[-82.681,42.5747],[-82.6881,42.5884],[-82.7012,42.586],[-82.7112,42.5909],[-82.713,42.5979],[-82.7008,42.6067],[-82.6835,42.6094],[-82.6816,42.6187],[-82.6901,42.625],[-82.6898,42.6271],[-82.6691,42.6372],[-82.6457,42.6311],[-82.6309,42.6421],[-82.6264,42.6474],[-82.623,42.656],[-82.6238,42.6654],[-82.6309,42.6733],[-82.6353,42.6756],[-82.6598,42.6786],[-82.6743,42.687],[-82.6855,42.69],[-82.701,42.6895],[-82.7061,42.6836],[-82.7078,42.6835],[-82.739,42.8975],[-82.9836,42.8937],[-82.9963,43.1541],[-82.5032,43.1689]]]}},{"type":"Feature","id":"26149","properties":{"name":"St. Joseph","fips":"26149"},"geometry":{"type":"Polygon","coordinates":[[[-85.7245,41.7591],[-85.75,41.7591],[-85.7505,41.7591],[-85.775,41.7591],[-85.7913,41.7591],[-85.7602,41.7988],[-85.7629,42.0693],[-85.2936,42.0716],[-85.2922,41.76],[-85.2984,41.76],[-85.3081,41.7601],[-85.3181,41.76],[-85.3306,41.76],[-85.3502,41.7599],[-85.3791,41.7599],[-85.4276,41.7597],[-85.4325,41.7597],[-85.516,41.7594],[-85.5183,41.7595],[-85.6075,41.7591],[-85.6083,41.7592],[-85.6226,41.759],[-85.625,41.7591],[-85.6327,41.7592],[-85.6477,41.7591],[-85.6507,41.7591],[-85.6598,41.7591],[-85.7245,41.7591]]]}},{"type":"Feature","id":"26157","properties":{"name":"Tuscola","fips":"26157"},"geometry":{"type":"Polygon","coordinates":[[[-83.6956,43.2214],[-83.6988,43.479],[-83.6994,43.5953],[-83.6993,43.5968],[-83.6698,43.5908],[-83.6661,43.5913],[-83.6542,43.5993],[-83.6186,43.6289],[-83.5956,43.6502],[-83.5632,43.6846],[-83.5537,43.6854],[-83.549,43.6938],[-83.5515,43.6999],[-83.5402,43.7087],[-83.5248,43.7169],[-83.5159,43.7182],[-83.5135,43.7146],[-83.5067,43.7109],[-83.4801,43.7146],[-83.4701,43.7234],[-83.4674,43.7289],[-83.4666,43.6676],[-83.1178,43.6755],[-83.1038,43.3274],[-83.1204,43.327],[-83.3544,43.3223],[-83.3517,43.2352],[-83.4607,43.2231],[-83.6956,43.2214]]]}},{"type":"Feature","id":"26159","properties":{"name":"Van Buren","fips":"26159"},"geometry":{"type":"Polygon","coordinates":[[[-86.2229,42.0715],[-86.2236,42.2434],[-86.3649,42.2431],[-86.3562,42.2542],[-86.3218,42.3107],[-86.2972,42.3582],[-86.2844,42.3946],[-86.285,42.4018],[-86.2769,42.4133],[-86.2739,42.4193],[-85.7644,42.4207],[-85.7629,42.0693],[-86.2229,42.0715]]]}},{"type":"Feature","id":"26161","properties":{"name":"Washtenaw","fips":"26161"},"geometry":{"type":"Polygon","coordinates":[[[-83.5421,42.1743],[-83.5394,42.0856],[-83.7739,42.0824],[-84.132,42.0716],[-84.1311,42.4246],[-83.9446,42.4241],[-83.6648,42.4312],[-83.5519,42.4352],[-83.5475,42.3492],[-83.5421,42.1743]]]}},{"type":"Feature","id":"26163","properties":{"name":"Wayne","fips":"26163"},"geometry":{"type":"Polygon","coordinates":[[[-83.5519,42.4352],[-83.4337,42.4389],[-83.3168,42.442],[-83.288,42.4427],[-83.0834,42.4472],[-82.8706,42.4512],[-82.8703,42.4509],[-82.8861,42.4081],[-82.8884,42.3982],[-82.894,42.3894],[-82.8984,42.3854],[-82.9151,42.3781],[-82.9191,42.3744],[-82.9288,42.3594],[-82.924,42.3521],[-82.9594,42.3396],[-82.9886,42.3324],[-83.0183,42.3297],[-83.0641,42.3177],[-83.0797,42.3086],[-83.0965,42.2901],[-83.128,42.2388],[-83.1313,42.2028],[-83.1339,42.1747],[-83.1245,42.1376],[-83.1335,42.0881],[-83.1576,42.0855],[-83.1688,42.0736],[-83.1706,42.0729],[-83.1886,42.0664],[-83.1891,42.0619],[-83.1869,42.0612],[-83.1855,42.0522],[-83.1882,42.0313],[-83.1859,42.0295],[-83.1858,42.0294],[-83.2953,42.0942],[-83.5394,42.0856],[-83.5421,42.1743],[-83.5475,42.3492],[-83.5519,42.4352]]]}},{"type":"Feature","id":"26165","properties":{"name":"Wexford","fips":"26165"},"geometry":{"type":"Polygon","coordinates":[[[-85.3348,44.1651],[-85.5646,44.1649],[-85.8198,44.1643],[-85.8212,44.1642],[-85.8178,44.513],[-85.334,44.5123],[-85.3348,44.1651]]]}}]}