{"type":"FeatureCollection","features":[{"type":"Feature","id":"27001","properties":{"name":"Aitkin","fips":"27001"},"geometry":{"type":"Polygon","coordinates":[[[-93.7753,47.0304],[-93.0559,47.0264],[-93.0615,46.7666],[-93.0548,46.4193],[-93.0539,46.1581],[-93.4318,46.154],[-93.4306,46.2464],[-93.7963,46.2432],[-93.8115,46.5842],[-93.7779,46.5897],[-93.776,46.8029],[-93.7753,47.0304]]]}},{"type":"Feature","id":"27003","properties":{"name":"Anoka","fips":"27003"},"geometry":{"type":"Polygon","coordinates":[[[-93.199,45.1244],[-93.2277,45.1245],[-93.2271,45.0499],[-93.2269,45.0357],[-93.2834,45.0354],[-93.2822,45.0512],[-93.2783,45.1034],[-93.2961,45.1219],[-93.3115,45.1438],[-93.3731,45.1781],[-93.5122,45.2457],[-93.5126,45.2504],[-93.5101,45.4148],[-93.0196,45.4118],[-93.0194,45.2968],[-93.0202,45.1268],[-93.0205,45.1239],[-93.1887,45.1244],[-93.199,45.1244]]]}},{"type":"Feature","id":"27005","properties":{"name":"Becker","fips":"27005"},"geometry":{"type":"Polygon","coordinates":[[[-95.163,46.8047],[-95.1637,46.7176],[-95.248,46.7163],[-96.1746,46.7179],[-96.1741,46.9774],[-96.1947,47.1511],[-96.0671,47.1518],[-95.5512,47.1515],[-95.1692,47.1525],[-95.163,46.8047]]]}},{"type":"Feature","id":"27007","properties":{"name":"Beltrami","fips":"27007"},"geometry":{"type":"Polygon","coordinates":[[[-94.419,47.7589],[-94.4163,47.4448],[-94.4164,47.4118],[-94.6702,47.4102],[-94.7184,47.4095],[-94.7605,47.4105],[-94.7889,47.4098],[-94.7999,47.4098],[-95.1832,47.4128],[-95.1937,47.8725],[-95.2778,47.9253],[-95.2291,48.02],[-95.5829,48.0206],[-95.5925,48.0206],[-95.5938,48.1729],[-95.6023,48.5389],[-95.5867,48.5385],[-95.3425,48.5402],[-95.212,48.54],[-95.211,48.366],[-94.4287,48.3673],[-94.4258,48.3673],[-94.4185,47.8458],[-94.419,47.7589]]]}},{"type":"Feature","id":"27009","properties":{"name":"Benton","fips":"27009"},"geometry":{"type":"Polygon","coordinates":[[[-93.7594,45.5596],[-94.1495,45.5591],[-94.2037,45.6196],[-94.2157,45.7266],[-94.2718,45.7752],[-94.3532,45.8221],[-93.7639,45.8221],[-93.7633,45.8159],[-93.7594,45.5596]]]}},{"type":"Feature","id":"27011","properties":{"name":"Big Stone","fips":"27011"},"geometry":{"type":"Polygon","coordinates":[[[-96.4529,45.2689],[-96.4529,45.2691],[-96.4528,45.2843],[-96.4531,45.2981],[-96.4541,45.3015],[-96.47,45.3268],[-96.4891,45.3571],[-96.5218,45.3756],[-96.6177,45.4081],[-96.6805,45.4105],[-96.6925,45.4173],[-96.7327,45.4587],[-96.7425,45.4787],[-96.7455,45.4887],[-96.7653,45.5214],[-96.7849,45.5413],[-96.8355,45.5861],[-96.253,45.5855],[-96.2413,45.4127],[-96.117,45.412],[-96.1036,45.1767],[-96.2835,45.247],[-96.4529,45.2689]]]}},{"type":"Feature","id":"27013","properties":{"name":"Blue Earth","fips":"27013"},"geometry":{"type":"Polygon","coordinates":[[[-93.7678,43.848],[-94.2471,43.8479],[-94.369,43.848],[-94.3688,44.1087],[-94.3717,44.2644],[-94.0553,44.154],[-94.0118,44.2392],[-93.768,44.2394],[-93.768,44.1958],[-93.7678,43.848]]]}},{"type":"Feature","id":"27015","properties":{"name":"Brown","fips":"27015"},"geometry":{"type":"Polygon","coordinates":[[[-94.7806,44.4567],[-94.6661,44.394],[-94.523,44.3654],[-94.3717,44.2644],[-94.3688,44.1087],[-94.8598,44.108],[-95.1002,44.108],[-95.1088,44.195],[-95.1075,44.2818],[-94.8663,44.2824],[-94.8658,44.4982],[-94.7806,44.4567]]]}},{"type":"Feature","id":"27017","properties":{"name":"Carlton","fips":"27017"},"geometry":{"type":"Polygon","coordinates":[[[-93.0615,46.7666],[-92.3017,46.7641],[-92.2922,46.6632],[-92.2916,46.6249],[-92.2916,46.6046],[-92.2924,46.4956],[-92.2925,46.4788],[-92.2927,46.432],[-92.2928,46.4209],[-92.2929,46.4172],[-93.0548,46.4193],[-93.0615,46.7666]]]}},{"type":"Feature","id":"27019","properties":{"name":"Carver","fips":"27019"},"geometry":{"type":"Polygon","coordinates":[[[-93.7674,44.978],[-93.767,44.8909],[-93.5207,44.8915],[-93.5206,44.8641],[-93.5207,44.862],[-93.5206,44.8585],[-93.5204,44.8043],[-93.622,44.7603],[-93.6181,44.7071],[-93.768,44.6403],[-93.8886,44.717],[-94.0105,44.7175],[-94.0122,44.9787],[-93.7674,44.978]]]}},{"type":"Feature","id":"27021","properties":{"name":"Cass","fips":"27021"},"geometry":{"type":"Polygon","coordinates":[[[-94.3417,46.2777],[-94.4248,46.3318],[-94.5347,46.3028],[-94.6535,46.3487],[-94.7228,46.3523],[-94.7314,46.3686],[-94.7791,46.3942],[-94.7871,46.8039],[-94.6599,46.8037],[-94.6702,47.4102],[-94.4164,47.4118],[-94.4163,47.4448],[-94.3275,47.4158],[-94.0951,47.478],[-94.0279,47.4086],[-94.0271,47.3523],[-93.9333,47.3046],[-93.774,47.3051],[-93.8088,47.2326],[-93.7739,47.2113],[-93.7753,47.0304],[-93.776,46.8029],[-94.3429,46.8055],[-94.3325,46.2796],[-94.3394,46.2846],[-94.3417,46.2777]]]}},{"type":"Feature","id":"27023","properties":{"name":"Chippewa","fips":"27023"},"geometry":{"type":"Polygon","coordinates":[[[-95.737,44.9362],[-96.0367,45.1522],[-95.2465,45.1524],[-95.2485,44.8913],[-95.4829,44.8907],[-95.4828,44.7525],[-95.4985,44.7869],[-95.737,44.9362]]]}},{"type":"Feature","id":"27025","properties":{"name":"Chisago","fips":"27025"},"geometry":{"type":"Polygon","coordinates":[[[-92.7326,45.3042],[-92.7461,45.296],[-93.0194,45.2968],[-93.0196,45.4118],[-93.0223,45.5572],[-93.142,45.5581],[-93.1418,45.7307],[-92.8411,45.73],[-92.8637,45.7218],[-92.8692,45.7176],[-92.884,45.6549],[-92.8857,45.6441],[-92.8881,45.6284],[-92.8864,45.5949],[-92.8837,45.5755],[-92.8711,45.5676],[-92.8233,45.5609],[-92.8034,45.5625],[-92.7262,45.5311],[-92.6802,45.4643],[-92.6641,45.3933],[-92.7048,45.3265],[-92.7326,45.3042]]]}},{"type":"Feature","id":"27027","properties":{"name":"Clay","fips":"27027"},"geometry":{"type":"Polygon","coordinates":[[[-96.783,46.6304],[-96.783,46.6304],[-96.783,46.6306],[-96.7842,46.6868],[-96.802,46.8125],[-96.7675,46.9052],[-96.7803,46.9283],[-96.7916,46.9343],[-96.8232,46.9709],[-96.8246,46.9933],[-96.8232,47.0],[-96.8248,47.125],[-96.8267,47.1505],[-96.1947,47.1511],[-96.1741,46.9774],[-96.1746,46.7179],[-96.1723,46.6307],[-96.281,46.6308],[-96.783,46.6304]]]}},{"type":"Feature","id":"27029","properties":{"name":"Clearwater","fips":"27029"},"geometry":{"type":"Polygon","coordinates":[[[-95.5822,47.934],[-95.5829,48.0206],[-95.2291,48.02],[-95.2778,47.9253],[-95.1937,47.8725],[-95.1832,47.4128],[-95.1692,47.1525],[-95.5512,47.1515],[-95.5515,47.5],[-95.5542,47.4999],[-95.5788,47.6737],[-95.5822,47.934]]]}},{"type":"Feature","id":"27031","properties":{"name":"Cook","fips":"27031"},"geometry":{"type":"Polygon","coordinates":[[[-91.0329,48.1908],[-90.977,48.2195],[-90.8855,48.2458],[-90.8474,48.2444],[-90.8436,48.2436],[-90.8392,48.2395],[-90.8042,48.1778],[-90.7898,48.1435],[-90.7953,48.1355],[-90.7938,48.1356],[-90.7761,48.1225],[-90.776,48.1222],[-90.7742,48.1189],[-90.7742,48.1186],[-90.7616,48.0983],[-90.7516,48.091],[-90.5698,48.107],[-90.4956,48.0994],[-90.4954,48.0998],[-90.452,48.105],[-90.4032,48.1051],[-90.3442,48.0944],[-90.3435,48.0951],[-90.3372,48.0998],[-90.3301,48.1024],[-90.3124,48.1053],[-90.1766,48.1124],[-90.1362,48.1121],[-90.1251,48.1077],[-90.1239,48.1071],[-90.0916,48.1046],[-90.0739,48.1011],[-90.0236,48.0847],[-89.9979,48.0576],[-89.9938,48.049],[-89.9967,48.0354],[-89.993,48.0284],[-89.9683,48.0145],[-89.8974,47.9876],[-89.8733,47.9854],[-89.8476,47.9924],[-89.8198,48.0151],[-89.764,48.023],[-89.7493,48.0233],[-89.7242,48.0198],[-89.6879,48.0108],[-89.6558,48.0075],[-89.5643,48.0029],[-89.4892,48.0145],[-89.4917,48.0052],[-89.4953,48.0024],[-89.5415,47.9928],[-89.5516,47.9873],[-89.5529,47.9807],[-89.555,47.9748],[-89.5723,47.9672],[-89.5882,47.9662],[-89.5959,47.971],[-89.6114,47.9807],[-89.6246,47.9832],[-89.6318,47.98],[-89.637,47.9735],[-89.6401,47.9679],[-89.6398,47.9598],[-89.6383,47.9543],[-89.6395,47.9536],[-89.6606,47.9512],[-89.6976,47.9413],[-89.7297,47.9252],[-89.7375,47.9182],[-89.7587,47.907],[-89.7935,47.8914],[-89.854,47.874],[-89.8716,47.8742],[-89.9236,47.8621],[-89.9308,47.8577],[-89.9275,47.8508],[-89.9339,47.8468],[-89.9743,47.8305],[-90.0137,47.8214],[-90.0428,47.8176],[-90.072,47.8111],[-90.0722,47.8077],[-90.0756,47.8033],[-90.0824,47.8036],[-90.0882,47.803],[-90.1168,47.7954],[-90.1321,47.7957],[-90.1608,47.7928],[-90.1788,47.7864],[-90.1876,47.7781],[-90.2291,47.7762],[-90.2488,47.7728],[-90.296,47.7591],[-90.3063,47.7566],[-90.314,47.7567],[-90.3234,47.7538],[-90.3303,47.7509],[-90.3327,47.7464],[-90.3862,47.7411],[-90.3938,47.7383],[-90.4214,47.7351],[-90.4377,47.7316],[-90.4419,47.7264],[-90.4584,47.7214],[-90.5371,47.7031],[-90.5513,47.6903],[-90.585,47.6807],[-90.6478,47.6562],[-90.6864,47.6436],[-90.7359,47.6243],[-90.8683,47.5569],[-90.9075,47.5329],[-90.9101,47.5302],[-90.9098,47.5262],[-90.9142,47.5226],[-90.9194,47.5198],[-90.928,47.519],[-90.9391,47.5145],[-91.0231,47.465],[-91.0231,47.465],[-91.0207,47.888],[-91.0329,48.1908]]]}},{"type":"Feature","id":"27033","properties":{"name":"Cottonwood","fips":"27033"},"geometry":{"type":"Polygon","coordinates":[[[-94.8594,43.8481],[-95.4525,43.848],[-95.4624,43.8479],[-95.4625,44.1959],[-95.1088,44.195],[-95.1002,44.108],[-94.8598,44.108],[-94.8594,43.8481]]]}},{"type":"Feature","id":"27035","properties":{"name":"Crow Wing","fips":"27035"},"geometry":{"type":"Polygon","coordinates":[[[-93.8104,46.1566],[-94.3746,46.1571],[-94.3417,46.2777],[-94.3394,46.2846],[-94.3325,46.2796],[-94.3429,46.8055],[-93.776,46.8029],[-93.7779,46.5897],[-93.8115,46.5842],[-93.7963,46.2432],[-93.8109,46.2431],[-93.8104,46.1566]]]}},{"type":"Feature","id":"27037","properties":{"name":"Dakota","fips":"27037"},"geometry":{"type":"Polygon","coordinates":[[[-92.8024,44.7452],[-92.7373,44.7172],[-92.732,44.7138],[-92.732,44.6295],[-92.7926,44.6297],[-92.7926,44.543],[-93.0393,44.5153],[-93.0395,44.4719],[-93.2817,44.472],[-93.2815,44.544],[-93.3187,44.6306],[-93.3296,44.7911],[-93.1979,44.862],[-93.2007,44.8649],[-93.1899,44.8715],[-93.1886,44.8741],[-93.1862,44.8764],[-93.1818,44.8778],[-93.1786,44.8803],[-93.1796,44.8827],[-93.1824,44.8847],[-93.1831,44.8867],[-93.1785,44.8883],[-93.1286,44.9196],[-93.02,44.8907],[-93.0165,44.8846],[-93.0126,44.8691],[-93.0101,44.8638],[-93.006,44.7717],[-92.8022,44.7457],[-92.8024,44.7452]]]}},{"type":"Feature","id":"27039","properties":{"name":"Dodge","fips":"27039"},"geometry":{"type":"Polygon","coordinates":[[[-92.6787,44.1955],[-92.6784,43.8485],[-92.6894,43.8486],[-93.046,43.8485],[-93.0456,43.85],[-93.0459,44.1967],[-93.0412,44.1967],[-92.6787,44.1955]]]}},{"type":"Feature","id":"27041","properties":{"name":"Douglas","fips":"27041"},"geometry":{"type":"Polygon","coordinates":[[[-95.7585,45.7599],[-95.7698,46.1075],[-95.1459,46.1068],[-95.1397,45.7734],[-95.1397,45.7589],[-95.7585,45.7599]]]}},{"type":"Feature","id":"27043","properties":{"name":"Faribault","fips":"27043"},"geometry":{"type":"Polygon","coordinates":[[[-94.2471,43.8479],[-93.7678,43.848],[-93.6483,43.8481],[-93.6485,43.4996],[-93.6993,43.4996],[-93.7049,43.4996],[-93.7088,43.4996],[-93.7162,43.4996],[-93.7943,43.4995],[-93.7958,43.4995],[-93.9708,43.4996],[-93.9708,43.4996],[-94.0929,43.5003],[-94.0943,43.5003],[-94.1081,43.5003],[-94.1099,43.5003],[-94.248,43.5003],[-94.2471,43.8479]]]}},{"type":"Feature","id":"27045","properties":{"name":"Fillmore","fips":"27045"},"geometry":{"type":"Polygon","coordinates":[[[-92.449,43.8341],[-92.4488,43.8483],[-92.0793,43.8471],[-91.7304,43.8469],[-91.7305,43.5023],[-91.7302,43.5007],[-91.7304,43.5007],[-91.7333,43.5006],[-91.7366,43.5006],[-91.7384,43.5005],[-91.7614,43.5006],[-91.7777,43.5007],[-91.7793,43.5008],[-91.8049,43.5007],[-91.8072,43.5006],[-91.8248,43.5007],[-91.9418,43.5006],[-91.9499,43.5005],[-92.0798,43.5006],[-92.08,43.5006],[-92.09,43.5007],[-92.1039,43.5007],[-92.1789,43.5007],[-92.1988,43.5005],[-92.2774,43.5005],[-92.2791,43.5004],[-92.3689,43.5005],[-92.3883,43.5005],[-92.4061,43.5005],[-92.4088,43.5006],[-92.4489,43.5004],[-92.4491,43.5033],[-92.449,43.8341]]]}},{"type":"Feature","id":"27047","properties":{"name":"Freeborn","fips":"27047"},"geometry":{"type":"Polygon","coordinates":[[[-93.6483,43.8481],[-93.4066,43.8481],[-93.0495,43.8484],[-93.0492,43.4996],[-93.2289,43.4996],[-93.2718,43.4994],[-93.399,43.4995],[-93.4285,43.4995],[-93.4686,43.4995],[-93.4728,43.4994],[-93.482,43.4995],[-93.4883,43.4994],[-93.4973,43.4995],[-93.4974,43.4995],[-93.5285,43.4995],[-93.5322,43.4995],[-93.5586,43.4995],[-93.5767,43.4995],[-93.6171,43.4995],[-93.6485,43.4996],[-93.6483,43.8481]]]}},{"type":"Feature","id":"27049","properties":{"name":"Goodhue","fips":"27049"},"geometry":{"type":"Polygon","coordinates":[[[-92.3164,44.5408],[-92.3141,44.538],[-92.303,44.5186],[-92.3022,44.5003],[-92.291,44.4855],[-92.2768,44.4736],[-92.242,44.4543],[-92.4303,44.4552],[-92.4306,44.3683],[-92.5507,44.3685],[-92.5509,44.1949],[-92.6787,44.1955],[-93.0412,44.1967],[-93.0395,44.4719],[-93.0393,44.5153],[-92.7926,44.543],[-92.7926,44.6297],[-92.732,44.6295],[-92.732,44.7138],[-92.6321,44.649],[-92.6217,44.639],[-92.6198,44.6292],[-92.5497,44.576],[-92.5342,44.5704],[-92.4918,44.566],[-92.3573,44.5585],[-92.3401,44.5553],[-92.329,44.5509],[-92.3199,44.5449],[-92.3164,44.5408]]]}},{"type":"Feature","id":"27051","properties":{"name":"Grant","fips":"27051"},"geometry":{"type":"Polygon","coordinates":[[[-96.2661,46.0216],[-96.266,46.0574],[-96.266,46.0578],[-96.2661,46.058],[-96.2654,46.1086],[-95.7698,46.1075],[-95.7585,45.7599],[-96.254,45.7598],[-96.2661,46.0216]]]}},{"type":"Feature","id":"27053","properties":{"name":"Hennepin","fips":"27053"},"geometry":{"type":"Polygon","coordinates":[[[-93.2081,45.0357],[-93.1785,44.8883],[-93.1831,44.8867],[-93.1824,44.8847],[-93.1796,44.8827],[-93.1786,44.8803],[-93.1818,44.8778],[-93.1862,44.8764],[-93.1886,44.8741],[-93.1899,44.8715],[-93.2007,44.8649],[-93.1979,44.862],[-93.3296,44.7911],[-93.5204,44.8043],[-93.5206,44.8585],[-93.5207,44.862],[-93.5206,44.8641],[-93.5207,44.8915],[-93.767,44.8909],[-93.7674,44.978],[-93.7619,45.0812],[-93.6759,45.1511],[-93.6672,45.1544],[-93.6615,45.1533],[-93.6477,45.1586],[-93.6452,45.1616],[-93.6386,45.1656],[-93.6387,45.1744],[-93.5217,45.2466],[-93.5153,45.2463],[-93.5122,45.2457],[-93.3731,45.1781],[-93.3115,45.1438],[-93.2961,45.1219],[-93.2783,45.1034],[-93.2822,45.0512],[-93.2834,45.0354],[-93.2269,45.0357],[-93.2081,45.0357]]]}},{"type":"Feature","id":"27055","properties":{"name":"Houston","fips":"27055"},"geometry":{"type":"Polygon","coordinates":[[[-91.2624,43.7922],[-91.2682,43.7266],[-91.2733,43.6683],[-91.2687,43.6153],[-91.2651,43.61],[-91.2177,43.5005],[-91.3693,43.5008],[-91.3716,43.5009],[-91.3769,43.5005],[-91.4418,43.5004],[-91.4459,43.5006],[-91.4614,43.5006],[-91.4651,43.5006],[-91.491,43.5007],[-91.5338,43.5006],[-91.5412,43.5005],[-91.551,43.5005],[-91.5911,43.5005],[-91.6108,43.5005],[-91.6109,43.5005],[-91.6153,43.5005],[-91.6169,43.5007],[-91.6174,43.5007],[-91.6208,43.5007],[-91.6256,43.5007],[-91.6342,43.5005],[-91.6345,43.5004],[-91.6356,43.5005],[-91.6398,43.5006],[-91.6449,43.5005],[-91.6514,43.5005],[-91.6584,43.5005],[-91.6709,43.5005],[-91.7007,43.5006],[-91.7302,43.5007],[-91.7305,43.5023],[-91.7304,43.8469],[-91.2841,43.8471],[-91.2624,43.7922]]]}},{"type":"Feature","id":"27057","properties":{"name":"Hubbard","fips":"27057"},"geometry":{"type":"Polygon","coordinates":[[[-95.1832,47.4128],[-94.7999,47.4098],[-94.7889,47.4098],[-94.7605,47.4105],[-94.7184,47.4095],[-94.6702,47.4102],[-94.6599,46.8037],[-94.7871,46.8039],[-95.163,46.8047],[-95.1692,47.1525],[-95.1832,47.4128]]]}},{"type":"Feature","id":"27059","properties":{"name":"Isanti","fips":"27059"},"geometry":{"type":"Polygon","coordinates":[[[-93.5107,45.5588],[-93.5124,45.7188],[-93.5137,45.7343],[-93.4046,45.7313],[-93.1418,45.7307],[-93.142,45.5581],[-93.0223,45.5572],[-93.0196,45.4118],[-93.5101,45.4148],[-93.5107,45.5588]]]}},{"type":"Feature","id":"27061","properties":{"name":"Itasca","fips":"27061"},"geometry":{"type":"Polygon","coordinates":[[[-94.4163,47.4448],[-94.419,47.7589],[-94.4185,47.8458],[-93.7762,47.8464],[-93.7758,47.8989],[-93.0812,47.8919],[-93.0613,47.7202],[-93.0695,47.3939],[-93.0559,47.0264],[-93.7753,47.0304],[-93.7739,47.2113],[-93.8088,47.2326],[-93.774,47.3051],[-93.9333,47.3046],[-94.0271,47.3523],[-94.0279,47.4086],[-94.0951,47.478],[-94.3275,47.4158],[-94.4163,47.4448]]]}},{"type":"Feature","id":"27063","properties":{"name":"Jackson","fips":"27063"},"geometry":{"type":"Polygon","coordinates":[[[-95.3753,43.5003],[-95.3878,43.5002],[-95.3878,43.5002],[-95.3879,43.5002],[-95.4342,43.5003],[-95.4343,43.5004],[-95.4544,43.5006],[-95.4525,43.848],[-94.8594,43.8481],[-94.8544,43.8481],[-94.8546,43.5006],[-94.8579,43.5006],[-94.8602,43.5005],[-94.8727,43.5006],[-94.8742,43.5006],[-94.8873,43.5005],[-94.9145,43.5005],[-94.9146,43.5005],[-94.9149,43.5005],[-94.915,43.5005],[-94.9346,43.5005],[-94.9545,43.5005],[-94.9744,43.5005],[-94.9945,43.5005],[-95.0142,43.5009],[-95.034,43.5008],[-95.0535,43.5008],[-95.0543,43.5009],[-95.1149,43.5007],[-95.1226,43.5008],[-95.1673,43.5008],[-95.1679,43.5009],[-95.1804,43.5008],[-95.2149,43.5009],[-95.2508,43.5004],[-95.251,43.5005],[-95.3747,43.5003],[-95.3753,43.5003]]]}},{"type":"Feature","id":"27065","properties":{"name":"Kanabec","fips":"27065"},"geometry":{"type":"Polygon","coordinates":[[[-93.1418,45.7307],[-93.4046,45.7313],[-93.5137,45.7343],[-93.5181,45.9818],[-93.4325,45.9814],[-93.4318,46.154],[-93.0539,46.1581],[-93.0551,45.9812],[-93.1429,45.981],[-93.1418,45.7307]]]}},{"type":"Feature","id":"27067","properties":{"name":"Kandiyohi","fips":"27067"},"geometry":{"type":"Polygon","coordinates":[[[-95.1317,45.4124],[-94.7629,45.4129],[-94.7631,45.3261],[-94.7582,44.8921],[-95.2485,44.8913],[-95.2465,45.1524],[-95.2552,45.4125],[-95.1317,45.4124]]]}},{"type":"Feature","id":"27069","properties":{"name":"Kittson","fips":"27069"},"geometry":{"type":"Polygon","coordinates":[[[-97.163,48.544],[-97.0926,48.682],[-97.1376,48.7492],[-97.1578,48.7877],[-97.1995,48.8812],[-97.2326,48.9466],[-97.2392,48.9676],[-97.2384,48.9826],[-97.234,48.9975],[-97.229,49.0007],[-96.4054,48.9998],[-96.3878,48.5443],[-97.163,48.544]]]}},{"type":"Feature","id":"27071","properties":{"name":"Koochiching","fips":"27071"},"geometry":{"type":"Polygon","coordinates":[[[-93.0884,48.6276],[-93.0965,48.0678],[-93.0812,47.8919],[-93.7758,47.8989],[-93.7762,47.8464],[-94.4185,47.8458],[-94.4258,48.3673],[-94.4287,48.3673],[-94.4303,48.7009],[-94.4319,48.7066],[-94.4162,48.7109],[-94.3888,48.7119],[-94.3084,48.7102],[-94.2907,48.7077],[-94.2605,48.6964],[-94.2512,48.6835],[-94.2505,48.6567],[-94.2502,48.6563],[-94.2444,48.6534],[-94.2243,48.6495],[-94.1263,48.6444],[-94.0525,48.644],[-93.8408,48.6285],[-93.8343,48.625],[-93.8226,48.6091],[-93.8068,48.5776],[-93.8054,48.5684],[-93.8112,48.5424],[-93.8184,48.5344],[-93.8183,48.53],[-93.8152,48.5265],[-93.7945,48.516],[-93.7717,48.5158],[-93.7565,48.5154],[-93.6623,48.5157],[-93.5444,48.5291],[-93.4675,48.5457],[-93.4608,48.5506],[-93.4567,48.5618],[-93.457,48.5672],[-93.4617,48.574],[-93.466,48.5873],[-93.4643,48.5918],[-93.4037,48.6076],[-93.367,48.6083],[-93.3475,48.6266],[-93.2549,48.6428],[-93.2074,48.6425],[-93.18,48.6249],[-93.1424,48.6249],[-93.0884,48.6276]]]}},{"type":"Feature","id":"27073","properties":{"name":"Lac qui Parle","fips":"27073"},"geometry":{"type":"Polygon","coordinates":[[[-96.4521,44.9775],[-96.4522,45.0423],[-96.4522,45.0502],[-96.4522,45.0516],[-96.4522,45.0938],[-96.452,45.0951],[-96.4524,45.1227],[-96.4524,45.1241],[-96.4523,45.1786],[-96.4522,45.2031],[-96.4522,45.2048],[-96.4523,45.209],[-96.4529,45.2689],[-96.2835,45.247],[-96.1036,45.1767],[-96.0846,45.1658],[-96.0757,45.1659],[-96.0535,45.1565],[-96.0482,45.1584],[-96.0367,45.1522],[-95.737,44.9362],[-95.7373,44.8915],[-95.8475,44.8918],[-95.849,44.8053],[-96.4516,44.8056],[-96.452,44.8901],[-96.4519,44.9067],[-96.452,44.9107],[-96.4523,44.9627],[-96.4521,44.9775],[-96.4521,44.9775]]]}},{"type":"Feature","id":"27075","properties":{"name":"Lake","fips":"27075"},"geometry":{"type":"Polygon","coordinates":[[[-91.0231,47.465],[-91.0329,47.4582],[-91.0456,47.4565],[-91.0777,47.4288],[-91.0976,47.4139],[-91.1062,47.4118],[-91.1281,47.3996],[-91.1313,47.3936],[-91.147,47.3815],[-91.1565,47.3788],[-91.17,47.3663],[-91.1888,47.3401],[-91.2062,47.3292],[-91.2387,47.305],[-91.2502,47.2905],[-91.2625,47.2793],[-91.266,47.2795],[-91.2707,47.2771],[-91.2885,47.266],[-91.326,47.239],[-91.3538,47.2127],[-91.3578,47.2067],[-91.3742,47.1978],[-91.387,47.1873],[-91.3985,47.1839],[-91.4188,47.1722],[-91.452,47.1452],[-91.457,47.1392],[-91.4774,47.1257],[-91.4979,47.1226],[-91.507,47.1185],[-91.5188,47.1081],[-91.5738,47.0899],[-91.5915,47.0687],[-91.601,47.0634],[-91.6049,47.0633],[-91.6132,47.0592],[-91.6268,47.05],[-91.6372,47.0404],[-91.6446,47.0265],[-91.6602,47.0193],[-91.6665,47.0143],[-91.7046,47.0052],[-91.7371,46.9829],[-91.7773,46.9518],[-91.7807,46.9459],[-91.794,46.9397],[-91.7879,47.5468],[-91.7991,47.7322],[-91.7983,48.2001],[-91.7897,48.1978],[-91.7423,48.2045],[-91.7149,48.1991],[-91.7105,48.1939],[-91.6993,48.1447],[-91.7081,48.123],[-91.7122,48.1169],[-91.7118,48.1146],[-91.6411,48.0977],[-91.5697,48.0933],[-91.4881,48.0681],[-91.3402,48.0732],[-91.3287,48.0706],[-91.2902,48.0739],[-91.2664,48.0787],[-91.2501,48.0841],[-91.1762,48.1258],[-91.1408,48.1477],[-91.1383,48.151],[-91.1385,48.1515],[-91.0359,48.1894],[-91.0356,48.1895],[-91.0329,48.1908],[-91.0207,47.888],[-91.0231,47.465]]]}},{"type":"Feature","id":"27077","properties":{"name":"Lake of the Woods","fips":"27077"},"geometry":{"type":"Polygon","coordinates":[[[-94.4319,48.7066],[-94.4303,48.7009],[-94.4287,48.3673],[-95.211,48.366],[-95.212,48.54],[-95.3425,48.5402],[-95.3427,48.713],[-95.0899,48.7131],[-95.0915,48.9206],[-95.2356,48.8815],[-95.3199,48.9988],[-95.1537,48.9989],[-95.1533,49.1849],[-95.1534,49.25],[-95.1533,49.3057],[-95.1533,49.3077],[-95.1533,49.3084],[-95.1533,49.3093],[-95.1533,49.3434],[-95.1533,49.3437],[-95.1534,49.3544],[-95.1533,49.3659],[-95.1533,49.3677],[-95.1533,49.3691],[-95.1534,49.3831],[-95.1533,49.3844],[-95.1265,49.3694],[-95.0584,49.3532],[-95.0144,49.3564],[-94.9889,49.3689],[-94.9575,49.3702],[-94.9093,49.3502],[-94.8243,49.3088],[-94.7975,49.1978],[-94.7732,49.1207],[-94.7502,49.0998],[-94.7502,49.0],[-94.7189,49.0],[-94.6831,48.8839],[-94.6831,48.8834],[-94.6903,48.8637],[-94.6902,48.8634],[-94.6909,48.7781],[-94.6909,48.778],[-94.6463,48.75],[-94.6452,48.749],[-94.6289,48.7388],[-94.5331,48.7013],[-94.4687,48.6963],[-94.4319,48.7066]]]}},{"type":"Feature","id":"27079","properties":{"name":"Le Sueur","fips":"27079"},"geometry":{"type":"Polygon","coordinates":[[[-93.6467,44.196],[-93.7274,44.1961],[-93.768,44.1958],[-93.768,44.2394],[-94.0118,44.2392],[-93.9327,44.3449],[-93.9296,44.4566],[-93.9104,44.5432],[-93.5243,44.5436],[-93.5252,44.196],[-93.6467,44.196]]]}},{"type":"Feature","id":"27081","properties":{"name":"Lincoln","fips":"27081"},"geometry":{"type":"Polygon","coordinates":[[[-96.0786,44.1966],[-96.4508,44.197],[-96.4528,44.1968],[-96.4528,44.1969],[-96.4527,44.2546],[-96.4524,44.2553],[-96.4524,44.269],[-96.4524,44.272],[-96.4526,44.2827],[-96.4525,44.2857],[-96.4523,44.297],[-96.4522,44.2987],[-96.4524,44.3121],[-96.4522,44.3134],[-96.4524,44.326],[-96.4523,44.3281],[-96.4522,44.3406],[-96.4522,44.3422],[-96.4523,44.3453],[-96.4523,44.3549],[-96.4522,44.3601],[-96.4521,44.3837],[-96.4521,44.3897],[-96.4519,44.4415],[-96.4518,44.4604],[-96.4522,44.4709],[-96.4521,44.473],[-96.452,44.5068],[-96.452,44.5169],[-96.4522,44.5269],[-96.452,44.5435],[-96.452,44.5436],[-96.4519,44.5441],[-96.4517,44.6307],[-96.4518,44.6312],[-96.4518,44.6313],[-96.4497,44.6312],[-96.093,44.6305],[-96.0786,44.1966]]]}},{"type":"Feature","id":"27083","properties":{"name":"Lyon","fips":"27083"},"geometry":{"type":"Polygon","coordinates":[[[-96.0638,44.1964],[-96.0786,44.1966],[-96.093,44.6305],[-95.604,44.6299],[-95.5948,44.5423],[-95.5936,44.1955],[-96.0638,44.1964]]]}},{"type":"Feature","id":"27087","properties":{"name":"Mahnomen","fips":"27087"},"geometry":{"type":"Polygon","coordinates":[[[-96.0676,47.4991],[-95.5632,47.5003],[-95.5542,47.4999],[-95.5515,47.5],[-95.5512,47.1515],[-96.0671,47.1518],[-96.0676,47.4991]]]}},{"type":"Feature","id":"27089","properties":{"name":"Marshall","fips":"27089"},"geometry":{"type":"Polygon","coordinates":[[[-97.1611,48.5432],[-97.1631,48.5439],[-97.163,48.544],[-96.3878,48.5443],[-95.6023,48.5389],[-95.5938,48.1729],[-96.5008,48.1741],[-97.1475,48.1732],[-97.1474,48.1938],[-97.1472,48.243],[-97.1431,48.2467],[-97.1345,48.2497],[-97.1299,48.2497],[-97.1166,48.2797],[-97.1156,48.3239],[-97.1267,48.3421],[-97.1364,48.3524],[-97.1457,48.3974],[-97.1315,48.4066],[-97.1234,48.4212],[-97.1268,48.5202],[-97.1505,48.5394],[-97.1611,48.5432]]]}},{"type":"Feature","id":"27091","properties":{"name":"Martin","fips":"27091"},"geometry":{"type":"Polygon","coordinates":[[[-94.8546,43.5006],[-94.8544,43.8481],[-94.369,43.848],[-94.2471,43.8479],[-94.248,43.5003],[-94.3775,43.5004],[-94.3906,43.5005],[-94.4428,43.5006],[-94.4428,43.5006],[-94.447,43.5006],[-94.4704,43.5003],[-94.5608,43.5004],[-94.5657,43.5003],[-94.6159,43.5005],[-94.8546,43.5006]]]}},{"type":"Feature","id":"27085","properties":{"name":"McLeod","fips":"27085"},"geometry":{"type":"Polygon","coordinates":[[[-94.5024,44.8923],[-94.5019,44.9797],[-94.2561,44.9795],[-94.0122,44.9787],[-94.0105,44.7175],[-94.2541,44.7179],[-94.2547,44.6303],[-94.4978,44.6299],[-94.4981,44.7172],[-94.4977,44.8923],[-94.5024,44.8923]]]}},{"type":"Feature","id":"27093","properties":{"name":"Meeker","fips":"27093"},"geometry":{"type":"Polygon","coordinates":[[[-94.2561,44.9795],[-94.5019,44.9797],[-94.5024,44.8923],[-94.7582,44.8921],[-94.7631,45.3261],[-94.3836,45.3267],[-94.3834,45.2828],[-94.2608,45.2839],[-94.2561,44.9795]]]}},{"type":"Feature","id":"27095","properties":{"name":"Mille Lacs","fips":"27095"},"geometry":{"type":"Polygon","coordinates":[[[-93.5107,45.5588],[-93.7594,45.5596],[-93.7633,45.8159],[-93.7639,45.8221],[-93.7689,45.9825],[-93.8103,45.9831],[-93.8104,46.1566],[-93.8109,46.2431],[-93.7963,46.2432],[-93.4306,46.2464],[-93.4318,46.154],[-93.4325,45.9814],[-93.5181,45.9818],[-93.5137,45.7343],[-93.5124,45.7188],[-93.5107,45.5588]]]}},{"type":"Feature","id":"27097","properties":{"name":"Morrison","fips":"27097"},"geometry":{"type":"Polygon","coordinates":[[[-94.3417,46.2777],[-94.3746,46.1571],[-93.8104,46.1566],[-93.8103,45.9831],[-93.7689,45.9825],[-93.7639,45.8221],[-94.3532,45.8221],[-94.2718,45.7752],[-94.644,45.7739],[-94.6535,46.3487],[-94.5347,46.3028],[-94.4248,46.3318],[-94.3417,46.2777]]]}},{"type":"Feature","id":"27099","properties":{"name":"Mower","fips":"27099"},"geometry":{"type":"Polygon","coordinates":[[[-93.0079,43.4996],[-93.0243,43.4996],[-93.0244,43.4996],[-93.0492,43.4996],[-93.0495,43.8484],[-93.0494,43.8485],[-93.046,43.8485],[-92.6894,43.8486],[-92.449,43.8341],[-92.4491,43.5033],[-92.4489,43.5004],[-92.4645,43.5003],[-92.5531,43.5003],[-92.5532,43.5003],[-92.6492,43.5],[-92.6533,43.5001],[-92.6726,43.5001],[-92.689,43.5001],[-92.6928,43.5001],[-92.7073,43.5001],[-92.7521,43.5001],[-92.7903,43.4996],[-92.8703,43.4995],[-93.0079,43.4996]]]}},{"type":"Feature","id":"27101","properties":{"name":"Murray","fips":"27101"},"geometry":{"type":"Polygon","coordinates":[[[-95.4624,43.8479],[-96.0523,43.8491],[-96.0646,43.849],[-96.0638,44.1964],[-95.5936,44.1955],[-95.4625,44.1959],[-95.4624,43.8479]]]}},{"type":"Feature","id":"27103","properties":{"name":"Nicollet","fips":"27103"},"geometry":{"type":"Polygon","coordinates":[[[-94.7806,44.4567],[-94.6242,44.456],[-93.9296,44.4566],[-93.9327,44.3449],[-94.0118,44.2392],[-94.0553,44.154],[-94.3717,44.2644],[-94.523,44.3654],[-94.6661,44.394],[-94.7806,44.4567]]]}},{"type":"Feature","id":"27105","properties":{"name":"Nobles","fips":"27105"},"geometry":{"type":"Polygon","coordinates":[[[-96.0523,43.8491],[-95.4624,43.8479],[-95.4525,43.848],[-95.4544,43.5006],[-95.4547,43.5006],[-95.4547,43.5006],[-95.4751,43.5003],[-95.4867,43.5003],[-95.4868,43.5002],[-95.5148,43.4999],[-95.7408,43.4999],[-95.7416,43.4999],[-95.8213,43.5],[-95.8344,43.5],[-95.8609,43.5],[-95.8612,43.5],[-96.0532,43.5002],[-96.0523,43.8491]]]}},{"type":"Feature","id":"27107","properties":{"name":"Norman","fips":"27107"},"geometry":{"type":"Polygon","coordinates":[[[-96.8267,47.1505],[-96.8329,47.2376],[-96.833,47.2381],[-96.8527,47.375],[-96.8623,47.4223],[-96.8538,47.4995],[-96.8489,47.499],[-96.0676,47.4991],[-96.0671,47.1518],[-96.1947,47.1511],[-96.8267,47.1505]]]}},{"type":"Feature","id":"27109","properties":{"name":"Olmsted","fips":"27109"},"geometry":{"type":"Polygon","coordinates":[[[-92.449,43.8341],[-92.6894,43.8486],[-92.6784,43.8485],[-92.6787,44.1955],[-92.5509,44.1949],[-92.319,44.1941],[-92.319,44.1077],[-92.0795,44.107],[-92.0793,43.8471],[-92.4488,43.8483],[-92.449,43.8341]]]}},{"type":"Feature","id":"27111","properties":{"name":"Otter Tail","fips":"27111"},"geometry":{"type":"Polygon","coordinates":[[[-95.1556,46.3689],[-95.1459,46.1068],[-95.7698,46.1075],[-96.2654,46.1086],[-96.28,46.2822],[-96.281,46.6308],[-96.1723,46.6307],[-96.1746,46.7179],[-95.248,46.7163],[-95.1637,46.7176],[-95.1556,46.3689]]]}},{"type":"Feature","id":"27113","properties":{"name":"Pennington","fips":"27113"},"geometry":{"type":"Polygon","coordinates":[[[-96.5008,48.1741],[-95.5938,48.1729],[-95.5925,48.0206],[-95.5829,48.0206],[-95.5822,47.934],[-95.7096,47.9358],[-95.7098,47.9643],[-96.4826,47.9636],[-96.5008,48.1741]]]}},{"type":"Feature","id":"27115","properties":{"name":"Pine","fips":"27115"},"geometry":{"type":"Polygon","coordinates":[[[-92.2929,46.4172],[-92.293,46.3219],[-92.2928,46.3193],[-92.2928,46.3146],[-92.2929,46.3138],[-92.2928,46.3071],[-92.2928,46.3043],[-92.293,46.298],[-92.2931,46.2951],[-92.2936,46.244],[-92.2936,46.2246],[-92.2939,46.1801],[-92.2937,46.1668],[-92.2937,46.1573],[-92.2935,46.1138],[-92.2941,46.0783],[-92.294,46.0744],[-92.3068,46.0724],[-92.3269,46.0666],[-92.4433,46.0146],[-92.6561,45.9244],[-92.7077,45.8949],[-92.7211,45.8838],[-92.734,45.8681],[-92.7625,45.8192],[-92.7684,45.798],[-92.7846,45.7642],[-92.804,45.7498],[-92.8411,45.73],[-93.1418,45.7307],[-93.1429,45.981],[-93.0551,45.9812],[-93.0539,46.1581],[-93.0548,46.4193],[-92.2929,46.4172]]]}},{"type":"Feature","id":"27117","properties":{"name":"Pipestone","fips":"27117"},"geometry":{"type":"Polygon","coordinates":[[[-96.4533,43.8495],[-96.4533,43.8496],[-96.4533,43.877],[-96.4533,43.8786],[-96.4532,43.8787],[-96.4534,43.9491],[-96.4533,43.9508],[-96.4532,43.9665],[-96.4533,43.9672],[-96.4534,43.9781],[-96.4533,43.9803],[-96.4533,43.9929],[-96.4533,43.9947],[-96.4531,44.0069],[-96.4531,44.0089],[-96.4534,44.0237],[-96.4534,44.0254],[-96.4533,44.0364],[-96.4532,44.0384],[-96.4528,44.1968],[-96.4508,44.197],[-96.0786,44.1966],[-96.0638,44.1964],[-96.0646,43.849],[-96.4533,43.8495]]]}},{"type":"Feature","id":"27119","properties":{"name":"Polk","fips":"27119"},"geometry":{"type":"Polygon","coordinates":[[[-96.8907,47.6722],[-96.9804,47.8157],[-97.0004,47.8609],[-97.0232,47.874],[-97.0882,48.0595],[-97.0983,48.0713],[-97.1231,48.1095],[-97.1475,48.1706],[-97.1475,48.1732],[-96.5008,48.1741],[-96.4826,47.9636],[-96.4821,47.8474],[-96.3527,47.8473],[-96.3517,47.7603],[-95.8372,47.7609],[-95.8368,47.8482],[-95.7091,47.8486],[-95.7096,47.9358],[-95.5822,47.934],[-95.5788,47.6737],[-95.5542,47.4999],[-95.5632,47.5003],[-96.0676,47.4991],[-96.8489,47.499],[-96.8538,47.4995],[-96.8533,47.5039],[-96.8424,47.5082],[-96.851,47.5983],[-96.8857,47.6643],[-96.8907,47.6722]]]}},{"type":"Feature","id":"27121","properties":{"name":"Pope","fips":"27121"},"geometry":{"type":"Polygon","coordinates":[[[-95.7474,45.4123],[-95.7585,45.7599],[-95.1397,45.7589],[-95.1317,45.4124],[-95.2552,45.4125],[-95.7474,45.4123]]]}},{"type":"Feature","id":"27123","properties":{"name":"Ramsey","fips":"27123"},"geometry":{"type":"Polygon","coordinates":[[[-93.2277,45.1245],[-93.199,45.1244],[-93.1887,45.1244],[-93.0205,45.1239],[-92.9846,45.1238],[-92.9847,45.0754],[-92.9846,44.9485],[-92.9846,44.9476],[-92.9846,44.9461],[-92.9845,44.9457],[-92.9846,44.9451],[-92.9844,44.9206],[-92.9845,44.9199],[-92.9844,44.9096],[-92.9845,44.9094],[-92.9842,44.894],[-92.9842,44.8908],[-93.02,44.8907],[-93.1286,44.9196],[-93.1785,44.8883],[-93.2081,45.0357],[-93.2269,45.0357],[-93.2271,45.0499],[-93.2277,45.1245]]]}},{"type":"Feature","id":"27125","properties":{"name":"Red Lake","fips":"27125"},"geometry":{"type":"Polygon","coordinates":[[[-95.7096,47.9358],[-95.7091,47.8486],[-95.8368,47.8482],[-95.8372,47.7609],[-96.3517,47.7603],[-96.3527,47.8473],[-96.4821,47.8474],[-96.4826,47.9636],[-95.7098,47.9643],[-95.7096,47.9358]]]}},{"type":"Feature","id":"27127","properties":{"name":"Redwood","fips":"27127"},"geometry":{"type":"Polygon","coordinates":[[[-94.8658,44.4982],[-94.8663,44.2824],[-95.1075,44.2818],[-95.1088,44.195],[-95.4625,44.1959],[-95.5936,44.1955],[-95.5948,44.5423],[-95.3604,44.5418],[-95.3602,44.6985],[-95.1327,44.5964],[-94.8658,44.4982]]]}},{"type":"Feature","id":"27129","properties":{"name":"Renville","fips":"27129"},"geometry":{"type":"Polygon","coordinates":[[[-94.7806,44.4567],[-94.8658,44.4982],[-95.1327,44.5964],[-95.3602,44.6985],[-95.4828,44.7525],[-95.4829,44.8907],[-95.2485,44.8913],[-94.7582,44.8921],[-94.5024,44.8923],[-94.4977,44.8923],[-94.4981,44.7172],[-94.6295,44.7167],[-94.6242,44.456],[-94.7806,44.4567]]]}},{"type":"Feature","id":"27131","properties":{"name":"Rice","fips":"27131"},"geometry":{"type":"Polygon","coordinates":[[[-93.2815,44.544],[-93.2817,44.472],[-93.0395,44.4719],[-93.0412,44.1967],[-93.0459,44.1967],[-93.4066,44.1964],[-93.5252,44.196],[-93.5243,44.5436],[-93.2815,44.544]]]}},{"type":"Feature","id":"27133","properties":{"name":"Rock","fips":"27133"},"geometry":{"type":"Polygon","coordinates":[[[-96.4533,43.8495],[-96.4533,43.8495],[-96.0646,43.849],[-96.0523,43.8491],[-96.0532,43.5002],[-96.1985,43.5003],[-96.1988,43.5003],[-96.2088,43.5004],[-96.3321,43.5004],[-96.3511,43.5003],[-96.453,43.5004],[-96.4534,43.587],[-96.4534,43.5882],[-96.4534,43.6075],[-96.4534,43.6099],[-96.4534,43.675],[-96.4534,43.6896],[-96.4533,43.7914],[-96.4531,43.8051],[-96.4533,43.8495]]]}},{"type":"Feature","id":"27135","properties":{"name":"Roseau","fips":"27135"},"geometry":{"type":"Polygon","coordinates":[[[-95.3199,48.9988],[-95.2356,48.8815],[-95.0915,48.9206],[-95.0899,48.7131],[-95.3427,48.713],[-95.3425,48.5402],[-95.5867,48.5385],[-95.6023,48.5389],[-96.3878,48.5443],[-96.4054,48.9998],[-95.3687,48.9987],[-95.3558,48.9987],[-95.341,48.9987],[-95.3229,48.9988],[-95.3199,48.9988]]]}},{"type":"Feature","id":"27139","properties":{"name":"Scott","fips":"27139"},"geometry":{"type":"Polygon","coordinates":[[[-93.3296,44.7911],[-93.3187,44.6306],[-93.2815,44.544],[-93.5243,44.5436],[-93.9104,44.5432],[-93.8577,44.6211],[-93.768,44.6403],[-93.6181,44.7071],[-93.622,44.7603],[-93.5204,44.8043],[-93.3296,44.7911]]]}},{"type":"Feature","id":"27141","properties":{"name":"Sherburne","fips":"27141"},"geometry":{"type":"Polygon","coordinates":[[[-94.1495,45.5591],[-93.7594,45.5596],[-93.5107,45.5588],[-93.5101,45.4148],[-93.5126,45.2504],[-93.5122,45.2457],[-93.5153,45.2463],[-93.5217,45.2466],[-93.5794,45.2921],[-93.7566,45.2947],[-94.0473,45.4229],[-94.1416,45.493],[-94.1495,45.5591]]]}},{"type":"Feature","id":"27143","properties":{"name":"Sibley","fips":"27143"},"geometry":{"type":"Polygon","coordinates":[[[-93.9296,44.4566],[-94.6242,44.456],[-94.6295,44.7167],[-94.4981,44.7172],[-94.4978,44.6299],[-94.2547,44.6303],[-94.2541,44.7179],[-94.0105,44.7175],[-93.8886,44.717],[-93.768,44.6403],[-93.8577,44.6211],[-93.9104,44.5432],[-93.9296,44.4566]]]}},{"type":"Feature","id":"27137","properties":{"name":"St. Louis","fips":"27137"},"geometry":{"type":"Polygon","coordinates":[[[-92.1915,46.6726],[-92.1971,46.6634],[-92.2023,46.655],[-92.2071,46.6519],[-92.2124,46.6499],[-92.2217,46.6497],[-92.2223,46.6497],[-92.2282,46.6496],[-92.2319,46.6495],[-92.2326,46.6495],[-92.2348,46.6494],[-92.2425,46.6492],[-92.2509,46.6501],[-92.2544,46.6504],[-92.2567,46.6506],[-92.2625,46.6512],[-92.2645,46.6514],[-92.2699,46.6519],[-92.2745,46.6542],[-92.2764,46.6552],[-92.2772,46.6556],[-92.2922,46.6632],[-92.3017,46.7641],[-93.0615,46.7666],[-93.0559,47.0264],[-93.0695,47.3939],[-93.0613,47.7202],[-93.0812,47.8919],[-93.0965,48.0678],[-93.0884,48.6276],[-92.9805,48.6249],[-92.728,48.5393],[-92.6579,48.5463],[-92.6349,48.5429],[-92.6257,48.5182],[-92.6252,48.513],[-92.6254,48.5129],[-92.6311,48.5083],[-92.6311,48.5081],[-92.6272,48.5034],[-92.6367,48.4994],[-92.6614,48.4966],[-92.6849,48.4976],[-92.6988,48.4949],[-92.7126,48.463],[-92.688,48.4439],[-92.656,48.4367],[-92.5756,48.4408],[-92.5372,48.4477],[-92.5073,48.4479],[-92.4563,48.4142],[-92.4151,48.2938],[-92.3844,48.2429],[-92.3253,48.237],[-92.2951,48.2766],[-92.2957,48.2781],[-92.3015,48.2886],[-92.3063,48.3164],[-92.3046,48.323],[-92.289,48.343],[-92.2623,48.3549],[-92.0552,48.3592],[-92.0309,48.3258],[-91.9895,48.2602],[-91.9776,48.2471],[-91.9775,48.2463],[-91.9544,48.2517],[-91.9544,48.2512],[-91.9076,48.2382],[-91.907,48.2378],[-91.8676,48.2183],[-91.7983,48.2001],[-91.7991,47.7322],[-91.7879,47.5468],[-91.794,46.9397],[-91.8069,46.9337],[-91.8261,46.9272],[-91.8349,46.9271],[-91.8413,46.9252],[-91.8713,46.9084],[-91.8832,46.9057],[-91.9065,46.8912],[-91.915,46.8838],[-91.953,46.867],[-91.9851,46.8496],[-91.998,46.8387],[-92.0134,46.8337],[-92.0589,46.8099],[-92.0621,46.804],[-92.0861,46.7943],[-92.0941,46.7878],[-92.0883,46.7736],[-92.0645,46.7454],[-92.0258,46.7108],[-92.0153,46.7065],[-92.0203,46.704],[-92.0247,46.7056],[-92.034,46.7089],[-92.0895,46.7492],[-92.1166,46.7486],[-92.1704,46.7256],[-92.173,46.7244],[-92.1891,46.7175],[-92.1953,46.7096],[-92.1963,46.704],[-92.1964,46.7029],[-92.1966,46.7021],[-92.1946,46.6977],[-92.1941,46.6966],[-92.1934,46.6952],[-92.1878,46.6902],[-92.1876,46.6789],[-92.1911,46.6733],[-92.1915,46.6726]]]}},{"type":"Feature","id":"27145","properties":{"name":"Stearns","fips":"27145"},"geometry":{"type":"Polygon","coordinates":[[[-94.7669,45.7739],[-94.644,45.7739],[-94.2718,45.7752],[-94.2157,45.7266],[-94.2037,45.6196],[-94.1495,45.5591],[-94.1416,45.493],[-94.0473,45.4229],[-94.0895,45.3466],[-94.2608,45.2839],[-94.3834,45.2828],[-94.3836,45.3267],[-94.7631,45.3261],[-94.7629,45.4129],[-95.1317,45.4124],[-95.1397,45.7589],[-95.1397,45.7734],[-94.7669,45.7739]]]}},{"type":"Feature","id":"27147","properties":{"name":"Steele","fips":"27147"},"geometry":{"type":"Polygon","coordinates":[[[-93.0459,44.1967],[-93.0456,43.85],[-93.046,43.8485],[-93.0494,43.8485],[-93.0495,43.8484],[-93.4066,43.8481],[-93.4066,44.1964],[-93.0459,44.1967]]]}},{"type":"Feature","id":"27149","properties":{"name":"Stevens","fips":"27149"},"geometry":{"type":"Polygon","coordinates":[[[-95.7474,45.4123],[-96.117,45.412],[-96.2413,45.4127],[-96.253,45.5855],[-96.254,45.7598],[-95.7585,45.7599],[-95.7474,45.4123]]]}},{"type":"Feature","id":"27151","properties":{"name":"Swift","fips":"27151"},"geometry":{"type":"Polygon","coordinates":[[[-95.7474,45.4123],[-95.2552,45.4125],[-95.2465,45.1524],[-96.0367,45.1522],[-96.0482,45.1584],[-96.0535,45.1565],[-96.0757,45.1659],[-96.0846,45.1658],[-96.1036,45.1767],[-96.117,45.412],[-95.7474,45.4123]]]}},{"type":"Feature","id":"27153","properties":{"name":"Todd","fips":"27153"},"geometry":{"type":"Polygon","coordinates":[[[-94.644,45.7739],[-94.7669,45.7739],[-95.1397,45.7734],[-95.1459,46.1068],[-95.1556,46.3689],[-94.7314,46.3686],[-94.7228,46.3523],[-94.6535,46.3487],[-94.644,45.7739]]]}},{"type":"Feature","id":"27155","properties":{"name":"Traverse","fips":"27155"},"geometry":{"type":"Polygon","coordinates":[[[-96.8355,45.5861],[-96.844,45.594],[-96.8443,45.5944],[-96.8494,45.5989],[-96.8536,45.6023],[-96.8578,45.606],[-96.8442,45.6396],[-96.8407,45.6453],[-96.8358,45.6496],[-96.7451,45.7016],[-96.7112,45.7176],[-96.6727,45.7323],[-96.6522,45.7468],[-96.5831,45.82],[-96.5797,45.8258],[-96.5765,45.8399],[-96.573,45.8616],[-96.5688,45.8881],[-96.5683,45.8912],[-96.5681,45.8987],[-96.5683,45.9029],[-96.5689,45.9114],[-96.5693,45.9115],[-96.5694,45.9139],[-96.5691,45.9148],[-96.5643,45.9211],[-96.5645,45.9263],[-96.5633,45.9352],[-96.5704,45.9636],[-96.5773,46.0218],[-96.5763,46.0219],[-96.2661,46.0216],[-96.254,45.7598],[-96.253,45.5855],[-96.8355,45.5861]]]}},{"type":"Feature","id":"27157","properties":{"name":"Wabasha","fips":"27157"},"geometry":{"type":"Polygon","coordinates":[[[-92.0839,44.4062],[-92.0463,44.3944],[-91.9725,44.3668],[-91.9636,44.3621],[-91.9256,44.3335],[-91.9186,44.3227],[-91.8872,44.2525],[-91.8879,44.2464],[-91.893,44.2351],[-91.8927,44.2311],[-91.8752,44.2006],[-91.8629,44.193],[-92.0794,44.1927],[-92.0795,44.107],[-92.319,44.1077],[-92.319,44.1941],[-92.5509,44.1949],[-92.5507,44.3685],[-92.4306,44.3683],[-92.4303,44.4552],[-92.242,44.4543],[-92.2339,44.4463],[-92.2211,44.4404],[-92.1153,44.4161],[-92.0839,44.4062]]]}},{"type":"Feature","id":"27159","properties":{"name":"Wadena","fips":"27159"},"geometry":{"type":"Polygon","coordinates":[[[-94.7871,46.8039],[-94.7791,46.3942],[-94.7314,46.3686],[-95.1556,46.3689],[-95.1637,46.7176],[-95.163,46.8047],[-94.7871,46.8039]]]}},{"type":"Feature","id":"27161","properties":{"name":"Waseca","fips":"27161"},"geometry":{"type":"Polygon","coordinates":[[[-93.768,44.1958],[-93.7274,44.1961],[-93.6467,44.196],[-93.5252,44.196],[-93.4066,44.1964],[-93.4066,43.8481],[-93.6483,43.8481],[-93.7678,43.848],[-93.768,44.1958]]]}},{"type":"Feature","id":"27163","properties":{"name":"Washington","fips":"27163"},"geometry":{"type":"Polygon","coordinates":[[[-92.7461,45.296],[-92.7517,45.2927],[-92.7606,45.2788],[-92.7659,45.2102],[-92.7671,45.1942],[-92.7929,45.0785],[-92.7912,45.0457],[-92.7686,45.008],[-92.7506,44.9373],[-92.7617,44.862],[-92.7618,44.8609],[-92.7655,44.8362],[-92.7844,44.794],[-92.8022,44.7457],[-93.006,44.7717],[-93.0101,44.8638],[-93.0126,44.8691],[-93.0165,44.8846],[-93.02,44.8907],[-92.9842,44.8908],[-92.9842,44.894],[-92.9845,44.9094],[-92.9844,44.9096],[-92.9845,44.9199],[-92.9844,44.9206],[-92.9846,44.9451],[-92.9845,44.9457],[-92.9846,44.9461],[-92.9846,44.9476],[-92.9846,44.9485],[-92.9847,45.0754],[-92.9846,45.1238],[-93.0205,45.1239],[-93.0202,45.1268],[-93.0194,45.2968],[-92.7461,45.296]]]}},{"type":"Feature","id":"27165","properties":{"name":"Watonwan","fips":"27165"},"geometry":{"type":"Polygon","coordinates":[[[-94.369,43.848],[-94.8544,43.8481],[-94.8594,43.8481],[-94.8598,44.108],[-94.3688,44.1087],[-94.369,43.848]]]}},{"type":"Feature","id":"27167","properties":{"name":"Wilkin","fips":"27167"},"geometry":{"type":"Polygon","coordinates":[[[-96.5773,46.0218],[-96.5779,46.0269],[-96.5663,46.0514],[-96.5593,46.0583],[-96.5569,46.0646],[-96.5548,46.0848],[-96.558,46.1024],[-96.5784,46.1701],[-96.5856,46.1773],[-96.5991,46.2637],[-96.5982,46.3126],[-96.6316,46.3538],[-96.6698,46.3846],[-96.722,46.44],[-96.7164,46.4446],[-96.7391,46.5437],[-96.783,46.6304],[-96.281,46.6308],[-96.28,46.2822],[-96.2654,46.1086],[-96.2661,46.058],[-96.266,46.0578],[-96.266,46.0574],[-96.2661,46.0216],[-96.5763,46.0219],[-96.5773,46.0218]]]}},{"type":"Feature","id":"27169","properties":{"name":"Winona","fips":"27169"},"geometry":{"type":"Polygon","coordinates":[[[-91.5592,44.024],[-91.547,44.0222],[-91.5059,44.0187],[-91.4635,44.009],[-91.4374,44.0],[-91.4325,43.9968],[-91.4201,43.9842],[-91.3632,43.9266],[-91.311,43.8674],[-91.2988,43.8566],[-91.2841,43.8471],[-91.7304,43.8469],[-92.0793,43.8471],[-92.0795,44.107],[-92.0794,44.1927],[-91.8629,44.193],[-91.8081,44.1593],[-91.7409,44.1339],[-91.7216,44.1303],[-91.6725,44.0913],[-91.5921,44.0314],[-91.58,44.0269],[-91.5592,44.024]]]}},{"type":"Feature","id":"27171","properties":{"name":"Wright","fips":"27171"},"geometry":{"type":"Polygon","coordinates":[[[-93.5217,45.2466],[-93.6387,45.1744],[-93.6386,45.1656],[-93.6452,45.1616],[-93.6477,45.1586],[-93.6615,45.1533],[-93.6672,45.1544],[-93.6759,45.1511],[-93.7619,45.0812],[-93.7674,44.978],[-94.0122,44.9787],[-94.2561,44.9795],[-94.2608,45.2839],[-94.0895,45.3466],[-94.0473,45.4229],[-93.7566,45.2947],[-93.5794,45.2921],[-93.5217,45.2466]]]}},{"type":"Feature","id":"27173","properties":{"name":"Yellow Medicine","fips":"27173"},"geometry":{"type":"Polygon","coordinates":[[[-96.4518,44.6313],[-96.4515,44.7031],[-96.4516,44.7605],[-96.4514,44.7618],[-96.4516,44.7762],[-96.4518,44.7905],[-96.4519,44.7923],[-96.4518,44.7977],[-96.4516,44.8055],[-96.4516,44.8056],[-95.849,44.8053],[-95.8475,44.8918],[-95.7373,44.8915],[-95.737,44.9362],[-95.4985,44.7869],[-95.4828,44.7525],[-95.3602,44.6985],[-95.3604,44.5418],[-95.5948,44.5423],[-95.604,44.6299],[-96.093,44.6305],[-96.4497,44.6312],[-96.4518,44.6313]]]}}]}