{"type":"FeatureCollection","features":[{"type":"Feature","id":"29001","properties":{"name":"Adair","fips":"29001"},"geometry":{"type":"Polygon","coordinates":[[[-92.3451,40.0372],[-92.8475,40.0373],[-92.8562,40.0373],[-92.8556,40.3427],[-92.6842,40.3435],[-92.35,40.3465],[-92.3499,40.3027],[-92.3478,40.3028],[-92.3451,40.0372]]]}},{"type":"Feature","id":"29003","properties":{"name":"Andrew","fips":"29003"},"geometry":{"type":"Polygon","coordinates":[[[-95.0431,40.1301],[-94.6059,40.1261],[-94.6066,40.042],[-94.6054,40.0392],[-94.6028,39.8196],[-94.8765,39.8206],[-94.9083,39.8122],[-94.9279,39.8861],[-94.936,39.8944],[-94.9542,39.9011],[-94.9933,39.9007],[-95.0431,40.1301]]]}},{"type":"Feature","id":"29005","properties":{"name":"Atchison","fips":"29005"},"geometry":{"type":"Polygon","coordinates":[[[-95.71,40.5238],[-95.7487,40.5243],[-95.7571,40.526],[-95.7669,40.5316],[-95.7693,40.5367],[-95.7747,40.5736],[-95.7735,40.5782],[-95.7656,40.5852],[-95.7464,40.5849],[-95.6875,40.5844],[-95.6874,40.5844],[-95.6418,40.5842],[-95.6111,40.5835],[-95.574,40.583],[-95.555,40.5826],[-95.5332,40.5822],[-95.5267,40.5821],[-95.5254,40.5821],[-95.4693,40.5815],[-95.4154,40.581],[-95.3739,40.5805],[-95.3739,40.5805],[-95.3578,40.5801],[-95.3356,40.5799],[-95.2215,40.5788],[-95.2188,40.5788],[-95.2175,40.5788],[-95.2133,40.5787],[-95.2127,40.5787],[-95.2116,40.5787],[-95.2114,40.5787],[-95.2023,40.5785],[-95.1777,40.4789],[-95.1806,40.2617],[-95.5523,40.2644],[-95.551,40.2859],[-95.5533,40.2912],[-95.6227,40.3423],[-95.6873,40.4651],[-95.6927,40.483],[-95.6814,40.4908],[-95.6593,40.5198],[-95.6967,40.5451],[-95.6973,40.537],[-95.71,40.5238]]]}},{"type":"Feature","id":"29007","properties":{"name":"Audrain","fips":"29007"},"geometry":{"type":"Polygon","coordinates":[[[-92.3145,39.2465],[-92.3138,39.25],[-92.31,39.3478],[-91.718,39.3391],[-91.7185,39.3245],[-91.4382,39.3187],[-91.409,39.1425],[-91.6296,39.1479],[-91.634,39.0591],[-92.1104,39.0642],[-92.1044,39.2398],[-92.3145,39.2465]]]}},{"type":"Feature","id":"29009","properties":{"name":"Barry","fips":"29009"},"geometry":{"type":"Polygon","coordinates":[[[-94.0689,36.7478],[-94.0627,36.9318],[-93.611,36.9228],[-93.5738,36.82],[-93.5843,36.4989],[-93.7002,36.4991],[-93.71,36.4992],[-93.7189,36.4992],[-93.7276,36.4991],[-93.728,36.499],[-93.8668,36.4988],[-93.9061,36.4987],[-93.9218,36.4987],[-93.9592,36.4987],[-93.9639,36.4987],[-94.0771,36.4987],[-94.0689,36.7478]]]}},{"type":"Feature","id":"29011","properties":{"name":"Barton","fips":"29011"},"geometry":{"type":"Polygon","coordinates":[[[-94.0821,37.3493],[-94.6175,37.3642],[-94.6175,37.3644],[-94.6176,37.3674],[-94.6176,37.3676],[-94.6176,37.3964],[-94.6175,37.4109],[-94.6173,37.4255],[-94.6171,37.4398],[-94.6172,37.4548],[-94.6172,37.4604],[-94.6172,37.4605],[-94.6172,37.4652],[-94.6172,37.4697],[-94.617,37.4838],[-94.6168,37.5215],[-94.6169,37.5278],[-94.6172,37.5535],[-94.6172,37.5573],[-94.6171,37.567],[-94.6173,37.5715],[-94.6173,37.5719],[-94.6174,37.6095],[-94.6173,37.6105],[-94.6175,37.6372],[-94.6176,37.6536],[-94.0735,37.6397],[-94.0754,37.5816],[-94.0821,37.3493]]]}},{"type":"Feature","id":"29013","properties":{"name":"Bates","fips":"29013"},"geometry":{"type":"Polygon","coordinates":[[[-94.0657,38.4471],[-94.0752,38.2145],[-94.0499,38.214],[-94.0583,38.0366],[-94.6141,38.0601],[-94.6141,38.0601],[-94.6141,38.0659],[-94.6141,38.0673],[-94.6139,38.1498],[-94.6137,38.1606],[-94.6134,38.1679],[-94.6131,38.1906],[-94.6128,38.2007],[-94.6128,38.2039],[-94.6127,38.2176],[-94.6127,38.2193],[-94.6126,38.227],[-94.6126,38.2378],[-94.6127,38.2704],[-94.6128,38.2899],[-94.6128,38.2914],[-94.6127,38.3025],[-94.6127,38.3148],[-94.6128,38.3201],[-94.6128,38.3244],[-94.613,38.3358],[-94.6133,38.3644],[-94.6133,38.3696],[-94.6133,38.3887],[-94.6133,38.3924],[-94.6134,38.4034],[-94.6129,38.4776],[-94.6129,38.4776],[-94.3122,38.4715],[-94.0657,38.4471]]]}},{"type":"Feature","id":"29015","properties":{"name":"Benton","fips":"29015"},"geometry":{"type":"Polygon","coordinates":[[[-93.504,38.0718],[-93.5235,38.2072],[-93.5127,38.5125],[-93.2919,38.5063],[-93.2905,38.5354],[-93.0673,38.53],[-93.0777,38.2631],[-93.0652,38.0625],[-93.4971,38.0726],[-93.504,38.0718]]]}},{"type":"Feature","id":"29017","properties":{"name":"Bollinger","fips":"29017"},"geometry":{"type":"Polygon","coordinates":[[[-89.8666,37.1262],[-89.9596,37.1274],[-89.9592,37.0544],[-90.1112,37.0412],[-90.1104,37.0859],[-90.2232,37.0865],[-90.2177,37.315],[-90.1457,37.3121],[-90.1468,37.5974],[-89.8611,37.5993],[-89.8666,37.1262]]]}},{"type":"Feature","id":"29019","properties":{"name":"Boone","fips":"29019"},"geometry":{"type":"Polygon","coordinates":[[[-92.4302,39.2488],[-92.3145,39.2465],[-92.1044,39.2398],[-92.1104,39.0642],[-92.1315,39.0645],[-92.171,38.7653],[-92.2207,38.6432],[-92.3506,38.6764],[-92.3949,38.7391],[-92.3796,38.8001],[-92.4984,38.9221],[-92.5087,38.9327],[-92.515,38.9381],[-92.5264,38.9448],[-92.5401,38.9537],[-92.5449,38.9597],[-92.5581,38.9707],[-92.5651,38.9983],[-92.4302,39.2488]]]}},{"type":"Feature","id":"29021","properties":{"name":"Buchanan","fips":"29021"},"geometry":{"type":"Polygon","coordinates":[[[-94.6023,39.7472],[-94.6012,39.5304],[-94.6013,39.5321],[-95.1029,39.5333],[-95.1093,39.5423],[-95.1136,39.5539],[-95.1131,39.5591],[-95.1075,39.5738],[-95.0696,39.6151],[-95.0153,39.6743],[-95.0111,39.6776],[-94.9379,39.7255],[-94.9169,39.7282],[-94.8953,39.7632],[-94.9083,39.8122],[-94.8765,39.8206],[-94.6028,39.8196],[-94.6023,39.7472]]]}},{"type":"Feature","id":"29023","properties":{"name":"Butler","fips":"29023"},"geometry":{"type":"Polygon","coordinates":[[[-90.6786,36.9265],[-90.2586,36.922],[-90.2042,36.7723],[-90.14,36.6968],[-90.1484,36.6307],[-90.2207,36.4979],[-90.2289,36.4978],[-90.3399,36.4982],[-90.4946,36.4984],[-90.495,36.4984],[-90.5002,36.4984],[-90.5761,36.4984],[-90.5762,36.4984],[-90.5922,36.6794],[-90.6284,36.6795],[-90.6275,36.811],[-90.6626,36.8115],[-90.6786,36.9265]]]}},{"type":"Feature","id":"29025","properties":{"name":"Caldwell","fips":"29025"},"geometry":{"type":"Polygon","coordinates":[[[-93.759,39.7847],[-93.7584,39.6114],[-93.7592,39.5246],[-94.2084,39.5272],[-94.206,39.7458],[-94.2057,39.7568],[-94.2054,39.7608],[-94.2059,39.7672],[-94.2058,39.789],[-93.759,39.7847]]]}},{"type":"Feature","id":"29027","properties":{"name":"Callaway","fips":"29027"},"geometry":{"type":"Polygon","coordinates":[[[-91.9442,38.5969],[-92.0652,38.5571],[-92.1617,38.5781],[-92.2207,38.6432],[-92.171,38.7653],[-92.1315,39.0645],[-92.1104,39.0642],[-91.634,39.0591],[-91.6472,38.7034],[-91.8695,38.6639],[-91.9442,38.5969]]]}},{"type":"Feature","id":"29029","properties":{"name":"Camden","fips":"29029"},"geometry":{"type":"Polygon","coordinates":[[[-92.4069,37.9778],[-92.4092,37.8592],[-92.5489,37.8005],[-92.6202,37.8925],[-92.8554,37.8957],[-93.0724,37.9026],[-93.0652,38.0625],[-93.0777,38.2631],[-92.9796,38.1977],[-92.765,38.1895],[-92.6959,38.222],[-92.605,38.1568],[-92.516,38.0223],[-92.4063,38.0212],[-92.4069,37.9778]]]}},{"type":"Feature","id":"29031","properties":{"name":"Cape Girardeau","fips":"29031"},"geometry":{"type":"Polygon","coordinates":[[[-89.4912,37.2486],[-89.6203,37.233],[-89.7652,37.1261],[-89.8666,37.1262],[-89.8611,37.5993],[-89.6036,37.5921],[-89.5215,37.5662],[-89.5217,37.5573],[-89.5171,37.5373],[-89.4921,37.494],[-89.4755,37.4714],[-89.451,37.4501],[-89.4398,37.4372],[-89.4259,37.4075],[-89.4211,37.3877],[-89.4282,37.3562],[-89.4328,37.3471],[-89.436,37.3444],[-89.4476,37.3405],[-89.4746,37.3382],[-89.4846,37.3348],[-89.489,37.3334],[-89.5118,37.3108],[-89.5184,37.2894],[-89.517,37.2819],[-89.4912,37.2486]]]}},{"type":"Feature","id":"29033","properties":{"name":"Carroll","fips":"29033"},"geometry":{"type":"Polygon","coordinates":[[[-93.7584,39.6114],[-93.2781,39.6156],[-93.2759,39.4844],[-93.1045,39.3837],[-93.2007,39.4018],[-93.2301,39.3279],[-93.3323,39.3096],[-93.3333,39.25],[-93.4772,39.2928],[-93.4879,39.2289],[-93.6505,39.2482],[-93.7585,39.207],[-93.7587,39.2096],[-93.7592,39.5246],[-93.7584,39.6114]]]}},{"type":"Feature","id":"29035","properties":{"name":"Carter","fips":"29035"},"geometry":{"type":"Polygon","coordinates":[[[-90.6786,36.9265],[-90.6626,36.8115],[-91.1159,36.8237],[-91.2248,36.8257],[-91.2228,36.8839],[-91.2172,37.0862],[-91.0178,37.0957],[-90.9645,37.0536],[-90.7796,37.0503],[-90.6786,36.9265]]]}},{"type":"Feature","id":"29037","properties":{"name":"Cass","fips":"29037"},"geometry":{"type":"Polygon","coordinates":[[[-94.3994,38.8388],[-94.1208,38.833],[-94.1191,38.8332],[-94.1197,38.5687],[-94.0643,38.5674],[-94.0657,38.4471],[-94.3122,38.4715],[-94.6129,38.4776],[-94.6127,38.4832],[-94.6127,38.4844],[-94.6126,38.4916],[-94.6123,38.5479],[-94.6122,38.5498],[-94.6122,38.5765],[-94.6119,38.5801],[-94.6119,38.5801],[-94.6119,38.6093],[-94.6119,38.6205],[-94.6116,38.6354],[-94.6095,38.7381],[-94.6095,38.7407],[-94.6094,38.7424],[-94.609,38.7606],[-94.608,38.8111],[-94.608,38.8472],[-94.3994,38.8388]]]}},{"type":"Feature","id":"29039","properties":{"name":"Cedar","fips":"29039"},"geometry":{"type":"Polygon","coordinates":[[[-93.616,37.5727],[-94.0754,37.5816],[-94.0735,37.6397],[-94.0657,37.901],[-93.8086,37.8928],[-93.8114,37.8346],[-93.6284,37.8294],[-93.616,37.5727]]]}},{"type":"Feature","id":"29041","properties":{"name":"Chariton","fips":"29041"},"geometry":{"type":"Polygon","coordinates":[[[-93.267,39.7036],[-93.0828,39.7067],[-92.8579,39.7],[-92.6893,39.6981],[-92.6921,39.6103],[-92.6966,39.6104],[-92.7074,39.3216],[-92.7904,39.3436],[-92.8492,39.2262],[-92.9061,39.2223],[-92.9598,39.3125],[-93.0729,39.3355],[-93.1045,39.3837],[-93.2759,39.4844],[-93.2781,39.6156],[-93.267,39.7036]]]}},{"type":"Feature","id":"29043","properties":{"name":"Christian","fips":"29043"},"geometry":{"type":"Polygon","coordinates":[[[-92.9093,36.8092],[-93.1469,36.8138],[-93.3044,36.8169],[-93.342,36.8173],[-93.3375,36.9925],[-93.6101,36.9958],[-93.6089,37.0982],[-93.0653,37.0887],[-92.9033,37.0707],[-92.9093,36.8092]]]}},{"type":"Feature","id":"29045","properties":{"name":"Clark","fips":"29045"},"geometry":{"type":"Polygon","coordinates":[[[-91.9508,40.2572],[-91.9497,40.3008],[-91.9431,40.6059],[-91.8684,40.6081],[-91.8325,40.6098],[-91.8248,40.6102],[-91.814,40.6105],[-91.8001,40.611],[-91.7954,40.6111],[-91.7859,40.6115],[-91.7291,40.6136],[-91.7168,40.5985],[-91.6964,40.5881],[-91.6201,40.5408],[-91.618,40.534],[-91.6224,40.5144],[-91.6195,40.5071],[-91.5246,40.4108],[-91.491,40.3935],[-91.4845,40.3839],[-91.4194,40.3783],[-91.4448,40.3632],[-91.4621,40.3424],[-91.4899,40.286],[-91.5014,40.2489],[-91.9508,40.2572]]]}},{"type":"Feature","id":"29047","properties":{"name":"Clay","fips":"29047"},"geometry":{"type":"Polygon","coordinates":[[[-94.3352,39.1833],[-94.3897,39.1935],[-94.4616,39.1204],[-94.5235,39.1488],[-94.6074,39.1134],[-94.5899,39.1404],[-94.5919,39.155],[-94.596,39.1577],[-94.6017,39.1596],[-94.6008,39.4562],[-94.5979,39.4558],[-94.2106,39.4547],[-94.2125,39.2071],[-94.2899,39.2371],[-94.3352,39.1833]]]}},{"type":"Feature","id":"29049","properties":{"name":"Clinton","fips":"29049"},"geometry":{"type":"Polygon","coordinates":[[[-94.6023,39.7472],[-94.206,39.7458],[-94.2084,39.5272],[-94.2108,39.4563],[-94.2106,39.4547],[-94.5979,39.4558],[-94.6008,39.4562],[-94.6012,39.5304],[-94.6023,39.7472]]]}},{"type":"Feature","id":"29051","properties":{"name":"Cole","fips":"29051"},"geometry":{"type":"Polygon","coordinates":[[[-92.1945,38.3355],[-92.4084,38.3413],[-92.4035,38.4253],[-92.4952,38.4278],[-92.3949,38.7391],[-92.3506,38.6764],[-92.2207,38.6432],[-92.1617,38.5781],[-92.0652,38.5571],[-91.9442,38.5969],[-92.0259,38.552],[-92.0435,38.4665],[-92.1689,38.4668],[-92.115,38.4019],[-92.1945,38.3355]]]}},{"type":"Feature","id":"29053","properties":{"name":"Cooper","fips":"29053"},"geometry":{"type":"Polygon","coordinates":[[[-93.0505,38.9282],[-93.0485,38.9724],[-92.9346,39.0645],[-92.8416,38.9798],[-92.5581,38.9707],[-92.5449,38.9597],[-92.5401,38.9537],[-92.5264,38.9448],[-92.515,38.9381],[-92.5087,38.9327],[-92.4984,38.9221],[-92.6171,38.68],[-92.8398,38.684],[-92.9505,38.686],[-93.06,38.6931],[-93.0505,38.9282]]]}},{"type":"Feature","id":"29055","properties":{"name":"Crawford","fips":"29055"},"geometry":{"type":"Polygon","coordinates":[[[-91.1,37.74],[-91.1465,37.7408],[-91.1533,37.6973],[-91.3107,37.7],[-91.3083,37.7872],[-91.5288,37.789],[-91.525,38.1524],[-91.5344,38.1526],[-91.5353,38.211],[-91.3675,38.2097],[-91.0958,38.2041],[-91.1,37.74]]]}},{"type":"Feature","id":"29057","properties":{"name":"Dade","fips":"29057"},"geometry":{"type":"Polygon","coordinates":[[[-93.616,37.5727],[-93.6204,37.4563],[-93.6212,37.4274],[-93.6258,37.282],[-94.0523,37.2901],[-94.0838,37.2909],[-94.0821,37.3493],[-94.0754,37.5816],[-93.616,37.5727]]]}},{"type":"Feature","id":"29059","properties":{"name":"Dallas","fips":"29059"},"geometry":{"type":"Polygon","coordinates":[[[-93.1825,37.4172],[-93.1752,37.6749],[-93.1879,37.8027],[-93.1827,37.9041],[-93.0724,37.9026],[-92.8554,37.8957],[-92.8535,37.484],[-93.0716,37.4874],[-93.0734,37.415],[-93.1583,37.4168],[-93.1825,37.4172]]]}},{"type":"Feature","id":"29061","properties":{"name":"Daviess","fips":"29061"},"geometry":{"type":"Polygon","coordinates":[[[-94.2167,40.1366],[-93.764,40.1329],[-93.762,39.9596],[-93.759,39.7847],[-94.2058,39.789],[-94.2035,40.0345],[-94.2188,40.0349],[-94.2165,40.125],[-94.2167,40.1366]]]}},{"type":"Feature","id":"29063","properties":{"name":"DeKalb","fips":"29063"},"geometry":{"type":"Polygon","coordinates":[[[-94.2188,40.0349],[-94.2035,40.0345],[-94.2058,39.789],[-94.2059,39.7672],[-94.2054,39.7608],[-94.2057,39.7568],[-94.206,39.7458],[-94.6023,39.7472],[-94.6028,39.8196],[-94.6054,40.0392],[-94.2188,40.0349]]]}},{"type":"Feature","id":"29065","properties":{"name":"Dent","fips":"29065"},"geometry":{"type":"Polygon","coordinates":[[[-91.5288,37.789],[-91.3083,37.7872],[-91.3107,37.7],[-91.1533,37.6973],[-91.1551,37.5881],[-91.3125,37.5928],[-91.3142,37.5051],[-91.211,37.5019],[-91.2119,37.4153],[-91.6466,37.4227],[-91.755,37.4241],[-91.7548,37.5988],[-91.8091,37.5989],[-91.8062,37.7913],[-91.5288,37.789]]]}},{"type":"Feature","id":"29067","properties":{"name":"Douglas","fips":"29067"},"geometry":{"type":"Polygon","coordinates":[[[-92.2514,37.0597],[-92.2502,37.0598],[-92.0887,37.0562],[-92.096,36.794],[-92.1123,36.7942],[-92.7649,36.8061],[-92.9093,36.8092],[-92.9033,37.0707],[-92.6859,37.0671],[-92.2514,37.0597]]]}},{"type":"Feature","id":"29069","properties":{"name":"Dunklin","fips":"29069"},"geometry":{"type":"Polygon","coordinates":[[[-90.1484,36.6307],[-89.9588,36.6293],[-89.9613,36.3888],[-89.9594,35.999],[-89.9594,35.999],[-89.9599,35.999],[-89.9611,35.9991],[-89.9653,35.9988],[-89.9726,35.999],[-90.1264,35.9976],[-90.1273,35.9976],[-90.1588,35.9974],[-90.2888,35.9964],[-90.2889,35.9964],[-90.2924,35.9964],[-90.3394,35.996],[-90.3426,35.9959],[-90.3687,35.9958],[-90.3644,36.0136],[-90.3192,36.09],[-90.2204,36.1848],[-90.1987,36.2014],[-90.1149,36.2656],[-90.0837,36.2723],[-90.0763,36.2807],[-90.064,36.303],[-90.0645,36.3821],[-90.0729,36.393],[-90.134,36.4379],[-90.1564,36.4877],[-90.1544,36.4968],[-90.1525,36.498],[-90.1939,36.4978],[-90.2173,36.4978],[-90.2207,36.4979],[-90.2207,36.4979],[-90.1484,36.6307]]]}},{"type":"Feature","id":"29071","properties":{"name":"Franklin","fips":"29071"},"geometry":{"type":"Polygon","coordinates":[[[-90.9645,38.5475],[-90.9166,38.5347],[-90.7323,38.6393],[-90.7363,38.4666],[-90.7376,38.4159],[-90.7802,38.2041],[-91.0958,38.2041],[-91.3675,38.2097],[-91.3692,38.6993],[-91.3131,38.7067],[-91.2265,38.6216],[-91.0773,38.6093],[-90.9645,38.5475]]]}},{"type":"Feature","id":"29073","properties":{"name":"Gasconade","fips":"29073"},"geometry":{"type":"Polygon","coordinates":[[[-91.3675,38.2097],[-91.5353,38.211],[-91.5344,38.1526],[-91.538,38.1525],[-91.5803,38.1528],[-91.5895,38.1532],[-91.6306,38.1535],[-91.6449,38.1537],[-91.6447,38.2885],[-91.6404,38.7038],[-91.5453,38.6769],[-91.4186,38.7098],[-91.3951,38.708],[-91.3692,38.6993],[-91.3675,38.2097]]]}},{"type":"Feature","id":"29075","properties":{"name":"Gentry","fips":"29075"},"geometry":{"type":"Polygon","coordinates":[[[-94.2167,40.1366],[-94.2165,40.125],[-94.2188,40.0349],[-94.6054,40.0392],[-94.6066,40.042],[-94.6059,40.1261],[-94.6056,40.1278],[-94.5985,40.3867],[-94.2143,40.3843],[-94.2167,40.1366]]]}},{"type":"Feature","id":"29077","properties":{"name":"Greene","fips":"29077"},"geometry":{"type":"Polygon","coordinates":[[[-93.0734,37.415],[-93.0653,37.0887],[-93.6089,37.0982],[-93.6051,37.2815],[-93.6258,37.282],[-93.6212,37.4274],[-93.1825,37.4172],[-93.1583,37.4168],[-93.0734,37.415]]]}},{"type":"Feature","id":"29079","properties":{"name":"Grundy","fips":"29079"},"geometry":{"type":"Polygon","coordinates":[[[-93.7633,40.264],[-93.3672,40.2663],[-93.3666,40.0331],[-93.362,40.0331],[-93.362,39.9676],[-93.762,39.9596],[-93.764,40.1329],[-93.7633,40.264]]]}},{"type":"Feature","id":"29081","properties":{"name":"Harrison","fips":"29081"},"geometry":{"type":"Polygon","coordinates":[[[-93.7743,40.5776],[-93.7633,40.264],[-93.764,40.1329],[-94.2167,40.1366],[-94.2143,40.3843],[-94.2322,40.5719],[-94.0911,40.5729],[-94.0892,40.5728],[-94.0805,40.5729],[-94.0802,40.5729],[-94.0341,40.5736],[-94.0155,40.5739],[-93.9768,40.5746],[-93.9639,40.5748],[-93.9399,40.5752],[-93.9386,40.5753],[-93.9371,40.5754],[-93.9363,40.5753],[-93.9357,40.5753],[-93.914,40.5757],[-93.9009,40.5759],[-93.8993,40.5759],[-93.8983,40.576],[-93.8537,40.5766],[-93.8409,40.5768],[-93.8187,40.5771],[-93.8155,40.5773],[-93.7743,40.5776]]]}},{"type":"Feature","id":"29083","properties":{"name":"Henry","fips":"29083"},"geometry":{"type":"Polygon","coordinates":[[[-94.0643,38.5674],[-93.511,38.5562],[-93.5114,38.5489],[-93.5113,38.5486],[-93.5127,38.5125],[-93.5235,38.2072],[-94.0499,38.214],[-94.0752,38.2145],[-94.0657,38.4471],[-94.0643,38.5674]]]}},{"type":"Feature","id":"29085","properties":{"name":"Hickory","fips":"29085"},"geometry":{"type":"Polygon","coordinates":[[[-93.0652,38.0625],[-93.0724,37.9026],[-93.1827,37.9041],[-93.1879,37.8027],[-93.5741,37.8133],[-93.5732,37.828],[-93.5687,37.9149],[-93.5121,37.9135],[-93.504,38.0718],[-93.4971,38.0726],[-93.0652,38.0625]]]}},{"type":"Feature","id":"29087","properties":{"name":"Holt","fips":"29087"},"geometry":{"type":"Polygon","coordinates":[[[-95.5525,40.2619],[-95.5523,40.2644],[-95.1806,40.2617],[-95.0717,40.2609],[-95.0431,40.1301],[-94.9933,39.9007],[-95.0084,39.9006],[-95.0163,39.8988],[-95.0252,39.8897],[-95.0252,39.8777],[-95.0279,39.8715],[-95.035,39.8668],[-95.0421,39.8648],[-95.085,39.8619],[-95.1077,39.8686],[-95.1327,39.8759],[-95.1812,39.9],[-95.3015,39.9836],[-95.3078,39.9906],[-95.3083,40.0],[-95.3122,40.0094],[-95.5219,40.2495],[-95.5525,40.2619]]]}},{"type":"Feature","id":"29089","properties":{"name":"Howard","fips":"29089"},"geometry":{"type":"Polygon","coordinates":[[[-92.8492,39.2262],[-92.7904,39.3436],[-92.7074,39.3216],[-92.4302,39.2488],[-92.5651,38.9983],[-92.5581,38.9707],[-92.8416,38.9798],[-92.9346,39.0645],[-92.9416,39.1259],[-92.8492,39.2262]]]}},{"type":"Feature","id":"29091","properties":{"name":"Howell","fips":"29091"},"geometry":{"type":"Polygon","coordinates":[[[-91.6581,36.8887],[-91.6742,36.7878],[-91.6723,36.4995],[-91.686,36.4994],[-91.6876,36.4994],[-91.7267,36.4992],[-91.7661,36.4991],[-91.7847,36.4991],[-91.7995,36.499],[-91.802,36.499],[-91.806,36.499],[-91.8644,36.4988],[-91.866,36.4988],[-91.9858,36.4984],[-91.9888,36.4985],[-92.0194,36.4985],[-92.0288,36.4986],[-92.0558,36.4987],[-92.0572,36.4987],[-92.0749,36.4988],[-92.0984,36.4988],[-92.1203,36.4989],[-92.1204,36.4989],[-92.1123,36.7942],[-92.096,36.794],[-92.0887,37.0562],[-91.6556,37.0489],[-91.6578,36.8896],[-91.6581,36.8887]]]}},{"type":"Feature","id":"29093","properties":{"name":"Iron","fips":"29093"},"geometry":{"type":"Polygon","coordinates":[[[-90.535,37.6436],[-90.5497,37.3176],[-90.5506,37.2726],[-90.7355,37.271],[-90.7729,37.3737],[-90.7687,37.603],[-91.1551,37.5881],[-91.1533,37.6973],[-91.1465,37.7408],[-91.1,37.74],[-90.6451,37.7348],[-90.6479,37.6428],[-90.535,37.6436]]]}},{"type":"Feature","id":"29095","properties":{"name":"Jackson","fips":"29095"},"geometry":{"type":"Polygon","coordinates":[[[-94.6074,39.1134],[-94.5235,39.1488],[-94.4616,39.1204],[-94.3897,39.1935],[-94.3352,39.1833],[-94.2899,39.2371],[-94.2125,39.2071],[-94.1048,39.1435],[-94.1096,39.0187],[-94.11,39.0158],[-94.1109,38.9863],[-94.1115,38.9829],[-94.1129,38.9609],[-94.1143,38.9286],[-94.1142,38.9173],[-94.1137,38.9154],[-94.1191,38.8332],[-94.1208,38.833],[-94.3994,38.8388],[-94.608,38.8472],[-94.608,38.855],[-94.608,38.8612],[-94.608,38.8673],[-94.608,38.8681],[-94.608,38.8692],[-94.608,38.8838],[-94.608,38.9369],[-94.6079,38.9374],[-94.6081,38.94],[-94.6081,38.942],[-94.6074,39.0441],[-94.6072,39.0657],[-94.6073,39.0817],[-94.6072,39.0896],[-94.6074,39.1134]]]}},{"type":"Feature","id":"29097","properties":{"name":"Jasper","fips":"29097"},"geometry":{"type":"Polygon","coordinates":[[[-94.0821,37.3493],[-94.0838,37.2909],[-94.0523,37.2901],[-94.0592,37.0481],[-94.6179,37.0568],[-94.6179,37.0568],[-94.618,37.0751],[-94.6181,37.0859],[-94.6181,37.0864],[-94.6181,37.0935],[-94.6181,37.0937],[-94.6181,37.0967],[-94.6182,37.104],[-94.6182,37.1132],[-94.6181,37.1298],[-94.6181,37.1323],[-94.6184,37.1602],[-94.6185,37.1748],[-94.6185,37.1812],[-94.6183,37.1888],[-94.6183,37.2073],[-94.6182,37.2078],[-94.6181,37.2281],[-94.6181,37.2293],[-94.6182,37.2376],[-94.6181,37.2404],[-94.6176,37.3236],[-94.6177,37.3368],[-94.6176,37.3384],[-94.6176,37.3384],[-94.6175,37.3642],[-94.0821,37.3493]]]}},{"type":"Feature","id":"29099","properties":{"name":"Jefferson","fips":"29099"},"geometry":{"type":"Polygon","coordinates":[[[-90.7363,38.4666],[-90.5911,38.5017],[-90.4053,38.5012],[-90.3768,38.4529],[-90.3403,38.387],[-90.3461,38.3819],[-90.3509,38.3751],[-90.3708,38.3336],[-90.3725,38.3234],[-90.3739,38.2819],[-90.3639,38.2364],[-90.3539,38.2139],[-90.3343,38.1899],[-90.2541,38.122],[-90.416,38.0423],[-90.5833,38.0035],[-90.64,38.0765],[-90.7802,38.2041],[-90.7376,38.4159],[-90.7363,38.4666]]]}},{"type":"Feature","id":"29101","properties":{"name":"Johnson","fips":"29101"},"geometry":{"type":"Polygon","coordinates":[[[-94.1142,38.9173],[-93.8363,38.9087],[-93.8347,38.9379],[-93.4973,38.9284],[-93.511,38.5562],[-94.0643,38.5674],[-94.1197,38.5687],[-94.1191,38.8332],[-94.1137,38.9154],[-94.1142,38.9173]]]}},{"type":"Feature","id":"29103","properties":{"name":"Knox","fips":"29103"},"geometry":{"type":"Polygon","coordinates":[[[-92.3451,40.0372],[-92.3478,40.3028],[-91.9497,40.3008],[-91.9508,40.2572],[-91.9527,39.9494],[-92.1773,39.9545],[-92.2879,39.9525],[-92.3447,39.9533],[-92.3451,40.0372]]]}},{"type":"Feature","id":"29105","properties":{"name":"Laclede","fips":"29105"},"geometry":{"type":"Polygon","coordinates":[[[-92.2495,37.6045],[-92.2523,37.4729],[-92.6867,37.4815],[-92.8521,37.4841],[-92.8535,37.484],[-92.8554,37.8957],[-92.6202,37.8925],[-92.5489,37.8005],[-92.4092,37.8592],[-92.4137,37.7139],[-92.2489,37.6484],[-92.2495,37.6045]]]}},{"type":"Feature","id":"29107","properties":{"name":"Lafayette","fips":"29107"},"geometry":{"type":"Polygon","coordinates":[[[-94.1096,39.0187],[-94.1048,39.1435],[-93.9889,39.1528],[-93.8401,39.2155],[-93.7585,39.207],[-93.6505,39.2482],[-93.4879,39.2289],[-93.4772,39.2928],[-93.4964,38.9428],[-93.4973,38.9284],[-93.8347,38.9379],[-93.8363,38.9087],[-94.1142,38.9173],[-94.1143,38.9286],[-94.1129,38.9609],[-94.1115,38.9829],[-94.1109,38.9863],[-94.11,39.0158],[-94.1096,39.0187]]]}},{"type":"Feature","id":"29109","properties":{"name":"Lawrence","fips":"29109"},"geometry":{"type":"Polygon","coordinates":[[[-94.0592,37.0481],[-94.0523,37.2901],[-93.6258,37.282],[-93.6051,37.2815],[-93.6089,37.0982],[-93.6101,36.9958],[-93.611,36.9228],[-94.0627,36.9318],[-94.0592,37.0481]]]}},{"type":"Feature","id":"29111","properties":{"name":"Lewis","fips":"29111"},"geometry":{"type":"Polygon","coordinates":[[[-91.4559,39.9455],[-91.8404,39.9482],[-91.9527,39.9494],[-91.9508,40.2572],[-91.5014,40.2489],[-91.506,40.2343],[-91.5103,40.2011],[-91.513,40.1811],[-91.5103,40.128],[-91.4949,40.0374],[-91.4603,39.9803],[-91.4559,39.9455]]]}},{"type":"Feature","id":"29113","properties":{"name":"Lincoln","fips":"29113"},"geometry":{"type":"Polygon","coordinates":[[[-90.7116,39.0468],[-90.6659,38.9342],[-90.7782,38.9225],[-90.8178,38.876],[-90.9585,38.8709],[-91.1113,38.8727],[-91.1102,38.9319],[-91.1893,38.9322],[-91.1884,38.9921],[-91.2643,38.9928],[-91.2602,39.1398],[-91.1855,39.139],[-91.1829,39.2272],[-90.719,39.225],[-90.6811,39.1006],[-90.6827,39.0883],[-90.7125,39.0571],[-90.7136,39.054],[-90.7116,39.0468]]]}},{"type":"Feature","id":"29115","properties":{"name":"Linn","fips":"29115"},"geometry":{"type":"Polygon","coordinates":[[[-93.267,39.7036],[-93.3648,39.7038],[-93.362,39.9676],[-93.362,40.0331],[-92.8562,40.0373],[-92.8475,40.0373],[-92.8579,39.7],[-93.0828,39.7067],[-93.267,39.7036]]]}},{"type":"Feature","id":"29117","properties":{"name":"Livingston","fips":"29117"},"geometry":{"type":"Polygon","coordinates":[[[-93.762,39.9596],[-93.362,39.9676],[-93.3648,39.7038],[-93.267,39.7036],[-93.2781,39.6156],[-93.7584,39.6114],[-93.759,39.7847],[-93.762,39.9596]]]}},{"type":"Feature","id":"29121","properties":{"name":"Macon","fips":"29121"},"geometry":{"type":"Polygon","coordinates":[[[-92.3451,40.0372],[-92.3447,39.9533],[-92.2879,39.9525],[-92.2993,39.6053],[-92.3009,39.6053],[-92.6921,39.6103],[-92.6893,39.6981],[-92.8579,39.7],[-92.8475,40.0373],[-92.3451,40.0372]]]}},{"type":"Feature","id":"29123","properties":{"name":"Madison","fips":"29123"},"geometry":{"type":"Polygon","coordinates":[[[-90.535,37.6436],[-90.5168,37.6427],[-90.1468,37.6416],[-90.1473,37.6135],[-90.1468,37.5974],[-90.1457,37.3121],[-90.2177,37.315],[-90.5497,37.3176],[-90.535,37.6436]]]}},{"type":"Feature","id":"29125","properties":{"name":"Maries","fips":"29125"},"geometry":{"type":"Polygon","coordinates":[[[-92.1854,38.0163],[-92.1957,38.2922],[-91.6447,38.2885],[-91.6449,38.1537],[-91.6306,38.1535],[-91.6324,38.051],[-91.8953,38.0512],[-92.0212,38.0106],[-92.1854,38.0151],[-92.1854,38.0163]]]}},{"type":"Feature","id":"29127","properties":{"name":"Marion","fips":"29127"},"geometry":{"type":"Polygon","coordinates":[[[-91.37,39.745],[-91.37,39.7325],[-91.3678,39.729],[-91.349,39.7123],[-91.3132,39.6849],[-91.7155,39.6865],[-91.7152,39.6576],[-91.8467,39.6585],[-91.8404,39.9482],[-91.4559,39.9455],[-91.4464,39.8704],[-91.4329,39.8406],[-91.3654,39.7773],[-91.368,39.7591],[-91.37,39.745]]]}},{"type":"Feature","id":"29119","properties":{"name":"McDonald","fips":"29119"},"geometry":{"type":"Polygon","coordinates":[[[-94.618,36.6679],[-94.618,36.6694],[-94.6181,36.7014],[-94.6183,36.7666],[-94.0689,36.7478],[-94.0771,36.4987],[-94.0986,36.4987],[-94.1003,36.4987],[-94.1107,36.4986],[-94.1115,36.4986],[-94.5195,36.4992],[-94.5593,36.4995],[-94.6179,36.4994],[-94.6179,36.515],[-94.6179,36.5178],[-94.618,36.5343],[-94.6179,36.5361],[-94.6179,36.537],[-94.6178,36.5777],[-94.6179,36.5991],[-94.6179,36.6069],[-94.6178,36.6126],[-94.618,36.6679]]]}},{"type":"Feature","id":"29129","properties":{"name":"Mercer","fips":"29129"},"geometry":{"type":"Polygon","coordinates":[[[-93.7743,40.5776],[-93.7702,40.5776],[-93.7502,40.5777],[-93.7428,40.5775],[-93.7373,40.5775],[-93.7284,40.5775],[-93.7224,40.5776],[-93.6903,40.5779],[-93.6771,40.5781],[-93.6688,40.5782],[-93.6619,40.5784],[-93.6593,40.5783],[-93.6562,40.5784],[-93.5974,40.5795],[-93.5662,40.5801],[-93.5658,40.5801],[-93.5652,40.5801],[-93.5608,40.5803],[-93.5589,40.5802],[-93.5569,40.5802],[-93.554,40.5803],[-93.5483,40.5804],[-93.5282,40.5804],[-93.5276,40.5804],[-93.5241,40.5805],[-93.4669,40.5801],[-93.4653,40.5802],[-93.4418,40.5799],[-93.3744,40.5803],[-93.3669,40.383],[-93.3672,40.2663],[-93.7633,40.264],[-93.7743,40.5776]]]}},{"type":"Feature","id":"29131","properties":{"name":"Miller","fips":"29131"},"geometry":{"type":"Polygon","coordinates":[[[-92.605,38.1568],[-92.6959,38.222],[-92.6898,38.3485],[-92.6338,38.3481],[-92.6252,38.4308],[-92.6239,38.4306],[-92.4952,38.4278],[-92.4035,38.4253],[-92.4084,38.3413],[-92.1945,38.3355],[-92.1957,38.2922],[-92.1854,38.0163],[-92.4063,38.0212],[-92.516,38.0223],[-92.605,38.1568]]]}},{"type":"Feature","id":"29133","properties":{"name":"Mississippi","fips":"29133"},"geometry":{"type":"Polygon","coordinates":[[[-89.5198,36.8696],[-89.4654,36.9357],[-89.3227,37.009],[-89.2921,36.9922],[-89.2786,36.9887],[-89.2711,36.9853],[-89.2612,36.9824],[-89.2455,36.9832],[-89.2262,36.9853],[-89.207,36.9824],[-89.1855,36.9735],[-89.17,36.9703],[-89.1327,36.9822],[-89.1008,36.944],[-89.1008,36.944],[-89.1477,36.8471],[-89.1772,36.8358],[-89.1786,36.8166],[-89.1792,36.8129],[-89.1235,36.7853],[-89.1235,36.7852],[-89.1304,36.7517],[-89.1423,36.7554],[-89.1691,36.7595],[-89.1845,36.7536],[-89.1978,36.7394],[-89.201,36.7258],[-89.1995,36.716],[-89.1719,36.6725],[-89.1747,36.6505],[-89.1747,36.6504],[-89.1877,36.6411],[-89.1977,36.6289],[-89.2009,36.6182],[-89.2026,36.6016],[-89.2136,36.5801],[-89.2273,36.5694],[-89.2365,36.5668],[-89.26,36.5651],[-89.2717,36.5714],[-89.2946,36.5937],[-89.3134,36.6201],[-89.3267,36.6322],[-89.3276,36.6321],[-89.5198,36.8696]]]}},{"type":"Feature","id":"29135","properties":{"name":"Moniteau","fips":"29135"},"geometry":{"type":"Polygon","coordinates":[[[-92.4952,38.4278],[-92.6239,38.4306],[-92.6252,38.4308],[-92.8419,38.5968],[-92.8398,38.684],[-92.6171,38.68],[-92.4984,38.9221],[-92.3796,38.8001],[-92.3949,38.7391],[-92.4952,38.4278]]]}},{"type":"Feature","id":"29137","properties":{"name":"Monroe","fips":"29137"},"geometry":{"type":"Polygon","coordinates":[[[-91.7152,39.6576],[-91.718,39.3391],[-92.31,39.3478],[-92.3009,39.6053],[-92.2993,39.6053],[-92.1867,39.6041],[-92.185,39.6629],[-91.8467,39.6585],[-91.7152,39.6576]]]}},{"type":"Feature","id":"29139","properties":{"name":"Montgomery","fips":"29139"},"geometry":{"type":"Polygon","coordinates":[[[-91.2602,39.1398],[-91.2643,38.9928],[-91.2649,38.8438],[-91.4158,38.8453],[-91.4186,38.7098],[-91.5453,38.6769],[-91.6404,38.7038],[-91.6414,38.7039],[-91.6455,38.7037],[-91.6472,38.7034],[-91.634,39.0591],[-91.6296,39.1479],[-91.409,39.1425],[-91.2602,39.1398]]]}},{"type":"Feature","id":"29141","properties":{"name":"Morgan","fips":"29141"},"geometry":{"type":"Polygon","coordinates":[[[-92.6959,38.222],[-92.765,38.1895],[-92.9796,38.1977],[-93.0777,38.2631],[-93.0673,38.53],[-93.06,38.6931],[-92.9505,38.686],[-92.8398,38.684],[-92.8419,38.5968],[-92.6252,38.4308],[-92.6338,38.3481],[-92.6898,38.3485],[-92.6959,38.222]]]}},{"type":"Feature","id":"29143","properties":{"name":"New Madrid","fips":"29143"},"geometry":{"type":"Polygon","coordinates":[[[-89.4851,36.4977],[-89.4725,36.5137],[-89.4659,36.5299],[-89.4654,36.5362],[-89.4678,36.5468],[-89.4733,36.5599],[-89.4791,36.5682],[-89.4848,36.5718],[-89.5001,36.5763],[-89.5276,36.5811],[-89.5461,36.58],[-89.5526,36.5772],[-89.5668,36.5642],[-89.5715,36.5526],[-89.5701,36.5444],[-89.5603,36.5254],[-89.5391,36.4982],[-89.5227,36.4813],[-89.5195,36.4754],[-89.5096,36.3751],[-89.5132,36.3599],[-89.519,36.3486],[-89.5318,36.3392],[-89.545,36.3368],[-89.6113,36.4113],[-89.7521,36.3864],[-89.9613,36.3888],[-89.9588,36.6293],[-89.701,36.6275],[-89.6916,36.8595],[-89.5198,36.8696],[-89.3276,36.6321],[-89.3438,36.631],[-89.3655,36.6251],[-89.3764,36.6139],[-89.3881,36.5734],[-89.4006,36.5383],[-89.4173,36.499],[-89.4293,36.4819],[-89.4485,36.4644],[-89.4604,36.4581],[-89.4717,36.457],[-89.4862,36.4616],[-89.4932,36.4701],[-89.4935,36.4787],[-89.4851,36.4977]]]}},{"type":"Feature","id":"29145","properties":{"name":"Newton","fips":"29145"},"geometry":{"type":"Polygon","coordinates":[[[-94.0689,36.7478],[-94.6183,36.7666],[-94.6184,36.8473],[-94.6187,36.8801],[-94.6182,36.897],[-94.6183,36.9115],[-94.6182,36.9262],[-94.6183,36.9296],[-94.6182,36.9376],[-94.6181,36.9466],[-94.618,36.9502],[-94.618,36.9947],[-94.618,36.9962],[-94.6181,36.9981],[-94.618,37.009],[-94.618,37.0405],[-94.6179,37.0568],[-94.0592,37.0481],[-94.0627,36.9318],[-94.0689,36.7478]]]}},{"type":"Feature","id":"29147","properties":{"name":"Nodaway","fips":"29147"},"geometry":{"type":"Polygon","coordinates":[[[-95.0431,40.1301],[-95.0717,40.2609],[-95.1806,40.2617],[-95.1777,40.4789],[-95.2023,40.5785],[-95.1641,40.578],[-95.1545,40.5779],[-95.1208,40.5774],[-95.1122,40.5772],[-95.1107,40.5772],[-95.1103,40.5772],[-95.1072,40.5771],[-95.0976,40.5772],[-95.0797,40.577],[-95.0689,40.5769],[-94.9665,40.5758],[-94.9551,40.5757],[-94.9149,40.5751],[-94.9015,40.5749],[-94.8968,40.5747],[-94.8238,40.5739],[-94.82,40.5737],[-94.8112,40.5735],[-94.774,40.573],[-94.7167,40.5722],[-94.7149,40.5722],[-94.6826,40.5718],[-94.632,40.5712],[-94.5985,40.3867],[-94.6056,40.1278],[-94.6059,40.1261],[-95.0431,40.1301]]]}},{"type":"Feature","id":"29149","properties":{"name":"Oregon","fips":"29149"},"geometry":{"type":"Polygon","coordinates":[[[-91.1159,36.8237],[-91.1265,36.4977],[-91.2174,36.4975],[-91.2186,36.4976],[-91.2274,36.4976],[-91.4049,36.4971],[-91.4051,36.4972],[-91.4071,36.4971],[-91.4073,36.4971],[-91.4333,36.4973],[-91.4365,36.4974],[-91.4463,36.4975],[-91.45,36.4975],[-91.5298,36.499],[-91.5369,36.4992],[-91.5394,36.4991],[-91.5492,36.4992],[-91.5962,36.4992],[-91.6013,36.4993],[-91.6314,36.4992],[-91.6426,36.4993],[-91.6723,36.4995],[-91.6742,36.7878],[-91.6581,36.8887],[-91.2501,36.8852],[-91.2228,36.8839],[-91.2248,36.8257],[-91.1159,36.8237]]]}},{"type":"Feature","id":"29151","properties":{"name":"Osage","fips":"29151"},"geometry":{"type":"Polygon","coordinates":[[[-91.6447,38.2885],[-92.1957,38.2922],[-92.1945,38.3355],[-92.115,38.4019],[-92.1689,38.4668],[-92.0435,38.4665],[-92.0259,38.552],[-91.9442,38.5969],[-91.8695,38.6639],[-91.6472,38.7034],[-91.6455,38.7037],[-91.6414,38.7039],[-91.6404,38.7038],[-91.6447,38.2885]]]}},{"type":"Feature","id":"29153","properties":{"name":"Ozark","fips":"29153"},"geometry":{"type":"Polygon","coordinates":[[[-92.1123,36.7942],[-92.1204,36.4989],[-92.1377,36.4987],[-92.1503,36.4986],[-92.1994,36.4984],[-92.2114,36.4984],[-92.2141,36.4984],[-92.2164,36.4984],[-92.3094,36.4979],[-92.3184,36.4977],[-92.5291,36.4977],[-92.7723,36.4978],[-92.7723,36.4978],[-92.7649,36.8061],[-92.1123,36.7942]]]}},{"type":"Feature","id":"29155","properties":{"name":"Pemiscot","fips":"29155"},"geometry":{"type":"Polygon","coordinates":[[[-89.545,36.3368],[-89.5604,36.3377],[-89.5816,36.3424],[-89.6057,36.3422],[-89.6107,36.3404],[-89.6158,36.3361],[-89.6198,36.3295],[-89.6203,36.323],[-89.6118,36.3091],[-89.5785,36.2883],[-89.5543,36.2778],[-89.5448,36.2805],[-89.5395,36.2774],[-89.5355,36.2705],[-89.5347,36.2526],[-89.5416,36.2479],[-89.5896,36.2391],[-89.6024,36.2381],[-89.678,36.2483],[-89.6913,36.2521],[-89.6998,36.2484],[-89.6295,36.1854],[-89.6182,36.18],[-89.607,36.1712],[-89.5944,36.1555],[-89.5916,36.1441],[-89.594,36.1272],[-89.6019,36.1195],[-89.6242,36.1086],[-89.6844,36.0517],[-89.6873,36.034],[-89.6903,36.0248],[-89.7069,36.001],[-89.7331,36.0006],[-89.7376,36.0005],[-89.7376,36.0006],[-89.77,36.0005],[-89.7703,36.0005],[-89.869,35.9996],[-89.8746,35.9996],[-89.8751,35.9996],[-89.8756,35.9996],[-89.8965,35.9994],[-89.9012,35.9994],[-89.9594,35.999],[-89.9613,36.3888],[-89.7521,36.3864],[-89.6113,36.4113],[-89.545,36.3368]]]}},{"type":"Feature","id":"29157","properties":{"name":"Perry","fips":"29157"},"geometry":{"type":"Polygon","coordinates":[[[-89.5215,37.5662],[-89.6036,37.5921],[-89.8611,37.5993],[-90.1468,37.5974],[-90.1473,37.6135],[-90.1468,37.6416],[-90.1105,37.6713],[-89.9998,37.8217],[-89.9382,37.8751],[-89.9374,37.8747],[-89.9232,37.8707],[-89.9018,37.8698],[-89.8815,37.8796],[-89.8629,37.8969],[-89.851,37.904],[-89.8448,37.9056],[-89.7399,37.8469],[-89.6743,37.8032],[-89.6713,37.8011],[-89.5154,37.6714],[-89.5066,37.6251],[-89.5119,37.5846],[-89.518,37.584],[-89.5213,37.579],[-89.5214,37.5721],[-89.5215,37.5662]]]}},{"type":"Feature","id":"29159","properties":{"name":"Pettis","fips":"29159"},"geometry":{"type":"Polygon","coordinates":[[[-93.4973,38.9284],[-93.4964,38.9428],[-93.0698,38.93],[-93.0505,38.9282],[-93.06,38.6931],[-93.0673,38.53],[-93.2905,38.5354],[-93.2919,38.5063],[-93.5127,38.5125],[-93.5113,38.5486],[-93.5114,38.5489],[-93.511,38.5562],[-93.4973,38.9284]]]}},{"type":"Feature","id":"29161","properties":{"name":"Phelps","fips":"29161"},"geometry":{"type":"Polygon","coordinates":[[[-91.8091,37.5989],[-92.0293,37.6025],[-92.0212,38.0106],[-91.8953,38.0512],[-91.6324,38.051],[-91.6306,38.1535],[-91.5895,38.1532],[-91.5803,38.1528],[-91.538,38.1525],[-91.5344,38.1526],[-91.525,38.1524],[-91.5288,37.789],[-91.8062,37.7913],[-91.8091,37.5989]]]}},{"type":"Feature","id":"29163","properties":{"name":"Pike","fips":"29163"},"geometry":{"type":"Polygon","coordinates":[[[-91.2602,39.1398],[-91.409,39.1425],[-91.4382,39.3187],[-91.4604,39.4507],[-91.178,39.5982],[-91.1684,39.5649],[-91.1586,39.553],[-91.0424,39.4521],[-90.9938,39.423],[-90.94,39.3936],[-90.8827,39.3623],[-90.8422,39.3419],[-90.7993,39.3131],[-90.73,39.2559],[-90.727,39.2512],[-90.719,39.225],[-91.1829,39.2272],[-91.1855,39.139],[-91.2602,39.1398]]]}},{"type":"Feature","id":"29165","properties":{"name":"Platte","fips":"29165"},"geometry":{"type":"Polygon","coordinates":[[[-94.6008,39.4562],[-94.6017,39.1596],[-94.7067,39.1738],[-94.7141,39.1704],[-94.7236,39.169],[-94.7365,39.1692],[-94.7523,39.1732],[-94.7939,39.2013],[-94.8324,39.2272],[-94.901,39.3017],[-94.9076,39.3206],[-94.9106,39.3483],[-94.9083,39.3556],[-94.91,39.3675],[-94.9467,39.3997],[-94.9691,39.4189],[-95.1029,39.5333],[-94.6013,39.5321],[-94.6012,39.5304],[-94.6008,39.4562]]]}},{"type":"Feature","id":"29167","properties":{"name":"Polk","fips":"29167"},"geometry":{"type":"Polygon","coordinates":[[[-93.6212,37.4274],[-93.6204,37.4563],[-93.616,37.5727],[-93.6284,37.8294],[-93.5732,37.828],[-93.5741,37.8133],[-93.1879,37.8027],[-93.1752,37.6749],[-93.1825,37.4172],[-93.6212,37.4274]]]}},{"type":"Feature","id":"29169","properties":{"name":"Pulaski","fips":"29169"},"geometry":{"type":"Polygon","coordinates":[[[-92.4069,37.9778],[-92.4063,38.0212],[-92.1854,38.0163],[-92.1854,38.0151],[-92.0212,38.0106],[-92.0293,37.6025],[-92.2495,37.6045],[-92.2489,37.6484],[-92.4137,37.7139],[-92.4092,37.8592],[-92.4069,37.9778]]]}},{"type":"Feature","id":"29171","properties":{"name":"Putnam","fips":"29171"},"geometry":{"type":"Polygon","coordinates":[[[-93.3669,40.383],[-93.3744,40.5803],[-93.3454,40.5805],[-93.3176,40.5807],[-93.2606,40.5808],[-93.0985,40.584],[-93.0973,40.584],[-93.0855,40.5844],[-92.9577,40.5874],[-92.9416,40.5877],[-92.9035,40.5879],[-92.8898,40.588],[-92.8792,40.5883],[-92.863,40.5882],[-92.8574,40.5884],[-92.8351,40.5885],[-92.828,40.5885],[-92.8281,40.5886],[-92.7574,40.5889],[-92.7422,40.5892],[-92.7146,40.5896],[-92.6675,40.4083],[-92.6842,40.3435],[-92.8556,40.3427],[-92.8553,40.3859],[-93.3669,40.383]]]}},{"type":"Feature","id":"29173","properties":{"name":"Ralls","fips":"29173"},"geometry":{"type":"Polygon","coordinates":[[[-91.7152,39.6576],[-91.7155,39.6865],[-91.3132,39.6849],[-91.2293,39.6209],[-91.178,39.5982],[-91.4604,39.4507],[-91.4382,39.3187],[-91.7185,39.3245],[-91.718,39.3391],[-91.7152,39.6576]]]}},{"type":"Feature","id":"29175","properties":{"name":"Randolph","fips":"29175"},"geometry":{"type":"Polygon","coordinates":[[[-92.6921,39.6103],[-92.3009,39.6053],[-92.31,39.3478],[-92.3138,39.25],[-92.3145,39.2465],[-92.4302,39.2488],[-92.7074,39.3216],[-92.6966,39.6104],[-92.6921,39.6103]]]}},{"type":"Feature","id":"29177","properties":{"name":"Ray","fips":"29177"},"geometry":{"type":"Polygon","coordinates":[[[-93.7585,39.207],[-93.8401,39.2155],[-93.9889,39.1528],[-94.1048,39.1435],[-94.2125,39.2071],[-94.2106,39.4547],[-94.2108,39.4563],[-94.2084,39.5272],[-93.7592,39.5246],[-93.7587,39.2096],[-93.7585,39.207]]]}},{"type":"Feature","id":"29179","properties":{"name":"Reynolds","fips":"29179"},"geometry":{"type":"Polygon","coordinates":[[[-90.7796,37.0503],[-90.9645,37.0536],[-91.0178,37.0957],[-91.0343,37.1693],[-91.1593,37.2549],[-91.1754,37.4148],[-91.2119,37.4153],[-91.211,37.5019],[-91.3142,37.5051],[-91.3125,37.5928],[-91.1551,37.5881],[-90.7687,37.603],[-90.7729,37.3737],[-90.7355,37.271],[-90.7371,37.1664],[-90.7796,37.0503]]]}},{"type":"Feature","id":"29181","properties":{"name":"Ripley","fips":"29181"},"geometry":{"type":"Polygon","coordinates":[[[-90.6626,36.8115],[-90.6275,36.811],[-90.6284,36.6795],[-90.5922,36.6794],[-90.5762,36.4984],[-90.5853,36.4985],[-90.5943,36.4985],[-90.6055,36.4985],[-90.6126,36.4986],[-90.6485,36.4984],[-90.6532,36.4985],[-90.693,36.4985],[-90.7112,36.4983],[-90.7657,36.4985],[-90.7825,36.4985],[-90.7844,36.4985],[-90.8504,36.4985],[-90.8738,36.4981],[-90.8766,36.4983],[-90.8769,36.4984],[-90.8792,36.4984],[-90.9606,36.4984],[-90.9631,36.4984],[-91.0086,36.4983],[-91.018,36.4981],[-91.0959,36.4979],[-91.0963,36.4979],[-91.1265,36.4977],[-91.1159,36.8237],[-90.6626,36.8115]]]}},{"type":"Feature","id":"29195","properties":{"name":"Saline","fips":"29195"},"geometry":{"type":"Polygon","coordinates":[[[-92.8492,39.2262],[-92.9416,39.1259],[-92.9346,39.0645],[-93.0485,38.9724],[-93.0505,38.9282],[-93.0698,38.93],[-93.4964,38.9428],[-93.4772,39.2928],[-93.3333,39.25],[-93.3323,39.3096],[-93.2301,39.3279],[-93.2007,39.4018],[-93.1045,39.3837],[-93.0729,39.3355],[-92.9598,39.3125],[-92.9061,39.2223],[-92.8492,39.2262]]]}},{"type":"Feature","id":"29197","properties":{"name":"Schuyler","fips":"29197"},"geometry":{"type":"Polygon","coordinates":[[[-92.35,40.3465],[-92.6842,40.3435],[-92.6675,40.4083],[-92.7146,40.5896],[-92.6899,40.5899],[-92.6867,40.5898],[-92.6392,40.5908],[-92.6379,40.5909],[-92.5803,40.5922],[-92.4846,40.5949],[-92.4824,40.5949],[-92.4817,40.5949],[-92.4616,40.5954],[-92.4537,40.5953],[-92.3797,40.5965],[-92.3508,40.5973],[-92.35,40.3465]]]}},{"type":"Feature","id":"29199","properties":{"name":"Scotland","fips":"29199"},"geometry":{"type":"Polygon","coordinates":[[[-91.9497,40.3008],[-92.3478,40.3028],[-92.3499,40.3027],[-92.35,40.3465],[-92.3508,40.5973],[-92.3508,40.5973],[-92.3314,40.5977],[-92.3312,40.5978],[-92.2988,40.5985],[-92.2365,40.5995],[-92.2176,40.5998],[-92.2017,40.6],[-92.1962,40.6001],[-92.1798,40.6005],[-92.0964,40.6018],[-92.0929,40.6021],[-92.0832,40.6022],[-92.0823,40.6022],[-92.0695,40.6028],[-92.0679,40.6026],[-92.0296,40.6037],[-91.9987,40.6044],[-91.971,40.6051],[-91.9431,40.6059],[-91.9497,40.3008]]]}},{"type":"Feature","id":"29201","properties":{"name":"Scott","fips":"29201"},"geometry":{"type":"Polygon","coordinates":[[[-89.6916,36.8595],[-89.6866,36.9283],[-89.7868,37.0878],[-89.7652,37.1261],[-89.6203,37.233],[-89.4912,37.2486],[-89.4676,37.2182],[-89.4145,37.1251],[-89.3854,37.0551],[-89.3839,37.0464],[-89.3783,37.0396],[-89.3227,37.009],[-89.4654,36.9357],[-89.5198,36.8696],[-89.6916,36.8595]]]}},{"type":"Feature","id":"29203","properties":{"name":"Shannon","fips":"29203"},"geometry":{"type":"Polygon","coordinates":[[[-91.2228,36.8839],[-91.2501,36.8852],[-91.6581,36.8887],[-91.6578,36.8896],[-91.6556,37.0489],[-91.6466,37.4227],[-91.2119,37.4153],[-91.1754,37.4148],[-91.1593,37.2549],[-91.0343,37.1693],[-91.0178,37.0957],[-91.2172,37.0862],[-91.2228,36.8839]]]}},{"type":"Feature","id":"29205","properties":{"name":"Shelby","fips":"29205"},"geometry":{"type":"Polygon","coordinates":[[[-92.2993,39.6053],[-92.2879,39.9525],[-92.1773,39.9545],[-91.9527,39.9494],[-91.8404,39.9482],[-91.8467,39.6585],[-92.185,39.6629],[-92.1867,39.6041],[-92.2993,39.6053]]]}},{"type":"Feature","id":"29183","properties":{"name":"St. Charles","fips":"29183"},"geometry":{"type":"Polygon","coordinates":[[[-90.5718,38.6811],[-90.6605,38.6886],[-90.7323,38.6393],[-90.9166,38.5347],[-90.9645,38.5475],[-90.9622,38.7742],[-90.9585,38.8709],[-90.8178,38.876],[-90.7782,38.9225],[-90.6659,38.9342],[-90.6634,38.928],[-90.6573,38.9203],[-90.6251,38.8887],[-90.5834,38.869],[-90.5666,38.8688],[-90.5557,38.8708],[-90.544,38.8751],[-90.5075,38.9028],[-90.487,38.926],[-90.4827,38.9347],[-90.4824,38.9445],[-90.4721,38.9588],[-90.4678,38.9618],[-90.4508,38.9678],[-90.4508,38.9678],[-90.4064,38.9626],[-90.3858,38.9568],[-90.2759,38.9265],[-90.2502,38.9193],[-90.2258,38.9089],[-90.207,38.899],[-90.1133,38.8493],[-90.1094,38.8435],[-90.1091,38.8374],[-90.1147,38.815],[-90.1177,38.8057],[-90.2987,38.8878],[-90.4823,38.7643],[-90.4958,38.7483],[-90.528,38.7337],[-90.5313,38.7312],[-90.5336,38.7269],[-90.5304,38.7082],[-90.5304,38.6986],[-90.5338,38.6919],[-90.5416,38.6853],[-90.5547,38.6816],[-90.5718,38.6811]]]}},{"type":"Feature","id":"29185","properties":{"name":"St. Clair","fips":"29185"},"geometry":{"type":"Polygon","coordinates":[[[-94.0499,38.214],[-93.5235,38.2072],[-93.504,38.0718],[-93.5121,37.9135],[-93.5687,37.9149],[-93.5732,37.828],[-93.6284,37.8294],[-93.8114,37.8346],[-93.8086,37.8928],[-94.0657,37.901],[-94.0583,38.0366],[-94.0499,38.214]]]}},{"type":"Feature","id":"29187","properties":{"name":"St. Francois","fips":"29187"},"geometry":{"type":"Polygon","coordinates":[[[-90.535,37.6436],[-90.6479,37.6428],[-90.6451,37.7348],[-90.64,38.0765],[-90.5833,38.0035],[-90.416,38.0423],[-90.3229,37.9817],[-90.4591,37.8789],[-90.2002,37.6696],[-90.1105,37.6713],[-90.1468,37.6416],[-90.5168,37.6427],[-90.535,37.6436]]]}},{"type":"Feature","id":"29510","properties":{"name":"St. Louis","fips":"29510"},"geometry":{"type":"Polygon","coordinates":[[[-90.3019,38.6557],[-90.2517,38.7189],[-90.1651,38.7706],[-90.1713,38.7665],[-90.2099,38.7261],[-90.212,38.7118],[-90.2092,38.7028],[-90.2022,38.6934],[-90.1952,38.6876],[-90.1864,38.6748],[-90.1814,38.6604],[-90.1811,38.6596],[-90.1777,38.6427],[-90.178,38.6337],[-90.1826,38.618],[-90.1845,38.6116],[-90.196,38.5945],[-90.2025,38.5887],[-90.2245,38.5747],[-90.2489,38.5448],[-90.2578,38.532],[-90.3064,38.6336],[-90.3048,38.6424],[-90.3036,38.645],[-90.3019,38.6557]]]}},{"type":"Feature","id":"29189","properties":{"name":"St. Louis","fips":"29189"},"geometry":{"type":"Polygon","coordinates":[[[-90.3403,38.387],[-90.3768,38.4529],[-90.4053,38.5012],[-90.5911,38.5017],[-90.7363,38.4666],[-90.7323,38.6393],[-90.6605,38.6886],[-90.5718,38.6811],[-90.5547,38.6816],[-90.5416,38.6853],[-90.5338,38.6919],[-90.5304,38.6986],[-90.5304,38.7082],[-90.5336,38.7269],[-90.5313,38.7312],[-90.528,38.7337],[-90.4958,38.7483],[-90.4823,38.7643],[-90.2987,38.8878],[-90.1177,38.8057],[-90.1231,38.798],[-90.1651,38.7706],[-90.2517,38.7189],[-90.3019,38.6557],[-90.3036,38.645],[-90.3048,38.6424],[-90.3064,38.6336],[-90.2578,38.532],[-90.2603,38.5284],[-90.2631,38.5202],[-90.2792,38.4725],[-90.2852,38.4435],[-90.2953,38.4268],[-90.3403,38.387]]]}},{"type":"Feature","id":"29186","properties":{"name":"Ste. Genevieve","fips":"29186"},"geometry":{"type":"Polygon","coordinates":[[[-90.1105,37.6713],[-90.2002,37.6696],[-90.4591,37.8789],[-90.3229,37.9817],[-90.416,38.0423],[-90.2541,38.122],[-90.2431,38.1127],[-90.2038,38.0888],[-90.1265,38.0417],[-90.0723,38.017],[-89.9971,37.9632],[-89.9749,37.9267],[-89.9736,37.9177],[-89.9506,37.8815],[-89.9382,37.8751],[-89.9998,37.8217],[-90.1105,37.6713]]]}},{"type":"Feature","id":"29207","properties":{"name":"Stoddard","fips":"29207"},"geometry":{"type":"Polygon","coordinates":[[[-89.9588,36.6293],[-90.1484,36.6307],[-90.14,36.6968],[-90.2042,36.7723],[-90.2586,36.922],[-90.1112,37.0412],[-89.9592,37.0544],[-89.9596,37.1274],[-89.8666,37.1262],[-89.7652,37.1261],[-89.7868,37.0878],[-89.6866,36.9283],[-89.6916,36.8595],[-89.701,36.6275],[-89.9588,36.6293]]]}},{"type":"Feature","id":"29209","properties":{"name":"Stone","fips":"29209"},"geometry":{"type":"Polygon","coordinates":[[[-93.6101,36.9958],[-93.3375,36.9925],[-93.342,36.8173],[-93.3044,36.8169],[-93.3153,36.4984],[-93.3153,36.4984],[-93.3947,36.4985],[-93.3961,36.4987],[-93.427,36.4986],[-93.5074,36.4989],[-93.5145,36.4989],[-93.5843,36.4989],[-93.5843,36.4989],[-93.5738,36.82],[-93.611,36.9228],[-93.6101,36.9958]]]}},{"type":"Feature","id":"29211","properties":{"name":"Sullivan","fips":"29211"},"geometry":{"type":"Polygon","coordinates":[[[-93.3672,40.2663],[-93.3669,40.383],[-92.8553,40.3859],[-92.8556,40.3427],[-92.8562,40.0373],[-93.362,40.0331],[-93.3666,40.0331],[-93.3672,40.2663]]]}},{"type":"Feature","id":"29213","properties":{"name":"Taney","fips":"29213"},"geometry":{"type":"Polygon","coordinates":[[[-93.1469,36.8138],[-92.9093,36.8092],[-92.7649,36.8061],[-92.7723,36.4978],[-92.8386,36.4981],[-92.8389,36.498],[-92.854,36.498],[-92.894,36.4978],[-92.8943,36.4979],[-93.0137,36.4981],[-93.0685,36.4982],[-93.0695,36.4982],[-93.0876,36.4982],[-93.089,36.4982],[-93.2961,36.4984],[-93.3153,36.4984],[-93.3044,36.8169],[-93.1469,36.8138]]]}},{"type":"Feature","id":"29215","properties":{"name":"Texas","fips":"29215"},"geometry":{"type":"Polygon","coordinates":[[[-92.2523,37.4729],[-92.2495,37.6045],[-92.0293,37.6025],[-91.8091,37.5989],[-91.7548,37.5988],[-91.755,37.4241],[-91.6466,37.4227],[-91.6556,37.0489],[-92.0887,37.0562],[-92.2502,37.0598],[-92.2514,37.0597],[-92.2523,37.4729]]]}},{"type":"Feature","id":"29217","properties":{"name":"Vernon","fips":"29217"},"geometry":{"type":"Polygon","coordinates":[[[-94.6141,38.0601],[-94.0583,38.0366],[-94.0657,37.901],[-94.0735,37.6397],[-94.6176,37.6536],[-94.6176,37.6537],[-94.6177,37.6731],[-94.6177,37.6731],[-94.6179,37.6822],[-94.6177,37.6867],[-94.6177,37.6877],[-94.6178,37.6902],[-94.618,37.7222],[-94.6178,37.7297],[-94.6169,37.8195],[-94.6165,37.8376],[-94.6164,37.8453],[-94.616,37.8631],[-94.6158,37.8725],[-94.6159,37.8783],[-94.6157,37.8868],[-94.6155,37.9018],[-94.6154,37.9064],[-94.6152,37.9159],[-94.6148,37.9342],[-94.6148,37.9367],[-94.6148,37.9408],[-94.6146,37.9444],[-94.6146,37.95],[-94.6146,37.9515],[-94.6146,37.971],[-94.6145,37.9878],[-94.6142,37.9925],[-94.614,38.0369],[-94.614,38.0371],[-94.6141,38.0601]]]}},{"type":"Feature","id":"29219","properties":{"name":"Warren","fips":"29219"},"geometry":{"type":"Polygon","coordinates":[[[-90.9622,38.7742],[-90.9645,38.5475],[-91.0773,38.6093],[-91.2265,38.6216],[-91.3131,38.7067],[-91.3692,38.6993],[-91.3951,38.708],[-91.4186,38.7098],[-91.4158,38.8453],[-91.2649,38.8438],[-91.2643,38.9928],[-91.1884,38.9921],[-91.1893,38.9322],[-91.1102,38.9319],[-91.1113,38.8727],[-90.9585,38.8709],[-90.9622,38.7742]]]}},{"type":"Feature","id":"29221","properties":{"name":"Washington","fips":"29221"},"geometry":{"type":"Polygon","coordinates":[[[-90.64,38.0765],[-90.6451,37.7348],[-91.1,37.74],[-91.0958,38.2041],[-90.7802,38.2041],[-90.64,38.0765]]]}},{"type":"Feature","id":"29223","properties":{"name":"Wayne","fips":"29223"},"geometry":{"type":"Polygon","coordinates":[[[-90.2586,36.922],[-90.6786,36.9265],[-90.7796,37.0503],[-90.7371,37.1664],[-90.7355,37.271],[-90.5506,37.2726],[-90.5497,37.3176],[-90.2177,37.315],[-90.2232,37.0865],[-90.1104,37.0859],[-90.1112,37.0412],[-90.2586,36.922]]]}},{"type":"Feature","id":"29225","properties":{"name":"Webster","fips":"29225"},"geometry":{"type":"Polygon","coordinates":[[[-93.0653,37.0887],[-93.0734,37.415],[-93.0716,37.4874],[-92.8535,37.484],[-92.8521,37.4841],[-92.6867,37.4815],[-92.6859,37.0671],[-92.9033,37.0707],[-93.0653,37.0887]]]}},{"type":"Feature","id":"29227","properties":{"name":"Worth","fips":"29227"},"geometry":{"type":"Polygon","coordinates":[[[-94.2143,40.3843],[-94.5985,40.3867],[-94.632,40.5712],[-94.632,40.5712],[-94.594,40.571],[-94.5422,40.5708],[-94.5418,40.5708],[-94.5383,40.5708],[-94.5371,40.5708],[-94.5339,40.5707],[-94.4893,40.5707],[-94.4712,40.5708],[-94.4706,40.5708],[-94.4601,40.5709],[-94.4297,40.571],[-94.3583,40.5714],[-94.3367,40.5715],[-94.3366,40.5715],[-94.3248,40.5715],[-94.3107,40.5715],[-94.2948,40.5713],[-94.2874,40.5715],[-94.2322,40.5719],[-94.2143,40.3843]]]}},{"type":"Feature","id":"29229","properties":{"name":"Wright","fips":"29229"},"geometry":{"type":"Polygon","coordinates":[[[-92.2523,37.4729],[-92.2514,37.0597],[-92.6859,37.0671],[-92.6867,37.4815],[-92.2523,37.4729]]]}}]}