{"type":"FeatureCollection","features":[{"type":"Feature","id":"28001","properties":{"name":"Adams","fips":"28001"},"geometry":{"type":"Polygon","coordinates":[[[-91.1539,31.6101],[-91.1582,31.3467],[-91.3063,31.3609],[-91.4684,31.3196],[-91.489,31.2259],[-91.6,31.1923],[-91.5985,31.2055],[-91.5745,31.2613],[-91.5476,31.2644],[-91.5224,31.2734],[-91.5156,31.2782],[-91.5089,31.2916],[-91.5198,31.3112],[-91.5312,31.3266],[-91.5399,31.3373],[-91.5412,31.3568],[-91.5254,31.3789],[-91.5138,31.3869],[-91.5051,31.4009],[-91.5004,31.419],[-91.5053,31.4329],[-91.5104,31.4389],[-91.5151,31.4492],[-91.5229,31.5198],[-91.5158,31.5309],[-91.5112,31.5326],[-91.4797,31.5304],[-91.45,31.5397],[-91.4376,31.5462],[-91.4227,31.5544],[-91.4167,31.5616],[-91.4155,31.567],[-91.4251,31.5778],[-91.4377,31.5808],[-91.4486,31.583],[-91.4587,31.5832],[-91.4708,31.5856],[-91.4774,31.5922],[-91.478,31.5982],[-91.478,31.6049],[-91.478,31.6109],[-91.475,31.6217],[-91.4647,31.6289],[-91.4527,31.6313],[-91.4413,31.6313],[-91.4221,31.6313],[-91.4047,31.6379],[-91.3981,31.6559],[-91.4001,31.6882],[-91.3979,31.7094],[-91.3799,31.733],[-91.3694,31.7469],[-91.3651,31.7527],[-91.3179,31.7498],[-91.2693,31.6473],[-91.1539,31.6101]]]}},{"type":"Feature","id":"28003","properties":{"name":"Alcorn","fips":"28003"},"geometry":{"type":"Polygon","coordinates":[[[-88.7866,34.9953],[-88.4699,34.996],[-88.4698,34.9961],[-88.3805,34.9956],[-88.3635,34.9956],[-88.3655,34.7556],[-88.7185,34.7568],[-88.753,34.8588],[-88.8235,34.8586],[-88.823,34.9952],[-88.7866,34.9953]]]}},{"type":"Feature","id":"28005","properties":{"name":"Amite","fips":"28005"},"geometry":{"type":"Polygon","coordinates":[[[-90.8258,30.9994],[-90.826,30.9994],[-91.0602,30.9989],[-91.0594,31.2819],[-91.0954,31.321],[-91.018,31.3475],[-90.6333,31.3493],[-90.5482,31.3496],[-90.5476,30.9997],[-90.5672,30.9997],[-90.5835,30.9997],[-90.5844,30.9997],[-90.5874,30.9996],[-90.5887,30.9996],[-90.6487,30.9995],[-90.6512,30.9995],[-90.7345,30.9992],[-90.7346,30.9992],[-90.7588,30.9996],[-90.7693,30.9994],[-90.776,30.9995],[-90.7799,30.9995],[-90.7837,30.9994],[-90.8258,30.9994]]]}},{"type":"Feature","id":"28007","properties":{"name":"Attala","fips":"28007"},"geometry":{"type":"Polygon","coordinates":[[[-89.6453,33.2855],[-89.4538,33.2859],[-89.3164,33.2856],[-89.3179,33.1089],[-89.3192,32.9317],[-89.4733,32.9311],[-89.7302,32.9299],[-89.73,32.8848],[-89.9659,32.8796],[-89.8955,32.936],[-89.7494,33.2145],[-89.6453,33.2855]]]}},{"type":"Feature","id":"28009","properties":{"name":"Benton","fips":"28009"},"geometry":{"type":"Polygon","coordinates":[[[-89.139,34.9943],[-89.0171,34.9946],[-89.0176,34.8587],[-89.0881,34.8153],[-89.0885,34.5982],[-89.2456,34.5976],[-89.2456,34.5832],[-89.2983,34.5829],[-89.2992,34.8444],[-89.3527,34.8444],[-89.3527,34.9944],[-89.1983,34.9945],[-89.1391,34.9943],[-89.139,34.9943]]]}},{"type":"Feature","id":"28011","properties":{"name":"Bolivar","fips":"28011"},"geometry":{"type":"Polygon","coordinates":[[[-91.2323,33.5528],[-91.2283,33.5599],[-91.2241,33.5674],[-91.1521,33.5827],[-91.134,33.5945],[-91.1304,33.606],[-91.1575,33.6262],[-91.1865,33.6459],[-91.1931,33.6569],[-91.1887,33.6695],[-91.186,33.6793],[-91.1761,33.6843],[-91.1482,33.6793],[-91.14,33.6837],[-91.1328,33.6881],[-91.1279,33.6958],[-91.1268,33.7078],[-91.1361,33.7286],[-91.1447,33.7501],[-91.1399,33.7771],[-91.0675,33.8404],[-91.0368,33.9147],[-91.0882,33.9601],[-91.0891,33.9727],[-91.0189,34.0032],[-90.9647,34.008],[-90.8874,34.0325],[-90.8792,34.0655],[-90.8884,34.0874],[-90.9121,34.0955],[-90.9288,34.1076],[-90.932,34.12],[-90.6595,34.1189],[-90.657,33.9876],[-90.6586,33.6163],[-90.7635,33.6162],[-90.7635,33.5294],[-91.2157,33.5294],[-91.2323,33.5528]]]}},{"type":"Feature","id":"28013","properties":{"name":"Calhoun","fips":"28013"},"geometry":{"type":"Polygon","coordinates":[[[-89.5071,33.7218],[-89.5074,33.8675],[-89.5097,34.1621],[-89.2501,34.161],[-89.2455,34.1612],[-89.2444,34.0739],[-89.1392,34.0741],[-89.1379,33.8121],[-89.1918,33.7386],[-89.1919,33.7222],[-89.5071,33.7218]]]}},{"type":"Feature","id":"28015","properties":{"name":"Carroll","fips":"28015"},"geometry":{"type":"Polygon","coordinates":[[[-90.1746,33.3334],[-90.1748,33.417],[-90.1014,33.4589],[-90.1278,33.677],[-89.7869,33.6767],[-89.7852,33.4163],[-89.6463,33.4025],[-89.6453,33.2855],[-89.7494,33.2145],[-90.1746,33.3334]]]}},{"type":"Feature","id":"28017","properties":{"name":"Chickasaw","fips":"28017"},"geometry":{"type":"Polygon","coordinates":[[[-88.8245,34.0749],[-88.7251,34.0748],[-88.719,34.0745],[-88.72,33.8113],[-88.9312,33.8124],[-88.9316,33.7543],[-89.0345,33.7394],[-89.1918,33.7386],[-89.1379,33.8121],[-89.1392,34.0741],[-88.8245,34.0749]]]}},{"type":"Feature","id":"28019","properties":{"name":"Choctaw","fips":"28019"},"geometry":{"type":"Polygon","coordinates":[[[-89.1088,33.2159],[-89.2134,33.1975],[-89.2139,33.1094],[-89.3179,33.1089],[-89.3164,33.2856],[-89.4538,33.2859],[-89.454,33.4332],[-89.3811,33.4603],[-89.2961,33.5067],[-89.1057,33.5329],[-89.0884,33.5332],[-89.0883,33.286],[-89.1089,33.2859],[-89.1088,33.2159]]]}},{"type":"Feature","id":"28021","properties":{"name":"Claiborne","fips":"28021"},"geometry":{"type":"Polygon","coordinates":[[[-90.7363,31.7861],[-90.8527,31.7854],[-90.842,31.8265],[-91.0137,31.8619],[-91.2481,31.8698],[-91.128,31.9859],[-91.0347,32.1011],[-91.0279,32.1127],[-90.9451,32.0799],[-90.9077,32.1319],[-90.7748,32.154],[-90.7286,32.2251],[-90.7183,32.0484],[-90.7168,31.8446],[-90.7363,31.7861]]]}},{"type":"Feature","id":"28023","properties":{"name":"Clarke","fips":"28023"},"geometry":{"type":"Polygon","coordinates":[[[-88.9105,31.8266],[-88.9138,32.2242],[-88.4317,32.2277],[-88.4386,32.1728],[-88.4387,32.1721],[-88.455,32.0406],[-88.455,32.0397],[-88.4687,31.9332],[-88.4689,31.9303],[-88.47,31.8938],[-88.6224,31.8572],[-88.9105,31.8266]]]}},{"type":"Feature","id":"28025","properties":{"name":"Clay","fips":"28025"},"geometry":{"type":"Polygon","coordinates":[[[-89.0186,33.5621],[-89.0186,33.593],[-89.0345,33.7394],[-88.9316,33.7543],[-88.9312,33.8124],[-88.72,33.8113],[-88.7196,33.6803],[-88.4964,33.6801],[-88.5139,33.6502],[-88.4803,33.5227],[-88.6713,33.5062],[-88.6715,33.5651],[-89.0186,33.5621]]]}},{"type":"Feature","id":"28027","properties":{"name":"Coahoma","fips":"28027"},"geometry":{"type":"Polygon","coordinates":[[[-90.5701,34.5248],[-90.5689,34.5246],[-90.3995,34.4238],[-90.399,34.2615],[-90.4506,34.2624],[-90.451,34.0729],[-90.4505,34.0001],[-90.451,33.9857],[-90.657,33.9876],[-90.6595,34.1189],[-90.932,34.12],[-90.9331,34.1245],[-90.9346,34.1301],[-90.9184,34.1544],[-90.893,34.1555],[-90.8803,34.1694],[-90.8809,34.1803],[-90.8959,34.1919],[-90.9132,34.2104],[-90.9115,34.2231],[-90.8947,34.23],[-90.8688,34.2282],[-90.8564,34.2389],[-90.7641,34.3634],[-90.6585,34.3757],[-90.6139,34.3907],[-90.5753,34.4152],[-90.5658,34.4354],[-90.5701,34.5248]]]}},{"type":"Feature","id":"28029","properties":{"name":"Copiah","fips":"28029"},"geometry":{"type":"Polygon","coordinates":[[[-90.7368,31.6985],[-90.7363,31.7861],[-90.7168,31.8446],[-90.7183,32.0484],[-90.2303,32.0497],[-90.1326,31.8569],[-90.1226,31.7527],[-90.2452,31.7175],[-90.28,31.6999],[-90.7368,31.6985]]]}},{"type":"Feature","id":"28031","properties":{"name":"Covington","fips":"28031"},"geometry":{"type":"Polygon","coordinates":[[[-89.3992,31.434],[-89.4209,31.434],[-89.4516,31.434],[-89.5868,31.4337],[-89.5869,31.5134],[-89.7556,31.6098],[-89.7551,31.7747],[-89.653,31.7807],[-89.4012,31.7969],[-89.4005,31.6862],[-89.3992,31.434]]]}},{"type":"Feature","id":"28033","properties":{"name":"DeSoto","fips":"28033"},"geometry":{"type":"Polygon","coordinates":[[[-89.7952,34.9943],[-89.7243,34.9948],[-89.7234,34.7733],[-89.7236,34.7721],[-89.9122,34.7725],[-90.0301,34.7079],[-90.1289,34.7605],[-90.2002,34.7244],[-90.2021,34.8604],[-90.2939,34.8606],[-90.2501,34.9073],[-90.2445,34.9376],[-90.254,34.955],[-90.3093,34.9957],[-89.8934,34.9944],[-89.8834,34.9943],[-89.8485,34.9942],[-89.7952,34.9943]]]}},{"type":"Feature","id":"28035","properties":{"name":"Forrest","fips":"28035"},"geometry":{"type":"Polygon","coordinates":[[[-89.349,31.0104],[-89.3479,31.3467],[-89.4511,31.3464],[-89.4516,31.434],[-89.4209,31.434],[-89.3992,31.434],[-89.1461,31.4341],[-89.138,30.9099],[-89.3408,30.9099],[-89.349,31.0104]]]}},{"type":"Feature","id":"28037","properties":{"name":"Franklin","fips":"28037"},"geometry":{"type":"Polygon","coordinates":[[[-90.7373,31.6111],[-90.6332,31.6114],[-90.6333,31.3493],[-91.018,31.3475],[-91.0954,31.321],[-91.1582,31.3467],[-91.1539,31.6101],[-90.7373,31.6111]]]}},{"type":"Feature","id":"28039","properties":{"name":"George","fips":"28039"},"geometry":{"type":"Polygon","coordinates":[[[-88.8845,30.7356],[-88.885,30.9108],[-88.8345,30.9103],[-88.8343,30.998],[-88.8093,30.9974],[-88.4256,30.9983],[-88.4125,30.7356],[-88.8845,30.7356]]]}},{"type":"Feature","id":"28041","properties":{"name":"Greene","fips":"28041"},"geometry":{"type":"Polygon","coordinates":[[[-88.8343,30.998],[-88.8409,30.9984],[-88.8417,31.4337],[-88.4494,31.4358],[-88.4487,31.4213],[-88.4487,31.4209],[-88.4452,31.356],[-88.4452,31.3559],[-88.4382,31.2313],[-88.4381,31.2301],[-88.432,31.1143],[-88.4258,31.0011],[-88.4257,31.0002],[-88.4256,30.9983],[-88.8093,30.9974],[-88.8343,30.998]]]}},{"type":"Feature","id":"28043","properties":{"name":"Grenada","fips":"28043"},"geometry":{"type":"Polygon","coordinates":[[[-90.1368,33.7216],[-90.1365,33.8093],[-89.9263,33.8239],[-89.9261,33.898],[-89.7693,33.8971],[-89.769,33.8673],[-89.5074,33.8675],[-89.5071,33.7218],[-89.5069,33.714],[-89.5069,33.6776],[-89.7869,33.6767],[-90.1278,33.677],[-90.137,33.6769],[-90.1368,33.7216]]]}},{"type":"Feature","id":"28045","properties":{"name":"Hancock","fips":"28045"},"geometry":{"type":"Polygon","coordinates":[[[-89.3414,30.6477],[-89.3409,30.3729],[-89.3494,30.371],[-89.3532,30.3688],[-89.3638,30.3574],[-89.3661,30.3522],[-89.3459,30.3436],[-89.3388,30.343],[-89.3325,30.3379],[-89.3223,30.3193],[-89.3225,30.3149],[-89.3299,30.3029],[-89.3447,30.2932],[-89.3585,30.2889],[-89.3657,30.2849],[-89.3795,30.2704],[-89.3837,30.2678],[-89.4193,30.2543],[-89.4246,30.2454],[-89.4245,30.2391],[-89.4304,30.2232],[-89.4475,30.2051],[-89.4479,30.1854],[-89.4613,30.1747],[-89.4636,30.1739],[-89.4698,30.1763],[-89.4758,30.1916],[-89.4802,30.1938],[-89.4901,30.1877],[-89.5032,30.1831],[-89.5228,30.1831],[-89.5245,30.1808],[-89.5727,30.1809],[-89.5808,30.1862],[-89.6077,30.2171],[-89.6434,30.2877],[-89.6436,30.2931],[-89.6407,30.3013],[-89.6299,30.321],[-89.6299,30.3394],[-89.6834,30.4518],[-89.6906,30.4588],[-89.5445,30.5169],[-89.5442,30.6484],[-89.3414,30.6477]]]}},{"type":"Feature","id":"28047","properties":{"name":"Harrison","fips":"28047"},"geometry":{"type":"MultiPolygon","coordinates":[[[[-89.0956,30.2318],[-89.0773,30.2317],[-89.0671,30.2502],[-89.064,30.2463],[-89.0651,30.2399],[-89.0735,30.2233],[-89.0915,30.2023],[-89.1182,30.2233],[-89.1567,30.2307],[-89.0956,30.2318]]],[[[-88.9004,30.2246],[-88.9098,30.2204],[-88.9455,30.2096],[-88.9747,30.2074],[-88.9802,30.208],[-88.9842,30.2103],[-88.9822,30.2116],[-88.9768,30.211],[-88.9479,30.2142],[-88.9205,30.2206],[-88.9089,30.2254],[-88.8898,30.2397],[-88.8778,30.2424],[-88.8737,30.2417],[-88.9004,30.2246]]],[[[-88.8845,30.6773],[-88.8831,30.4188],[-88.8456,30.4053],[-88.8578,30.3929],[-88.8514,30.3754],[-88.8805,30.3866],[-88.8838,30.3892],[-88.8848,30.392],[-88.8939,30.3934],[-88.922,30.3938],[-88.9712,30.3908],[-89.0163,30.3839],[-89.0832,30.3681],[-89.1868,30.3312],[-89.2204,30.3225],[-89.2718,30.3055],[-89.2857,30.3031],[-89.2914,30.3033],[-89.2944,30.3076],[-89.2918,30.3281],[-89.2878,30.3332],[-89.2816,30.332],[-89.2798,30.3498],[-89.2925,30.3656],[-89.3151,30.3754],[-89.3359,30.374],[-89.3409,30.3729],[-89.3414,30.6477],[-89.2401,30.6772],[-88.8845,30.6773]]]]}},{"type":"Feature","id":"28049","properties":{"name":"Hinds","fips":"28049"},"geometry":{"type":"Polygon","coordinates":[[[-90.45,32.5738],[-90.4498,32.488],[-90.2436,32.4875],[-90.2438,32.4001],[-90.1467,32.3999],[-90.1412,32.3995],[-90.0657,32.3995],[-90.1605,32.3083],[-90.2454,32.1714],[-90.2303,32.0497],[-90.7183,32.0484],[-90.7286,32.2251],[-90.6945,32.353],[-90.6362,32.3745],[-90.5538,32.5076],[-90.45,32.5738]]]}},{"type":"Feature","id":"28051","properties":{"name":"Holmes","fips":"28051"},"geometry":{"type":"Polygon","coordinates":[[[-90.3316,33.3028],[-90.3215,33.3751],[-90.1746,33.3334],[-89.7494,33.2145],[-89.8955,32.936],[-89.9659,32.8796],[-90.364,33.0106],[-90.4317,33.0969],[-90.3303,33.1378],[-90.3316,33.3028]]]}},{"type":"Feature","id":"28053","properties":{"name":"Humphreys","fips":"28053"},"geometry":{"type":"Polygon","coordinates":[[[-90.4532,33.3295],[-90.4538,33.2673],[-90.3735,33.2422],[-90.3316,33.3028],[-90.3303,33.1378],[-90.4317,33.0969],[-90.364,33.0106],[-90.4493,33.009],[-90.4499,32.9233],[-90.6566,32.9225],[-90.658,33.0965],[-90.7018,33.0963],[-90.6803,33.202],[-90.7163,33.27],[-90.5552,33.2705],[-90.5555,33.3292],[-90.4532,33.3295]]]}},{"type":"Feature","id":"28055","properties":{"name":"Issaquena","fips":"28055"},"geometry":{"type":"Polygon","coordinates":[[[-90.7201,32.6189],[-90.7283,32.5663],[-90.8606,32.5752],[-90.8614,32.4421],[-90.9512,32.4444],[-90.964,32.5756],[-91.0908,32.564],[-91.0968,32.5767],[-91.1041,32.5847],[-91.1199,32.5848],[-91.1279,32.5865],[-91.1411,32.5972],[-91.1462,32.6041],[-91.1513,32.6159],[-91.1538,32.6313],[-91.1521,32.6415],[-91.1183,32.6741],[-91.0988,32.6853],[-91.0761,32.6938],[-91.0639,32.7029],[-91.057,32.7126],[-91.0545,32.7223],[-91.0608,32.7275],[-91.0772,32.7325],[-91.1232,32.7428],[-91.1545,32.7423],[-91.1634,32.747],[-91.1653,32.7513],[-91.1644,32.7858],[-91.1617,32.8125],[-91.1583,32.8223],[-91.145,32.8429],[-91.1279,32.8551],[-91.1161,32.8556],[-91.1056,32.8584],[-91.0867,32.8734],[-91.0706,32.8887],[-91.0638,32.9037],[-91.064,32.9241],[-91.0868,32.9763],[-91.0943,32.9844],[-91.1066,32.9889],[-91.1251,32.9847],[-91.1344,32.9805],[-91.1386,32.9714],[-91.1309,32.9638],[-91.1321,32.9231],[-91.134,32.9177],[-91.1451,32.9055],[-91.16,32.8999],[-91.1754,32.9],[-91.1968,32.9068],[-91.2083,32.9154],[-91.2128,32.9221],[-91.214,32.9303],[-91.2018,32.9612],[-91.1661,33.0041],[-91.1577,33.0112],[-90.9143,33.0077],[-90.9638,32.8381],[-90.9649,32.6628],[-90.7232,32.6621],[-90.7128,32.6423],[-90.693,32.6401],[-90.6976,32.6251],[-90.7201,32.6189]]]}},{"type":"Feature","id":"28057","properties":{"name":"Itawamba","fips":"28057"},"geometry":{"type":"Polygon","coordinates":[[[-88.5421,34.4653],[-88.3292,34.4636],[-88.1553,34.4631],[-88.1656,34.3831],[-88.1659,34.3809],[-88.1736,34.3211],[-88.1759,34.3022],[-88.1769,34.2939],[-88.2036,34.0865],[-88.5434,34.089],[-88.5421,34.4653]]]}},{"type":"Feature","id":"28059","properties":{"name":"Jackson","fips":"28059"},"geometry":{"type":"MultiPolygon","coordinates":[[[[-88.8456,30.4053],[-88.8831,30.4188],[-88.8845,30.6773],[-88.8845,30.7132],[-88.8845,30.7138],[-88.8845,30.7146],[-88.8845,30.7356],[-88.4125,30.7356],[-88.4123,30.7318],[-88.4122,30.7304],[-88.4116,30.713],[-88.4113,30.7063],[-88.4096,30.6687],[-88.4081,30.637],[-88.4075,30.6317],[-88.4075,30.6227],[-88.404,30.5451],[-88.4039,30.5434],[-88.4035,30.5331],[-88.4023,30.5109],[-88.395,30.3694],[-88.3972,30.3677],[-88.3991,30.3607],[-88.3971,30.3548],[-88.3941,30.3525],[-88.394,30.3493],[-88.4012,30.3444],[-88.4099,30.3421],[-88.4188,30.3539],[-88.4339,30.3547],[-88.4465,30.3478],[-88.4466,30.3377],[-88.4538,30.3296],[-88.4719,30.32],[-88.4801,30.3183],[-88.5048,30.3215],[-88.5062,30.3224],[-88.5063,30.3274],[-88.5225,30.3401],[-88.5362,30.3433],[-88.5795,30.3442],[-88.5963,30.3584],[-88.5992,30.3589],[-88.6018,30.3559],[-88.6137,30.3531],[-88.6245,30.3587],[-88.6638,30.3621],[-88.6796,30.3557],[-88.6922,30.3473],[-88.7006,30.3437],[-88.7141,30.3422],[-88.7289,30.3427],[-88.7469,30.3476],[-88.7717,30.3654],[-88.8116,30.3849],[-88.8126,30.3877],[-88.8101,30.3913],[-88.8102,30.3947],[-88.8237,30.4024],[-88.8413,30.4096],[-88.8456,30.4053]]],[[[-88.507,30.2143],[-88.5,30.214],[-88.4657,30.2025],[-88.4534,30.2012],[-88.4427,30.2023],[-88.4303,30.2085],[-88.4015,30.2102],[-88.4046,30.2062],[-88.4283,30.1985],[-88.4537,30.1966],[-88.4935,30.2059],[-88.5028,30.2105],[-88.507,30.2143]]],[[[-88.7107,30.2508],[-88.6568,30.234],[-88.573,30.2226],[-88.5681,30.2227],[-88.5621,30.2275],[-88.5656,30.2228],[-88.5691,30.2214],[-88.5874,30.2192],[-88.6337,30.2263],[-88.6659,30.2288],[-88.7118,30.2427],[-88.7406,30.2387],[-88.7528,30.2388],[-88.764,30.2415],[-88.772,30.2455],[-88.7326,30.2463],[-88.7181,30.2529],[-88.7107,30.2508]]]]}},{"type":"Feature","id":"28061","properties":{"name":"Jasper","fips":"28061"},"geometry":{"type":"Polygon","coordinates":[[[-89.3211,31.8851],[-89.3227,32.2235],[-89.1177,32.224],[-88.9138,32.2242],[-88.9105,31.8266],[-88.9261,31.8257],[-88.932,31.8255],[-88.9434,31.8246],[-89.3166,31.8021],[-89.3171,31.8743],[-89.3211,31.8851]]]}},{"type":"Feature","id":"28063","properties":{"name":"Jefferson","fips":"28063"},"geometry":{"type":"Polygon","coordinates":[[[-90.7363,31.7861],[-90.7368,31.6985],[-90.7373,31.6111],[-91.1539,31.6101],[-91.2693,31.6473],[-91.3179,31.7498],[-91.3651,31.7527],[-91.3656,31.7608],[-91.3637,31.7804],[-91.3595,31.7994],[-91.3457,31.8429],[-91.3384,31.8513],[-91.3269,31.855],[-91.2934,31.8602],[-91.2481,31.8698],[-91.0137,31.8619],[-90.842,31.8265],[-90.8527,31.7854],[-90.7363,31.7861]]]}},{"type":"Feature","id":"28065","properties":{"name":"Jefferson Davis","fips":"28065"},"geometry":{"type":"Polygon","coordinates":[[[-89.9589,31.3905],[-89.9761,31.5225],[-89.9746,31.7617],[-89.7551,31.7747],[-89.7556,31.6098],[-89.5869,31.5134],[-89.5868,31.4337],[-89.6542,31.4338],[-89.8242,31.4341],[-89.8233,31.39],[-89.9589,31.3905]]]}},{"type":"Feature","id":"28067","properties":{"name":"Jones","fips":"28067"},"geometry":{"type":"Polygon","coordinates":[[[-89.3599,31.7994],[-89.3166,31.8021],[-88.9434,31.8246],[-88.9435,31.4335],[-89.1461,31.4341],[-89.3992,31.434],[-89.4005,31.6862],[-89.4012,31.7969],[-89.3599,31.7994]]]}},{"type":"Feature","id":"28069","properties":{"name":"Kemper","fips":"28069"},"geometry":{"type":"Polygon","coordinates":[[[-88.8128,32.926],[-88.3477,32.9291],[-88.383,32.627],[-88.383,32.6267],[-88.3887,32.5781],[-88.9145,32.577],[-88.9144,32.9266],[-88.8128,32.926]]]}},{"type":"Feature","id":"28071","properties":{"name":"Lafayette","fips":"28071"},"geometry":{"type":"Polygon","coordinates":[[[-89.5097,34.1621],[-89.5094,34.191],[-89.7211,34.1925],[-89.7213,34.5543],[-89.6684,34.5544],[-89.4766,34.5542],[-89.4245,34.5191],[-89.2461,34.4956],[-89.2463,34.3793],[-89.2455,34.1612],[-89.2501,34.161],[-89.5097,34.1621]]]}},{"type":"Feature","id":"28073","properties":{"name":"Lamar","fips":"28073"},"geometry":{"type":"Polygon","coordinates":[[[-89.6541,31.3755],[-89.6544,31.4047],[-89.6542,31.4338],[-89.5868,31.4337],[-89.4516,31.434],[-89.4511,31.3464],[-89.3479,31.3467],[-89.349,31.0104],[-89.476,30.9829],[-89.5014,31.0139],[-89.654,31.0025],[-89.6541,31.3755]]]}},{"type":"Feature","id":"28075","properties":{"name":"Lauderdale","fips":"28075"},"geometry":{"type":"Polygon","coordinates":[[[-88.9145,32.577],[-88.3887,32.5781],[-88.4038,32.4499],[-88.4038,32.4498],[-88.4215,32.3087],[-88.4317,32.2277],[-88.9138,32.2242],[-88.9145,32.577]]]}},{"type":"Feature","id":"28077","properties":{"name":"Lawrence","fips":"28077"},"geometry":{"type":"Polygon","coordinates":[[[-89.9746,31.7617],[-89.9761,31.5225],[-89.9589,31.3905],[-90.0405,31.3947],[-90.0405,31.336],[-90.2439,31.3503],[-90.2452,31.7175],[-90.1226,31.7527],[-89.9746,31.7617]]]}},{"type":"Feature","id":"28079","properties":{"name":"Leake","fips":"28079"},"geometry":{"type":"Polygon","coordinates":[[[-89.7303,32.6342],[-89.7301,32.6851],[-89.73,32.8848],[-89.7302,32.9299],[-89.4733,32.9311],[-89.3192,32.9317],[-89.3176,32.5765],[-89.3226,32.5764],[-89.7302,32.5772],[-89.7303,32.6342]]]}},{"type":"Feature","id":"28081","properties":{"name":"Lee","fips":"28081"},"geometry":{"type":"Polygon","coordinates":[[[-88.8245,34.0749],[-88.825,34.3648],[-88.7894,34.4949],[-88.7365,34.5089],[-88.5417,34.5092],[-88.5421,34.4653],[-88.5434,34.089],[-88.7187,34.0893],[-88.719,34.0745],[-88.7251,34.0748],[-88.8245,34.0749]]]}},{"type":"Feature","id":"28083","properties":{"name":"Leflore","fips":"28083"},"geometry":{"type":"Polygon","coordinates":[[[-90.1368,33.7216],[-90.137,33.6769],[-90.1278,33.677],[-90.1014,33.4589],[-90.1748,33.417],[-90.1746,33.3334],[-90.3215,33.3751],[-90.3316,33.3028],[-90.3735,33.2422],[-90.4538,33.2673],[-90.4532,33.3295],[-90.4516,33.8114],[-90.1826,33.8093],[-90.1856,33.7655],[-90.2945,33.751],[-90.2691,33.6972],[-90.1368,33.7216]]]}},{"type":"Feature","id":"28085","properties":{"name":"Lincoln","fips":"28085"},"geometry":{"type":"Polygon","coordinates":[[[-90.7368,31.6985],[-90.28,31.6999],[-90.2452,31.7175],[-90.2439,31.3503],[-90.2604,31.3503],[-90.5482,31.3496],[-90.6333,31.3493],[-90.6332,31.6114],[-90.7373,31.6111],[-90.7368,31.6985]]]}},{"type":"Feature","id":"28087","properties":{"name":"Lowndes","fips":"28087"},"geometry":{"type":"Polygon","coordinates":[[[-88.2774,33.5124],[-88.2911,33.3991],[-88.3045,33.2883],[-88.6691,33.2869],[-88.6713,33.5062],[-88.4803,33.5227],[-88.5139,33.6502],[-88.3703,33.6859],[-88.3251,33.7456],[-88.2484,33.7449],[-88.2544,33.6988],[-88.2546,33.6958],[-88.2561,33.6829],[-88.2563,33.6821],[-88.267,33.5942],[-88.2671,33.592],[-88.2682,33.585],[-88.2691,33.5769],[-88.2695,33.5729],[-88.27,33.5708],[-88.2746,33.534],[-88.2768,33.5165],[-88.2774,33.5124]]]}},{"type":"Feature","id":"28089","properties":{"name":"Madison","fips":"28089"},"geometry":{"type":"Polygon","coordinates":[[[-89.73,32.8848],[-89.7301,32.6851],[-89.7303,32.6342],[-89.7592,32.6135],[-89.7708,32.5992],[-89.7818,32.5974],[-89.7841,32.5869],[-89.8589,32.5848],[-89.9621,32.4913],[-90.0688,32.4381],[-90.0657,32.3995],[-90.1412,32.3995],[-90.1467,32.3999],[-90.2438,32.4001],[-90.2436,32.4875],[-90.4498,32.488],[-90.45,32.5738],[-90.3639,32.6033],[-90.2781,32.6603],[-90.1977,32.6638],[-90.0491,32.7357],[-89.9659,32.8796],[-89.73,32.8848]]]}},{"type":"Feature","id":"28091","properties":{"name":"Marion","fips":"28091"},"geometry":{"type":"Polygon","coordinates":[[[-89.6542,31.4338],[-89.6544,31.4047],[-89.6541,31.3755],[-89.654,31.0025],[-89.7281,31.0023],[-89.7281,31.0024],[-89.7325,31.0048],[-89.7526,31.0019],[-89.8164,31.0021],[-89.8246,31.0021],[-89.8355,31.0021],[-89.8359,31.0021],[-89.8359,31.0749],[-89.9381,31.119],[-90.0319,31.1757],[-90.0405,31.336],[-90.0405,31.3947],[-89.9589,31.3905],[-89.8233,31.39],[-89.8242,31.4341],[-89.6542,31.4338]]]}},{"type":"Feature","id":"28093","properties":{"name":"Marshall","fips":"28093"},"geometry":{"type":"Polygon","coordinates":[[[-89.7243,34.9948],[-89.6443,34.9953],[-89.5112,34.9948],[-89.4937,34.9944],[-89.3527,34.9944],[-89.3527,34.8444],[-89.2992,34.8444],[-89.2983,34.5829],[-89.2456,34.5832],[-89.2459,34.5429],[-89.2446,34.5423],[-89.2459,34.5414],[-89.2461,34.4956],[-89.4245,34.5191],[-89.4766,34.5542],[-89.6684,34.5544],[-89.6692,34.6858],[-89.7223,34.6855],[-89.7236,34.7721],[-89.7234,34.7733],[-89.7243,34.9948]]]}},{"type":"Feature","id":"28095","properties":{"name":"Monroe","fips":"28095"},"geometry":{"type":"Polygon","coordinates":[[[-88.72,33.8113],[-88.719,34.0745],[-88.7187,34.0893],[-88.5434,34.089],[-88.2036,34.0865],[-88.2072,34.0583],[-88.2264,33.9129],[-88.2265,33.9117],[-88.2265,33.9116],[-88.2484,33.7449],[-88.3251,33.7456],[-88.3703,33.6859],[-88.5139,33.6502],[-88.4964,33.6801],[-88.7196,33.6803],[-88.72,33.8113]]]}},{"type":"Feature","id":"28097","properties":{"name":"Montgomery","fips":"28097"},"geometry":{"type":"Polygon","coordinates":[[[-89.4538,33.2859],[-89.6453,33.2855],[-89.6463,33.4025],[-89.7852,33.4163],[-89.7869,33.6767],[-89.5069,33.6776],[-89.5065,33.4598],[-89.3811,33.4603],[-89.454,33.4332],[-89.4538,33.2859]]]}},{"type":"Feature","id":"28099","properties":{"name":"Neshoba","fips":"28099"},"geometry":{"type":"Polygon","coordinates":[[[-88.9144,32.9266],[-88.9145,32.577],[-89.3176,32.5765],[-89.3192,32.9317],[-88.9144,32.9266]]]}},{"type":"Feature","id":"28101","properties":{"name":"Newton","fips":"28101"},"geometry":{"type":"Polygon","coordinates":[[[-89.1177,32.224],[-89.3227,32.2235],[-89.3226,32.5764],[-89.3176,32.5765],[-88.9145,32.577],[-88.9138,32.2242],[-89.1177,32.224]]]}},{"type":"Feature","id":"28103","properties":{"name":"Noxubee","fips":"28103"},"geometry":{"type":"Polygon","coordinates":[[[-88.6691,33.2869],[-88.3045,33.2883],[-88.3404,32.9912],[-88.3477,32.9291],[-88.8128,32.926],[-88.8131,33.2864],[-88.6691,33.2869]]]}},{"type":"Feature","id":"28105","properties":{"name":"Oktibbeha","fips":"28105"},"geometry":{"type":"Polygon","coordinates":[[[-88.8131,33.2864],[-88.9885,33.2861],[-89.0883,33.286],[-89.0884,33.5332],[-89.0883,33.562],[-89.0186,33.5621],[-88.6715,33.5651],[-88.6713,33.5062],[-88.6691,33.2869],[-88.8131,33.2864]]]}},{"type":"Feature","id":"28107","properties":{"name":"Panola","fips":"28107"},"geometry":{"type":"Polygon","coordinates":[[[-89.7213,34.5543],[-89.7211,34.1925],[-89.7214,34.1635],[-89.9315,34.1643],[-90.1355,34.1601],[-90.1344,34.2652],[-90.1941,34.3014],[-90.1985,34.5111],[-90.1986,34.5544],[-89.7213,34.5543]]]}},{"type":"Feature","id":"28109","properties":{"name":"Pearl River","fips":"28109"},"geometry":{"type":"Polygon","coordinates":[[[-89.349,31.0104],[-89.3408,30.9099],[-89.3414,30.6477],[-89.5442,30.6484],[-89.5445,30.5169],[-89.6906,30.4588],[-89.7246,30.4919],[-89.7326,30.4925],[-89.7606,30.5158],[-89.8068,30.572],[-89.8234,30.6085],[-89.8426,30.666],[-89.8426,30.666],[-89.8262,30.7366],[-89.7899,30.8515],[-89.7734,30.8977],[-89.7709,30.8994],[-89.7565,30.9004],[-89.7448,30.9189],[-89.7284,30.9711],[-89.7281,31.0023],[-89.654,31.0025],[-89.5014,31.0139],[-89.476,30.9829],[-89.349,31.0104]]]}},{"type":"Feature","id":"28111","properties":{"name":"Perry","fips":"28111"},"geometry":{"type":"Polygon","coordinates":[[[-88.8417,31.4337],[-88.8409,30.9984],[-88.8343,30.998],[-88.8345,30.9103],[-88.885,30.9108],[-89.138,30.9099],[-89.1461,31.4341],[-88.9435,31.4335],[-88.8417,31.4337]]]}},{"type":"Feature","id":"28113","properties":{"name":"Pike","fips":"28113"},"geometry":{"type":"Polygon","coordinates":[[[-90.3694,31.0003],[-90.4221,30.9998],[-90.4268,30.9998],[-90.4374,30.9997],[-90.4417,30.9997],[-90.4425,30.9997],[-90.4741,30.9998],[-90.4759,30.9997],[-90.4773,30.9997],[-90.4859,30.9997],[-90.4867,30.9997],[-90.5476,30.9997],[-90.5482,31.3496],[-90.2604,31.3503],[-90.2596,31.0007],[-90.346,31.0004],[-90.3472,31.0004],[-90.3472,31.0004],[-90.3694,31.0003]]]}},{"type":"Feature","id":"28115","properties":{"name":"Pontotoc","fips":"28115"},"geometry":{"type":"Polygon","coordinates":[[[-88.825,34.3648],[-88.8245,34.0749],[-89.1392,34.0741],[-89.2444,34.0739],[-89.2455,34.1612],[-89.2463,34.3793],[-88.9289,34.3794],[-88.825,34.3648]]]}},{"type":"Feature","id":"28117","properties":{"name":"Prentiss","fips":"28117"},"geometry":{"type":"Polygon","coordinates":[[[-88.7365,34.5089],[-88.7354,34.5965],[-88.7178,34.5965],[-88.7185,34.7568],[-88.3655,34.7556],[-88.3307,34.7407],[-88.3292,34.4636],[-88.5421,34.4653],[-88.5417,34.5092],[-88.7365,34.5089]]]}},{"type":"Feature","id":"28119","properties":{"name":"Quitman","fips":"28119"},"geometry":{"type":"Polygon","coordinates":[[[-90.451,34.0729],[-90.4506,34.2624],[-90.399,34.2615],[-90.3995,34.4238],[-90.3019,34.4245],[-90.3043,34.5096],[-90.1985,34.5111],[-90.1941,34.3014],[-90.1344,34.2652],[-90.1355,34.1601],[-90.1357,34.0729],[-90.451,34.0729]]]}},{"type":"Feature","id":"28121","properties":{"name":"Rankin","fips":"28121"},"geometry":{"type":"Polygon","coordinates":[[[-90.2303,32.0497],[-90.2454,32.1714],[-90.1605,32.3083],[-90.0657,32.3995],[-90.0688,32.4381],[-89.9621,32.4913],[-89.8589,32.5848],[-89.7841,32.5869],[-89.7301,32.3527],[-89.7304,32.222],[-89.7311,32.222],[-89.7301,32.0471],[-90.2303,32.0497]]]}},{"type":"Feature","id":"28123","properties":{"name":"Scott","fips":"28123"},"geometry":{"type":"Polygon","coordinates":[[[-89.3227,32.2235],[-89.7304,32.222],[-89.7301,32.3527],[-89.7841,32.5869],[-89.7818,32.5974],[-89.7708,32.5992],[-89.7592,32.6135],[-89.7303,32.6342],[-89.7302,32.5772],[-89.3226,32.5764],[-89.3227,32.2235]]]}},{"type":"Feature","id":"28125","properties":{"name":"Sharkey","fips":"28125"},"geometry":{"type":"Polygon","coordinates":[[[-90.7018,33.0963],[-90.658,33.0965],[-90.6566,32.9225],[-90.7598,32.8358],[-90.6946,32.8156],[-90.7426,32.7292],[-90.6644,32.6891],[-90.7232,32.6621],[-90.9649,32.6628],[-90.9638,32.8381],[-90.9143,33.0077],[-90.9145,33.0974],[-90.7018,33.0963]]]}},{"type":"Feature","id":"28127","properties":{"name":"Simpson","fips":"28127"},"geometry":{"type":"Polygon","coordinates":[[[-89.7301,32.0471],[-89.6621,32.0472],[-89.653,31.7807],[-89.7551,31.7747],[-89.9746,31.7617],[-90.1226,31.7527],[-90.1326,31.8569],[-90.2303,32.0497],[-89.7301,32.0471]]]}},{"type":"Feature","id":"28129","properties":{"name":"Smith","fips":"28129"},"geometry":{"type":"Polygon","coordinates":[[[-89.3599,31.7994],[-89.4012,31.7969],[-89.653,31.7807],[-89.6621,32.0472],[-89.7301,32.0471],[-89.7311,32.222],[-89.7304,32.222],[-89.3227,32.2235],[-89.3211,31.8851],[-89.3171,31.8743],[-89.3166,31.8021],[-89.3599,31.7994]]]}},{"type":"Feature","id":"28131","properties":{"name":"Stone","fips":"28131"},"geometry":{"type":"Polygon","coordinates":[[[-88.8845,30.7356],[-88.8845,30.7146],[-88.8845,30.7138],[-88.8845,30.7132],[-88.8845,30.6773],[-89.2401,30.6772],[-89.3414,30.6477],[-89.3408,30.9099],[-89.138,30.9099],[-88.885,30.9108],[-88.8845,30.7356]]]}},{"type":"Feature","id":"28133","properties":{"name":"Sunflower","fips":"28133"},"geometry":{"type":"Polygon","coordinates":[[[-90.4516,33.8114],[-90.4532,33.3295],[-90.5555,33.3292],[-90.5552,33.2705],[-90.7163,33.27],[-90.7638,33.2704],[-90.7635,33.5294],[-90.7635,33.6162],[-90.6586,33.6163],[-90.657,33.9876],[-90.451,33.9857],[-90.4503,33.9709],[-90.4516,33.8114]]]}},{"type":"Feature","id":"28135","properties":{"name":"Tallahatchie","fips":"28135"},"geometry":{"type":"Polygon","coordinates":[[[-89.9261,33.898],[-89.9263,33.8239],[-90.1365,33.8093],[-90.1368,33.7216],[-90.2691,33.6972],[-90.2945,33.751],[-90.1856,33.7655],[-90.1826,33.8093],[-90.4516,33.8114],[-90.4503,33.9709],[-90.451,33.9857],[-90.4505,34.0001],[-90.451,34.0729],[-90.1357,34.0729],[-90.1355,34.1601],[-89.9315,34.1643],[-89.9261,33.898]]]}},{"type":"Feature","id":"28137","properties":{"name":"Tate","fips":"28137"},"geometry":{"type":"Polygon","coordinates":[[[-90.2002,34.7244],[-90.1289,34.7605],[-90.0301,34.7079],[-89.9122,34.7725],[-89.7236,34.7721],[-89.7223,34.6855],[-89.6692,34.6858],[-89.6684,34.5544],[-89.7213,34.5543],[-90.1986,34.5544],[-90.24,34.6262],[-90.2002,34.7244]]]}},{"type":"Feature","id":"28139","properties":{"name":"Tippah","fips":"28139"},"geometry":{"type":"Polygon","coordinates":[[[-89.0171,34.9946],[-88.823,34.9952],[-88.8235,34.8586],[-88.753,34.8588],[-88.7185,34.7568],[-88.7178,34.5965],[-88.7354,34.5965],[-89.0885,34.5982],[-89.0881,34.8153],[-89.0176,34.8587],[-89.0171,34.9946]]]}},{"type":"Feature","id":"28141","properties":{"name":"Tishomingo","fips":"28141"},"geometry":{"type":"Polygon","coordinates":[[[-88.2581,34.9955],[-88.2538,34.9956],[-88.2001,34.9956],[-88.125,34.9022],[-88.0979,34.8922],[-88.1184,34.7243],[-88.1387,34.5892],[-88.1392,34.5878],[-88.14,34.5817],[-88.1553,34.4631],[-88.3292,34.4636],[-88.3307,34.7407],[-88.3655,34.7556],[-88.3635,34.9956],[-88.2581,34.9955]]]}},{"type":"Feature","id":"28143","properties":{"name":"Tunica","fips":"28143"},"geometry":{"type":"Polygon","coordinates":[[[-90.2939,34.8606],[-90.2021,34.8604],[-90.2002,34.7244],[-90.24,34.6262],[-90.1986,34.5544],[-90.1985,34.5111],[-90.3043,34.5096],[-90.3019,34.4245],[-90.3995,34.4238],[-90.5689,34.5246],[-90.5701,34.5248],[-90.5758,34.6417],[-90.5765,34.6574],[-90.564,34.6657],[-90.5499,34.6624],[-90.539,34.6591],[-90.5215,34.6632],[-90.509,34.6791],[-90.5098,34.6899],[-90.5332,34.7074],[-90.5549,34.7275],[-90.5499,34.7633],[-90.5373,34.7842],[-90.5198,34.7825],[-90.5013,34.7699],[-90.4948,34.7675],[-90.4798,34.7692],[-90.4673,34.7825],[-90.4781,34.8325],[-90.474,34.8526],[-90.4615,34.8567],[-90.4364,34.8551],[-90.4239,34.8346],[-90.4149,34.8318],[-90.408,34.8328],[-90.3074,34.8462],[-90.2939,34.8606]]]}},{"type":"Feature","id":"28145","properties":{"name":"Union","fips":"28145"},"geometry":{"type":"Polygon","coordinates":[[[-88.7354,34.5965],[-88.7365,34.5089],[-88.7894,34.4949],[-88.825,34.3648],[-88.9289,34.3794],[-89.2463,34.3793],[-89.2461,34.4956],[-89.2459,34.5414],[-89.2446,34.5423],[-89.2459,34.5429],[-89.2456,34.5832],[-89.2456,34.5976],[-89.0885,34.5982],[-88.7354,34.5965]]]}},{"type":"Feature","id":"28147","properties":{"name":"Walthall","fips":"28147"},"geometry":{"type":"Polygon","coordinates":[[[-90.0405,31.336],[-90.0319,31.1757],[-89.9381,31.119],[-89.8359,31.0749],[-89.8359,31.0021],[-89.8569,31.0021],[-89.8927,31.0018],[-89.8975,31.0019],[-89.9231,31.0014],[-89.9272,31.0014],[-89.9728,31.0014],[-89.9754,31.0017],[-90.0053,31.0014],[-90.0222,31.0013],[-90.0296,31.0012],[-90.0507,31.0012],[-90.1284,31.001],[-90.1314,31.0009],[-90.1643,31.001],[-90.1647,31.001],[-90.2596,31.0007],[-90.2604,31.3503],[-90.2439,31.3503],[-90.0405,31.336]]]}},{"type":"Feature","id":"28149","properties":{"name":"Warren","fips":"28149"},"geometry":{"type":"Polygon","coordinates":[[[-90.7201,32.6189],[-90.6546,32.546],[-90.5538,32.5076],[-90.6362,32.3745],[-90.6945,32.353],[-90.7286,32.2251],[-90.7748,32.154],[-90.9077,32.1319],[-90.9451,32.0799],[-91.0279,32.1127],[-91.0275,32.1134],[-91.0271,32.1204],[-91.0269,32.1237],[-91.0302,32.1298],[-91.0344,32.1348],[-91.0405,32.1373],[-91.0466,32.1388],[-91.0523,32.1373],[-91.0575,32.1355],[-91.067,32.1321],[-91.1314,32.1262],[-91.1628,32.1327],[-91.1655,32.1343],[-91.1717,32.1442],[-91.1746,32.155],[-91.171,32.1765],[-91.1642,32.1969],[-91.158,32.202],[-91.1336,32.2134],[-91.1226,32.2169],[-91.0465,32.2411],[-91.039,32.2423],[-91.0215,32.2361],[-91.0063,32.2242],[-91.0046,32.2154],[-90.9052,32.3155],[-90.8986,32.3291],[-90.9015,32.3379],[-90.9124,32.3395],[-90.9867,32.3518],[-91.0001,32.3577],[-91.0035,32.3621],[-91.0045,32.3681],[-90.9941,32.4039],[-91.0296,32.4335],[-91.0529,32.4384],[-91.0702,32.4451],[-91.0953,32.4587],[-91.1088,32.472],[-91.116,32.4831],[-91.1167,32.5001],[-91.0979,32.5448],[-91.0937,32.5491],[-91.0894,32.5533],[-91.0906,32.5627],[-91.0908,32.564],[-90.964,32.5756],[-90.9512,32.4444],[-90.8614,32.4421],[-90.8606,32.5752],[-90.7283,32.5663],[-90.7201,32.6189]]]}},{"type":"Feature","id":"28151","properties":{"name":"Washington","fips":"28151"},"geometry":{"type":"Polygon","coordinates":[[[-90.7163,33.27],[-90.6803,33.202],[-90.7018,33.0963],[-90.9145,33.0974],[-90.9143,33.0077],[-91.1577,33.0112],[-91.1257,33.0383],[-91.0876,33.1452],[-91.086,33.2216],[-91.1106,33.2459],[-91.1412,33.2984],[-91.1844,33.4196],[-91.1319,33.4301],[-91.1185,33.4491],[-91.1251,33.4728],[-91.2157,33.5294],[-90.7635,33.5294],[-90.7638,33.2704],[-90.7163,33.27]]]}},{"type":"Feature","id":"28153","properties":{"name":"Wayne","fips":"28153"},"geometry":{"type":"Polygon","coordinates":[[[-88.9434,31.8246],[-88.932,31.8255],[-88.9261,31.8257],[-88.9105,31.8266],[-88.6224,31.8572],[-88.47,31.8938],[-88.4712,31.8514],[-88.4711,31.8509],[-88.4644,31.698],[-88.4644,31.6979],[-88.4597,31.624],[-88.4595,31.6217],[-88.4494,31.4358],[-88.8417,31.4337],[-88.9435,31.4335],[-88.9434,31.8246]]]}},{"type":"Feature","id":"28155","properties":{"name":"Webster","fips":"28155"},"geometry":{"type":"Polygon","coordinates":[[[-89.0884,33.5332],[-89.1057,33.5329],[-89.2961,33.5067],[-89.3811,33.4603],[-89.5065,33.4598],[-89.5069,33.6776],[-89.5069,33.714],[-89.5071,33.7218],[-89.1919,33.7222],[-89.1918,33.7386],[-89.0345,33.7394],[-89.0186,33.593],[-89.0186,33.5621],[-89.0883,33.562],[-89.0884,33.5332]]]}},{"type":"Feature","id":"28157","properties":{"name":"Wilkinson","fips":"28157"},"geometry":{"type":"Polygon","coordinates":[[[-91.1582,31.3467],[-91.0954,31.321],[-91.0594,31.2819],[-91.0602,30.9989],[-91.0683,30.9989],[-91.0808,30.9989],[-91.1081,30.9989],[-91.1083,30.9989],[-91.1761,30.9991],[-91.1762,30.9991],[-91.2241,30.9992],[-91.2248,30.9992],[-91.4236,30.999],[-91.4257,30.999],[-91.5387,30.9994],[-91.6251,30.9992],[-91.6369,30.9994],[-91.5847,31.0202],[-91.5717,31.0298],[-91.5625,31.0432],[-91.5599,31.0541],[-91.5613,31.0609],[-91.5641,31.0668],[-91.5774,31.0782],[-91.6042,31.1545],[-91.6,31.1923],[-91.489,31.2259],[-91.4684,31.3196],[-91.3063,31.3609],[-91.1582,31.3467]]]}},{"type":"Feature","id":"28159","properties":{"name":"Winston","fips":"28159"},"geometry":{"type":"Polygon","coordinates":[[[-89.1088,33.2159],[-89.1089,33.2859],[-89.0883,33.286],[-88.9885,33.2861],[-88.8131,33.2864],[-88.8128,32.926],[-88.9144,32.9266],[-89.3192,32.9317],[-89.3179,33.1089],[-89.2139,33.1094],[-89.2134,33.1975],[-89.1088,33.2159]]]}},{"type":"Feature","id":"28161","properties":{"name":"Yalobusha","fips":"28161"},"geometry":{"type":"Polygon","coordinates":[[[-89.7211,34.1925],[-89.5094,34.191],[-89.5097,34.1621],[-89.5074,33.8675],[-89.769,33.8673],[-89.7693,33.8971],[-89.9261,33.898],[-89.9315,34.1643],[-89.7214,34.1635],[-89.7211,34.1925]]]}},{"type":"Feature","id":"28163","properties":{"name":"Yazoo","fips":"28163"},"geometry":{"type":"Polygon","coordinates":[[[-89.9659,32.8796],[-90.0491,32.7357],[-90.1977,32.6638],[-90.2781,32.6603],[-90.3639,32.6033],[-90.45,32.5738],[-90.5538,32.5076],[-90.6546,32.546],[-90.7201,32.6189],[-90.6976,32.6251],[-90.693,32.6401],[-90.7128,32.6423],[-90.7232,32.6621],[-90.6644,32.6891],[-90.7426,32.7292],[-90.6946,32.8156],[-90.7598,32.8358],[-90.6566,32.9225],[-90.4499,32.9233],[-90.4493,33.009],[-90.364,33.0106],[-89.9659,32.8796]]]}}]}