{"type":"FeatureCollection","features":[{"type":"Feature","id":"30001","properties":{"name":"Beaverhead","fips":"30001"},"geometry":{"type":"Polygon","coordinates":[[[-112.8313,44.3817],[-112.8493,44.371],[-112.8758,44.3744],[-112.9703,44.4269],[-113.0035,44.4508],[-113.0271,44.4959],[-113.0568,44.6187],[-113.0535,44.6212],[-113.0493,44.6294],[-113.0515,44.6369],[-113.1011,44.7188],[-113.1346,44.7631],[-113.1582,44.7808],[-113.2079,44.808],[-113.2472,44.8229],[-113.2784,44.8127],[-113.3295,44.7886],[-113.3417,44.7849],[-113.3536,44.7914],[-113.4551,44.8654],[-113.4758,44.8946],[-113.4987,44.9423],[-113.4944,44.9486],[-113.4808,44.9503],[-113.4727,44.9481],[-113.4472,44.9719],[-113.4459,44.9799],[-113.4458,45.0184],[-113.4493,45.0457],[-113.464,45.0632],[-113.4738,45.0617],[-113.4853,45.0635],[-113.5765,45.1303],[-113.5764,45.1338],[-113.5662,45.1431],[-113.566,45.1493],[-113.5995,45.1911],[-113.6501,45.2347],[-113.6744,45.2494],[-113.7387,45.3297],[-113.7609,45.4065],[-113.7742,45.4654],[-113.7658,45.4832],[-113.7729,45.5123],[-113.7863,45.5214],[-113.8101,45.5309],[-113.8135,45.55],[-113.802,45.5791],[-113.8049,45.5891],[-113.8139,45.6006],[-113.8354,45.613],[-113.8967,45.6415],[-113.9342,45.6822],[-113.9426,45.6864],[-113.6976,45.8435],[-113.5324,45.8784],[-113.5163,45.9386],[-113.5013,45.9408],[-113.3951,45.7665],[-113.1798,45.885],[-113.0855,45.8606],[-112.7593,45.7482],[-112.6871,45.6249],[-112.6914,45.4835],[-112.6286,45.4406],[-112.5053,45.443],[-112.4577,45.35],[-112.4568,45.0886],[-112.3338,45.0885],[-112.3343,45.0006],[-112.1912,45.0004],[-112.1671,44.8267],[-112.0657,44.826],[-112.0659,44.7838],[-111.7818,44.7811],[-111.7817,44.7088],[-111.4815,44.7092],[-111.489,44.7056],[-111.5166,44.6437],[-111.5258,44.6049],[-111.6012,44.5542],[-111.6175,44.553],[-111.6315,44.552],[-111.7042,44.5602],[-111.7372,44.5431],[-111.8065,44.5155],[-111.8433,44.5282],[-111.8493,44.5398],[-111.8705,44.564],[-111.9479,44.5568],[-112.0785,44.5336],[-112.1871,44.5345],[-112.2217,44.5435],[-112.2295,44.5495],[-112.2359,44.5552],[-112.2467,44.561],[-112.2583,44.5643],[-112.2741,44.5643],[-112.299,44.5593],[-112.3397,44.5386],[-112.3472,44.5203],[-112.3566,44.4931],[-112.3589,44.4863],[-112.3713,44.4721],[-112.3871,44.4605],[-112.4103,44.463],[-112.4732,44.48],[-112.5442,44.4838],[-112.6882,44.4988],[-112.7191,44.5043],[-112.7813,44.4849],[-112.8121,44.4514],[-112.822,44.4341],[-112.822,44.4208],[-112.8234,44.4062],[-112.8247,44.3936],[-112.8292,44.3854],[-112.8313,44.3817]]]}},{"type":"Feature","id":"30003","properties":{"name":"Big Horn","fips":"30003"},"geometry":{"type":"Polygon","coordinates":[[[-106.8888,44.9959],[-106.8929,44.9959],[-107.0806,44.9968],[-107.1342,45.0001],[-107.6078,45.0009],[-107.6089,45.0009],[-107.9115,45.0009],[-108.1257,45.001],[-108.2493,44.9995],[-108.2586,45.0076],[-108.128,45.2179],[-108.6996,45.218],[-108.6821,45.4331],[-108.645,45.4641],[-108.3164,45.4605],[-108.3162,45.4895],[-108.1932,45.4894],[-108.1931,45.5184],[-108.0697,45.5182],[-108.069,45.7836],[-108.0474,45.8993],[-107.8816,45.899],[-107.798,45.9857],[-107.6744,45.9857],[-107.6743,46.0436],[-107.5115,46.0433],[-107.4249,46.0434],[-107.4249,45.9568],[-107.1763,45.9568],[-107.1764,45.9133],[-107.0518,45.9138],[-107.0521,45.8701],[-106.9391,45.8701],[-106.8772,45.8317],[-106.9125,45.7882],[-106.913,45.6841],[-106.7275,45.6765],[-106.768,45.1797],[-106.2797,45.1799],[-106.2637,45.1798],[-106.2636,44.9938],[-106.8888,44.9959]]]}},{"type":"Feature","id":"30005","properties":{"name":"Blaine","fips":"30005"},"geometry":{"type":"Polygon","coordinates":[[[-109.4897,49.0003],[-109.3848,49.0004],[-109.3841,49.0004],[-109.0606,48.9997],[-109.0603,48.9996],[-109.0007,48.9992],[-108.9947,48.9992],[-108.5432,48.9994],[-108.4881,48.9994],[-108.2365,48.9994],[-108.2594,48.9136],[-108.2593,48.7422],[-108.3191,48.7423],[-108.3188,48.5684],[-108.3462,48.5684],[-108.3459,48.4223],[-108.4104,48.4485],[-108.4114,48.2194],[-108.4338,48.2194],[-108.434,47.9766],[-108.608,47.9911],[-108.6257,47.9208],[-108.8882,47.9227],[-108.891,47.7344],[-108.9427,47.7918],[-109.2742,47.7932],[-109.4253,47.7202],[-109.5385,47.7389],[-109.5343,48.1351],[-109.5516,48.2935],[-109.4973,48.4517],[-109.4643,48.4524],[-109.4644,48.5253],[-109.5053,48.5676],[-109.5058,48.9139],[-109.4897,49.0003]]]}},{"type":"Feature","id":"30007","properties":{"name":"Broadwater","fips":"30007"},"geometry":{"type":"Polygon","coordinates":[[[-111.66,45.8335],[-111.6604,46.0494],[-111.7843,46.05],[-111.7879,46.569],[-111.6316,46.5691],[-111.6393,46.7382],[-111.498,46.7625],[-111.4128,46.6469],[-111.3305,46.6335],[-111.345,46.5458],[-111.2768,46.5168],[-111.2463,46.438],[-111.1264,46.4413],[-111.0572,46.4034],[-111.1271,46.2738],[-111.0626,46.1929],[-111.3465,46.1881],[-111.4158,46.0018],[-111.66,45.8335]]]}},{"type":"Feature","id":"30009","properties":{"name":"Carbon","fips":"30009"},"geometry":{"type":"Polygon","coordinates":[[[-108.2493,44.9995],[-108.5659,45.0006],[-108.5785,45.0005],[-108.6213,45.0004],[-109.0623,44.9996],[-109.083,44.9996],[-109.1034,45.0059],[-109.2634,45.0053],[-109.2693,45.0053],[-109.7987,45.0022],[-109.7982,45.1674],[-109.6911,45.1672],[-109.6905,45.2613],[-109.6087,45.2612],[-109.562,45.3629],[-109.3562,45.4644],[-109.1915,45.4643],[-109.1914,45.5231],[-109.1285,45.5231],[-109.1278,45.5875],[-108.8427,45.611],[-108.8017,45.5521],[-108.645,45.4641],[-108.6821,45.4331],[-108.6996,45.218],[-108.128,45.2179],[-108.2586,45.0076],[-108.2493,44.9995]]]}},{"type":"Feature","id":"30011","properties":{"name":"Carter","fips":"30011"},"geometry":{"type":"Polygon","coordinates":[[[-104.0403,45.2129],[-104.0401,45.0],[-104.0577,44.9974],[-104.4701,44.9985],[-104.4704,44.9985],[-104.6639,44.9989],[-104.6652,44.9986],[-104.7599,44.9991],[-104.7651,44.9992],[-105.0182,45.0004],[-105.0193,45.0003],[-105.0253,45.0003],[-105.0384,45.0003],[-105.0382,45.3521],[-104.9871,45.352],[-104.982,45.787],[-104.9392,45.787],[-104.9394,46.1366],[-104.8858,46.1367],[-104.5158,46.1363],[-104.5163,46.0546],[-104.3903,46.055],[-104.3909,45.9703],[-104.1347,45.9689],[-104.1347,45.882],[-104.044,45.882],[-104.044,45.872],[-104.0438,45.8684],[-104.0419,45.5579],[-104.0416,45.5507],[-104.0417,45.5391],[-104.0411,45.5034],[-104.0413,45.5],[-104.0418,45.4908],[-104.0404,45.3935],[-104.0401,45.3742],[-104.0403,45.3454],[-104.0404,45.3359],[-104.0403,45.2129]]]}},{"type":"Feature","id":"30013","properties":{"name":"Cascade","fips":"30013"},"geometry":{"type":"Polygon","coordinates":[[[-111.4091,47.6983],[-110.9764,47.6986],[-111.0498,47.5983],[-110.8639,47.5251],[-110.7688,47.5248],[-110.7692,47.446],[-110.6399,47.4453],[-110.6396,47.4163],[-110.6393,47.359],[-110.7671,47.3591],[-110.7723,47.0959],[-110.6454,47.0957],[-110.6529,46.8236],[-110.7517,46.8447],[-110.761,46.9003],[-110.8572,46.9229],[-110.9133,46.9809],[-111.1047,47.0291],[-111.0809,47.0881],[-111.1586,47.0882],[-111.1585,47.0115],[-111.5391,47.0004],[-111.5393,46.9134],[-111.6581,46.9134],[-111.7901,46.9139],[-111.7893,47.129],[-112.0449,47.1927],[-112.0473,47.516],[-111.9225,47.5051],[-111.9229,47.6112],[-111.6668,47.6112],[-111.667,47.6979],[-111.4091,47.6983]]]}},{"type":"Feature","id":"30015","properties":{"name":"Chouteau","fips":"30015"},"geometry":{"type":"Polygon","coordinates":[[[-111.4085,47.987],[-111.4091,48.1322],[-110.8272,48.1332],[-110.827,48.2197],[-110.7556,48.2197],[-110.6255,48.2196],[-110.6253,48.3065],[-109.8457,48.306],[-109.8458,48.2191],[-109.7269,48.2214],[-109.727,48.1326],[-109.5343,48.1351],[-109.5385,47.7389],[-109.8368,47.7123],[-109.8506,47.5393],[-110.1594,47.4153],[-110.2133,47.4167],[-110.6396,47.4163],[-110.6399,47.4453],[-110.7692,47.446],[-110.7688,47.5248],[-110.8639,47.5251],[-111.0498,47.5983],[-110.9764,47.6986],[-111.4091,47.6983],[-111.4085,47.987]]]}},{"type":"Feature","id":"30017","properties":{"name":"Custer","fips":"30017"},"geometry":{"type":"Polygon","coordinates":[[[-104.982,45.787],[-106.1919,45.7886],[-106.1914,46.137],[-106.1533,46.1372],[-106.1553,46.4835],[-106.1204,46.4836],[-106.1209,46.8313],[-106.0863,46.8313],[-106.0865,46.846],[-106.0867,46.8603],[-105.6176,46.8321],[-105.6181,46.745],[-105.5763,46.7449],[-105.5757,46.6579],[-105.492,46.658],[-105.449,46.5709],[-105.2392,46.5701],[-105.2394,46.541],[-104.9847,46.5406],[-104.9848,46.5695],[-104.8589,46.5691],[-104.8587,46.6125],[-104.7329,46.6127],[-104.7331,46.4822],[-104.9059,46.4822],[-104.8858,46.1367],[-104.9394,46.1366],[-104.9392,45.787],[-104.982,45.787]]]}},{"type":"Feature","id":"30019","properties":{"name":"Daniels","fips":"30019"},"geometry":{"type":"Polygon","coordinates":[[[-105.8044,48.5633],[-106.0212,48.5632],[-106.0214,48.824],[-106.1519,48.8239],[-106.1121,48.9993],[-106.0505,48.9992],[-105.9662,48.9994],[-105.8342,48.9997],[-105.7758,48.9996],[-105.6503,48.9994],[-105.6126,48.9997],[-105.6075,48.9996],[-105.5786,48.9997],[-105.5226,48.9996],[-105.412,48.9996],[-105.4079,48.9995],[-105.3914,48.9995],[-105.3875,48.9994],[-105.3559,48.9994],[-105.2775,48.9995],[-105.2652,48.9995],[-105.0575,48.9994],[-105.0386,48.6502],[-104.9733,48.6501],[-104.9734,48.5632],[-105.8044,48.5633]]]}},{"type":"Feature","id":"30021","properties":{"name":"Dawson","fips":"30021"},"geometry":{"type":"Polygon","coordinates":[[[-104.6038,46.8609],[-105.0275,46.8615],[-105.0695,46.9191],[-105.1969,46.9192],[-105.1967,46.9772],[-105.3249,46.9772],[-105.3248,47.1816],[-105.4062,47.1816],[-105.4065,47.5292],[-105.3634,47.5294],[-105.363,47.7904],[-105.2346,47.7908],[-105.2349,47.7036],[-104.978,47.7034],[-104.9785,47.6163],[-104.5936,47.616],[-104.5938,47.529],[-104.5129,47.5293],[-104.5133,47.3547],[-104.4203,47.3546],[-104.4515,47.3184],[-104.3416,47.2456],[-104.3056,47.0423],[-104.3692,46.9474],[-104.4965,46.8609],[-104.6038,46.8609]]]}},{"type":"Feature","id":"30023","properties":{"name":"Deer Lodge","fips":"30023"},"geometry":{"type":"Polygon","coordinates":[[[-113.0855,45.8606],[-113.1798,45.885],[-113.3951,45.7665],[-113.5013,45.9408],[-113.5163,45.9386],[-113.5169,45.9394],[-113.5175,45.9399],[-113.2744,46.0595],[-113.2847,46.2228],[-113.0372,46.2231],[-113.0368,46.2668],[-112.5585,46.2659],[-112.5768,46.1789],[-112.7777,46.1358],[-112.7771,46.0484],[-112.9384,45.9932],[-112.9236,45.9355],[-113.0855,45.8606]]]}},{"type":"Feature","id":"30025","properties":{"name":"Fallon","fips":"30025"},"geometry":{"type":"Polygon","coordinates":[[[-104.0454,45.9453],[-104.044,45.882],[-104.044,45.882],[-104.1347,45.882],[-104.1347,45.9689],[-104.3909,45.9703],[-104.3903,46.055],[-104.5163,46.0546],[-104.5158,46.1363],[-104.8858,46.1367],[-104.9059,46.4822],[-104.7331,46.4822],[-104.7329,46.6127],[-104.7328,46.6563],[-104.607,46.6849],[-104.4178,46.6849],[-104.3539,46.6414],[-104.0453,46.6414],[-104.0453,46.5409],[-104.0455,46.3419],[-104.0455,46.3245],[-104.0456,46.2802],[-104.0467,46.0],[-104.0454,45.9453]]]}},{"type":"Feature","id":"30027","properties":{"name":"Fergus","fips":"30027"},"geometry":{"type":"Polygon","coordinates":[[[-108.891,47.7344],[-108.7716,47.6455],[-108.3126,47.5835],[-108.315,47.3149],[-108.5909,47.3063],[-108.5905,47.2705],[-108.7192,47.2703],[-108.7367,47.0982],[-108.6085,47.0978],[-108.6309,46.7494],[-109.0098,46.7504],[-109.389,46.751],[-109.3892,46.6937],[-109.746,46.6937],[-109.7563,46.7804],[-109.8354,46.8091],[-109.7554,46.8962],[-109.7569,47.1856],[-109.8724,47.1855],[-109.8724,47.229],[-110.0001,47.2289],[-110.0003,47.2722],[-110.1279,47.272],[-110.128,47.359],[-110.2134,47.3591],[-110.2133,47.4167],[-110.1594,47.4153],[-109.8506,47.5393],[-109.8368,47.7123],[-109.5385,47.7389],[-109.4253,47.7202],[-109.2742,47.7932],[-108.9427,47.7918],[-108.891,47.7344]]]}},{"type":"Feature","id":"30029","properties":{"name":"Flathead","fips":"30029"},"geometry":{"type":"Polygon","coordinates":[[[-113.3495,48.3102],[-113.2368,48.2473],[-113.2315,48.1707],[-113.0169,48.1325],[-112.8786,47.9758],[-112.9847,47.954],[-113.0867,47.9181],[-113.0809,47.7499],[-113.1659,47.7207],[-113.1449,47.5964],[-113.4665,47.6],[-113.634,47.5999],[-113.604,47.7215],[-113.6812,47.7947],[-113.6674,47.8903],[-113.7477,47.9531],[-113.8419,47.9782],[-113.8858,48.0511],[-114.0283,48.0519],[-114.0781,48.0235],[-114.0385,47.9626],[-114.492,47.9619],[-114.4772,47.7898],[-114.6043,47.7897],[-114.6044,47.8756],[-114.9896,47.8728],[-115.0108,48.0173],[-115.0201,48.226],[-114.8479,48.2262],[-114.8497,48.5735],[-114.8884,48.5736],[-114.8887,48.6585],[-114.639,48.659],[-114.6924,48.6804],[-114.6119,48.7519],[-114.7325,48.8092],[-114.6917,48.8421],[-114.7281,49.0006],[-114.6782,49.0007],[-114.6744,49.0007],[-114.4388,49.0011],[-114.0682,48.9994],[-114.0142,48.9079],[-114.0581,48.8889],[-113.9571,48.8176],[-113.9114,48.8502],[-113.7904,48.8454],[-113.7149,48.7428],[-113.7503,48.6139],[-113.4674,48.5476],[-113.4809,48.4597],[-113.3331,48.3878],[-113.3495,48.3102]]]}},{"type":"Feature","id":"30031","properties":{"name":"Gallatin","fips":"30031"},"geometry":{"type":"Polygon","coordinates":[[[-111.0443,45.0013],[-111.0562,44.9359],[-111.0556,44.9336],[-111.0569,44.8667],[-111.0555,44.6663],[-111.0552,44.6249],[-111.049,44.4741],[-111.1066,44.4863],[-111.1227,44.4937],[-111.1314,44.4999],[-111.1395,44.5171],[-111.2192,44.6226],[-111.3237,44.7245],[-111.3777,44.7517],[-111.3513,45.6419],[-111.5366,45.6421],[-111.5368,45.6567],[-111.8051,45.798],[-111.66,45.8335],[-111.4158,46.0018],[-111.3465,46.1881],[-111.0626,46.1929],[-110.79,46.1926],[-110.784,46.1924],[-110.7904,46.142],[-110.795,45.5903],[-110.8571,45.5909],[-110.8582,45.5251],[-110.9192,45.5253],[-110.9177,45.3513],[-111.0382,45.3512],[-111.0443,45.0013]]]}},{"type":"Feature","id":"30033","properties":{"name":"Garfield","fips":"30033"},"geometry":{"type":"Polygon","coordinates":[[[-107.9089,47.4506],[-107.7593,47.552],[-107.6958,47.6288],[-107.601,47.65],[-107.4502,47.6221],[-107.4149,47.6917],[-107.2477,47.6614],[-107.0109,47.6631],[-106.8913,47.6766],[-106.8638,47.7365],[-106.751,47.7297],[-106.7118,47.7718],[-106.6097,47.7775],[-106.4458,47.983],[-106.4186,47.9574],[-106.3583,47.9572],[-106.3583,47.8684],[-106.2611,47.8683],[-106.2606,47.529],[-106.2981,47.5289],[-106.2982,47.3544],[-106.1707,47.3547],[-106.1704,47.1809],[-106.0868,47.1809],[-106.0867,46.8603],[-106.0865,46.846],[-106.7203,46.8453],[-106.72,46.8596],[-107.4668,46.8605],[-107.8921,46.8515],[-107.9391,46.8765],[-107.8826,47.0002],[-107.9195,47.0171],[-107.9685,47.25],[-107.9629,47.3544],[-107.9089,47.4506]]]}},{"type":"Feature","id":"30035","properties":{"name":"Glacier","fips":"30035"},"geometry":{"type":"Polygon","coordinates":[[[-112.1936,48.9982],[-112.1844,48.4776],[-112.2299,48.4831],[-112.5769,48.4835],[-112.5759,48.3094],[-113.3495,48.3102],[-113.3331,48.3878],[-113.4809,48.4597],[-113.4674,48.5476],[-113.7503,48.6139],[-113.7149,48.7428],[-113.7904,48.8454],[-113.9114,48.8502],[-113.9571,48.8176],[-114.0581,48.8889],[-114.0142,48.9079],[-114.0682,48.9994],[-113.693,48.9976],[-113.1164,48.9985],[-113.1102,48.9986],[-113.1069,48.9985],[-113.1032,48.9985],[-113.0981,48.9985],[-113.0954,48.9985],[-113.0921,48.9985],[-113.0879,48.9986],[-113.0856,48.9986],[-113.011,48.9986],[-113.0099,48.9986],[-112.1936,48.9982]]]}},{"type":"Feature","id":"30037","properties":{"name":"Golden Valley","fips":"30037"},"geometry":{"type":"Polygon","coordinates":[[[-108.7801,46.1324],[-108.9241,46.1322],[-109.4155,46.1323],[-109.4173,46.0445],[-109.605,46.0454],[-109.6543,46.2194],[-109.4029,46.2197],[-109.3892,46.6937],[-109.389,46.751],[-109.0098,46.7504],[-108.9886,46.5786],[-108.9048,46.5774],[-108.8613,46.3648],[-108.7791,46.2767],[-108.7801,46.1324]]]}},{"type":"Feature","id":"30039","properties":{"name":"Granite","fips":"30039"},"geometry":{"type":"Polygon","coordinates":[[[-113.8278,46.661],[-113.6672,46.6584],[-113.6677,46.716],[-113.4798,46.7449],[-113.4799,46.8027],[-113.303,46.8321],[-113.1158,46.7136],[-113.0387,46.7361],[-113.0368,46.2668],[-113.0372,46.2231],[-113.2847,46.2228],[-113.2744,46.0595],[-113.5175,45.9399],[-113.6482,45.9651],[-113.7445,46.0488],[-113.8031,46.0373],[-113.7532,46.1128],[-113.8211,46.2125],[-113.7501,46.2726],[-113.8759,46.5086],[-113.8132,46.5881],[-113.8278,46.661]]]}},{"type":"Feature","id":"30041","properties":{"name":"Hill","fips":"30041"},"geometry":{"type":"Polygon","coordinates":[[[-109.4897,49.0003],[-109.5058,48.9139],[-109.5053,48.5676],[-109.4644,48.5253],[-109.4643,48.4524],[-109.4973,48.4517],[-109.5516,48.2935],[-109.5343,48.1351],[-109.727,48.1326],[-109.7269,48.2214],[-109.8458,48.2191],[-109.8457,48.306],[-110.6253,48.3065],[-110.6255,48.2196],[-110.7556,48.2197],[-110.7432,48.9984],[-110.2161,48.9992],[-110.2155,48.9992],[-110.1716,48.9993],[-109.9956,48.9996],[-109.4897,49.0003]]]}},{"type":"Feature","id":"30043","properties":{"name":"Jefferson","fips":"30043"},"geometry":{"type":"Polygon","coordinates":[[[-111.66,45.8335],[-111.8051,45.798],[-111.9301,45.8571],[-112.1064,45.8412],[-112.1903,45.7485],[-112.3994,45.8311],[-112.5048,46.1838],[-112.5768,46.1789],[-112.5585,46.2659],[-112.3106,46.421],[-112.1758,46.4566],[-112.1884,46.4992],[-112.0293,46.5691],[-111.7879,46.569],[-111.7843,46.05],[-111.6604,46.0494],[-111.66,45.8335]]]}},{"type":"Feature","id":"30045","properties":{"name":"Judith Basin","fips":"30045"},"geometry":{"type":"Polygon","coordinates":[[[-110.6396,47.4163],[-110.2133,47.4167],[-110.2134,47.3591],[-110.128,47.359],[-110.1279,47.272],[-110.0003,47.2722],[-110.0001,47.2289],[-109.8724,47.229],[-109.8724,47.1855],[-109.7569,47.1856],[-109.7554,46.8962],[-109.8354,46.8091],[-109.7563,46.7804],[-109.746,46.6937],[-109.9692,46.7527],[-110.2734,46.7106],[-110.4572,46.6787],[-110.6201,46.7715],[-110.6529,46.8236],[-110.6454,47.0957],[-110.7723,47.0959],[-110.7671,47.3591],[-110.6393,47.359],[-110.6396,47.4163]]]}},{"type":"Feature","id":"30047","properties":{"name":"Lake","fips":"30047"},"geometry":{"type":"Polygon","coordinates":[[[-114.1874,47.1382],[-114.2033,47.3559],[-114.2886,47.3559],[-114.3531,47.3899],[-114.3015,47.4971],[-114.3835,47.4833],[-114.3215,47.5956],[-114.5833,47.6017],[-114.6043,47.7897],[-114.4772,47.7898],[-114.492,47.9619],[-114.0385,47.9626],[-114.0781,48.0235],[-114.0283,48.0519],[-113.8858,48.0511],[-113.8419,47.9782],[-113.7477,47.9531],[-113.6674,47.8903],[-113.6812,47.7947],[-113.604,47.7215],[-113.634,47.5999],[-113.9488,47.6005],[-113.93,47.5985],[-113.9149,47.5003],[-113.9512,47.476],[-113.8709,47.3921],[-113.8865,47.3186],[-113.8211,47.2686],[-113.822,47.1816],[-114.1874,47.1382]]]}},{"type":"Feature","id":"30049","properties":{"name":"Lewis and Clark","fips":"30049"},"geometry":{"type":"Polygon","coordinates":[[[-112.3106,46.421],[-112.2986,46.6259],[-112.4109,46.6567],[-112.4108,46.6997],[-112.5353,46.6985],[-112.5356,46.8344],[-112.7953,46.8318],[-112.7966,47.1772],[-113.0589,47.1794],[-113.0594,47.4881],[-113.1149,47.4906],[-113.1449,47.5964],[-113.1659,47.7207],[-113.0809,47.7499],[-113.0867,47.9181],[-112.9847,47.954],[-112.9133,47.8262],[-112.9142,47.695],[-112.8186,47.6078],[-112.5523,47.6522],[-112.2784,47.506],[-112.0473,47.516],[-112.0449,47.1927],[-111.7893,47.129],[-111.7901,46.9139],[-111.6581,46.9134],[-111.6454,46.8419],[-111.498,46.7625],[-111.6393,46.7382],[-111.6316,46.5691],[-111.7879,46.569],[-112.0293,46.5691],[-112.1884,46.4992],[-112.1758,46.4566],[-112.3106,46.421]]]}},{"type":"Feature","id":"30051","properties":{"name":"Liberty","fips":"30051"},"geometry":{"type":"Polygon","coordinates":[[[-111.2707,48.9979],[-110.8875,48.9981],[-110.8867,48.9981],[-110.7432,48.9984],[-110.7556,48.2197],[-110.827,48.2197],[-110.8272,48.1332],[-111.4091,48.1322],[-111.409,48.2184],[-111.4089,48.2195],[-111.2747,48.2194],[-111.2707,48.9979]]]}},{"type":"Feature","id":"30053","properties":{"name":"Lincoln","fips":"30053"},"geometry":{"type":"Polygon","coordinates":[[[-116.0494,48.2155],[-116.0492,48.5021],[-116.049,48.9579],[-116.049,48.9584],[-116.0492,49.0009],[-115.2511,48.9996],[-114.7281,49.0006],[-114.6917,48.8421],[-114.7325,48.8092],[-114.6119,48.7519],[-114.6924,48.6804],[-114.639,48.659],[-114.8887,48.6585],[-114.8884,48.5736],[-114.8497,48.5735],[-114.8479,48.2262],[-115.0201,48.226],[-115.0108,48.0173],[-115.1545,48.0177],[-115.1851,47.9191],[-115.2787,47.8903],[-115.5254,47.909],[-115.5376,47.9817],[-115.6369,48.0746],[-115.6719,48.2062],[-115.7377,48.263],[-115.8,48.223],[-116.0077,48.1589],[-116.0494,48.2155]]]}},{"type":"Feature","id":"30057","properties":{"name":"Madison","fips":"30057"},"geometry":{"type":"Polygon","coordinates":[[[-111.8051,45.798],[-111.5368,45.6567],[-111.5366,45.6421],[-111.3513,45.6419],[-111.3777,44.7517],[-111.3948,44.7514],[-111.4815,44.7092],[-111.7817,44.7088],[-111.7818,44.7811],[-112.0659,44.7838],[-112.0657,44.826],[-112.1671,44.8267],[-112.1912,45.0004],[-112.3343,45.0006],[-112.3338,45.0885],[-112.4568,45.0886],[-112.4577,45.35],[-112.5053,45.443],[-112.6286,45.4406],[-112.6914,45.4835],[-112.6871,45.6249],[-112.5495,45.6843],[-112.5155,45.7467],[-112.1903,45.7485],[-112.1064,45.8412],[-111.9301,45.8571],[-111.8051,45.798]]]}},{"type":"Feature","id":"30055","properties":{"name":"McCone","fips":"30055"},"geometry":{"type":"Polygon","coordinates":[[[-106.4186,47.9574],[-106.3942,48.0647],[-106.2293,48.0264],[-106.0062,48.0337],[-105.8438,48.0103],[-105.6479,48.0773],[-105.498,48.0979],[-105.2282,48.0924],[-105.1947,48.0657],[-105.1949,47.8682],[-105.2346,47.7908],[-105.363,47.7904],[-105.3634,47.5294],[-105.4065,47.5292],[-105.4062,47.1816],[-105.833,47.181],[-105.8328,47.0931],[-105.9601,47.093],[-105.9601,47.181],[-106.0868,47.1809],[-106.1704,47.1809],[-106.1707,47.3547],[-106.2982,47.3544],[-106.2981,47.5289],[-106.2606,47.529],[-106.2611,47.8683],[-106.3583,47.8684],[-106.3583,47.9572],[-106.4186,47.9574]]]}},{"type":"Feature","id":"30059","properties":{"name":"Meagher","fips":"30059"},"geometry":{"type":"Polygon","coordinates":[[[-110.2819,46.1842],[-110.784,46.1924],[-110.79,46.1926],[-111.0626,46.1929],[-111.1271,46.2738],[-111.0572,46.4034],[-111.1264,46.4413],[-111.2463,46.438],[-111.2768,46.5168],[-111.345,46.5458],[-111.3305,46.6335],[-111.4128,46.6469],[-111.498,46.7625],[-111.6454,46.8419],[-111.6581,46.9134],[-111.5393,46.9134],[-111.5391,47.0004],[-111.1585,47.0115],[-111.1586,47.0882],[-111.0809,47.0881],[-111.1047,47.0291],[-110.9133,46.9809],[-110.8572,46.9229],[-110.761,46.9003],[-110.7517,46.8447],[-110.6529,46.8236],[-110.6201,46.7715],[-110.4572,46.6787],[-110.2734,46.7106],[-110.2819,46.2205],[-110.2819,46.1842]]]}},{"type":"Feature","id":"30061","properties":{"name":"Mineral","fips":"30061"},"geometry":{"type":"Polygon","coordinates":[[[-114.7972,47.2689],[-114.7757,47.2255],[-114.7122,47.2256],[-114.712,47.1821],[-114.5868,47.1237],[-114.566,47.0673],[-114.4836,47.0673],[-114.4197,47.0233],[-114.5254,47.0093],[-114.566,46.9638],[-114.5489,46.7474],[-114.6755,46.7195],[-114.6906,46.72],[-114.7176,46.714],[-114.7393,46.7152],[-114.7672,46.7388],[-114.8259,46.7819],[-114.8533,46.7998],[-114.8881,46.8086],[-114.9205,46.8277],[-114.9278,46.836],[-114.9387,46.869],[-114.936,46.8998],[-114.9758,46.9329],[-115.073,47.0138],[-115.0992,47.0481],[-115.1932,47.133],[-115.2005,47.1392],[-115.2667,47.1811],[-115.2921,47.2099],[-115.2948,47.2209],[-115.3202,47.2557],[-115.3392,47.2616],[-115.4216,47.2717],[-115.4793,47.2821],[-115.5237,47.2989],[-115.5513,47.3339],[-115.5614,47.3519],[-115.5768,47.3668],[-115.6613,47.4027],[-115.6287,47.4796],[-115.2824,47.4869],[-114.9793,47.3955],[-114.9689,47.3126],[-114.7972,47.2689]]]}},{"type":"Feature","id":"30063","properties":{"name":"Missoula","fips":"30063"},"geometry":{"type":"Polygon","coordinates":[[[-114.7972,47.2689],[-114.55,47.2516],[-114.3528,47.1904],[-114.2545,47.1206],[-114.1874,47.1382],[-113.822,47.1816],[-113.8211,47.2686],[-113.8865,47.3186],[-113.8709,47.3921],[-113.9512,47.476],[-113.9149,47.5003],[-113.93,47.5985],[-113.9488,47.6005],[-113.634,47.5999],[-113.4665,47.6],[-113.4661,47.1789],[-113.3029,47.1794],[-113.303,46.8321],[-113.4799,46.8027],[-113.4798,46.7449],[-113.6677,46.716],[-113.6672,46.6584],[-113.8278,46.661],[-114.3329,46.6608],[-114.3413,46.6428],[-114.3496,46.6467],[-114.3701,46.6542],[-114.4222,46.6522],[-114.4468,46.6453],[-114.4612,46.6392],[-114.4819,46.632],[-114.5923,46.6329],[-114.5947,46.6336],[-114.6144,46.6392],[-114.6359,46.6595],[-114.6427,46.6731],[-114.6417,46.6793],[-114.6413,46.6864],[-114.6427,46.6946],[-114.6447,46.7022],[-114.6557,46.7117],[-114.6673,46.7193],[-114.6755,46.7195],[-114.5489,46.7474],[-114.566,46.9638],[-114.5254,47.0093],[-114.4197,47.0233],[-114.4836,47.0673],[-114.566,47.0673],[-114.5868,47.1237],[-114.712,47.1821],[-114.7122,47.2256],[-114.7757,47.2255],[-114.7972,47.2689]]]}},{"type":"Feature","id":"30065","properties":{"name":"Musselshell","fips":"30065"},"geometry":{"type":"Polygon","coordinates":[[[-107.8278,46.756],[-107.7929,46.6798],[-107.7812,46.496],[-107.7821,46.3953],[-107.9285,46.3953],[-108.0116,46.3366],[-108.0295,46.2638],[-108.3207,46.2641],[-108.4046,46.2361],[-108.4049,46.1327],[-108.7801,46.1324],[-108.7791,46.2767],[-108.8613,46.3648],[-108.9048,46.5774],[-108.9886,46.5786],[-109.0098,46.7504],[-108.6309,46.7494],[-107.8278,46.756]]]}},{"type":"Feature","id":"30067","properties":{"name":"Park","fips":"30067"},"geometry":{"type":"Polygon","coordinates":[[[-109.7987,45.0022],[-110.0255,45.0036],[-110.0263,45.0037],[-110.1101,45.0039],[-110.2213,44.9962],[-110.5472,44.9925],[-110.5524,44.9922],[-110.7053,44.9923],[-110.7508,44.9979],[-110.8758,45.0021],[-111.0443,45.0013],[-111.0382,45.3512],[-110.9177,45.3513],[-110.9192,45.5253],[-110.8582,45.5251],[-110.8571,45.5909],[-110.795,45.5903],[-110.7904,46.142],[-110.784,46.1924],[-110.2819,46.1842],[-110.2927,45.785],[-110.2209,45.7848],[-110.2285,45.1728],[-110.0638,45.1721],[-109.7982,45.1719],[-109.7982,45.1674],[-109.7987,45.0022]]]}},{"type":"Feature","id":"30069","properties":{"name":"Petroleum","fips":"30069"},"geometry":{"type":"Polygon","coordinates":[[[-108.6309,46.7494],[-108.6085,47.0978],[-108.7367,47.0982],[-108.7192,47.2703],[-108.5905,47.2705],[-108.5909,47.3063],[-108.315,47.3149],[-108.3126,47.5835],[-108.0654,47.5983],[-107.9311,47.5691],[-107.9089,47.4506],[-107.9629,47.3544],[-107.9685,47.25],[-107.9195,47.0171],[-107.8826,47.0002],[-107.9391,46.8765],[-107.8921,46.8515],[-107.8278,46.756],[-108.6309,46.7494]]]}},{"type":"Feature","id":"30071","properties":{"name":"Phillips","fips":"30071"},"geometry":{"type":"Polygon","coordinates":[[[-107.1799,48.9996],[-107.2061,48.9126],[-107.2064,48.568],[-107.1936,48.5093],[-107.2582,48.5148],[-107.3017,48.4809],[-107.3011,48.394],[-107.2605,48.3939],[-107.2606,48.3047],[-107.3693,48.3051],[-107.3699,48.2183],[-107.4046,48.2183],[-107.4149,47.6917],[-107.4502,47.6221],[-107.601,47.65],[-107.6958,47.6288],[-107.7593,47.552],[-107.9089,47.4506],[-107.9311,47.5691],[-108.0654,47.5983],[-108.3126,47.5835],[-108.7716,47.6455],[-108.891,47.7344],[-108.8882,47.9227],[-108.6257,47.9208],[-108.608,47.9911],[-108.434,47.9766],[-108.4338,48.2194],[-108.4114,48.2194],[-108.4104,48.4485],[-108.3459,48.4223],[-108.3462,48.5684],[-108.3188,48.5684],[-108.3191,48.7423],[-108.2593,48.7422],[-108.2594,48.9136],[-108.2365,48.9994],[-107.1799,48.9996]]]}},{"type":"Feature","id":"30073","properties":{"name":"Pondera","fips":"30073"},"geometry":{"type":"Polygon","coordinates":[[[-111.4089,48.2195],[-111.409,48.2184],[-111.4091,48.1322],[-111.4085,47.987],[-111.9838,47.9848],[-111.9835,48.0432],[-112.0473,48.0869],[-112.1778,48.0875],[-112.1778,48.1309],[-113.0169,48.1325],[-113.2315,48.1707],[-113.2368,48.2473],[-113.3495,48.3102],[-112.5759,48.3094],[-112.5769,48.4835],[-112.2299,48.4831],[-112.1844,48.4776],[-111.9909,48.4385],[-111.9908,48.3943],[-111.7959,48.393],[-111.7961,48.3498],[-111.6658,48.3495],[-111.6665,48.2194],[-111.4089,48.2195]]]}},{"type":"Feature","id":"30075","properties":{"name":"Powder River","fips":"30075"},"geometry":{"type":"Polygon","coordinates":[[[-105.0384,45.0003],[-105.0766,45.0003],[-105.8481,45.0004],[-105.919,44.9978],[-105.9282,44.9936],[-106.0248,44.9937],[-106.2636,44.9938],[-106.2637,45.1798],[-106.2797,45.1799],[-106.2795,45.3518],[-106.2356,45.3518],[-106.2343,45.7884],[-106.1919,45.7886],[-104.982,45.787],[-104.9871,45.352],[-105.0382,45.3521],[-105.0384,45.0003]]]}},{"type":"Feature","id":"30077","properties":{"name":"Powell","fips":"30077"},"geometry":{"type":"Polygon","coordinates":[[[-113.303,46.8321],[-113.3029,47.1794],[-113.4661,47.1789],[-113.4665,47.6],[-113.1449,47.5964],[-113.1149,47.4906],[-113.0594,47.4881],[-113.0589,47.1794],[-112.7966,47.1772],[-112.7953,46.8318],[-112.5356,46.8344],[-112.5353,46.6985],[-112.4108,46.6997],[-112.4109,46.6567],[-112.2986,46.6259],[-112.3106,46.421],[-112.5585,46.2659],[-113.0368,46.2668],[-113.0387,46.7361],[-113.1158,46.7136],[-113.303,46.8321]]]}},{"type":"Feature","id":"30079","properties":{"name":"Prairie","fips":"30079"},"geometry":{"type":"Polygon","coordinates":[[[-105.4062,47.1816],[-105.3248,47.1816],[-105.3249,46.9772],[-105.1967,46.9772],[-105.1969,46.9192],[-105.0695,46.9191],[-105.0275,46.8615],[-104.6038,46.8609],[-104.607,46.6849],[-104.7328,46.6563],[-104.7329,46.6127],[-104.8587,46.6125],[-104.8589,46.5691],[-104.9848,46.5695],[-104.9847,46.5406],[-105.2394,46.541],[-105.2392,46.5701],[-105.449,46.5709],[-105.492,46.658],[-105.5757,46.6579],[-105.5763,46.7449],[-105.6181,46.745],[-105.6176,46.8321],[-106.0867,46.8603],[-106.0868,47.1809],[-105.9601,47.181],[-105.9601,47.093],[-105.8328,47.0931],[-105.833,47.181],[-105.4062,47.1816]]]}},{"type":"Feature","id":"30081","properties":{"name":"Ravalli","fips":"30081"},"geometry":{"type":"Polygon","coordinates":[[[-114.5513,45.559],[-114.5609,45.5646],[-114.5618,45.5651],[-114.5637,45.6374],[-114.561,45.6399],[-114.5508,45.6426],[-114.5456,45.6429],[-114.5418,45.6413],[-114.5154,45.6528],[-114.5009,45.6667],[-114.4954,45.7033],[-114.4976,45.7107],[-114.5049,45.7222],[-114.5287,45.7316],[-114.5478,45.7433],[-114.5662,45.7739],[-114.5146,45.8408],[-114.5093,45.8455],[-114.4988,45.8507],[-114.4487,45.8589],[-114.3938,45.894],[-114.4016,45.9632],[-114.412,45.9781],[-114.4296,45.9866],[-114.4654,45.9961],[-114.4834,46.008],[-114.4906,46.0229],[-114.4912,46.0341],[-114.4912,46.044],[-114.4763,46.062],[-114.4676,46.0819],[-114.4682,46.0999],[-114.4763,46.113],[-114.4831,46.1291],[-114.4726,46.1622],[-114.4269,46.2897],[-114.378,46.4354],[-114.3853,46.4672],[-114.3465,46.5358],[-114.3311,46.6076],[-114.3311,46.6302],[-114.3379,46.6412],[-114.3413,46.6428],[-114.3329,46.6608],[-113.8278,46.661],[-113.8132,46.5881],[-113.8759,46.5086],[-113.7501,46.2726],[-113.8211,46.2125],[-113.7532,46.1128],[-113.8031,46.0373],[-113.7445,46.0488],[-113.6482,45.9651],[-113.5175,45.9399],[-113.5169,45.9394],[-113.5163,45.9386],[-113.5324,45.8784],[-113.6976,45.8435],[-113.9426,45.6864],[-113.9716,45.7006],[-113.9878,45.7052],[-114.0156,45.6961],[-114.0193,45.6929],[-114.0225,45.6796],[-114.0349,45.648],[-114.1352,45.5575],[-114.1879,45.5422],[-114.2478,45.5455],[-114.3096,45.4694],[-114.3508,45.4685],[-114.3666,45.4916],[-114.4605,45.5613],[-114.4738,45.5633],[-114.5142,45.5647],[-114.5513,45.559]]]}},{"type":"Feature","id":"30083","properties":{"name":"Richland","fips":"30083"},"geometry":{"type":"Polygon","coordinates":[[[-104.0439,47.9715],[-104.0435,47.9545],[-104.0433,47.9496],[-104.0422,47.891],[-104.0417,47.8623],[-104.0419,47.8417],[-104.0426,47.8082],[-104.0424,47.8054],[-104.0424,47.8033],[-104.0432,47.7473],[-104.0432,47.7471],[-104.0446,47.4594],[-104.0448,47.4384],[-104.0451,47.3975],[-104.1315,47.3541],[-104.4203,47.3546],[-104.5133,47.3547],[-104.5129,47.5293],[-104.5938,47.529],[-104.5936,47.616],[-104.9785,47.6163],[-104.978,47.7034],[-105.2349,47.7036],[-105.2346,47.7908],[-105.1949,47.8682],[-105.1947,48.0657],[-105.1777,48.1031],[-105.1191,48.0596],[-104.9903,48.0664],[-104.8913,48.1507],[-104.8226,48.1189],[-104.6816,48.1033],[-104.5445,48.1266],[-104.2459,48.031],[-104.1425,48.055],[-104.0989,48.0],[-104.0441,47.9961],[-104.0442,47.9928],[-104.0439,47.9715]]]}},{"type":"Feature","id":"30085","properties":{"name":"Roosevelt","fips":"30085"},"geometry":{"type":"Polygon","coordinates":[[[-104.0469,48.3894],[-104.0467,48.3748],[-104.0464,48.3742],[-104.0463,48.3423],[-104.046,48.2568],[-104.0459,48.2551],[-104.0456,48.2462],[-104.0457,48.2446],[-104.0457,48.2414],[-104.0456,48.1939],[-104.0454,48.1925],[-104.0455,48.1762],[-104.0454,48.1644],[-104.0441,47.9961],[-104.0989,48.0],[-104.1425,48.055],[-104.2459,48.031],[-104.5445,48.1266],[-104.6816,48.1033],[-104.8226,48.1189],[-104.8913,48.1507],[-104.9903,48.0664],[-105.1191,48.0596],[-105.1777,48.1031],[-105.1947,48.0657],[-105.2282,48.0924],[-105.498,48.0979],[-105.6479,48.0773],[-105.8438,48.0103],[-105.8435,48.219],[-105.8043,48.2192],[-105.8044,48.5633],[-104.9734,48.5632],[-104.7576,48.5631],[-104.7579,48.4766],[-104.6277,48.4763],[-104.628,48.3892],[-104.0469,48.3894]]]}},{"type":"Feature","id":"30087","properties":{"name":"Rosebud","fips":"30087"},"geometry":{"type":"Polygon","coordinates":[[[-107.7812,46.496],[-107.7929,46.6798],[-107.8278,46.756],[-107.8921,46.8515],[-107.4668,46.8605],[-106.72,46.8596],[-106.7203,46.8453],[-106.0865,46.846],[-106.0863,46.8313],[-106.1209,46.8313],[-106.1204,46.4836],[-106.1553,46.4835],[-106.1533,46.1372],[-106.1914,46.137],[-106.1919,45.7886],[-106.2343,45.7884],[-106.2356,45.3518],[-106.2795,45.3518],[-106.2797,45.1799],[-106.768,45.1797],[-106.7275,45.6765],[-106.913,45.6841],[-106.9125,45.7882],[-106.8772,45.8317],[-106.9391,45.8701],[-106.939,46.1367],[-107.0075,46.1341],[-107.0073,46.3076],[-107.0284,46.3954],[-107.1532,46.3955],[-107.1746,46.4823],[-107.7385,46.4817],[-107.7554,46.482],[-107.7552,46.4961],[-107.7812,46.496]]]}},{"type":"Feature","id":"30089","properties":{"name":"Sanders","fips":"30089"},"geometry":{"type":"Polygon","coordinates":[[[-116.0484,47.9768],[-116.0484,47.9771],[-116.0493,48.0666],[-116.0494,48.0721],[-116.0494,48.0754],[-116.0494,48.0772],[-116.0494,48.2155],[-116.0077,48.1589],[-115.8,48.223],[-115.7377,48.263],[-115.6719,48.2062],[-115.6369,48.0746],[-115.5376,47.9817],[-115.5254,47.909],[-115.2787,47.8903],[-115.1851,47.9191],[-115.1545,48.0177],[-115.0108,48.0173],[-114.9896,47.8728],[-114.6044,47.8756],[-114.6043,47.7897],[-114.5833,47.6017],[-114.3215,47.5956],[-114.3835,47.4833],[-114.3015,47.4971],[-114.3531,47.3899],[-114.2886,47.3559],[-114.2033,47.3559],[-114.1874,47.1382],[-114.2545,47.1206],[-114.3528,47.1904],[-114.55,47.2516],[-114.7972,47.2689],[-114.9689,47.3126],[-114.9793,47.3955],[-115.2824,47.4869],[-115.6287,47.4796],[-115.6613,47.4027],[-115.6906,47.4151],[-115.7211,47.4224],[-115.7299,47.4473],[-115.7259,47.4669],[-115.7122,47.4885],[-115.7299,47.518],[-115.7397,47.5377],[-115.7358,47.5553],[-115.7212,47.5763],[-115.7181,47.5927],[-115.7063,47.6379],[-115.7238,47.6967],[-115.7291,47.7031],[-115.9193,47.8574],[-116.0073,47.945],[-116.0484,47.9768]]]}},{"type":"Feature","id":"30091","properties":{"name":"Sheridan","fips":"30091"},"geometry":{"type":"Polygon","coordinates":[[[-104.0476,48.634],[-104.0476,48.627],[-104.0476,48.6256],[-104.0479,48.6202],[-104.0482,48.5991],[-104.048,48.5916],[-104.0478,48.5628],[-104.0478,48.5397],[-104.0476,48.5315],[-104.0479,48.5308],[-104.0475,48.5259],[-104.0477,48.5179],[-104.0476,48.4941],[-104.0474,48.4671],[-104.0473,48.4529],[-104.0473,48.4525],[-104.0472,48.4473],[-104.0471,48.4459],[-104.047,48.4211],[-104.0471,48.4111],[-104.047,48.3907],[-104.0469,48.3894],[-104.0469,48.3894],[-104.628,48.3892],[-104.6277,48.4763],[-104.7579,48.4766],[-104.7576,48.5631],[-104.9734,48.5632],[-104.9733,48.6501],[-105.0386,48.6502],[-105.0575,48.9994],[-104.6474,48.9993],[-104.5436,48.9995],[-104.0487,48.9999],[-104.0485,48.987],[-104.0486,48.9667],[-104.0486,48.9638],[-104.0488,48.959],[-104.0486,48.9571],[-104.0487,48.9518],[-104.0489,48.9496],[-104.0488,48.9433],[-104.0487,48.9403],[-104.0488,48.9336],[-104.0487,48.9121],[-104.0487,48.9069],[-104.0486,48.9026],[-104.0487,48.8799],[-104.0489,48.8757],[-104.0489,48.874],[-104.0488,48.8675],[-104.0487,48.8657],[-104.0489,48.8474],[-104.0486,48.7971],[-104.0485,48.7886],[-104.0485,48.7514],[-104.0483,48.7471],[-104.0479,48.6642],[-104.0478,48.6632],[-104.0479,48.6589],[-104.0479,48.6574],[-104.0479,48.6499],[-104.0478,48.6486],[-104.0476,48.634],[-104.0476,48.634]]]}},{"type":"Feature","id":"30093","properties":{"name":"Silver Bow","fips":"30093"},"geometry":{"type":"Polygon","coordinates":[[[-112.1903,45.7485],[-112.5155,45.7467],[-112.5495,45.6843],[-112.6871,45.6249],[-112.7593,45.7482],[-113.0855,45.8606],[-112.9236,45.9355],[-112.9384,45.9932],[-112.7771,46.0484],[-112.7777,46.1358],[-112.5768,46.1789],[-112.5048,46.1838],[-112.3994,45.8311],[-112.1903,45.7485]]]}},{"type":"Feature","id":"30095","properties":{"name":"Stillwater","fips":"30095"},"geometry":{"type":"Polygon","coordinates":[[[-108.9241,46.1322],[-108.9013,45.9595],[-108.9052,45.6824],[-108.8427,45.611],[-109.1278,45.5875],[-109.1285,45.5231],[-109.1914,45.5231],[-109.1915,45.4643],[-109.3562,45.4644],[-109.562,45.3629],[-109.6087,45.2612],[-109.6905,45.2613],[-109.6911,45.1672],[-109.7982,45.1674],[-109.7982,45.1719],[-110.0638,45.1721],[-110.0633,45.3488],[-109.9322,45.3486],[-109.932,45.5226],[-109.8088,45.5224],[-109.8088,45.5659],[-109.6856,45.5656],[-109.6853,45.6089],[-109.562,45.6091],[-109.5641,45.7829],[-109.5489,45.8709],[-109.5059,45.8703],[-109.5067,45.9591],[-109.4233,45.9602],[-109.4173,46.0445],[-109.4155,46.1323],[-108.9241,46.1322]]]}},{"type":"Feature","id":"30097","properties":{"name":"Sweet Grass","fips":"30097"},"geometry":{"type":"Polygon","coordinates":[[[-110.0638,45.1721],[-110.2285,45.1728],[-110.2209,45.7848],[-110.2927,45.785],[-110.2819,46.1842],[-110.2819,46.2205],[-109.6543,46.2194],[-109.605,46.0454],[-109.4173,46.0445],[-109.4233,45.9602],[-109.5067,45.9591],[-109.5059,45.8703],[-109.5489,45.8709],[-109.5641,45.7829],[-109.562,45.6091],[-109.6853,45.6089],[-109.6856,45.5656],[-109.8088,45.5659],[-109.8088,45.5224],[-109.932,45.5226],[-109.9322,45.3486],[-110.0633,45.3488],[-110.0638,45.1721]]]}},{"type":"Feature","id":"30099","properties":{"name":"Teton","fips":"30099"},"geometry":{"type":"Polygon","coordinates":[[[-111.4085,47.987],[-111.4091,47.6983],[-111.667,47.6979],[-111.6668,47.6112],[-111.9229,47.6112],[-111.9225,47.5051],[-112.0473,47.516],[-112.2784,47.506],[-112.5523,47.6522],[-112.8186,47.6078],[-112.9142,47.695],[-112.9133,47.8262],[-112.9847,47.954],[-112.8786,47.9758],[-113.0169,48.1325],[-112.1778,48.1309],[-112.1778,48.0875],[-112.0473,48.0869],[-111.9835,48.0432],[-111.9838,47.9848],[-111.4085,47.987]]]}},{"type":"Feature","id":"30101","properties":{"name":"Toole","fips":"30101"},"geometry":{"type":"Polygon","coordinates":[[[-112.1936,48.9982],[-111.8541,48.9981],[-111.8541,48.998],[-111.7617,48.9976],[-111.7616,48.9977],[-111.2707,48.9979],[-111.2747,48.2194],[-111.4089,48.2195],[-111.6665,48.2194],[-111.6658,48.3495],[-111.7961,48.3498],[-111.7959,48.393],[-111.9908,48.3943],[-111.9909,48.4385],[-112.1844,48.4776],[-112.1936,48.9982]]]}},{"type":"Feature","id":"30103","properties":{"name":"Treasure","fips":"30103"},"geometry":{"type":"Polygon","coordinates":[[[-107.7385,46.4817],[-107.1746,46.4823],[-107.1532,46.3955],[-107.0284,46.3954],[-107.0073,46.3076],[-107.0075,46.1341],[-106.939,46.1367],[-106.9391,45.8701],[-107.0521,45.8701],[-107.0518,45.9138],[-107.1764,45.9133],[-107.1763,45.9568],[-107.4249,45.9568],[-107.4249,46.0434],[-107.5115,46.0433],[-107.4664,46.1775],[-107.6128,46.3081],[-107.7385,46.4817]]]}},{"type":"Feature","id":"30105","properties":{"name":"Valley","fips":"30105"},"geometry":{"type":"Polygon","coordinates":[[[-106.1121,48.9993],[-106.1519,48.8239],[-106.0214,48.824],[-106.0212,48.5632],[-105.8044,48.5633],[-105.8043,48.2192],[-105.8435,48.219],[-105.8438,48.0103],[-106.0062,48.0337],[-106.2293,48.0264],[-106.3942,48.0647],[-106.4186,47.9574],[-106.4458,47.983],[-106.6097,47.7775],[-106.7118,47.7718],[-106.751,47.7297],[-106.8638,47.7365],[-106.8913,47.6766],[-107.0109,47.6631],[-107.2477,47.6614],[-107.4149,47.6917],[-107.4046,48.2183],[-107.3699,48.2183],[-107.3693,48.3051],[-107.2606,48.3047],[-107.2605,48.3939],[-107.3011,48.394],[-107.3017,48.4809],[-107.2582,48.5148],[-107.1936,48.5093],[-107.2064,48.568],[-107.2061,48.9126],[-107.1799,48.9996],[-106.6256,48.9996],[-106.6175,48.9996],[-106.5182,48.9996],[-106.5006,48.9998],[-106.3746,48.9996],[-106.3682,48.9995],[-106.2743,48.9993],[-106.2462,48.9993],[-106.2432,48.9994],[-106.234,48.9994],[-106.1121,48.9993]]]}},{"type":"Feature","id":"30107","properties":{"name":"Wheatland","fips":"30107"},"geometry":{"type":"Polygon","coordinates":[[[-109.6543,46.2194],[-110.2819,46.2205],[-110.2734,46.7106],[-109.9692,46.7527],[-109.746,46.6937],[-109.3892,46.6937],[-109.4029,46.2197],[-109.6543,46.2194]]]}},{"type":"Feature","id":"30109","properties":{"name":"Wibaux","fips":"30109"},"geometry":{"type":"Polygon","coordinates":[[[-104.0453,46.6414],[-104.0453,46.6414],[-104.3539,46.6414],[-104.4178,46.6849],[-104.607,46.6849],[-104.6038,46.8609],[-104.4965,46.8609],[-104.3692,46.9474],[-104.3056,47.0423],[-104.3416,47.2456],[-104.4515,47.3184],[-104.4203,47.3546],[-104.1315,47.3541],[-104.0451,47.3975],[-104.0453,47.3435],[-104.0453,47.332],[-104.0453,47.3301],[-104.0451,47.277],[-104.0452,47.2739],[-104.0451,47.2714],[-104.0451,47.2669],[-104.0451,47.266],[-104.0452,47.2639],[-104.0451,47.0928],[-104.045,47.0812],[-104.0454,47.0786],[-104.0453,47.0639],[-104.0452,47.0575],[-104.0452,47.0536],[-104.0451,47.0409],[-104.0451,47.0376],[-104.0456,46.9412],[-104.0455,46.934],[-104.0455,46.9339],[-104.0454,46.7254],[-104.0454,46.7222],[-104.0454,46.7213],[-104.0456,46.7139],[-104.0455,46.7087],[-104.0453,46.6414]]]}},{"type":"Feature","id":"30111","properties":{"name":"Yellowstone","fips":"30111"},"geometry":{"type":"Polygon","coordinates":[[[-108.9241,46.1322],[-108.7801,46.1324],[-108.4049,46.1327],[-108.4046,46.2361],[-108.3207,46.2641],[-108.0295,46.2638],[-108.0116,46.3366],[-107.9285,46.3953],[-107.7821,46.3953],[-107.7812,46.496],[-107.7552,46.4961],[-107.7554,46.482],[-107.7385,46.4817],[-107.6128,46.3081],[-107.4664,46.1775],[-107.5115,46.0433],[-107.6743,46.0436],[-107.6744,45.9857],[-107.798,45.9857],[-107.8816,45.899],[-108.0474,45.8993],[-108.069,45.7836],[-108.0697,45.5182],[-108.1931,45.5184],[-108.1932,45.4894],[-108.3162,45.4895],[-108.3164,45.4605],[-108.645,45.4641],[-108.8017,45.5521],[-108.8427,45.611],[-108.9052,45.6824],[-108.9013,45.9595],[-108.9241,46.1322]]]}}]}