{"type":"FeatureCollection","features":[{"type":"Feature","id":"37001","properties":{"name":"Alamance","fips":"37001"},"geometry":{"type":"Polygon","coordinates":[[[-79.2595,36.1373],[-79.2495,35.8768],[-79.3188,35.8441],[-79.5425,35.8434],[-79.542,35.8996],[-79.5416,35.9021],[-79.5324,36.2413],[-79.5323,36.2414],[-79.5321,36.2486],[-79.5234,36.2499],[-79.3654,36.2464],[-79.3158,36.2453],[-79.257,36.2439],[-79.2595,36.1373]]]}},{"type":"Feature","id":"37003","properties":{"name":"Alexander","fips":"37003"},"geometry":{"type":"Polygon","coordinates":[[[-81.0289,36.0458],[-81.0054,35.9582],[-81.0521,35.8448],[-81.0647,35.8244],[-81.0757,35.815],[-81.0789,35.8028],[-81.0937,35.794],[-81.1094,35.7766],[-81.1423,35.8274],[-81.3343,35.7965],[-81.3284,35.9965],[-81.1909,36.0369],[-81.0289,36.0458]]]}},{"type":"Feature","id":"37005","properties":{"name":"Alleghany","fips":"37005"},"geometry":{"type":"Polygon","coordinates":[[[-81.3532,36.5747],[-81.3075,36.575],[-81.0619,36.567],[-81.0588,36.567],[-80.946,36.5632],[-80.9443,36.5631],[-80.9018,36.5618],[-80.9746,36.4528],[-80.9671,36.4016],[-81.0136,36.3713],[-81.0948,36.4404],[-81.2535,36.3654],[-81.3532,36.5747]]]}},{"type":"Feature","id":"37007","properties":{"name":"Anson","fips":"37007"},"geometry":{"type":"Polygon","coordinates":[[[-80.099,34.8101],[-80.3204,34.8138],[-80.2771,35.1961],[-80.1742,35.148],[-80.0754,35.1431],[-79.9993,35.0854],[-79.9279,35.1177],[-79.8757,35.0379],[-79.85,34.8993],[-79.9276,34.8066],[-80.0275,34.8087],[-80.0428,34.8091],[-80.0729,34.8097],[-80.0772,34.8097],[-80.098,34.8101],[-80.099,34.8101]]]}},{"type":"Feature","id":"37009","properties":{"name":"Ashe","fips":"37009"},"geometry":{"type":"Polygon","coordinates":[[[-81.6775,36.5881],[-81.607,36.5871],[-81.521,36.5805],[-81.3533,36.5747],[-81.3532,36.5747],[-81.2535,36.3654],[-81.3545,36.3557],[-81.3788,36.278],[-81.4773,36.2403],[-81.5662,36.2721],[-81.721,36.3875],[-81.7143,36.451],[-81.7151,36.4534],[-81.6973,36.4847],[-81.6959,36.4916],[-81.6968,36.4934],[-81.6973,36.4961],[-81.6983,36.4972],[-81.6999,36.498],[-81.7002,36.5005],[-81.6999,36.5009],[-81.698,36.5041],[-81.6973,36.5049],[-81.6978,36.5075],[-81.6977,36.5084],[-81.6994,36.5115],[-81.6996,36.5129],[-81.7001,36.5142],[-81.7006,36.5152],[-81.708,36.5362],[-81.7,36.5397],[-81.6775,36.5881]]]}},{"type":"Feature","id":"37011","properties":{"name":"Avery","fips":"37011"},"geometry":{"type":"Polygon","coordinates":[[[-81.9817,35.9115],[-82.0342,35.9421],[-82.0805,36.1057],[-82.0801,36.1057],[-82.0266,36.1302],[-81.9601,36.2281],[-81.933,36.2649],[-81.9181,36.2871],[-81.9091,36.2164],[-81.8115,36.1115],[-81.736,36.0668],[-81.8071,35.9621],[-81.8996,36.0001],[-81.9437,35.9594],[-81.963,35.9417],[-81.9545,35.9267],[-81.9817,35.9115]]]}},{"type":"Feature","id":"37013","properties":{"name":"Beaufort","fips":"37013"},"geometry":{"type":"Polygon","coordinates":[[[-77.1904,35.419],[-77.1891,35.426],[-77.1912,35.4347],[-77.1813,35.441],[-77.1799,35.4558],[-77.1739,35.4567],[-77.1754,35.4741],[-77.0875,35.564],[-77.1738,35.6353],[-77.174,35.733],[-76.9857,35.6585],[-76.8451,35.7054],[-76.638,35.7052],[-76.5641,35.6011],[-76.4678,35.5565],[-76.5991,35.52],[-76.5469,35.3897],[-76.5802,35.3871],[-76.606,35.3871],[-76.6207,35.3781],[-76.6281,35.3685],[-76.6285,35.368],[-76.6195,35.3455],[-76.605,35.3378],[-76.6325,35.2352],[-76.8455,35.216],[-76.8955,35.2535],[-77.1904,35.419]]]}},{"type":"Feature","id":"37015","properties":{"name":"Bertie","fips":"37015"},"geometry":{"type":"Polygon","coordinates":[[[-76.6924,35.9453],[-76.7608,35.8648],[-76.8302,35.8859],[-76.8886,35.8123],[-76.9185,35.8956],[-77.0043,35.8587],[-77.0437,35.9431],[-77.1967,35.9374],[-77.2062,36.0047],[-77.3277,36.0745],[-77.2307,36.1036],[-77.2647,36.1597],[-77.2918,36.1685],[-77.2088,36.2469],[-77.1832,36.2427],[-76.7066,36.2439],[-76.7363,36.147],[-76.6688,36.021],[-76.6718,36.0183],[-76.6849,36.0099],[-76.6839,36.0004],[-76.6797,35.992],[-76.6849,35.983],[-76.6955,35.9735],[-76.7002,35.9646],[-76.6976,35.9519],[-76.6924,35.9453]]]}},{"type":"Feature","id":"37017","properties":{"name":"Bladen","fips":"37017"},"geometry":{"type":"Polygon","coordinates":[[[-78.2563,34.3998],[-78.3372,34.3671],[-78.4462,34.3768],[-78.6774,34.4694],[-78.8715,34.4827],[-78.8057,34.6893],[-78.9011,34.8348],[-78.4946,34.8565],[-78.2546,34.554],[-78.1765,34.4653],[-78.2563,34.3998]]]}},{"type":"Feature","id":"37019","properties":{"name":"Brunswick","fips":"37019"},"geometry":{"type":"Polygon","coordinates":[[[-77.9373,33.9286],[-77.9466,33.9123],[-77.9569,33.8778],[-77.9602,33.8533],[-77.9706,33.8445],[-78.0068,33.8587],[-78.01,33.8614],[-78.0094,33.8678],[-78.0187,33.8883],[-78.0954,33.906],[-78.137,33.9122],[-78.1777,33.9143],[-78.2761,33.9124],[-78.384,33.9019],[-78.509,33.8655],[-78.5411,33.8511],[-78.6505,33.944],[-78.5568,34.0624],[-78.5452,34.1457],[-78.4949,34.1668],[-78.4226,34.1392],[-78.3742,34.205],[-78.2545,34.2163],[-78.1624,34.357],[-78.0299,34.3318],[-77.9516,34.2324],[-77.9373,33.9286]]]}},{"type":"Feature","id":"37021","properties":{"name":"Buncombe","fips":"37021"},"geometry":{"type":"Polygon","coordinates":[[[-82.169,35.5278],[-82.2668,35.4659],[-82.5703,35.4313],[-82.6724,35.4595],[-82.7444,35.4233],[-82.8003,35.4705],[-82.7667,35.5668],[-82.8837,35.6782],[-82.8069,35.6857],[-82.5145,35.8032],[-82.4087,35.8181],[-82.3482,35.8106],[-82.2754,35.7044],[-82.2908,35.5913],[-82.169,35.5278]]]}},{"type":"Feature","id":"37023","properties":{"name":"Burke","fips":"37023"},"geometry":{"type":"Polygon","coordinates":[[[-81.8242,35.575],[-81.8693,35.7196],[-81.987,35.8069],[-81.9066,35.8834],[-81.9437,35.9594],[-81.8996,36.0001],[-81.8071,35.9621],[-81.556,35.7773],[-81.3641,35.7679],[-81.5344,35.5688],[-81.5356,35.5673],[-81.5357,35.5671],[-81.5361,35.5666],[-81.5378,35.5645],[-81.6923,35.5798],[-81.8242,35.575]]]}},{"type":"Feature","id":"37025","properties":{"name":"Cabarrus","fips":"37025"},"geometry":{"type":"Polygon","coordinates":[[[-80.7196,35.3628],[-80.7443,35.3806],[-80.7553,35.3949],[-80.7643,35.4002],[-80.7843,35.5058],[-80.7373,35.5056],[-80.7371,35.5072],[-80.6884,35.5066],[-80.6576,35.5061],[-80.6504,35.5061],[-80.649,35.5059],[-80.6459,35.5059],[-80.5624,35.5031],[-80.2952,35.5029],[-80.5053,35.184],[-80.5064,35.1852],[-80.5503,35.2084],[-80.6658,35.2682],[-80.6673,35.269],[-80.6936,35.3468],[-80.7086,35.3552],[-80.7196,35.3628]]]}},{"type":"Feature","id":"37027","properties":{"name":"Caldwell","fips":"37027"},"geometry":{"type":"Polygon","coordinates":[[[-81.3343,35.7965],[-81.3463,35.7941],[-81.3557,35.7804],[-81.3539,35.7689],[-81.3641,35.7679],[-81.556,35.7773],[-81.8071,35.9621],[-81.736,36.0668],[-81.8115,36.1115],[-81.5455,36.1174],[-81.3284,35.9965],[-81.3343,35.7965]]]}},{"type":"Feature","id":"37029","properties":{"name":"Camden","fips":"37029"},"geometry":{"type":"Polygon","coordinates":[[[-76.4915,36.5504],[-76.3132,36.5506],[-76.3132,36.5506],[-76.1586,36.4263],[-76.1141,36.3575],[-76.0508,36.3598],[-75.9484,36.2853],[-75.8874,36.1602],[-75.905,36.1642],[-75.92,36.1649],[-75.9247,36.1636],[-75.939,36.1655],[-75.9952,36.1781],[-76.017,36.1864],[-76.0189,36.1883],[-76.0318,36.1891],[-76.0471,36.1831],[-76.2166,36.2982],[-76.2312,36.3717],[-76.4915,36.5105],[-76.5414,36.5503],[-76.4915,36.5504]]]}},{"type":"Feature","id":"37031","properties":{"name":"Carteret","fips":"37031"},"geometry":{"type":"Polygon","coordinates":[[[-77.0903,34.8028],[-76.9393,34.8286],[-76.6931,34.8692],[-76.6542,34.9371],[-76.7113,34.982],[-76.6446,35.0198],[-76.642,35.0128],[-76.6285,34.9948],[-76.5881,34.9914],[-76.5667,34.9982],[-76.5397,35.0004],[-76.5026,35.0072],[-76.4959,35.0117],[-76.4914,35.0173],[-76.4903,35.0341],[-76.4801,35.0521],[-76.4745,35.0701],[-76.4688,35.0753],[-76.4635,35.0764],[-76.4358,35.0579],[-76.4326,35.0491],[-76.4319,35.0309],[-76.4255,35.0015],[-76.4063,34.9873],[-76.3985,34.9766],[-76.3956,34.9752],[-76.332,34.9709],[-76.3264,34.9762],[-76.3296,34.9869],[-76.3502,35.0167],[-76.3608,35.026],[-76.3644,35.0313],[-76.3644,35.0349],[-76.3523,35.0331],[-76.3185,35.0206],[-76.2937,35.0096],[-76.2884,35.0057],[-76.2887,34.9972],[-76.2909,34.9943],[-76.2939,34.9919],[-76.2962,34.9867],[-76.2965,34.9762],[-76.2907,34.9691],[-76.2756,34.961],[-76.2749,34.9539],[-76.2777,34.94],[-76.2841,34.9368],[-76.3114,34.9102],[-76.32,34.8977],[-76.3338,34.8821],[-76.3477,34.8722],[-76.3683,34.8729],[-76.3772,34.8676],[-76.3796,34.8626],[-76.3953,34.8555],[-76.4002,34.8555],[-76.4116,34.8413],[-76.4159,34.8256],[-76.4159,34.8136],[-76.4031,34.8062],[-76.3903,34.8056],[-76.3838,34.8079],[-76.3732,34.8171],[-76.3626,34.8242],[-76.3413,34.8427],[-76.3228,34.8612],[-76.274,34.8973],[-76.2337,34.9259],[-76.1949,34.9627],[-76.1601,34.9912],[-76.1118,35.0345],[-76.0933,35.0487],[-76.0699,35.0757],[-76.0649,35.0771],[-76.0436,35.07],[-76.0386,35.065],[-76.0359,35.059],[-76.073,35.0305],[-76.1373,34.9879],[-76.2331,34.9055],[-76.3102,34.8523],[-76.3868,34.7846],[-76.4505,34.7144],[-76.4941,34.662],[-76.5242,34.6154],[-76.5359,34.5886],[-76.5552,34.616],[-76.5538,34.6283],[-76.5504,34.6308],[-76.5493,34.6456],[-76.5795,34.6602],[-76.6187,34.6726],[-76.6429,34.6776],[-76.6626,34.6855],[-76.6763,34.6932],[-76.6938,34.6925],[-76.727,34.6967],[-76.77,34.6969],[-76.8175,34.6937],[-76.9063,34.6828],[-76.9903,34.6696],[-77.0311,34.6612],[-77.1128,34.6394],[-77.1261,34.7569],[-77.1658,34.7849],[-77.0903,34.8028]]]}},{"type":"Feature","id":"37033","properties":{"name":"Caswell","fips":"37033"},"geometry":{"type":"Polygon","coordinates":[[[-79.511,36.5407],[-79.5106,36.5407],[-79.47,36.541],[-79.446,36.5412],[-79.4457,36.5412],[-79.3427,36.5414],[-79.2186,36.5416],[-79.2095,36.5416],[-79.2087,36.5416],[-79.1379,36.5417],[-79.1537,36.2421],[-79.257,36.2439],[-79.3158,36.2453],[-79.3654,36.2464],[-79.5234,36.2499],[-79.5321,36.2486],[-79.511,36.5407]]]}},{"type":"Feature","id":"37035","properties":{"name":"Catawba","fips":"37035"},"geometry":{"type":"Polygon","coordinates":[[[-81.3641,35.7679],[-81.3539,35.7689],[-81.3557,35.7804],[-81.3463,35.7941],[-81.3343,35.7965],[-81.1423,35.8274],[-81.1094,35.7766],[-80.9245,35.6217],[-80.96,35.5478],[-80.9618,35.5482],[-81.5344,35.5688],[-81.3641,35.7679]]]}},{"type":"Feature","id":"37037","properties":{"name":"Chatham","fips":"37037"},"geometry":{"type":"Polygon","coordinates":[[[-78.9062,35.8679],[-78.9094,35.8429],[-78.9713,35.6756],[-78.9951,35.6102],[-78.9133,35.5831],[-78.9698,35.5214],[-79.119,35.6282],[-79.35,35.518],[-79.3514,35.5178],[-79.5559,35.5151],[-79.5425,35.8434],[-79.3188,35.8441],[-79.2495,35.8768],[-79.0167,35.8632],[-78.9062,35.8679]]]}},{"type":"Feature","id":"37039","properties":{"name":"Cherokee","fips":"37039"},"geometry":{"type":"Polygon","coordinates":[[[-84.3219,34.9884],[-84.3086,35.0928],[-84.3084,35.0932],[-84.2923,35.2067],[-84.2902,35.2256],[-84.2278,35.2679],[-84.2237,35.2691],[-84.2118,35.2661],[-84.2029,35.2558],[-84.1249,35.2498],[-84.1212,35.2506],[-84.1153,35.2504],[-84.115,35.2498],[-84.0975,35.2474],[-84.0557,35.2682],[-84.029,35.291],[-83.9588,35.2169],[-83.8447,35.2554],[-83.7025,35.2484],[-83.7381,35.1559],[-83.8571,35.1371],[-84.0055,34.9874],[-84.0214,34.9874],[-84.03,34.9873],[-84.1295,34.9875],[-84.1296,34.9875],[-84.3219,34.9884]]]}},{"type":"Feature","id":"37041","properties":{"name":"Chowan","fips":"37041"},"geometry":{"type":"Polygon","coordinates":[[[-76.4118,36.0754],[-76.413,36.0722],[-76.4209,36.0607],[-76.443,36.0428],[-76.4514,36.0391],[-76.4588,36.028],[-76.4593,36.0243],[-76.492,36.018],[-76.5143,36.0056],[-76.5475,36.0099],[-76.5633,36.0099],[-76.5759,36.0062],[-76.5807,36.0072],[-76.5896,36.0156],[-76.6038,36.033],[-76.6154,36.0378],[-76.6317,36.0383],[-76.6533,36.0351],[-76.6688,36.021],[-76.7363,36.147],[-76.7066,36.2439],[-76.6904,36.2673],[-76.6966,36.2962],[-76.5597,36.3519],[-76.5899,36.239],[-76.5734,36.1123],[-76.4118,36.0754]]]}},{"type":"Feature","id":"37043","properties":{"name":"Clay","fips":"37043"},"geometry":{"type":"Polygon","coordinates":[[[-83.4831,34.9937],[-83.5494,34.9925],[-83.6202,34.9921],[-83.6736,34.9871],[-83.9364,34.9875],[-83.9366,34.9875],[-84.0055,34.9874],[-83.8571,35.1371],[-83.7381,35.1559],[-83.6598,35.1602],[-83.4831,34.9937]]]}},{"type":"Feature","id":"37045","properties":{"name":"Cleveland","fips":"37045"},"geometry":{"type":"Polygon","coordinates":[[[-81.328,35.1634],[-81.3666,35.1649],[-81.3667,35.1649],[-81.4524,35.1683],[-81.4614,35.1687],[-81.4934,35.17],[-81.4943,35.1699],[-81.7681,35.1801],[-81.7028,35.3572],[-81.6923,35.5798],[-81.5378,35.5645],[-81.4565,35.4196],[-81.3649,35.3112],[-81.3213,35.2602],[-81.328,35.1634]]]}},{"type":"Feature","id":"37047","properties":{"name":"Columbus","fips":"37047"},"geometry":{"type":"Polygon","coordinates":[[[-78.7101,33.9947],[-78.7122,33.9967],[-79.0712,34.2992],[-78.9511,34.449],[-78.8715,34.4827],[-78.6774,34.4694],[-78.4462,34.3768],[-78.3372,34.3671],[-78.2563,34.3998],[-78.1624,34.357],[-78.2545,34.2163],[-78.3742,34.205],[-78.4226,34.1392],[-78.4949,34.1668],[-78.5452,34.1457],[-78.5568,34.0624],[-78.6505,33.944],[-78.7101,33.9947]]]}},{"type":"Feature","id":"37049","properties":{"name":"Craven","fips":"37049"},"geometry":{"type":"Polygon","coordinates":[[[-77.125,35.0776],[-77.3391,35.1551],[-77.4737,35.229],[-77.391,35.34],[-77.3836,35.3354],[-77.3747,35.3338],[-77.3655,35.3337],[-77.3612,35.3319],[-77.3574,35.3288],[-77.354,35.328],[-77.3012,35.3742],[-77.2959,35.3792],[-77.1904,35.419],[-76.8955,35.2535],[-76.987,35.1558],[-76.935,35.1058],[-76.9673,35.0407],[-76.8965,34.9818],[-76.8933,34.9803],[-76.8393,34.9594],[-76.7113,34.982],[-76.6542,34.9371],[-76.6931,34.8692],[-76.9393,34.8286],[-77.0903,34.8028],[-77.1088,34.8876],[-77.125,35.0776]]]}},{"type":"Feature","id":"37051","properties":{"name":"Cumberland","fips":"37051"},"geometry":{"type":"Polygon","coordinates":[[[-78.6171,35.2457],[-78.6701,35.093],[-78.6475,34.9948],[-78.5227,34.8835],[-78.5212,34.8827],[-78.5193,34.8827],[-78.5197,34.8837],[-78.518,34.8838],[-78.5157,34.883],[-78.5156,34.882],[-78.5139,34.8819],[-78.5145,34.8809],[-78.5129,34.8809],[-78.5141,34.876],[-78.515,34.8756],[-78.5148,34.8737],[-78.5134,34.8734],[-78.5133,34.8693],[-78.5118,34.868],[-78.5069,34.8667],[-78.506,34.8652],[-78.5028,34.8647],[-78.5022,34.8615],[-78.4989,34.8593],[-78.4966,34.8595],[-78.4948,34.8588],[-78.4954,34.8577],[-78.4946,34.8565],[-78.9011,34.8348],[-79.0347,34.9536],[-79.0358,34.9553],[-79.0364,34.9556],[-79.0369,34.9569],[-79.0832,35.0327],[-79.0977,35.1742],[-79.0964,35.1777],[-79.0987,35.1834],[-79.098,35.1884],[-79.0961,35.1922],[-78.9419,35.2192],[-78.8258,35.2593],[-78.6171,35.2457]]]}},{"type":"Feature","id":"37053","properties":{"name":"Currituck","fips":"37053"},"geometry":{"type":"Polygon","coordinates":[[[-76.1224,36.5506],[-76.0348,36.5507],[-76.0268,36.5506],[-75.9576,36.5506],[-75.9557,36.5506],[-75.9534,36.5506],[-75.9528,36.5506],[-75.922,36.5507],[-75.9114,36.5507],[-75.909,36.5507],[-75.9047,36.5507],[-75.9034,36.5507],[-75.8941,36.5508],[-75.8932,36.5507],[-75.8919,36.5508],[-75.8865,36.5508],[-75.8859,36.5508],[-75.8806,36.5508],[-75.8797,36.5508],[-75.867,36.5508],[-75.8569,36.5002],[-75.835,36.4226],[-75.8187,36.3576],[-75.7964,36.2904],[-75.7733,36.2315],[-75.7944,36.2273],[-75.7985,36.2308],[-75.8037,36.2359],[-75.8116,36.244],[-75.8119,36.2477],[-75.8082,36.2595],[-75.8145,36.2853],[-75.8229,36.2917],[-75.834,36.2922],[-75.8379,36.2946],[-75.8453,36.3056],[-75.8413,36.3285],[-75.8319,36.339],[-75.8316,36.3464],[-75.8362,36.3631],[-75.843,36.371],[-75.8473,36.3721],[-75.8515,36.3795],[-75.8525,36.3847],[-75.8515,36.4158],[-75.8641,36.4305],[-75.8804,36.4358],[-75.8883,36.4416],[-75.8915,36.4605],[-75.8999,36.4821],[-75.9073,36.4858],[-75.9131,36.4863],[-75.9173,36.4858],[-75.9241,36.4821],[-75.9273,36.4828],[-75.9355,36.4906],[-75.9601,36.495],[-75.9725,36.4947],[-76.0037,36.5062],[-76.0193,36.5035],[-76.0236,36.5008],[-76.0292,36.4944],[-76.0319,36.4825],[-76.0202,36.4586],[-76.0123,36.4475],[-76.0039,36.4419],[-75.9899,36.4368],[-75.9801,36.4355],[-75.9623,36.4172],[-75.9407,36.4188],[-75.9364,36.4231],[-75.9327,36.4276],[-75.9284,36.4286],[-75.9236,36.4258],[-75.9164,36.389],[-75.9169,36.3832],[-75.9235,36.3678],[-75.9233,36.3619],[-75.9178,36.3536],[-75.9153,36.3523],[-75.8953,36.3196],[-75.8882,36.2934],[-75.8822,36.2847],[-75.8727,36.2828],[-75.8649,36.2847],[-75.8605,36.2806],[-75.8618,36.2664],[-75.8674,36.2525],[-75.8642,36.2355],[-75.8587,36.2226],[-75.8488,36.2166],[-75.8384,36.2001],[-75.8412,36.1938],[-75.8399,36.1771],[-75.8239,36.1583],[-75.8225,36.146],[-75.8134,36.1369],[-75.8004,36.1127],[-75.7916,36.0823],[-75.794,36.0717],[-75.7998,36.0726],[-75.8361,36.0926],[-75.8478,36.102],[-75.8678,36.1273],[-75.8663,36.1414],[-75.8674,36.1512],[-75.8698,36.1546],[-75.875,36.1574],[-75.8874,36.1602],[-75.9484,36.2853],[-76.0508,36.3598],[-76.1141,36.3575],[-76.1586,36.4263],[-76.3132,36.5506],[-76.1224,36.5506]]]}},{"type":"Feature","id":"37055","properties":{"name":"Dare","fips":"37055"},"geometry":{"type":"MultiPolygon","coordinates":[[[[-75.7538,35.1996],[-75.7452,35.203],[-75.7342,35.2043],[-75.718,35.2094],[-75.7089,35.2139],[-75.699,35.2212],[-75.6944,35.223],[-75.6875,35.2312],[-75.684,35.2329],[-75.6819,35.2329],[-75.6754,35.2284],[-75.6645,35.2275],[-75.6409,35.2339],[-75.6304,35.2385],[-75.6154,35.2489],[-75.599,35.2563],[-75.5983,35.2611],[-75.598,35.2667],[-75.5969,35.2695],[-75.5854,35.2664],[-75.5819,35.2639],[-75.561,35.266],[-75.5357,35.2729],[-75.5294,35.2883],[-75.524,35.3182],[-75.5185,35.3363],[-75.5126,35.3629],[-75.5067,35.3871],[-75.5004,35.4243],[-75.4949,35.4542],[-75.4877,35.4851],[-75.4886,35.4978],[-75.4896,35.5085],[-75.4875,35.5259],[-75.4822,35.5386],[-75.4786,35.5531],[-75.4786,35.5993],[-75.4813,35.6229],[-75.4877,35.6483],[-75.4987,35.6663],[-75.5074,35.6806],[-75.5157,35.7217],[-75.5154,35.7304],[-75.5335,35.7736],[-75.529,35.7763],[-75.5222,35.7742],[-75.5024,35.7429],[-75.4961,35.7285],[-75.4791,35.6786],[-75.4587,35.5966],[-75.4601,35.5813],[-75.4625,35.5536],[-75.4714,35.4796],[-75.4868,35.3917],[-75.5022,35.32],[-75.5259,35.2338],[-75.5336,35.2258],[-75.5448,35.2284],[-75.5602,35.232],[-75.5802,35.2311],[-75.6101,35.2275],[-75.6355,35.2203],[-75.6727,35.2085],[-75.7289,35.1903],[-75.7494,35.1852],[-75.7579,35.1831],[-75.7697,35.1804],[-75.7897,35.1722],[-75.8404,35.1513],[-75.913,35.1196],[-75.9447,35.1051],[-75.9638,35.0924],[-75.9828,35.0815],[-76.0015,35.0672],[-76.0131,35.0619],[-76.015,35.0653],[-76.0136,35.0688],[-76.0009,35.0842],[-75.9919,35.0924],[-75.9892,35.1009],[-75.9906,35.1085],[-75.9892,35.1152],[-75.9839,35.12],[-75.9735,35.1211],[-75.9665,35.1178],[-75.9547,35.1196],[-75.9239,35.135],[-75.9103,35.1423],[-75.8939,35.1504],[-75.8395,35.1722],[-75.8192,35.1768],[-75.8129,35.1786],[-75.8014,35.1831],[-75.7933,35.1885],[-75.7857,35.1942],[-75.7543,35.1994],[-75.7538,35.1996]]],[[[-75.7733,36.2315],[-75.7725,36.2294],[-75.7596,36.2047],[-75.7384,36.1543],[-75.7183,36.1137],[-75.6967,36.0775],[-75.6585,36.0204],[-75.5698,35.8633],[-75.5523,35.8222],[-75.5387,35.7974],[-75.533,35.7874],[-75.5364,35.7801],[-75.5433,35.7797],[-75.5467,35.7874],[-75.5539,35.7993],[-75.5662,35.8131],[-75.5731,35.8289],[-75.5889,35.8449],[-75.6012,35.8673],[-75.6192,35.8894],[-75.617,35.906],[-75.6176,35.9142],[-75.6201,35.9253],[-75.6312,35.9415],[-75.6489,35.9658],[-75.6684,35.9784],[-75.6718,35.9852],[-75.6789,35.9939],[-75.7237,36.0031],[-75.7271,36.0105],[-75.7266,36.021],[-75.7221,36.0324],[-75.7226,36.0374],[-75.7268,36.0405],[-75.7371,36.0408],[-75.7405,36.0468],[-75.7416,36.0555],[-75.7395,36.0668],[-75.7397,36.0753],[-75.7502,36.1211],[-75.7505,36.1312],[-75.7522,36.1408],[-75.7557,36.1539],[-75.7758,36.2011],[-75.7837,36.2159],[-75.7933,36.2264],[-75.7944,36.2273],[-75.7733,36.2315]]],[[[-75.6752,35.929],[-75.6595,35.9196],[-75.6629,35.9162],[-75.662,35.9065],[-75.6535,35.9047],[-75.6485,35.907],[-75.6451,35.9058],[-75.6277,35.8831],[-75.6168,35.8563],[-75.6198,35.8476],[-75.6144,35.8157],[-75.6205,35.8093],[-75.6242,35.8094],[-75.639,35.8186],[-75.6679,35.8235],[-75.6751,35.8302],[-75.6601,35.8386],[-75.6606,35.8625],[-75.6634,35.8698],[-75.6728,35.8824],[-75.6814,35.884],[-75.6977,35.9016],[-75.6969,35.9096],[-75.7022,35.9154],[-75.7238,35.9256],[-75.7273,35.9336],[-75.7268,35.9358],[-75.7183,35.9397],[-75.7053,35.9394],[-75.6911,35.9369],[-75.6864,35.933],[-75.6752,35.929]]],[[[-75.9994,35.9035],[-75.9778,35.8972],[-75.9662,35.8993],[-75.9626,35.9014],[-75.9478,35.9203],[-75.9341,35.9282],[-75.9299,35.9288],[-75.9273,35.9319],[-75.9268,35.9404],[-75.9378,35.9509],[-75.9436,35.9525],[-75.9468,35.9556],[-75.9473,35.9598],[-75.9383,35.9651],[-75.8994,35.9772],[-75.8794,35.9788],[-75.8604,35.9783],[-75.8499,35.9762],[-75.8093,35.9593],[-75.8051,35.954],[-75.8009,35.9446],[-75.7825,35.9356],[-75.7825,35.9282],[-75.7788,35.9182],[-75.7688,35.9014],[-75.752,35.8782],[-75.753,35.8714],[-75.7483,35.8524],[-75.7346,35.8393],[-75.7272,35.8227],[-75.7267,35.8114],[-75.7326,35.7907],[-75.7382,35.7783],[-75.7394,35.771],[-75.7354,35.7676],[-75.7247,35.7429],[-75.7191,35.7142],[-75.7152,35.708],[-75.7129,35.6985],[-75.7135,35.694],[-75.7416,35.6721],[-75.7422,35.6552],[-75.7371,35.6384],[-75.7298,35.6288],[-75.7298,35.626],[-75.7472,35.6102],[-75.763,35.6035],[-75.7781,35.5923],[-75.7753,35.5793],[-75.7972,35.5743],[-75.8372,35.5709],[-75.8518,35.5788],[-75.8596,35.5866],[-75.8699,35.5827],[-75.9012,35.669],[-76.046,35.6661],[-75.9994,35.9035]]]]}},{"type":"Feature","id":"37057","properties":{"name":"Davidson","fips":"37057"},"geometry":{"type":"Polygon","coordinates":[[[-80.3954,35.9732],[-80.2669,35.9966],[-80.2139,35.9969],[-80.2138,36.0268],[-80.1498,36.0267],[-80.1375,36.0249],[-80.0433,36.0106],[-80.0456,35.9564],[-80.0457,35.9556],[-80.0467,35.9352],[-80.0467,35.9207],[-80.0469,35.9168],[-80.0668,35.5057],[-80.1827,35.5043],[-80.2082,35.5804],[-80.3266,35.6755],[-80.3322,35.719],[-80.3395,35.7214],[-80.3699,35.7162],[-80.3917,35.7223],[-80.4138,35.7225],[-80.4589,35.7428],[-80.4641,35.8275],[-80.3657,35.8958],[-80.3954,35.9732]]]}},{"type":"Feature","id":"37059","properties":{"name":"Davie","fips":"37059"},"geometry":{"type":"Polygon","coordinates":[[[-80.4964,36.0465],[-80.3954,35.9732],[-80.3657,35.8958],[-80.4641,35.8275],[-80.4589,35.7428],[-80.6318,35.8458],[-80.7077,35.8529],[-80.6932,36.0511],[-80.4964,36.0465]]]}},{"type":"Feature","id":"37061","properties":{"name":"Duplin","fips":"37061"},"geometry":{"type":"Polygon","coordinates":[[[-78.1132,34.722],[-78.2005,34.7373],[-78.1471,34.9024],[-78.1648,35.1791],[-78.1635,35.1894],[-78.0436,35.1928],[-77.893,35.1466],[-77.8342,35.1778],[-77.7691,35.1455],[-77.7476,35.0714],[-77.7459,35.0226],[-77.7397,35.0166],[-77.7308,35.0083],[-77.731,35.0081],[-77.6834,34.9791],[-77.6754,34.9734],[-77.6715,34.8116],[-77.6764,34.7872],[-77.6806,34.7206],[-78.1132,34.722]]]}},{"type":"Feature","id":"37063","properties":{"name":"Durham","fips":"37063"},"geometry":{"type":"Polygon","coordinates":[[[-79.0167,35.8632],[-78.9508,36.2392],[-78.9493,36.2394],[-78.802,36.2359],[-78.805,36.0919],[-78.749,36.0712],[-78.6979,36.0123],[-78.8318,35.8673],[-78.9062,35.8679],[-79.0167,35.8632]]]}},{"type":"Feature","id":"37065","properties":{"name":"Edgecombe","fips":"37065"},"geometry":{"type":"Polygon","coordinates":[[[-77.8091,35.9093],[-77.7778,35.9846],[-77.7741,35.9987],[-77.6979,36.153],[-77.5383,36.094],[-77.5268,36.0377],[-77.4027,36.0049],[-77.3425,35.9053],[-77.3506,35.8192],[-77.3902,35.8329],[-77.5165,35.7609],[-77.5384,35.7502],[-77.6613,35.6773],[-77.7516,35.8279],[-77.8284,35.8672],[-77.8224,35.8782],[-77.8091,35.9093]]]}},{"type":"Feature","id":"37067","properties":{"name":"Forsyth","fips":"37067"},"geometry":{"type":"Polygon","coordinates":[[[-80.1375,36.0249],[-80.1498,36.0267],[-80.2138,36.0268],[-80.2139,35.9969],[-80.2669,35.9966],[-80.3954,35.9732],[-80.4964,36.0465],[-80.5161,36.0926],[-80.4396,36.1366],[-80.4523,36.2412],[-80.4525,36.2414],[-80.4524,36.242],[-80.452,36.2616],[-80.0355,36.2574],[-80.0433,36.0106],[-80.1375,36.0249]]]}},{"type":"Feature","id":"37069","properties":{"name":"Franklin","fips":"37069"},"geometry":{"type":"Polygon","coordinates":[[[-78.4965,36.1752],[-78.4224,36.1642],[-78.307,36.2662],[-78.1329,36.2464],[-78.0066,36.2027],[-78.1722,35.9563],[-78.2549,35.8177],[-78.3073,35.8966],[-78.5465,36.0218],[-78.5448,36.0807],[-78.4965,36.1752]]]}},{"type":"Feature","id":"37071","properties":{"name":"Gaston","fips":"37071"},"geometry":{"type":"Polygon","coordinates":[[[-81.0434,35.1484],[-81.0902,35.1526],[-81.2394,35.16],[-81.2417,35.1601],[-81.2692,35.1611],[-81.328,35.1634],[-81.3213,35.2602],[-81.3649,35.3112],[-81.4565,35.4196],[-81.3004,35.4146],[-80.9554,35.4008],[-81.009,35.2457],[-81.014,35.2206],[-81.0062,35.2103],[-81.0051,35.1898],[-81.0059,35.1566],[-81.0428,35.146],[-81.0434,35.1484]]]}},{"type":"Feature","id":"37073","properties":{"name":"Gates","fips":"37073"},"geometry":{"type":"Polygon","coordinates":[[[-76.5417,36.5503],[-76.5414,36.5503],[-76.4915,36.5105],[-76.4914,36.4686],[-76.4537,36.378],[-76.5391,36.3572],[-76.5568,36.3552],[-76.5597,36.3519],[-76.6966,36.2962],[-76.7622,36.3527],[-76.9318,36.4011],[-76.916,36.5438],[-76.9154,36.5439],[-76.8071,36.5506],[-76.7813,36.5507],[-76.5417,36.5503]]]}},{"type":"Feature","id":"37075","properties":{"name":"Graham","fips":"37075"},"geometry":{"type":"Polygon","coordinates":[[[-84.029,35.291],[-84.0235,35.2958],[-84.0214,35.3014],[-84.0325,35.3253],[-84.0324,35.3265],[-84.0381,35.3484],[-84.0375,35.3499],[-84.0353,35.3508],[-84.0248,35.3539],[-84.0023,35.4225],[-83.9999,35.4252],[-83.9614,35.4595],[-83.9611,35.4628],[-83.9611,35.4637],[-83.9611,35.4641],[-83.9529,35.4606],[-83.9527,35.4608],[-83.5855,35.4349],[-83.68,35.2794],[-83.6836,35.2768],[-83.6839,35.2742],[-83.6863,35.2717],[-83.6894,35.267],[-83.69,35.265],[-83.6918,35.2637],[-83.693,35.2608],[-83.6943,35.2594],[-83.6947,35.2573],[-83.6969,35.2557],[-83.6987,35.2533],[-83.7006,35.2522],[-83.7025,35.2484],[-83.8447,35.2554],[-83.9588,35.2169],[-84.029,35.291]]]}},{"type":"Feature","id":"37077","properties":{"name":"Granville","fips":"37077"},"geometry":{"type":"Polygon","coordinates":[[[-78.7584,36.5419],[-78.7341,36.5419],[-78.6701,36.542],[-78.6633,36.542],[-78.533,36.541],[-78.5297,36.541],[-78.471,36.5423],[-78.4708,36.5423],[-78.457,36.5425],[-78.5113,36.4308],[-78.5107,36.3097],[-78.5113,36.2675],[-78.5103,36.2408],[-78.5086,36.1832],[-78.4965,36.1752],[-78.5448,36.0807],[-78.5465,36.0218],[-78.749,36.0712],[-78.805,36.0919],[-78.802,36.2359],[-78.7948,36.5267],[-78.7963,36.5417],[-78.7654,36.5417],[-78.7584,36.5419]]]}},{"type":"Feature","id":"37079","properties":{"name":"Greene","fips":"37079"},"geometry":{"type":"Polygon","coordinates":[[[-77.8262,35.4768],[-77.8243,35.4987],[-77.8235,35.5855],[-77.8224,35.5855],[-77.8181,35.5878],[-77.8161,35.5884],[-77.8115,35.5861],[-77.809,35.5842],[-77.8061,35.5835],[-77.8017,35.5861],[-77.7536,35.6158],[-77.7005,35.6523],[-77.5093,35.5196],[-77.476,35.4267],[-77.6608,35.3528],[-77.6805,35.3478],[-77.7017,35.3806],[-77.7387,35.3749],[-77.7498,35.3732],[-77.7777,35.3677],[-77.8056,35.3698],[-77.8053,35.3702],[-77.8027,35.3729],[-77.8,35.3825],[-77.8056,35.4075],[-77.8184,35.4159],[-77.827,35.4312],[-77.8262,35.4768]]]}},{"type":"Feature","id":"37081","properties":{"name":"Guilford","fips":"37081"},"geometry":{"type":"Polygon","coordinates":[[[-80.0355,36.2574],[-80.0274,36.2575],[-79.8089,36.2496],[-79.7975,36.2488],[-79.7006,36.246],[-79.5324,36.2413],[-79.5416,35.9021],[-79.542,35.8996],[-80.0204,35.9196],[-80.0467,35.9207],[-80.0467,35.9352],[-80.0457,35.9556],[-80.0456,35.9564],[-80.0433,36.0106],[-80.0355,36.2574]]]}},{"type":"Feature","id":"37083","properties":{"name":"Halifax","fips":"37083"},"geometry":{"type":"Polygon","coordinates":[[[-77.8979,36.5068],[-77.6455,36.481],[-77.5571,36.4186],[-77.586,36.337],[-77.4417,36.3241],[-77.3867,36.2137],[-77.3509,36.1913],[-77.331,36.1928],[-77.3004,36.1649],[-77.2918,36.1685],[-77.2647,36.1597],[-77.2307,36.1036],[-77.3277,36.0745],[-77.3393,36.0647],[-77.4027,36.0049],[-77.5268,36.0377],[-77.5383,36.094],[-77.6979,36.153],[-77.8871,36.1438],[-78.0066,36.2027],[-77.912,36.3823],[-77.8979,36.5068]]]}},{"type":"Feature","id":"37085","properties":{"name":"Harnett","fips":"37085"},"geometry":{"type":"Polygon","coordinates":[[[-78.6171,35.2457],[-78.8258,35.2593],[-78.9419,35.2192],[-79.0961,35.1922],[-79.2231,35.2681],[-79.1833,35.307],[-78.9698,35.5214],[-78.9133,35.5831],[-78.7086,35.5191],[-78.6606,35.4962],[-78.5303,35.3338],[-78.5413,35.3151],[-78.6171,35.2457]]]}},{"type":"Feature","id":"37087","properties":{"name":"Haywood","fips":"37087"},"geometry":{"type":"Polygon","coordinates":[[[-83.2542,35.6958],[-83.2507,35.7093],[-83.2555,35.715],[-83.2512,35.7199],[-83.2407,35.7268],[-83.1649,35.76],[-83.1002,35.7747],[-83.1003,35.7748],[-83.1002,35.7748],[-82.9958,35.7731],[-82.984,35.778],[-82.9641,35.7941],[-82.8837,35.6782],[-82.7667,35.5668],[-82.8003,35.4705],[-82.7444,35.4233],[-82.7452,35.4229],[-82.832,35.3184],[-82.9208,35.2919],[-82.9968,35.3728],[-83.1861,35.5146],[-83.1819,35.6711],[-83.2542,35.6958]]]}},{"type":"Feature","id":"37089","properties":{"name":"Henderson","fips":"37089"},"geometry":{"type":"Polygon","coordinates":[[[-82.3524,35.2066],[-82.384,35.2105],[-82.4761,35.1755],[-82.5169,35.163],[-82.5173,35.1626],[-82.5358,35.1587],[-82.5365,35.1591],[-82.5744,35.1442],[-82.6195,35.3038],[-82.7452,35.4229],[-82.7444,35.4233],[-82.6724,35.4595],[-82.5703,35.4313],[-82.2668,35.4659],[-82.2796,35.446],[-82.2703,35.4004],[-82.2615,35.393],[-82.3461,35.286],[-82.3524,35.2066]]]}},{"type":"Feature","id":"37091","properties":{"name":"Hertford","fips":"37091"},"geometry":{"type":"Polygon","coordinates":[[[-76.7066,36.2439],[-77.1832,36.2427],[-77.2088,36.2469],[-77.1196,36.4741],[-77.1645,36.5463],[-76.916,36.5438],[-76.916,36.5438],[-76.9318,36.4011],[-76.7622,36.3527],[-76.6966,36.2962],[-76.6904,36.2673],[-76.7066,36.2439]]]}},{"type":"Feature","id":"37093","properties":{"name":"Hoke","fips":"37093"},"geometry":{"type":"Polygon","coordinates":[[[-79.0832,35.0327],[-79.0369,34.9569],[-79.0364,34.9556],[-79.0358,34.9553],[-79.0347,34.9536],[-79.1914,34.8334],[-79.3491,34.8385],[-79.3543,34.9456],[-79.4592,35.0431],[-79.3352,35.1618],[-79.2299,35.2107],[-79.0977,35.1742],[-79.0832,35.0327]]]}},{"type":"Feature","id":"37095","properties":{"name":"Hyde","fips":"37095"},"geometry":{"type":"Polygon","coordinates":[[[-75.8699,35.5827],[-75.895,35.5732],[-75.9068,35.5591],[-75.9085,35.5552],[-75.9085,35.5462],[-75.9164,35.5383],[-75.9456,35.5344],[-75.9501,35.531],[-75.9546,35.5265],[-75.9642,35.5113],[-75.9647,35.5046],[-75.9619,35.4967],[-75.9631,35.4939],[-75.9872,35.4843],[-75.9957,35.4754],[-75.9945,35.4636],[-75.9979,35.4534],[-76.0097,35.4422],[-76.0125,35.4326],[-76.0114,35.4231],[-76.0148,35.4169],[-76.0209,35.4107],[-76.0254,35.4085],[-76.0372,35.4141],[-76.0502,35.4158],[-76.0597,35.4102],[-76.0637,35.4051],[-76.0637,35.3984],[-76.0609,35.3927],[-76.0597,35.3837],[-76.0693,35.3708],[-76.0929,35.3613],[-76.1232,35.3511],[-76.1328,35.3495],[-76.1429,35.3388],[-76.1429,35.3287],[-76.1497,35.3264],[-76.1654,35.3287],[-76.1688,35.332],[-76.1823,35.3365],[-76.2059,35.3365],[-76.2351,35.35],[-76.2531,35.35],[-76.2576,35.3444],[-76.2654,35.3433],[-76.2823,35.3455],[-76.3048,35.3556],[-76.3273,35.3568],[-76.3351,35.3556],[-76.3408,35.3466],[-76.3497,35.3455],[-76.3655,35.3489],[-76.3745,35.3556],[-76.3823,35.3568],[-76.388,35.3568],[-76.3992,35.3489],[-76.4082,35.35],[-76.4093,35.3534],[-76.4206,35.359],[-76.4318,35.3624],[-76.4363,35.3781],[-76.4487,35.3837],[-76.4554,35.3837],[-76.4622,35.3804],[-76.4723,35.3714],[-76.4858,35.3714],[-76.4993,35.3815],[-76.5217,35.3916],[-76.5469,35.3897],[-76.5991,35.52],[-76.4678,35.5565],[-76.5641,35.6011],[-76.638,35.7052],[-76.5461,35.705],[-76.3953,35.6975],[-76.2693,35.6907],[-76.2978,35.6091],[-76.2143,35.598],[-76.1436,35.7027],[-76.046,35.6661],[-75.9012,35.669],[-75.8699,35.5827]]]}},{"type":"Feature","id":"37097","properties":{"name":"Iredell","fips":"37097"},"geometry":{"type":"Polygon","coordinates":[[[-81.1094,35.7766],[-81.0937,35.794],[-81.0789,35.8028],[-81.0757,35.815],[-81.0647,35.8244],[-81.0521,35.8448],[-81.0054,35.9582],[-81.0289,36.0458],[-80.8822,36.0557],[-80.6932,36.0511],[-80.7077,35.8529],[-80.7715,35.6749],[-80.7572,35.6163],[-80.7371,35.5072],[-80.7373,35.5056],[-80.7843,35.5058],[-80.947,35.4877],[-80.96,35.5478],[-80.9245,35.6217],[-81.1094,35.7766]]]}},{"type":"Feature","id":"37099","properties":{"name":"Jackson","fips":"37099"},"geometry":{"type":"Polygon","coordinates":[[[-82.9208,35.2919],[-82.9833,35.1319],[-83.0554,35.0539],[-83.0084,35.027],[-83.1085,35.0008],[-83.1087,35.0008],[-83.3397,35.331],[-83.3514,35.4684],[-83.1861,35.5146],[-82.9968,35.3728],[-82.9208,35.2919]]]}},{"type":"Feature","id":"37101","properties":{"name":"Johnston","fips":"37101"},"geometry":{"type":"Polygon","coordinates":[[[-78.3911,35.2626],[-78.4914,35.2634],[-78.5413,35.3151],[-78.5303,35.3338],[-78.6606,35.4962],[-78.7086,35.5191],[-78.5666,35.629],[-78.4737,35.7016],[-78.2549,35.8177],[-78.1921,35.7304],[-78.1256,35.6031],[-78.0646,35.5854],[-78.1549,35.4176],[-78.1532,35.3514],[-78.3047,35.2861],[-78.3326,35.2794],[-78.3911,35.2626]]]}},{"type":"Feature","id":"37103","properties":{"name":"Jones","fips":"37103"},"geometry":{"type":"Polygon","coordinates":[[[-77.4737,35.229],[-77.3391,35.1551],[-77.125,35.0776],[-77.1088,34.8876],[-77.0903,34.8028],[-77.1658,34.7849],[-77.2216,34.8871],[-77.3284,34.9383],[-77.3674,34.9066],[-77.4521,34.947],[-77.6754,34.9734],[-77.6834,34.9791],[-77.731,35.0081],[-77.7308,35.0083],[-77.6018,35.0712],[-77.5066,35.1722],[-77.5272,35.2434],[-77.5232,35.2417],[-77.4787,35.23],[-77.4737,35.229]]]}},{"type":"Feature","id":"37105","properties":{"name":"Lee","fips":"37105"},"geometry":{"type":"Polygon","coordinates":[[[-79.1833,35.307],[-79.2736,35.3534],[-79.35,35.518],[-79.119,35.6282],[-78.9698,35.5214],[-79.1833,35.307]]]}},{"type":"Feature","id":"37107","properties":{"name":"Lenoir","fips":"37107"},"geometry":{"type":"Polygon","coordinates":[[[-77.7476,35.0714],[-77.7691,35.1455],[-77.8342,35.1778],[-77.8311,35.2334],[-77.8056,35.3698],[-77.7777,35.3677],[-77.7498,35.3732],[-77.7387,35.3749],[-77.7017,35.3806],[-77.6805,35.3478],[-77.6608,35.3528],[-77.476,35.4267],[-77.4725,35.4255],[-77.4701,35.4202],[-77.427,35.3504],[-77.391,35.34],[-77.4737,35.229],[-77.4787,35.23],[-77.5232,35.2417],[-77.5272,35.2434],[-77.5066,35.1722],[-77.6018,35.0712],[-77.7308,35.0083],[-77.7397,35.0166],[-77.7459,35.0226],[-77.7476,35.0714]]]}},{"type":"Feature","id":"37109","properties":{"name":"Lincoln","fips":"37109"},"geometry":{"type":"Polygon","coordinates":[[[-80.9554,35.4008],[-81.3004,35.4146],[-81.4565,35.4196],[-81.5378,35.5645],[-81.5361,35.5666],[-81.5357,35.5671],[-81.5356,35.5673],[-81.5344,35.5688],[-80.9618,35.5482],[-80.96,35.5478],[-80.947,35.4877],[-80.9554,35.4008]]]}},{"type":"Feature","id":"37113","properties":{"name":"Macon","fips":"37113"},"geometry":{"type":"Polygon","coordinates":[[[-83.3397,35.331],[-83.1087,35.0008],[-83.4831,34.9937],[-83.6598,35.1602],[-83.7381,35.1559],[-83.7025,35.2484],[-83.7006,35.2522],[-83.6987,35.2533],[-83.6969,35.2557],[-83.6947,35.2573],[-83.6943,35.2594],[-83.693,35.2608],[-83.6918,35.2637],[-83.69,35.265],[-83.6894,35.267],[-83.6863,35.2717],[-83.6839,35.2742],[-83.6836,35.2768],[-83.68,35.2794],[-83.3397,35.331]]]}},{"type":"Feature","id":"37115","properties":{"name":"Madison","fips":"37115"},"geometry":{"type":"Polygon","coordinates":[[[-82.8985,35.9451],[-82.8985,35.9451],[-82.8742,35.9527],[-82.8526,35.9491],[-82.8301,35.933],[-82.7786,35.9748],[-82.7545,36.0043],[-82.7154,36.0243],[-82.6836,36.0461],[-82.6372,36.0658],[-82.6323,36.0657],[-82.6192,36.0566],[-82.6029,36.0398],[-82.6151,36.0003],[-82.6113,35.9732],[-82.5968,35.965],[-82.5575,35.9547],[-82.5126,35.9757],[-82.5071,35.9775],[-82.5059,35.9783],[-82.4087,35.8181],[-82.5145,35.8032],[-82.8069,35.6857],[-82.8837,35.6782],[-82.9641,35.7941],[-82.9628,35.7951],[-82.9184,35.8455],[-82.898,35.8813],[-82.9133,35.9241],[-82.8985,35.9451]]]}},{"type":"Feature","id":"37117","properties":{"name":"Martin","fips":"37117"},"geometry":{"type":"Polygon","coordinates":[[[-77.3277,36.0745],[-77.2062,36.0047],[-77.1967,35.9374],[-77.0437,35.9431],[-77.0043,35.8587],[-76.9185,35.8956],[-76.8886,35.8123],[-76.8302,35.8859],[-76.7608,35.8648],[-76.8451,35.7054],[-76.9857,35.6585],[-77.174,35.733],[-77.3506,35.8192],[-77.3425,35.9053],[-77.4027,36.0049],[-77.3393,36.0647],[-77.3277,36.0745]]]}},{"type":"Feature","id":"37111","properties":{"name":"McDowell","fips":"37111"},"geometry":{"type":"Polygon","coordinates":[[[-81.8242,35.575],[-81.9736,35.5246],[-82.0029,35.5518],[-82.169,35.5278],[-82.2908,35.5913],[-82.2754,35.7044],[-82.1972,35.7364],[-82.1332,35.8244],[-81.9817,35.9115],[-81.9545,35.9267],[-81.963,35.9417],[-81.9437,35.9594],[-81.9066,35.8834],[-81.987,35.8069],[-81.8693,35.7196],[-81.8242,35.575]]]}},{"type":"Feature","id":"37119","properties":{"name":"Mecklenburg","fips":"37119"},"geometry":{"type":"Polygon","coordinates":[[[-80.9064,35.0766],[-80.9066,35.0768],[-80.935,35.1074],[-80.9579,35.0926],[-81.0415,35.0447],[-81.0575,35.062],[-81.058,35.0732],[-81.0572,35.0861],[-81.0521,35.0963],[-81.0465,35.1006],[-81.0362,35.1032],[-81.0325,35.1091],[-81.0428,35.146],[-81.0059,35.1566],[-81.0051,35.1898],[-81.0062,35.2103],[-81.014,35.2206],[-81.009,35.2457],[-80.9554,35.4008],[-80.947,35.4877],[-80.7843,35.5058],[-80.7643,35.4002],[-80.7553,35.3949],[-80.7443,35.3806],[-80.7196,35.3628],[-80.7086,35.3552],[-80.6936,35.3468],[-80.6673,35.269],[-80.6658,35.2682],[-80.5503,35.2084],[-80.7704,35.0342],[-80.8405,35.0016],[-80.9064,35.0766]]]}},{"type":"Feature","id":"37121","properties":{"name":"Mitchell","fips":"37121"},"geometry":{"type":"Polygon","coordinates":[[[-82.4169,36.0729],[-82.4095,36.0834],[-82.3756,36.1056],[-82.3714,36.1064],[-82.3666,36.1076],[-82.3609,36.1106],[-82.3484,36.1159],[-82.3292,36.1174],[-82.3252,36.1194],[-82.2377,36.1392],[-82.2364,36.1399],[-82.2355,36.1407],[-82.2348,36.1417],[-82.2221,36.1569],[-82.2113,36.159],[-82.1479,36.1495],[-82.1365,36.1288],[-82.138,36.1196],[-82.1306,36.1064],[-82.1271,36.1044],[-82.0805,36.1057],[-82.0342,35.9421],[-81.9817,35.9115],[-82.1332,35.8244],[-82.1993,36.0158],[-82.3382,36.0303],[-82.4169,36.0729]]]}},{"type":"Feature","id":"37123","properties":{"name":"Montgomery","fips":"37123"},"geometry":{"type":"Polygon","coordinates":[[[-79.7693,35.5115],[-79.698,35.2515],[-79.6143,35.1637],[-79.8518,35.1834],[-80.0754,35.1431],[-80.0982,35.2552],[-80.0517,35.3726],[-80.1827,35.5043],[-80.0668,35.5057],[-79.7693,35.5115]]]}},{"type":"Feature","id":"37125","properties":{"name":"Moore","fips":"37125"},"geometry":{"type":"Polygon","coordinates":[[[-79.6143,35.1637],[-79.698,35.2515],[-79.7693,35.5115],[-79.5559,35.5151],[-79.3514,35.5178],[-79.35,35.518],[-79.2736,35.3534],[-79.1833,35.307],[-79.2231,35.2681],[-79.0961,35.1922],[-79.098,35.1884],[-79.0987,35.1834],[-79.0964,35.1777],[-79.0977,35.1742],[-79.2299,35.2107],[-79.3352,35.1618],[-79.4592,35.0431],[-79.5754,35.0698],[-79.6143,35.1637]]]}},{"type":"Feature","id":"37127","properties":{"name":"Nash","fips":"37127"},"geometry":{"type":"Polygon","coordinates":[[[-77.9156,35.8366],[-77.9279,35.8315],[-77.9314,35.8302],[-78.1921,35.7304],[-78.2549,35.8177],[-78.1722,35.9563],[-78.0066,36.2027],[-77.8871,36.1438],[-77.6979,36.153],[-77.7741,35.9987],[-77.7778,35.9846],[-77.8091,35.9093],[-77.8224,35.8782],[-77.8284,35.8672],[-77.9156,35.8366]]]}},{"type":"Feature","id":"37129","properties":{"name":"New Hanover","fips":"37129"},"geometry":{"type":"Polygon","coordinates":[[[-77.9373,33.9286],[-77.9516,34.2324],[-78.0299,34.3318],[-77.823,34.3894],[-77.7159,34.2927],[-77.7401,34.2725],[-77.764,34.2456],[-77.8292,34.1626],[-77.8418,34.1407],[-77.8703,34.0792],[-77.8744,34.0757],[-77.8782,34.068],[-77.9155,33.9717],[-77.9279,33.9453],[-77.9373,33.9286]]]}},{"type":"Feature","id":"37131","properties":{"name":"Northampton","fips":"37131"},"geometry":{"type":"Polygon","coordinates":[[[-77.7671,36.5448],[-77.2969,36.5447],[-77.2497,36.5447],[-77.1645,36.5463],[-77.1196,36.4741],[-77.2088,36.2469],[-77.2918,36.1685],[-77.3004,36.1649],[-77.331,36.1928],[-77.3509,36.1913],[-77.3867,36.2137],[-77.4417,36.3241],[-77.586,36.337],[-77.5571,36.4186],[-77.6455,36.481],[-77.8979,36.5068],[-77.8989,36.5182],[-77.8998,36.5447],[-77.8824,36.5447],[-77.8753,36.5448],[-77.7671,36.5448]]]}},{"type":"Feature","id":"37133","properties":{"name":"Onslow","fips":"37133"},"geometry":{"type":"Polygon","coordinates":[[[-77.6715,34.8116],[-77.6754,34.9734],[-77.4521,34.947],[-77.3674,34.9066],[-77.3284,34.9383],[-77.2216,34.8871],[-77.1658,34.7849],[-77.1261,34.7569],[-77.1128,34.6394],[-77.1368,34.6329],[-77.1697,34.622],[-77.2092,34.605],[-77.241,34.5875],[-77.3225,34.5356],[-77.4629,34.4714],[-77.4918,34.4561],[-77.518,34.4405],[-77.5764,34.4787],[-77.6806,34.7206],[-77.6764,34.7872],[-77.6715,34.8116]]]}},{"type":"Feature","id":"37135","properties":{"name":"Orange","fips":"37135"},"geometry":{"type":"Polygon","coordinates":[[[-79.2595,36.1373],[-79.257,36.2439],[-79.1537,36.2421],[-78.9508,36.2392],[-79.0167,35.8632],[-79.2495,35.8768],[-79.2595,36.1373]]]}},{"type":"Feature","id":"37137","properties":{"name":"Pamlico","fips":"37137"},"geometry":{"type":"Polygon","coordinates":[[[-76.8393,34.9594],[-76.8933,34.9803],[-76.8965,34.9818],[-76.9673,35.0407],[-76.935,35.1058],[-76.987,35.1558],[-76.8955,35.2535],[-76.8455,35.216],[-76.6325,35.2352],[-76.605,35.3378],[-76.6027,35.3365],[-76.5881,35.3332],[-76.5543,35.332],[-76.5487,35.3287],[-76.5004,35.3219],[-76.4824,35.314],[-76.4723,35.2949],[-76.4678,35.277],[-76.4678,35.2612],[-76.4779,35.2432],[-76.4835,35.241],[-76.4903,35.2331],[-76.4914,35.2207],[-76.4948,35.2129],[-76.5049,35.2073],[-76.5217,35.1926],[-76.5363,35.1747],[-76.5397,35.1668],[-76.5363,35.1499],[-76.5363,35.1421],[-76.5465,35.1229],[-76.5577,35.1162],[-76.5611,35.1083],[-76.5689,35.0971],[-76.5757,35.0926],[-76.5869,35.0926],[-76.5926,35.0836],[-76.5937,35.0757],[-76.6004,35.0679],[-76.6139,35.0611],[-76.6229,35.0611],[-76.6319,35.0566],[-76.6398,35.051],[-76.6465,35.042],[-76.6465,35.0252],[-76.6446,35.0198],[-76.7113,34.982],[-76.8393,34.9594]]]}},{"type":"Feature","id":"37139","properties":{"name":"Pasquotank","fips":"37139"},"geometry":{"type":"Polygon","coordinates":[[[-76.4915,36.5105],[-76.2312,36.3717],[-76.2166,36.2982],[-76.0471,36.1831],[-76.0516,36.1813],[-76.0635,36.1735],[-76.0653,36.1706],[-76.0654,36.1652],[-76.0599,36.1551],[-76.0593,36.1493],[-76.0642,36.1438],[-76.0717,36.1402],[-76.0926,36.1358],[-76.1789,36.1234],[-76.1841,36.1216],[-76.1905,36.1163],[-76.2898,36.223],[-76.3751,36.2589],[-76.4537,36.378],[-76.4914,36.4686],[-76.4915,36.5105]]]}},{"type":"Feature","id":"37141","properties":{"name":"Pender","fips":"37141"},"geometry":{"type":"Polygon","coordinates":[[[-77.518,34.4405],[-77.5569,34.4172],[-77.5823,34.4005],[-77.635,34.3596],[-77.6617,34.3419],[-77.6872,34.3204],[-77.7133,34.2949],[-77.7159,34.2927],[-77.823,34.3894],[-78.0299,34.3318],[-78.1624,34.357],[-78.2563,34.3998],[-78.1765,34.4653],[-78.2546,34.554],[-78.1132,34.722],[-77.6806,34.7206],[-77.5764,34.4787],[-77.518,34.4405]]]}},{"type":"Feature","id":"37143","properties":{"name":"Perquimans","fips":"37143"},"geometry":{"type":"Polygon","coordinates":[[[-76.4537,36.378],[-76.3751,36.2589],[-76.2898,36.223],[-76.1905,36.1163],[-76.1908,36.1161],[-76.1924,36.1134],[-76.1917,36.1072],[-76.2166,36.0954],[-76.2387,36.0986],[-76.265,36.1049],[-76.2871,36.1049],[-76.2987,36.1012],[-76.304,36.0928],[-76.3235,36.0849],[-76.3319,36.0838],[-76.3372,36.0865],[-76.3551,36.0865],[-76.4109,36.078],[-76.4118,36.0754],[-76.5734,36.1123],[-76.5899,36.239],[-76.5597,36.3519],[-76.5568,36.3552],[-76.5391,36.3572],[-76.4537,36.378]]]}},{"type":"Feature","id":"37145","properties":{"name":"Person","fips":"37145"},"geometry":{"type":"Polygon","coordinates":[[[-78.7963,36.5417],[-78.7948,36.5267],[-78.802,36.2359],[-78.9493,36.2394],[-78.9508,36.2392],[-79.1537,36.2421],[-79.1379,36.5417],[-79.1261,36.5415],[-79.1247,36.5416],[-78.9718,36.5421],[-78.9706,36.5422],[-78.9423,36.5421],[-78.942,36.5421],[-78.9154,36.542],[-78.9145,36.542],[-78.7963,36.5417]]]}},{"type":"Feature","id":"37147","properties":{"name":"Pitt","fips":"37147"},"geometry":{"type":"Polygon","coordinates":[[[-77.4701,35.4202],[-77.4725,35.4255],[-77.476,35.4267],[-77.5093,35.5196],[-77.7005,35.6523],[-77.6888,35.6602],[-77.6613,35.6773],[-77.5384,35.7502],[-77.5165,35.7609],[-77.3902,35.8329],[-77.3506,35.8192],[-77.174,35.733],[-77.1738,35.6353],[-77.0875,35.564],[-77.1754,35.4741],[-77.1739,35.4567],[-77.1799,35.4558],[-77.1813,35.441],[-77.1912,35.4347],[-77.1891,35.426],[-77.1904,35.419],[-77.2959,35.3792],[-77.3012,35.3742],[-77.354,35.328],[-77.3574,35.3288],[-77.3612,35.3319],[-77.3655,35.3337],[-77.3747,35.3338],[-77.3836,35.3354],[-77.391,35.34],[-77.427,35.3504],[-77.4701,35.4202]]]}},{"type":"Feature","id":"37149","properties":{"name":"Polk","fips":"37149"},"geometry":{"type":"Polygon","coordinates":[[[-81.9693,35.1872],[-82.1677,35.1937],[-82.1769,35.1938],[-82.1855,35.1944],[-82.1955,35.195],[-82.2162,35.196],[-82.2305,35.1968],[-82.2309,35.1968],[-82.2575,35.1986],[-82.2885,35.1986],[-82.3524,35.2066],[-82.3461,35.286],[-82.2615,35.393],[-82.1152,35.3874],[-81.9688,35.2578],[-81.9693,35.1872]]]}},{"type":"Feature","id":"37151","properties":{"name":"Randolph","fips":"37151"},"geometry":{"type":"Polygon","coordinates":[[[-80.0469,35.9168],[-80.0467,35.9207],[-80.0204,35.9196],[-79.542,35.8996],[-79.5425,35.8434],[-79.5559,35.5151],[-79.7693,35.5115],[-80.0668,35.5057],[-80.0469,35.9168]]]}},{"type":"Feature","id":"37153","properties":{"name":"Richmond","fips":"37153"},"geometry":{"type":"Polygon","coordinates":[[[-79.7441,34.8057],[-79.7449,34.8057],[-79.7728,34.806],[-79.7736,34.8059],[-79.9276,34.8066],[-79.85,34.8993],[-79.8757,35.0379],[-79.9279,35.1177],[-79.9993,35.0854],[-80.0754,35.1431],[-79.8518,35.1834],[-79.6143,35.1637],[-79.5754,35.0698],[-79.4592,35.0431],[-79.5727,34.992],[-79.5618,34.9104],[-79.6929,34.805],[-79.7441,34.8057]]]}},{"type":"Feature","id":"37155","properties":{"name":"Robeson","fips":"37155"},"geometry":{"type":"Polygon","coordinates":[[[-79.4613,34.6301],[-79.4618,34.6304],[-79.3643,34.7375],[-79.3593,34.7431],[-79.3491,34.8385],[-79.1914,34.8334],[-79.0347,34.9536],[-78.9011,34.8348],[-78.8057,34.6893],[-78.8715,34.4827],[-78.9511,34.449],[-79.0712,34.2992],[-79.1432,34.3598],[-79.1515,34.3668],[-79.1907,34.3998],[-79.192,34.401],[-79.199,34.4067],[-79.3232,34.5146],[-79.3249,34.5163],[-79.3313,34.5219],[-79.3583,34.5454],[-79.45,34.621],[-79.4598,34.629],[-79.4613,34.6301]]]}},{"type":"Feature","id":"37157","properties":{"name":"Rockingham","fips":"37157"},"geometry":{"type":"Polygon","coordinates":[[[-80.0273,36.5425],[-79.9675,36.5425],[-79.967,36.5425],[-79.9202,36.5424],[-79.7149,36.5419],[-79.6673,36.5418],[-79.6668,36.5418],[-79.511,36.5407],[-79.5321,36.2486],[-79.5323,36.2414],[-79.5324,36.2413],[-79.7006,36.246],[-79.7975,36.2488],[-79.8089,36.2496],[-80.0274,36.2575],[-80.0355,36.2574],[-80.0332,36.3449],[-80.0273,36.5425]]]}},{"type":"Feature","id":"37159","properties":{"name":"Rowan","fips":"37159"},"geometry":{"type":"Polygon","coordinates":[[[-80.7572,35.6163],[-80.7715,35.6749],[-80.7077,35.8529],[-80.6318,35.8458],[-80.4589,35.7428],[-80.4138,35.7225],[-80.3917,35.7223],[-80.3699,35.7162],[-80.3395,35.7214],[-80.3322,35.719],[-80.3266,35.6755],[-80.2082,35.5804],[-80.1827,35.5043],[-80.2952,35.5029],[-80.5624,35.5031],[-80.6459,35.5059],[-80.649,35.5059],[-80.6504,35.5061],[-80.6576,35.5061],[-80.6884,35.5066],[-80.7371,35.5072],[-80.7572,35.6163]]]}},{"type":"Feature","id":"37161","properties":{"name":"Rutherford","fips":"37161"},"geometry":{"type":"Polygon","coordinates":[[[-81.8744,35.1841],[-81.9693,35.1872],[-81.9688,35.2578],[-82.1152,35.3874],[-82.2615,35.393],[-82.2703,35.4004],[-82.2796,35.446],[-82.2668,35.4659],[-82.169,35.5278],[-82.0029,35.5518],[-81.9736,35.5246],[-81.8242,35.575],[-81.6923,35.5798],[-81.7028,35.3572],[-81.7681,35.1801],[-81.8578,35.1835],[-81.8744,35.1841]]]}},{"type":"Feature","id":"37163","properties":{"name":"Sampson","fips":"37163"},"geometry":{"type":"Polygon","coordinates":[[[-78.3911,35.2626],[-78.3326,35.2794],[-78.3047,35.2861],[-78.1635,35.1894],[-78.1648,35.1791],[-78.1471,34.9024],[-78.2005,34.7373],[-78.1132,34.722],[-78.2546,34.554],[-78.4946,34.8565],[-78.4954,34.8577],[-78.4948,34.8588],[-78.4966,34.8595],[-78.4989,34.8593],[-78.5022,34.8615],[-78.5028,34.8647],[-78.506,34.8652],[-78.5069,34.8667],[-78.5118,34.868],[-78.5133,34.8693],[-78.5134,34.8734],[-78.5148,34.8737],[-78.515,34.8756],[-78.5141,34.876],[-78.5129,34.8809],[-78.5145,34.8809],[-78.5139,34.8819],[-78.5156,34.882],[-78.5157,34.883],[-78.518,34.8838],[-78.5197,34.8837],[-78.5193,34.8827],[-78.5212,34.8827],[-78.5227,34.8835],[-78.6475,34.9948],[-78.6701,35.093],[-78.6171,35.2457],[-78.5413,35.3151],[-78.4914,35.2634],[-78.3911,35.2626]]]}},{"type":"Feature","id":"37165","properties":{"name":"Scotland","fips":"37165"},"geometry":{"type":"Polygon","coordinates":[[[-79.4618,34.6304],[-79.4687,34.6353],[-79.4716,34.6372],[-79.4793,34.6446],[-79.4902,34.6538],[-79.519,34.6773],[-79.5203,34.6783],[-79.5545,34.7064],[-79.5617,34.712],[-79.6316,34.7688],[-79.6342,34.771],[-79.6881,34.8049],[-79.6902,34.8049],[-79.6929,34.805],[-79.5618,34.9104],[-79.5727,34.992],[-79.4592,35.0431],[-79.3543,34.9456],[-79.3491,34.8385],[-79.3593,34.7431],[-79.3643,34.7375],[-79.4618,34.6304]]]}},{"type":"Feature","id":"37167","properties":{"name":"Stanly","fips":"37167"},"geometry":{"type":"Polygon","coordinates":[[[-80.4283,35.1673],[-80.4387,35.1618],[-80.4682,35.1668],[-80.4826,35.1803],[-80.5053,35.184],[-80.2952,35.5029],[-80.1827,35.5043],[-80.0517,35.3726],[-80.0982,35.2552],[-80.0754,35.1431],[-80.1742,35.148],[-80.2771,35.1961],[-80.4283,35.1673]]]}},{"type":"Feature","id":"37169","properties":{"name":"Stokes","fips":"37169"},"geometry":{"type":"Polygon","coordinates":[[[-80.0535,36.5426],[-80.0273,36.5425],[-80.0332,36.3449],[-80.0355,36.2574],[-80.452,36.2616],[-80.4401,36.5506],[-80.4326,36.5503],[-80.4316,36.5502],[-80.2283,36.5439],[-80.2254,36.5437],[-80.1716,36.5432],[-80.1695,36.5432],[-80.0535,36.5426]]]}},{"type":"Feature","id":"37171","properties":{"name":"Surry","fips":"37171"},"geometry":{"type":"Polygon","coordinates":[[[-80.838,36.5591],[-80.8376,36.5591],[-80.8371,36.5592],[-80.7441,36.5617],[-80.6875,36.5614],[-80.6122,36.5581],[-80.4401,36.5506],[-80.452,36.2616],[-80.4524,36.242],[-80.4525,36.2414],[-80.4523,36.2412],[-80.5475,36.2852],[-80.6529,36.2526],[-80.8733,36.2364],[-80.8689,36.3265],[-80.9671,36.4016],[-80.9746,36.4528],[-80.9018,36.5618],[-80.9017,36.5618],[-80.838,36.5591]]]}},{"type":"Feature","id":"37173","properties":{"name":"Swain","fips":"37173"},"geometry":{"type":"Polygon","coordinates":[[[-83.663,35.5691],[-83.6405,35.5661],[-83.4983,35.563],[-83.4855,35.5682],[-83.4806,35.5766],[-83.4785,35.5792],[-83.4791,35.5833],[-83.4458,35.6118],[-83.3669,35.6387],[-83.2972,35.6578],[-83.2542,35.6958],[-83.1819,35.6711],[-83.1861,35.5146],[-83.3514,35.4684],[-83.3397,35.331],[-83.68,35.2794],[-83.5855,35.4349],[-83.9527,35.4608],[-83.9339,35.4724],[-83.8801,35.5187],[-83.7569,35.5636],[-83.6763,35.5703],[-83.663,35.5691]]]}},{"type":"Feature","id":"37175","properties":{"name":"Transylvania","fips":"37175"},"geometry":{"type":"Polygon","coordinates":[[[-82.7645,35.0682],[-82.782,35.0668],[-82.7805,35.069],[-82.7791,35.0737],[-82.7774,35.0769],[-82.7811,35.0845],[-82.7811,35.0846],[-82.8975,35.056],[-83.0084,35.027],[-83.0554,35.0539],[-82.9833,35.1319],[-82.9208,35.2919],[-82.832,35.3184],[-82.7452,35.4229],[-82.6195,35.3038],[-82.5744,35.1442],[-82.5801,35.142],[-82.5823,35.1423],[-82.6865,35.1218],[-82.6867,35.1198],[-82.7645,35.0682]]]}},{"type":"Feature","id":"37177","properties":{"name":"Tyrrell","fips":"37177"},"geometry":{"type":"Polygon","coordinates":[[[-76.046,35.6661],[-76.1436,35.7027],[-76.2143,35.598],[-76.2978,35.6091],[-76.2693,35.6907],[-76.3953,35.6975],[-76.406,35.785],[-76.3534,35.8614],[-76.3652,35.9447],[-76.363,35.9422],[-76.3403,35.9432],[-76.3177,35.9469],[-76.2724,35.9727],[-76.214,35.988],[-76.1766,35.9933],[-76.0937,35.993],[-76.0831,35.9898],[-76.0621,35.993],[-76.0242,35.9709],[-76.0147,35.9604],[-76.0142,35.9572],[-76.0199,35.934],[-76.0115,35.914],[-76.0047,35.9051],[-75.9994,35.9035],[-76.046,35.6661]]]}},{"type":"Feature","id":"37179","properties":{"name":"Union","fips":"37179"},"geometry":{"type":"Polygon","coordinates":[[[-80.5617,34.8175],[-80.5617,34.8175],[-80.6212,34.8182],[-80.626,34.8182],[-80.6261,34.8182],[-80.6447,34.8186],[-80.6466,34.8186],[-80.7718,34.8196],[-80.7777,34.8197],[-80.7968,34.8253],[-80.782,34.9358],[-80.8065,34.9629],[-80.8068,34.9632],[-80.8405,35.0016],[-80.7704,35.0342],[-80.5503,35.2084],[-80.5064,35.1852],[-80.5053,35.184],[-80.4826,35.1803],[-80.4682,35.1668],[-80.4387,35.1618],[-80.4283,35.1673],[-80.2771,35.1961],[-80.3204,34.8138],[-80.3999,34.8151],[-80.417,34.8155],[-80.4184,34.8156],[-80.4196,34.8156],[-80.4259,34.8158],[-80.4348,34.816],[-80.4488,34.8163],[-80.4517,34.8164],[-80.4857,34.8167],[-80.5617,34.8175]]]}},{"type":"Feature","id":"37181","properties":{"name":"Vance","fips":"37181"},"geometry":{"type":"Polygon","coordinates":[[[-78.4965,36.1752],[-78.5086,36.1832],[-78.5103,36.2408],[-78.5113,36.2675],[-78.5107,36.3097],[-78.5113,36.4308],[-78.457,36.5425],[-78.4412,36.5427],[-78.4363,36.5427],[-78.3239,36.5438],[-78.2877,36.3584],[-78.307,36.2662],[-78.4224,36.1642],[-78.4965,36.1752]]]}},{"type":"Feature","id":"37183","properties":{"name":"Wake","fips":"37183"},"geometry":{"type":"Polygon","coordinates":[[[-78.2549,35.8177],[-78.4737,35.7016],[-78.5666,35.629],[-78.7086,35.5191],[-78.9133,35.5831],[-78.9951,35.6102],[-78.9713,35.6756],[-78.9094,35.8429],[-78.9062,35.8679],[-78.8318,35.8673],[-78.6979,36.0123],[-78.749,36.0712],[-78.5465,36.0218],[-78.3073,35.8966],[-78.2549,35.8177]]]}},{"type":"Feature","id":"37185","properties":{"name":"Warren","fips":"37185"},"geometry":{"type":"Polygon","coordinates":[[[-78.0462,36.5442],[-78.0394,36.5442],[-78.0389,36.5442],[-77.8998,36.5447],[-77.8989,36.5182],[-77.8979,36.5068],[-77.912,36.3823],[-78.0066,36.2027],[-78.1329,36.2464],[-78.307,36.2662],[-78.2877,36.3584],[-78.3239,36.5438],[-78.2467,36.5443],[-78.2455,36.5444],[-78.1333,36.5438],[-78.1329,36.5438],[-78.0462,36.5442]]]}},{"type":"Feature","id":"37187","properties":{"name":"Washington","fips":"37187"},"geometry":{"type":"Polygon","coordinates":[[[-76.6924,35.9453],[-76.6918,35.9446],[-76.6739,35.9351],[-76.6675,35.9335],[-76.657,35.9351],[-76.6081,35.9367],[-76.6038,35.9398],[-76.587,35.9419],[-76.5286,35.944],[-76.5075,35.9498],[-76.497,35.9551],[-76.4738,35.9609],[-76.4606,35.9704],[-76.3982,35.9843],[-76.3898,35.9801],[-76.3819,35.9717],[-76.3814,35.9627],[-76.3652,35.9447],[-76.3534,35.8614],[-76.406,35.785],[-76.3953,35.6975],[-76.5461,35.705],[-76.638,35.7052],[-76.8451,35.7054],[-76.7608,35.8648],[-76.6924,35.9453]]]}},{"type":"Feature","id":"37189","properties":{"name":"Watauga","fips":"37189"},"geometry":{"type":"Polygon","coordinates":[[[-81.7259,36.3404],[-81.721,36.3875],[-81.5662,36.2721],[-81.4773,36.2403],[-81.4556,36.1997],[-81.5455,36.1174],[-81.8115,36.1115],[-81.9091,36.2164],[-81.9181,36.2871],[-81.9081,36.302],[-81.855,36.3373],[-81.8008,36.3581],[-81.7937,36.3604],[-81.7897,36.3483],[-81.7649,36.3387],[-81.7478,36.3374],[-81.731,36.3412],[-81.7259,36.3404]]]}},{"type":"Feature","id":"37191","properties":{"name":"Wayne","fips":"37191"},"geometry":{"type":"Polygon","coordinates":[[[-77.8056,35.3698],[-77.8311,35.2334],[-77.8342,35.1778],[-77.893,35.1466],[-78.0436,35.1928],[-78.1635,35.1894],[-78.3047,35.2861],[-78.1532,35.3514],[-78.1549,35.4176],[-78.0646,35.5854],[-77.8235,35.5855],[-77.8243,35.4987],[-77.8262,35.4768],[-77.827,35.4312],[-77.8184,35.4159],[-77.8056,35.4075],[-77.8,35.3825],[-77.8027,35.3729],[-77.8053,35.3702],[-77.8056,35.3698]]]}},{"type":"Feature","id":"37193","properties":{"name":"Wilkes","fips":"37193"},"geometry":{"type":"Polygon","coordinates":[[[-81.4773,36.2403],[-81.3788,36.278],[-81.3545,36.3557],[-81.2535,36.3654],[-81.0948,36.4404],[-81.0136,36.3713],[-80.9671,36.4016],[-80.8689,36.3265],[-80.8733,36.2364],[-80.8822,36.0557],[-81.0289,36.0458],[-81.1909,36.0369],[-81.3284,35.9965],[-81.5455,36.1174],[-81.4556,36.1997],[-81.4773,36.2403]]]}},{"type":"Feature","id":"37195","properties":{"name":"Wilson","fips":"37195"},"geometry":{"type":"Polygon","coordinates":[[[-78.1921,35.7304],[-77.9314,35.8302],[-77.9279,35.8315],[-77.9156,35.8366],[-77.8284,35.8672],[-77.7516,35.8279],[-77.6613,35.6773],[-77.6888,35.6602],[-77.7005,35.6523],[-77.7536,35.6158],[-77.8017,35.5861],[-77.8061,35.5835],[-77.809,35.5842],[-77.8115,35.5861],[-77.8161,35.5884],[-77.8181,35.5878],[-77.8224,35.5855],[-77.8235,35.5855],[-78.0646,35.5854],[-78.1256,35.6031],[-78.1921,35.7304]]]}},{"type":"Feature","id":"37197","properties":{"name":"Yadkin","fips":"37197"},"geometry":{"type":"Polygon","coordinates":[[[-80.4964,36.0465],[-80.6932,36.0511],[-80.8822,36.0557],[-80.8733,36.2364],[-80.6529,36.2526],[-80.5475,36.2852],[-80.4523,36.2412],[-80.4396,36.1366],[-80.5161,36.0926],[-80.4964,36.0465]]]}},{"type":"Feature","id":"37199","properties":{"name":"Yancey","fips":"37199"},"geometry":{"type":"Polygon","coordinates":[[[-82.463,36.0073],[-82.4169,36.0729],[-82.3382,36.0303],[-82.1993,36.0158],[-82.1332,35.8244],[-82.1972,35.7364],[-82.2754,35.7044],[-82.3482,35.8106],[-82.4087,35.8181],[-82.5059,35.9783],[-82.4875,35.9916],[-82.4874,35.9916],[-82.463,36.0073]]]}}]}