{"type":"FeatureCollection","features":[{"type":"Feature","geometry":{"type":"Polygon","coordinates":[[[-78.6143,36.3127],[-78.6066,36.3099],[-78.6115,36.3089],[-78.6018,36.2985],[-78.6053,36.2926],[-78.5894,36.2981],[-78.5733,36.292],[-78.5721,36.2738],[-78.5574,36.2622],[-78.5446,36.269],[-78.5092,36.2657],[-78.5083,36.1829],[-78.4962,36.1751],[-78.4924,36.1839],[-78.4845,36.179],[-78.4856,36.1751],[-78.4661,36.1723],[-78.4579,36.1637],[-78.4515,36.169],[-78.4249,36.1636],[-78.4121,36.1696],[-78.3781,36.2351],[-78.3381,36.2344],[-78.307,36.2662],[-78.2248,36.2565],[-78.1984,36.2516],[-78.1939,36.2468],[-78.1732,36.2555],[-78.157,36.2444],[-78.1327,36.2463],[-78.125,36.2352],[-78.1257,36.2263],[-78.1106,36.2161],[-78.1101,36.2102],[-78.0916,36.2077],[-78.071,36.2166],[-78.0568,36.2109],[-78.0447,36.2155],[-78.0356,36.207],[-78.0305,36.2145],[-78.0214,36.205],[-78.0162,36.2078],[-78.0077,36.2043],[-78.1822,35.9388],[-78.256,35.8181],[-78.2504,35.7969],[-78.2439,35.7921],[-78.2508,35.7735],[-78.2383,35.7673],[-78.2327,35.7513],[-78.2189,35.755],[-78.213,35.7448],[-78.2156,35.736],[-78.204,35.7279],[-78.1945,35.7281],[-78.1812,35.7383],[-78.1471,35.7458],[-77.8974,35.8439],[-77.8739,35.8497],[-77.8447,35.8376],[-77.8284,35.8672],[-77.7513,35.8278],[-77.7184,35.7288],[-77.6748,35.6891],[-77.6651,35.6749],[-77.5163,35.7613],[-77.4723,35.8011],[-77.4523,35.7999],[-77.4453,35.8089],[-77.4247,35.8057],[-77.4125,35.8251],[-77.3971,35.8252],[-77.3902,35.8331],[-77.2552,35.7864],[-77.2648,35.7744],[-77.2598,35.7652],[-77.246,35.7605],[-77.215,35.7598],[-77.2014,35.7522],[-77.2026,35.7465],[-77.1921,35.747],[-77.1743,35.7346],[-77.1708,35.7165],[-77.1849,35.7205],[-77.1958,35.6998],[-77.1929,35.6941],[-77.1811,35.6931],[-77.1797,35.6851],[-77.1699,35.6846],[-77.1725,35.6774],[-77.167,35.6723],[-77.1807,35.6649],[-77.1747,35.6587],[-77.1742,35.6356],[-77.1436,35.6205],[-77.1457,35.6088],[-77.1402,35.6057],[-77.1507,35.6024],[-77.1431,35.5988],[-77.139,35.6022],[-77.1285,35.5939],[-77.1246,35.5969],[-77.1219,35.592],[-77.1255,35.5847],[-77.118,35.5832],[-77.1141,35.5884],[-77.1172,35.5814],[-77.1067,35.5814],[-77.1105,35.5696],[-77.1017,35.5701],[-77.0972,35.5647],[-77.0907,35.5693],[-77.0865,35.5628],[-77.0888,35.5544],[-77.0846,35.5526],[-77.1132,35.5497],[-77.1271,35.5541],[-77.1762,35.5191],[-77.1765,35.5013],[-77.1671,35.4969],[-77.1738,35.485],[-77.1738,35.4566],[-77.1808,35.4551],[-77.1814,35.4407],[-77.1912,35.435],[-77.1893,35.4165],[-77.2016,35.3987],[-77.2271,35.3998],[-77.2271,35.3932],[-77.2346,35.3911],[-77.2396,35.3814],[-77.2379,35.3615],[-77.2467,35.355],[-77.2666,35.3539],[-77.2693,35.3692],[-77.2943,35.3791],[-77.3529,35.3274],[-77.3826,35.3343],[-77.3952,35.343],[-77.4109,35.338],[-77.4105,35.3319],[-77.4313,35.3298],[-77.4311,35.3129],[-77.4385,35.3118],[-77.4401,35.3038],[-77.4496,35.2995],[-77.4399,35.2896],[-77.4261,35.2575],[-77.4334,35.2497],[-77.4643,35.2392],[-77.4737,35.2291],[-77.3292,35.1498],[-77.1877,35.0811],[-77.1894,35.0667],[-77.1791,35.0582],[-77.1739,35.0591],[-77.1806,35.0552],[-77.1643,35.0655],[-77.1548,35.0627],[-77.1483,35.0547],[-77.1304,35.0724],[-77.1161,35.0741],[-77.1097,35.0686],[-77.1103,35.0457],[-77.0988,35.0269],[-77.1031,35.0178],[-77.1089,34.8308],[-77.0472,34.8364],[-77.0798,34.81],[-77.0896,34.8091],[-77.0907,34.7993],[-77.1074,34.8031],[-77.1162,34.7939],[-77.1357,34.798],[-77.1678,34.791],[-77.1621,34.7872],[-77.1663,34.7798],[-77.1584,34.7817],[-77.1601,34.7743],[-77.154,34.7768],[-77.1507,34.7712],[-77.1584,34.7695],[-77.1579,34.766],[-77.149,34.7685],[-77.1408,34.7596],[-77.1358,34.7646],[-77.1249,34.7544],[-77.1227,34.7353],[-77.1353,34.7299],[-77.1345,34.7263],[-77.1373,34.7295],[-77.1525,34.7267],[-77.1555,34.7209],[-77.1616,34.7231],[-77.1625,34.7077],[-77.1497,34.702],[-77.1555,34.6969],[-77.1537,34.6871],[-77.1374,34.6888],[-77.1318,34.6793],[-77.1225,34.6839],[-77.0961,34.6712],[-77.1132,34.651],[-77.108,34.6397],[-77.1129,34.6385],[-77.1172,34.5844],[-76.9997,34.617],[-76.951,34.6252],[-76.8189,34.6433],[-76.7298,34.6472],[-76.6928,34.643],[-76.6772,34.6343],[-76.6147,34.6183],[-76.6123,34.6001],[-76.5837,34.5526],[-76.5721,34.5425],[-76.5479,34.5328],[-76.5149,34.5351],[-76.492,34.5465],[-76.4832,34.5564],[-76.4663,34.5957],[-76.439,34.6403],[-76.3746,34.716],[-76.3157,34.776],[-76.2496,34.8346],[-76.0326,35.0002],[-76.0244,35.0054],[-75.9947,35.0088],[-75.9086,35.0715],[-75.8077,35.1159],[-75.5954,35.1828],[-75.5811,35.1838],[-75.548,35.1682],[-75.5192,35.1691],[-75.4846,35.1876],[-75.4685,35.2152],[-75.4261,35.3869],[-75.4151,35.5002],[-75.4024,35.5442],[-75.4004,35.5935],[-75.4114,35.6601],[-75.4376,35.747],[-75.4608,35.7845],[-75.4662,35.8013],[-75.4805,35.8142],[-75.566,35.9756],[-75.6662,36.1489],[-75.7091,36.245],[-75.7496,36.3536],[-75.7906,36.5002],[-75.7975,36.5509],[-76.9159,36.5521],[-76.916,36.5439],[-77.1705,36.5473],[-78.4569,36.5425],[-78.4534,36.5401],[-78.4553,36.5341],[-78.4671,36.5322],[-78.4663,36.5241],[-78.4977,36.5147],[-78.4949,36.5081],[-78.5042,36.4952],[-78.5009,36.487],[-78.5112,36.4548],[-78.5104,36.376],[-78.5214,36.3764],[-78.5273,36.371],[-78.541,36.3762],[-78.5387,36.3691],[-78.5488,36.3684],[-78.5561,36.3524],[-78.5908,36.3617],[-78.59,36.3446],[-78.5978,36.3289],[-78.6098,36.3246],[-78.6051,36.3234],[-78.6058,36.3177],[-78.6143,36.3127]]]},"properties":{"name":"CD1","district_number":1,"fips":"37-01"}},{"type":"Feature","geometry":{"type":"Polygon","coordinates":[[[-78.8724,35.8206],[-78.8696,35.8015],[-78.8578,35.7893],[-78.8317,35.7907],[-78.8262,35.7771],[-78.8075,35.7712],[-78.8092,35.767],[-78.8217,35.7647],[-78.8199,35.7692],[-78.8306,35.7699],[-78.8159,35.7549],[-78.7831,35.7579],[-78.7772,35.7292],[-78.7496,35.7242],[-78.7521,35.7188],[-78.7398,35.716],[-78.7093,35.6922],[-78.6843,35.6943],[-78.6763,35.6823],[-78.6491,35.6812],[-78.6364,35.6691],[-78.6312,35.6731],[-78.6072,35.6588],[-78.6092,35.6519],[-78.5982,35.6601],[-78.5657,35.6448],[-78.5638,35.6657],[-78.5468,35.6616],[-78.5486,35.6717],[-78.5426,35.6742],[-78.5423,35.6804],[-78.5505,35.6825],[-78.5503,35.6876],[-78.5348,35.6824],[-78.5357,35.6738],[-78.5213,35.6763],[-78.5275,35.6991],[-78.5028,35.7027],[-78.4806,35.6988],[-78.4638,35.7268],[-78.4549,35.7248],[-78.4552,35.7327],[-78.4234,35.7296],[-78.4293,35.7525],[-78.3931,35.7577],[-78.3908,35.7534],[-78.3751,35.7646],[-78.3669,35.7602],[-78.3518,35.7642],[-78.3584,35.7728],[-78.3245,35.7838],[-78.3138,35.8071],[-78.3081,35.7966],[-78.3041,35.7972],[-78.3085,35.815],[-78.2932,35.8166],[-78.2875,35.8235],[-78.3004,35.8245],[-78.3017,35.8278],[-78.2907,35.83],[-78.3037,35.8355],[-78.3425,35.8351],[-78.3547,35.8305],[-78.36,35.8375],[-78.3663,35.8369],[-78.389,35.8504],[-78.4456,35.8659],[-78.4501,35.87],[-78.4497,35.8787],[-78.475,35.8797],[-78.4796,35.9075],[-78.4574,35.9233],[-78.453,35.9665],[-78.4593,35.9756],[-78.4693,35.9666],[-78.4919,35.9698],[-78.5144,35.9801],[-78.5607,35.9756],[-78.5586,35.9705],[-78.5669,35.9543],[-78.5785,35.9453],[-78.5798,35.9328],[-78.6037,35.9031],[-78.6272,35.8915],[-78.645,35.897],[-78.6531,35.9049],[-78.6417,35.9543],[-78.6563,35.9748],[-78.6595,35.9936],[-78.6673,36.0032],[-78.6655,36.0106],[-78.6835,36.0128],[-78.6852,36.0208],[-78.6998,36.0114],[-78.717,35.9613],[-78.7417,35.9339],[-78.7499,35.9329],[-78.7591,35.9184],[-78.8048,35.9276],[-78.8284,35.8709],[-78.7985,35.8503],[-78.8021,35.8443],[-78.8301,35.8203],[-78.8411,35.8183],[-78.8657,35.8249],[-78.8724,35.8206]]]},"properties":{"name":"CD2","district_number":2,"fips":"37-02"}},{"type":"Feature","geometry":{"type":"Polygon","coordinates":[[[-78.641,34.9888],[-78.6075,34.9536],[-78.5948,34.9498],[-78.5836,34.9384],[-78.5728,34.9375],[-78.5727,34.9298],[-78.5618,34.9176],[-78.5445,34.9148],[-78.5419,34.9081],[-78.5469,34.9006],[-78.5265,34.8912],[-78.5247,34.884],[-78.5128,34.8808],[-78.5132,34.8692],[-78.4949,34.859],[-78.4936,34.8431],[-78.4877,34.8364],[-78.4658,34.8276],[-78.4665,34.822],[-78.4588,34.8199],[-78.4594,34.8128],[-78.4498,34.8135],[-78.441,34.8005],[-78.4448,34.7977],[-78.4373,34.7923],[-78.4387,34.7857],[-78.4298,34.7822],[-78.4245,34.7699],[-78.41,34.7654],[-78.3988,34.7501],[-78.3909,34.7497],[-78.3928,34.7421],[-78.3876,34.7381],[-78.392,34.7298],[-78.3793,34.7234],[-78.3823,34.7173],[-78.3685,34.7045],[-78.3734,34.6992],[-78.3666,34.6931],[-78.3619,34.6955],[-78.3619,34.6913],[-78.3495,34.6923],[-78.3444,34.6839],[-78.3471,34.6804],[-78.3251,34.6692],[-78.3247,34.6498],[-78.3114,34.6412],[-78.3169,34.6357],[-78.314,34.6331],[-78.3224,34.6289],[-78.3131,34.6259],[-78.3129,34.614],[-78.3046,34.611],[-78.3032,34.6005],[-78.2912,34.6005],[-78.2927,34.5971],[-78.2798,34.5911],[-78.2752,34.5814],[-78.266,34.5837],[-78.2622,34.5713],[-78.2517,34.5621],[-78.2601,34.5557],[-78.2544,34.5536],[-78.1565,34.6791],[-78.1135,34.7072],[-78.114,34.7218],[-78.102,34.7256],[-78.0297,34.7248],[-78.0127,34.7326],[-77.9945,34.7171],[-77.981,34.7139],[-77.9615,34.72],[-77.952,34.7147],[-77.9384,34.7234],[-77.9215,34.7197],[-77.6801,34.7206],[-77.6151,34.5791],[-77.5761,34.4765],[-77.5675,34.4698],[-77.5534,34.4715],[-77.541,34.4648],[-77.4845,34.3997],[-77.4188,34.4359],[-77.2951,34.489],[-77.2192,34.5397],[-77.1799,34.5605],[-77.1172,34.5844],[-77.1129,34.6385],[-77.108,34.6397],[-77.1132,34.651],[-77.0961,34.6712],[-77.1225,34.6839],[-77.1318,34.6793],[-77.1374,34.6888],[-77.1537,34.6871],[-77.1555,34.6969],[-77.1497,34.702],[-77.1625,34.7077],[-77.1616,34.7231],[-77.1555,34.7209],[-77.1525,34.7267],[-77.1373,34.7295],[-77.1345,34.7263],[-77.1353,34.7299],[-77.1227,34.7353],[-77.1249,34.7544],[-77.1358,34.7646],[-77.1408,34.7596],[-77.149,34.7685],[-77.1579,34.766],[-77.1584,34.7695],[-77.1507,34.7712],[-77.154,34.7768],[-77.1601,34.7743],[-77.1584,34.7817],[-77.1663,34.7798],[-77.1621,34.7872],[-77.1678,34.791],[-77.1357,34.798],[-77.1162,34.7939],[-77.1074,34.8031],[-77.0907,34.7993],[-77.0896,34.8091],[-77.0798,34.81],[-77.0472,34.8364],[-77.1089,34.8308],[-77.1031,35.0178],[-77.0988,35.0269],[-77.1103,35.0457],[-77.1097,35.0686],[-77.1161,35.0741],[-77.1304,35.0724],[-77.1483,35.0547],[-77.1548,35.0627],[-77.1643,35.0655],[-77.1806,35.0552],[-77.1739,35.0591],[-77.1791,35.0582],[-77.1894,35.0667],[-77.1877,35.0811],[-77.3292,35.1498],[-77.4737,35.2291],[-77.4643,35.2392],[-77.4334,35.2497],[-77.4261,35.2575],[-77.4399,35.2896],[-77.4496,35.2995],[-77.4401,35.3038],[-77.4385,35.3118],[-77.4311,35.3129],[-77.4313,35.3298],[-77.4105,35.3319],[-77.4109,35.338],[-77.3952,35.343],[-77.3826,35.3343],[-77.3529,35.3274],[-77.2943,35.3791],[-77.2693,35.3692],[-77.2701,35.3594],[-77.2605,35.3517],[-77.2379,35.3615],[-77.2396,35.3814],[-77.2346,35.3911],[-77.2271,35.3932],[-77.2271,35.3998],[-77.2016,35.3987],[-77.1893,35.4166],[-77.1912,35.435],[-77.1814,35.4407],[-77.1808,35.4551],[-77.1738,35.4566],[-77.1738,35.485],[-77.1671,35.4969],[-77.1765,35.5013],[-77.1762,35.5191],[-77.1271,35.5541],[-77.1132,35.5497],[-77.0848,35.5524],[-77.0891,35.5555],[-77.0866,35.5632],[-77.0907,35.5693],[-77.0972,35.5647],[-77.1017,35.5701],[-77.1105,35.5696],[-77.1067,35.5814],[-77.1172,35.5814],[-77.1148,35.5887],[-77.118,35.5832],[-77.1255,35.5847],[-77.1219,35.592],[-77.1246,35.5969],[-77.1285,35.5939],[-77.139,35.6022],[-77.143,35.5988],[-77.1502,35.6019],[-77.1402,35.6057],[-77.1457,35.6088],[-77.1435,35.6204],[-77.1625,35.6332],[-77.1679,35.631],[-77.1742,35.6356],[-77.1747,35.6587],[-77.1807,35.6649],[-77.167,35.6723],[-77.1725,35.6774],[-77.1699,35.6846],[-77.1797,35.6851],[-77.1811,35.6931],[-77.1929,35.6941],[-77.1958,35.6998],[-77.1849,35.7205],[-77.1708,35.7165],[-77.1743,35.7346],[-77.1921,35.747],[-77.2026,35.7465],[-77.2014,35.7522],[-77.215,35.7598],[-77.246,35.7605],[-77.2598,35.7652],[-77.2648,35.7744],[-77.2552,35.7864],[-77.3902,35.8331],[-77.3971,35.8252],[-77.4125,35.8251],[-77.4247,35.8057],[-77.4453,35.8089],[-77.4523,35.7999],[-77.4723,35.8011],[-77.5163,35.7613],[-77.6651,35.6749],[-77.6748,35.6891],[-77.7184,35.7288],[-77.7513,35.8278],[-77.8284,35.8672],[-77.8447,35.8376],[-77.8739,35.8497],[-77.8974,35.8439],[-78.1471,35.7458],[-78.1892,35.7341],[-78.1921,35.7305],[-78.1823,35.7289],[-78.176,35.7184],[-78.1603,35.711],[-78.1578,35.6856],[-78.1256,35.6031],[-78.0648,35.5853],[-78.1549,35.4178],[-78.1537,35.392],[-78.1442,35.3869],[-78.1624,35.3674],[-78.1577,35.3601],[-78.1601,35.3566],[-78.1537,35.3564],[-78.1532,35.3507],[-78.1963,35.3436],[-78.1973,35.3401],[-78.2155,35.3415],[-78.2157,35.3335],[-78.2426,35.3198],[-78.2569,35.3256],[-78.2684,35.3231],[-78.276,35.3151],[-78.2897,35.3151],[-78.3066,35.2876],[-78.3977,35.263],[-78.4117,35.2547],[-78.4502,35.2586],[-78.4503,35.2399],[-78.4636,35.222],[-78.475,35.2296],[-78.4945,35.2314],[-78.4965,35.2083],[-78.5245,35.2299],[-78.5389,35.2345],[-78.5412,35.2191],[-78.5168,35.2062],[-78.507,35.1916],[-78.4872,35.1953],[-78.4638,35.1495],[-78.4324,35.1333],[-78.4388,35.1306],[-78.4393,35.1199],[-78.4509,35.117],[-78.4425,35.1066],[-78.4401,35.0916],[-78.4539,35.0658],[-78.4529,35.0548],[-78.4798,35.0585],[-78.4893,35.0538],[-78.5313,35.0559],[-78.5539,35.0481],[-78.5468,35.0328],[-78.548,35.0169],[-78.6073,35.0129],[-78.6006,35.0042],[-78.5742,34.9962],[-78.5896,34.9807],[-78.6351,34.9958],[-78.641,34.9888]]]},"properties":{"name":"CD3","district_number":3,"fips":"37-03"}},{"type":"Feature","geometry":{"type":"Polygon","coordinates":[[[-79.3702,35.7809],[-79.2872,35.77],[-79.2836,35.752],[-79.2778,35.7505],[-79.2759,35.7434],[-79.2674,35.7374],[-79.252,35.7385],[-79.245,35.7248],[-79.2376,35.7225],[-79.2381,35.7123],[-79.2448,35.705],[-79.2411,35.6997],[-79.2442,35.691],[-79.25,35.6883],[-79.2509,35.6783],[-79.2575,35.6764],[-79.2521,35.6541],[-79.2396,35.6622],[-79.2222,35.6608],[-79.2189,35.6537],[-79.2021,35.6493],[-79.1811,35.6645],[-79.1727,35.6763],[-79.1588,35.6705],[-79.1446,35.6789],[-79.1359,35.6629],[-79.1158,35.661],[-79.0962,35.6817],[-79.0785,35.6837],[-79.0865,35.7105],[-79.1071,35.7315],[-79.0674,35.7395],[-79.0284,35.7376],[-79.0216,35.7892],[-78.9955,35.7894],[-78.9798,35.7955],[-78.9638,35.7903],[-78.9651,35.8186],[-78.9426,35.8252],[-78.9231,35.8158],[-78.9278,35.8169],[-78.9272,35.8329],[-78.9344,35.8341],[-78.9279,35.8353],[-78.9256,35.847],[-78.921,35.8457],[-78.9224,35.8393],[-78.9098,35.843],[-78.9088,35.8475],[-78.995,35.6102],[-78.7765,35.5405],[-78.7874,35.5596],[-78.7864,35.5671],[-78.7998,35.5843],[-78.7974,35.5911],[-78.7846,35.5918],[-78.7967,35.595],[-78.8174,35.6215],[-78.8108,35.6228],[-78.8021,35.6424],[-78.8177,35.6475],[-78.824,35.6548],[-78.8092,35.6574],[-78.7985,35.6672],[-78.7944,35.6625],[-78.7779,35.6634],[-78.7826,35.6877],[-78.7701,35.697],[-78.7496,35.7242],[-78.7772,35.7292],[-78.7831,35.7579],[-78.816,35.755],[-78.8306,35.7699],[-78.8199,35.7692],[-78.8217,35.7647],[-78.8092,35.767],[-78.8075,35.7712],[-78.8262,35.7771],[-78.8317,35.7907],[-78.8578,35.7893],[-78.8696,35.8015],[-78.8724,35.8206],[-78.8657,35.8249],[-78.8411,35.8183],[-78.8301,35.8203],[-78.8021,35.8443],[-78.7985,35.8503],[-78.8284,35.8709],[-78.8048,35.9276],[-78.7591,35.9184],[-78.7499,35.9329],[-78.7417,35.9339],[-78.717,35.9613],[-78.6993,36.0114],[-78.7074,36.0111],[-78.72,36.0296],[-78.7402,36.0236],[-78.7536,36.0314],[-78.7513,36.0708],[-78.7838,36.07],[-78.7881,36.0729],[-78.7849,36.0767],[-78.7931,36.0777],[-78.7926,36.086],[-78.8075,36.0874],[-78.8031,36.0896],[-78.8023,36.2358],[-79.258,36.2434],[-79.264,35.9141],[-79.2684,35.9109],[-79.2569,35.9021],[-79.2579,35.8915],[-79.2493,35.876],[-79.2504,35.857],[-79.237,35.8506],[-79.2373,35.8441],[-79.3501,35.8439],[-79.3702,35.7809]]]},"properties":{"name":"CD4","district_number":4,"fips":"37-04"}},{"type":"Feature","geometry":{"type":"Polygon","coordinates":[[[-81.9181,36.2872],[-81.9076,36.2786],[-81.9001,36.2807],[-81.8935,36.2645],[-81.8967,36.2551],[-81.9039,36.2514],[-81.897,36.2427],[-81.9077,36.2386],[-81.9112,36.2295],[-81.9031,36.2073],[-81.8854,36.1895],[-81.8567,36.1936],[-81.8356,36.1685],[-81.8292,36.1688],[-81.8115,36.1115],[-81.7741,36.0986],[-81.7608,36.0898],[-81.7543,36.0731],[-81.7357,36.0676],[-81.8088,35.9583],[-81.7962,35.9488],[-81.7775,35.9474],[-81.7762,35.9271],[-81.7587,35.9285],[-81.7525,35.9244],[-81.7446,35.9087],[-81.7102,35.8752],[-81.6392,35.8483],[-81.6322,35.8358],[-81.6261,35.8335],[-81.6301,35.8304],[-81.6104,35.8196],[-81.6008,35.8251],[-81.556,35.7775],[-81.446,35.7852],[-81.4406,35.7734],[-81.4265,35.772],[-81.3992,35.7586],[-81.3788,35.7573],[-81.3702,35.7669],[-81.3539,35.7689],[-81.3556,35.7803],[-81.3432,35.7956],[-81.3159,35.7969],[-81.3083,35.8025],[-81.2981,35.7982],[-81.279,35.8063],[-81.2673,35.8045],[-81.2541,35.8088],[-81.2496,35.8157],[-81.2258,35.8095],[-81.2051,35.8228],[-81.1496,35.829],[-81.1423,35.8274],[-81.1411,35.8122],[-81.1308,35.8032],[-81.1284,35.7894],[-81.1095,35.7766],[-81.0789,35.8028],[-81.0775,35.8127],[-81.0413,35.8579],[-81.0055,35.9583],[-81.0034,35.9967],[-81.0288,36.0457],[-80.9757,36.0588],[-80.8816,36.0557],[-80.8732,36.2363],[-80.8087,36.2543],[-80.7965,36.248],[-80.7784,36.2569],[-80.78,36.2689],[-80.7758,36.274],[-80.7687,36.275],[-80.7518,36.2634],[-80.738,36.2803],[-80.7322,36.2768],[-80.7333,36.2672],[-80.6846,36.2688],[-80.6682,36.2509],[-80.6489,36.2558],[-80.643,36.2726],[-80.6277,36.2736],[-80.6292,36.2877],[-80.5933,36.2698],[-80.573,36.2802],[-80.5479,36.2854],[-80.5367,36.2793],[-80.5342,36.2585],[-80.4837,36.256],[-80.471,36.261],[-80.4634,36.2575],[-80.4609,36.2478],[-80.4527,36.2417],[-80.4519,36.2615],[-80.0351,36.2572],[-80.04,36.1108],[-80.0254,36.1097],[-80.0333,36.1043],[-80.0181,36.0991],[-80.0136,36.1103],[-80.014,36.134],[-79.9983,36.1377],[-79.9973,36.1328],[-79.9749,36.1358],[-79.9617,36.1244],[-79.9645,36.108],[-79.9539,36.0922],[-79.9313,36.081],[-79.9269,36.0877],[-79.8693,36.0924],[-79.8314,36.0831],[-79.8146,36.0752],[-79.8152,36.0685],[-79.8407,36.0443],[-79.8566,36.0482],[-79.8622,36.0446],[-79.8616,36.037],[-79.8696,36.0286],[-79.8662,36.0149],[-79.8462,36.0116],[-79.8462,36.008],[-79.8398,36.0112],[-79.8102,36.0078],[-79.8105,36.0011],[-79.8057,36.0005],[-79.7921,36.0008],[-79.7932,36.0068],[-79.785,36.0091],[-79.7797,35.9909],[-79.7497,35.996],[-79.739,35.989],[-79.7419,35.9924],[-79.7143,36.0192],[-79.7162,36.0233],[-79.7035,36.0267],[-79.7019,36.0336],[-79.6909,36.0398],[-79.7014,36.0529],[-79.7016,36.0582],[-79.6942,36.0611],[-79.7219,36.0603],[-79.7089,36.0748],[-79.6951,36.0818],[-79.6968,36.0869],[-79.7164,36.0865],[-79.7247,36.0818],[-79.7252,36.0724],[-79.7312,36.0754],[-79.7227,36.0837],[-79.7263,36.0853],[-79.7164,36.0876],[-79.7124,36.123],[-79.7043,36.1182],[-79.6992,36.121],[-79.6996,36.1775],[-79.719,36.1835],[-79.7258,36.1928],[-79.7462,36.1886],[-79.778,36.1652],[-79.7936,36.177],[-79.8169,36.1715],[-79.8681,36.1727],[-79.8674,36.2518],[-79.5324,36.2415],[-79.5136,36.5409],[-80.2949,36.5441],[-80.7046,36.5623],[-80.8378,36.5591],[-81.443,36.5768],[-81.6775,36.5881],[-81.677,36.5708],[-81.6913,36.5677],[-81.6902,36.5517],[-81.6998,36.5367],[-81.7081,36.5357],[-81.7081,36.5241],[-81.6971,36.5059],[-81.7003,36.4985],[-81.6959,36.4916],[-81.695,36.4675],[-81.7168,36.4567],[-81.7148,36.4372],[-81.7213,36.4339],[-81.7178,36.4299],[-81.7207,36.4227],[-81.7419,36.4112],[-81.7394,36.3956],[-81.7288,36.3916],[-81.7347,36.3794],[-81.7261,36.3688],[-81.7215,36.3513],[-81.7061,36.3437],[-81.7075,36.3352],[-81.736,36.343],[-81.7457,36.3376],[-81.765,36.3387],[-81.7789,36.3486],[-81.7897,36.3483],[-81.7931,36.3624],[-81.8103,36.3519],[-81.855,36.3372],[-81.8795,36.3138],[-81.9082,36.302],[-81.9181,36.2872]]]},"properties":{"name":"CD5","district_number":5,"fips":"37-05"}},{"type":"Feature","geometry":{"type":"Polygon","coordinates":[[[-80.7871,35.495],[-80.7522,35.4141],[-80.7635,35.4121],[-80.7664,35.4015],[-80.7197,35.3628],[-80.7086,35.3757],[-80.6969,35.4043],[-80.6728,35.4191],[-80.6663,35.4125],[-80.6392,35.4131],[-80.6272,35.4015],[-80.6105,35.3959],[-80.6051,35.3868],[-80.5819,35.3822],[-80.5776,35.4073],[-80.598,35.4278],[-80.5831,35.4346],[-80.567,35.428],[-80.5782,35.4748],[-80.584,35.4806],[-80.5797,35.481],[-80.5706,35.5033],[-80.0668,35.5057],[-80.0469,35.9207],[-79.9723,35.9177],[-79.9685,35.9181],[-79.9706,35.9233],[-79.9593,35.9235],[-79.9546,35.9205],[-79.9577,35.9244],[-79.9547,35.9317],[-79.9611,35.9347],[-79.9526,35.9484],[-79.9545,35.9519],[-79.9178,35.9728],[-79.9314,35.9809],[-79.9308,35.9863],[-79.9431,35.9849],[-79.9441,35.9892],[-79.9581,35.9906],[-79.9552,35.9994],[-79.9462,35.9964],[-79.9423,36.0033],[-79.9378,36.0273],[-79.9155,36.0263],[-79.9154,36.0181],[-79.9033,36.0149],[-79.8795,36.033],[-79.8686,36.0298],[-79.8579,36.0476],[-79.8407,36.0443],[-79.8267,36.0604],[-79.8191,36.0623],[-79.8146,36.0752],[-79.8691,36.0924],[-79.925,36.088],[-79.9313,36.081],[-79.9539,36.0922],[-79.9645,36.108],[-79.9617,36.1244],[-79.9749,36.1358],[-79.9973,36.1328],[-79.9983,36.1377],[-80.014,36.134],[-80.0136,36.1103],[-80.0181,36.0991],[-80.0333,36.1043],[-80.0254,36.1097],[-80.04,36.1108],[-80.0351,36.2572],[-80.1453,36.2585],[-80.145,36.2172],[-80.1474,36.2328],[-80.1529,36.222],[-80.1353,36.2069],[-80.1383,36.2025],[-80.1344,36.196],[-80.1271,36.2047],[-80.1219,36.2036],[-80.1337,36.1896],[-80.137,36.1781],[-80.13,36.178],[-80.1137,36.1975],[-80.1031,36.1909],[-80.1487,36.1537],[-80.1495,36.1138],[-80.165,36.1112],[-80.1589,36.1055],[-80.1653,36.0994],[-80.183,36.0964],[-80.1821,36.0909],[-80.1933,36.0923],[-80.191,36.0836],[-80.1814,36.0756],[-80.2022,36.0658],[-80.1947,36.0603],[-80.2135,36.0585],[-80.1966,36.0464],[-80.2196,36.0307],[-80.2525,36.017],[-80.261,36.0163],[-80.2599,36.0408],[-80.2703,36.0393],[-80.2749,36.0299],[-80.2864,36.0262],[-80.3137,36.0311],[-80.3444,36.0041],[-80.356,36.018],[-80.3526,36.028],[-80.3662,36.0471],[-80.3755,36.0414],[-80.4531,36.0439],[-80.4648,36.0627],[-80.473,36.0603],[-80.4747,36.0504],[-80.4884,36.043],[-80.4963,36.0465],[-80.6932,36.0513],[-80.7078,35.8529],[-80.7716,35.6722],[-80.7398,35.5441],[-80.7372,35.5058],[-80.7842,35.506],[-80.7871,35.495]]]},"properties":{"name":"CD6","district_number":6,"fips":"37-06"}},{"type":"Feature","geometry":{"type":"Polygon","coordinates":[[[-79.1667,34.853],[-79.1473,34.8267],[-79.1315,34.8211],[-79.1138,34.8046],[-79.1376,34.7802],[-79.1528,34.787],[-79.1577,34.7765],[-79.1545,34.7679],[-79.1518,34.7646],[-79.1342,34.7674],[-79.141,34.7752],[-79.1362,34.7794],[-79.1209,34.7706],[-79.1007,34.767],[-79.1179,34.766],[-79.1031,34.7639],[-79.1003,34.7453],[-79.0802,34.7427],[-79.0762,34.7096],[-79.0672,34.707],[-79.0593,34.6904],[-79.0204,34.6534],[-79.0171,34.6674],[-79.0235,34.6801],[-78.9927,34.6833],[-78.9881,34.6922],[-78.9724,34.688],[-78.9808,34.6721],[-78.972,34.6799],[-78.936,34.6825],[-78.9486,34.6608],[-78.9433,34.642],[-78.9637,34.6381],[-78.9657,34.61],[-78.9798,34.6013],[-78.9834,34.591],[-78.9742,34.5829],[-78.9863,34.5783],[-79.0083,34.5886],[-79.0133,34.5687],[-79.0059,34.5434],[-79.0123,34.5404],[-79.0148,34.5292],[-79.0082,34.5239],[-79.023,34.5013],[-79.0434,34.5055],[-79.0528,34.4971],[-79.0626,34.5017],[-79.1083,34.4383],[-79.1127,34.4037],[-79.0949,34.3752],[-79.0804,34.3691],[-79.0744,34.3588],[-79.0862,34.344],[-79.1088,34.3309],[-78.4993,33.8129],[-78.399,33.8433],[-78.3412,33.8553],[-78.2623,33.8632],[-78.1454,33.8627],[-78.0666,33.848],[-78.0529,33.8274],[-78.0129,33.8039],[-78.0048,33.7735],[-77.9838,33.7587],[-77.9538,33.7529],[-77.9175,33.7638],[-77.9024,33.7785],[-77.8952,33.7934],[-77.899,33.8546],[-77.8942,33.8787],[-77.8861,33.8912],[-77.8845,33.9037],[-77.8635,33.9347],[-77.8622,33.9486],[-77.8302,34.0303],[-77.7856,34.1252],[-77.7538,34.155],[-77.7474,34.1756],[-77.7308,34.1898],[-77.723,34.21],[-77.6911,34.2457],[-77.6685,34.2583],[-77.6289,34.2987],[-77.6047,34.313],[-77.5567,34.3537],[-77.4845,34.3997],[-77.541,34.4648],[-77.5534,34.4715],[-77.5675,34.4698],[-77.5761,34.4765],[-77.6151,34.5791],[-77.6801,34.7206],[-77.9215,34.7197],[-77.9384,34.7234],[-77.952,34.7147],[-77.9615,34.72],[-77.981,34.7139],[-77.9945,34.7171],[-78.0127,34.7326],[-78.0297,34.7248],[-78.102,34.7256],[-78.114,34.7218],[-78.1135,34.7072],[-78.1565,34.6791],[-78.2544,34.5536],[-78.2602,34.5558],[-78.2517,34.5621],[-78.2622,34.5713],[-78.266,34.5837],[-78.2752,34.5814],[-78.2798,34.5911],[-78.2927,34.5971],[-78.2912,34.6005],[-78.3032,34.6005],[-78.3046,34.611],[-78.3129,34.614],[-78.3131,34.6259],[-78.3224,34.6289],[-78.314,34.6331],[-78.3169,34.6357],[-78.3114,34.6412],[-78.3247,34.6498],[-78.3251,34.6692],[-78.3471,34.6804],[-78.3444,34.6839],[-78.3495,34.6923],[-78.3619,34.6913],[-78.3619,34.6955],[-78.3666,34.6931],[-78.3734,34.6992],[-78.3685,34.7045],[-78.3823,34.7173],[-78.3793,34.7234],[-78.392,34.7298],[-78.3876,34.7381],[-78.3928,34.7421],[-78.3909,34.7497],[-78.3988,34.7501],[-78.41,34.7654],[-78.4245,34.7699],[-78.4298,34.7822],[-78.4387,34.7857],[-78.4373,34.7923],[-78.4448,34.7977],[-78.441,34.8005],[-78.4498,34.8135],[-78.4594,34.8128],[-78.4588,34.8199],[-78.4665,34.822],[-78.4658,34.8276],[-78.4877,34.8364],[-78.4936,34.8431],[-78.4949,34.859],[-78.5132,34.8692],[-78.5128,34.8808],[-78.5247,34.884],[-78.5265,34.8912],[-78.5469,34.9006],[-78.5419,34.9081],[-78.5445,34.9148],[-78.5618,34.9176],[-78.5727,34.9298],[-78.5728,34.9375],[-78.5836,34.9384],[-78.5948,34.9498],[-78.6075,34.9536],[-78.641,34.9888],[-78.6351,34.9958],[-78.5896,34.9807],[-78.5742,34.9962],[-78.6006,35.0042],[-78.6069,35.0133],[-78.548,35.0169],[-78.5468,35.0328],[-78.5539,35.0481],[-78.5313,35.0559],[-78.4893,35.0538],[-78.4798,35.0585],[-78.4541,35.0532],[-78.4539,35.0658],[-78.4402,35.0914],[-78.4425,35.1066],[-78.4511,35.1163],[-78.4393,35.1199],[-78.4388,35.1306],[-78.4324,35.1333],[-78.4638,35.1495],[-78.4872,35.1953],[-78.507,35.1916],[-78.5168,35.2062],[-78.5412,35.2191],[-78.5389,35.2345],[-78.5245,35.2299],[-78.4965,35.2083],[-78.4945,35.2314],[-78.475,35.2296],[-78.4636,35.222],[-78.4504,35.2397],[-78.4492,35.2567],[-78.4919,35.2633],[-78.5383,35.3164],[-78.5761,35.296],[-78.5835,35.2968],[-78.5846,35.2733],[-78.6171,35.2457],[-78.712,35.2576],[-78.7256,35.2669],[-78.754,35.2597],[-78.76,35.2639],[-78.7659,35.2582],[-78.7943,35.2661],[-78.8059,35.2566],[-78.8249,35.2596],[-78.8347,35.2524],[-78.8472,35.253],[-78.8599,35.2425],[-78.8702,35.2443],[-78.881,35.2302],[-78.898,35.2312],[-78.9202,35.2203],[-78.9247,35.2239],[-78.9355,35.2187],[-78.9045,35.1905],[-78.9084,35.1852],[-78.9019,35.1613],[-78.9235,35.1545],[-78.9234,35.1465],[-78.9143,35.1443],[-78.9083,35.1316],[-78.9239,35.1248],[-78.9142,35.1276],[-78.9138,35.1191],[-78.8989,35.1028],[-78.906,35.1006],[-78.8997,35.0876],[-78.9049,35.0847],[-78.9157,35.0972],[-78.9242,35.089],[-78.9194,35.0842],[-78.9232,35.0722],[-78.9102,35.0678],[-78.914,35.0606],[-78.9257,35.0641],[-78.9441,35.0612],[-78.9469,35.0664],[-78.9563,35.0684],[-78.9539,35.0594],[-78.9667,35.0591],[-78.9509,35.0488],[-78.95,35.0436],[-78.9403,35.0438],[-78.9304,35.0308],[-78.9516,35.0213],[-78.9491,35.0177],[-78.9828,35.0092],[-78.9848,35.0176],[-78.9946,35.022],[-79.0185,35.01],[-79.0493,35.007],[-79.0568,34.9984],[-79.0349,34.9633],[-79.0356,34.9552],[-79.1667,34.853]]]},"properties":{"name":"CD7","district_number":7,"fips":"37-07"}},{"type":"Feature","geometry":{"type":"Polygon","coordinates":[[[-80.8539,35.0899],[-80.8287,35.0828],[-80.8119,35.0875],[-80.8167,35.0778],[-80.8043,35.0789],[-80.7964,35.0854],[-80.7974,35.0904],[-80.7912,35.0871],[-80.7943,35.069],[-80.7878,35.0629],[-80.8019,35.0504],[-80.7992,35.0425],[-80.8082,35.0426],[-80.8002,35.0392],[-80.8045,35.0277],[-80.8403,35.0017],[-80.7819,34.9358],[-80.7975,34.8198],[-79.6765,34.8051],[-79.3908,34.5733],[-79.1088,34.3309],[-79.0862,34.344],[-79.0744,34.3588],[-79.0804,34.3691],[-79.0949,34.3752],[-79.1127,34.4037],[-79.1083,34.4383],[-79.0626,34.5017],[-79.0528,34.4971],[-79.0434,34.5055],[-79.023,34.5013],[-79.0082,34.5239],[-79.0148,34.5292],[-79.0123,34.5404],[-79.0059,34.5434],[-79.0133,34.5687],[-79.0083,34.5886],[-78.9863,34.5783],[-78.9742,34.5829],[-78.9834,34.591],[-78.9777,34.6046],[-78.9657,34.61],[-78.9637,34.6381],[-78.9433,34.642],[-78.9486,34.6608],[-78.936,34.6825],[-78.972,34.6799],[-78.9808,34.6721],[-78.9724,34.688],[-78.9881,34.6922],[-78.9927,34.6833],[-79.0235,34.6801],[-79.0171,34.6674],[-79.0204,34.6534],[-79.0593,34.6904],[-79.0672,34.707],[-79.0762,34.7096],[-79.0802,34.7427],[-79.1003,34.7453],[-79.1031,34.7639],[-79.1179,34.766],[-79.1007,34.767],[-79.1209,34.7706],[-79.1362,34.7794],[-79.141,34.7752],[-79.1342,34.7674],[-79.1518,34.7646],[-79.1577,34.7765],[-79.1528,34.787],[-79.1376,34.7802],[-79.1138,34.8046],[-79.1315,34.8211],[-79.1473,34.8267],[-79.1667,34.853],[-79.1914,34.8337],[-79.3479,34.8386],[-79.3369,34.8538],[-79.3503,34.8945],[-79.3497,34.9214],[-79.3561,34.9331],[-79.3531,34.9443],[-79.3622,34.9503],[-79.3608,34.9579],[-79.3884,34.9815],[-79.3965,34.9941],[-79.416,35.0029],[-79.4313,35.0201],[-79.4493,35.0269],[-79.4577,35.0431],[-79.4707,35.0484],[-79.4774,35.0572],[-79.5236,35.0662],[-79.5651,35.0637],[-79.5762,35.0701],[-79.583,35.0879],[-79.5748,35.1013],[-79.5734,35.1227],[-79.5844,35.1291],[-79.5891,35.139],[-79.6094,35.149],[-79.616,35.1684],[-79.6275,35.1701],[-79.6277,35.1745],[-79.637,35.176],[-79.6576,35.1916],[-79.6723,35.2447],[-79.698,35.2515],[-79.7119,35.2756],[-79.7099,35.3013],[-79.7642,35.4757],[-79.768,35.5115],[-80.1829,35.5033],[-80.5706,35.5033],[-80.5797,35.481],[-80.584,35.4806],[-80.5782,35.4748],[-80.567,35.428],[-80.5831,35.4346],[-80.598,35.4278],[-80.5776,35.4073],[-80.5819,35.3822],[-80.6051,35.3868],[-80.6105,35.3959],[-80.6272,35.4015],[-80.6392,35.4131],[-80.6663,35.4125],[-80.6728,35.4191],[-80.6969,35.4043],[-80.7086,35.3757],[-80.7197,35.3628],[-80.6931,35.3464],[-80.6665,35.2679],[-80.5997,35.2341],[-80.617,35.2246],[-80.6433,35.2225],[-80.6714,35.2048],[-80.6818,35.2067],[-80.6864,35.2032],[-80.683,35.1999],[-80.6924,35.2021],[-80.7049,35.1929],[-80.6719,35.1747],[-80.6979,35.1609],[-80.7068,35.1733],[-80.7176,35.162],[-80.7203,35.1548],[-80.7161,35.148],[-80.7225,35.1451],[-80.7054,35.1259],[-80.7099,35.1224],[-80.7286,35.1223],[-80.735,35.1313],[-80.7365,35.1251],[-80.746,35.128],[-80.7373,35.1193],[-80.7787,35.1],[-80.7794,35.1174],[-80.7629,35.1215],[-80.7559,35.1181],[-80.7552,35.128],[-80.7681,35.1374],[-80.792,35.1198],[-80.8024,35.118],[-80.8076,35.1334],[-80.8241,35.1155],[-80.8287,35.1172],[-80.8316,35.1103],[-80.844,35.1079],[-80.8539,35.0899]]]},"properties":{"name":"CD8","district_number":8,"fips":"37-08"}},{"type":"Feature","geometry":{"type":"Polygon","coordinates":[[[-80.0668,35.5059],[-79.768,35.5115],[-79.7642,35.4757],[-79.7102,35.3025],[-79.712,35.2759],[-79.7027,35.2559],[-79.6726,35.2451],[-79.6643,35.2266],[-79.6576,35.1916],[-79.637,35.176],[-79.6277,35.1745],[-79.6275,35.1701],[-79.616,35.1684],[-79.6094,35.149],[-79.5891,35.139],[-79.5844,35.1291],[-79.5734,35.1227],[-79.5748,35.1013],[-79.583,35.0879],[-79.5762,35.0701],[-79.5651,35.0637],[-79.5236,35.0662],[-79.4774,35.0572],[-79.4707,35.0484],[-79.4577,35.0431],[-79.4493,35.0269],[-79.4313,35.0201],[-79.416,35.0029],[-79.3965,34.9941],[-79.3884,34.9815],[-79.3608,34.9579],[-79.3622,34.9503],[-79.3531,34.9443],[-79.3561,34.9331],[-79.3497,34.9214],[-79.3503,34.8945],[-79.3369,34.8538],[-79.3479,34.8386],[-79.1914,34.8337],[-79.0356,34.9552],[-79.0349,34.9633],[-79.0568,34.9984],[-79.0493,35.007],[-79.018,35.0101],[-78.9979,35.0218],[-78.9848,35.0176],[-78.9828,35.0092],[-78.9491,35.0177],[-78.9516,35.0213],[-78.9304,35.0308],[-78.9333,35.0378],[-78.9404,35.0439],[-78.95,35.0436],[-78.9509,35.0488],[-78.9667,35.0591],[-78.9539,35.0594],[-78.9563,35.0684],[-78.9469,35.0664],[-78.9441,35.0612],[-78.9257,35.0641],[-78.914,35.0606],[-78.9102,35.0678],[-78.9232,35.0722],[-78.9194,35.0842],[-78.9242,35.089],[-78.9157,35.0972],[-78.9049,35.0847],[-78.8997,35.0876],[-78.906,35.1006],[-78.8989,35.1028],[-78.9138,35.1191],[-78.9142,35.1276],[-78.9239,35.1248],[-78.9083,35.1316],[-78.9143,35.1443],[-78.9234,35.1465],[-78.9235,35.1545],[-78.9019,35.1613],[-78.9084,35.1852],[-78.9045,35.1905],[-78.9268,35.2132],[-78.9416,35.2193],[-78.998,35.2141],[-79.0963,35.192],[-79.1205,35.2048],[-79.1513,35.2137],[-79.1539,35.2292],[-79.1651,35.2409],[-79.1935,35.2501],[-79.223,35.2681],[-79.1836,35.3072],[-79.273,35.3519],[-79.2719,35.3623],[-79.2896,35.4004],[-79.3045,35.4048],[-79.3174,35.4199],[-79.3297,35.4234],[-79.3289,35.4392],[-79.3505,35.4579],[-79.3483,35.4634],[-79.3598,35.4697],[-79.3566,35.4733],[-79.3598,35.4777],[-79.3515,35.4777],[-79.3359,35.4978],[-79.3512,35.5143],[-79.3496,35.5188],[-79.3341,35.5253],[-79.3224,35.5245],[-79.311,35.5318],[-79.3236,35.5441],[-79.2849,35.5551],[-79.2821,35.5516],[-79.2906,35.5459],[-79.2909,35.5404],[-79.2763,35.532],[-79.2684,35.5325],[-79.2452,35.553],[-79.2437,35.5699],[-79.2193,35.5665],[-79.2245,35.5508],[-79.1999,35.5586],[-79.2011,35.5765],[-79.1861,35.5803],[-79.1403,35.6237],[-79.1171,35.6282],[-79.1123,35.6229],[-79.1009,35.6239],[-79.0715,35.6108],[-79.0523,35.5959],[-79.0467,35.5699],[-79.024,35.5484],[-78.9908,35.5402],[-78.9696,35.5217],[-78.9147,35.5837],[-78.995,35.6102],[-78.9088,35.8475],[-78.9098,35.843],[-78.9224,35.8393],[-78.921,35.8457],[-78.9256,35.847],[-78.9279,35.8353],[-78.9344,35.8341],[-78.9272,35.8329],[-78.9278,35.8169],[-78.9231,35.8158],[-78.9426,35.8252],[-78.9651,35.8186],[-78.9638,35.7903],[-78.9798,35.7955],[-78.9955,35.7894],[-79.0216,35.7892],[-79.0284,35.7376],[-79.0674,35.7395],[-79.1071,35.7315],[-79.0865,35.7105],[-79.0785,35.6837],[-79.0962,35.6817],[-79.1158,35.661],[-79.1359,35.6629],[-79.1446,35.6789],[-79.1588,35.6705],[-79.1727,35.6763],[-79.1811,35.6645],[-79.2021,35.6493],[-79.2189,35.6537],[-79.2222,35.6608],[-79.2396,35.6622],[-79.2521,35.6541],[-79.2575,35.6764],[-79.2509,35.6783],[-79.25,35.6883],[-79.2442,35.691],[-79.2411,35.6997],[-79.2448,35.705],[-79.2381,35.7123],[-79.2376,35.7225],[-79.245,35.7248],[-79.252,35.7385],[-79.2674,35.7374],[-79.2759,35.7434],[-79.2778,35.7505],[-79.2836,35.752],[-79.2872,35.77],[-79.3702,35.7809],[-79.3501,35.8439],[-79.2373,35.8441],[-79.237,35.8506],[-79.2504,35.857],[-79.2493,35.876],[-79.2579,35.8915],[-79.2569,35.9021],[-79.2684,35.9109],[-79.264,35.9141],[-79.258,36.2434],[-79.5319,36.2497],[-79.5324,36.2415],[-79.8674,36.2518],[-79.8681,36.1727],[-79.8169,36.1715],[-79.7936,36.177],[-79.778,36.1652],[-79.7462,36.1886],[-79.7258,36.1928],[-79.719,36.1835],[-79.6996,36.1775],[-79.6992,36.121],[-79.7043,36.1182],[-79.7124,36.123],[-79.7164,36.0876],[-79.7263,36.0853],[-79.7227,36.0837],[-79.7312,36.0754],[-79.7252,36.0724],[-79.7247,36.0818],[-79.7164,36.0865],[-79.6968,36.0869],[-79.6951,36.0818],[-79.7089,36.0748],[-79.7219,36.0603],[-79.6942,36.0611],[-79.7016,36.0582],[-79.7014,36.0529],[-79.6909,36.0398],[-79.7019,36.0336],[-79.7035,36.0267],[-79.7162,36.0233],[-79.7143,36.0192],[-79.7419,35.9924],[-79.739,35.989],[-79.7497,35.996],[-79.7797,35.9909],[-79.785,36.0091],[-79.7932,36.0068],[-79.7921,36.0008],[-79.8004,36.0004],[-79.8007,36.0035],[-79.8105,36.0011],[-79.8102,36.0078],[-79.8398,36.0112],[-79.8462,36.008],[-79.8462,36.0116],[-79.8662,36.0149],[-79.8671,36.029],[-79.8775,36.033],[-79.9033,36.0149],[-79.9154,36.0181],[-79.9155,36.0263],[-79.9378,36.0273],[-79.9423,36.0033],[-79.9462,35.9964],[-79.9552,35.9994],[-79.9581,35.9906],[-79.9441,35.9892],[-79.9431,35.9849],[-79.9308,35.9863],[-79.9314,35.9809],[-79.9178,35.9728],[-79.9545,35.9519],[-79.9526,35.9484],[-79.9611,35.9347],[-79.9547,35.9317],[-79.9577,35.9244],[-79.9546,35.9205],[-79.9593,35.9235],[-79.9706,35.9233],[-79.9685,35.9181],[-79.9723,35.9177],[-80.0469,35.9207],[-80.0668,35.5059]]]},"properties":{"name":"CD9","district_number":9,"fips":"37-09"}},{"type":"Feature","geometry":{"type":"Polygon","coordinates":[[[-81.5375,35.5644],[-81.5154,35.5583],[-81.5092,35.5504],[-81.513,35.5233],[-81.4556,35.4198],[-80.9549,35.4001],[-80.9586,35.4329],[-80.9424,35.4551],[-80.9517,35.4682],[-80.9453,35.4836],[-80.9473,35.4885],[-80.9067,35.5148],[-80.7372,35.5058],[-80.7398,35.5441],[-80.7716,35.6722],[-80.7078,35.8529],[-80.6932,36.0513],[-80.4963,36.0465],[-80.4884,36.043],[-80.4747,36.0504],[-80.473,36.0603],[-80.4648,36.0627],[-80.4531,36.0439],[-80.3755,36.0414],[-80.3662,36.0471],[-80.3526,36.028],[-80.356,36.018],[-80.3444,36.0041],[-80.3137,36.0311],[-80.2864,36.0262],[-80.2749,36.0299],[-80.2703,36.0393],[-80.2599,36.0408],[-80.261,36.0163],[-80.2525,36.017],[-80.2196,36.0307],[-80.1966,36.0464],[-80.2135,36.0585],[-80.1947,36.0603],[-80.2022,36.0658],[-80.1814,36.0756],[-80.191,36.0836],[-80.1933,36.0923],[-80.1821,36.0909],[-80.183,36.0964],[-80.1653,36.0994],[-80.1589,36.1055],[-80.165,36.1112],[-80.1495,36.1138],[-80.1487,36.1537],[-80.1036,36.1922],[-80.1137,36.1975],[-80.13,36.178],[-80.137,36.1781],[-80.1337,36.1896],[-80.1219,36.2036],[-80.1271,36.2047],[-80.1344,36.196],[-80.1383,36.2025],[-80.1353,36.2069],[-80.1529,36.222],[-80.1474,36.2328],[-80.145,36.2172],[-80.1453,36.2585],[-80.4519,36.2615],[-80.4527,36.2417],[-80.4609,36.2478],[-80.4634,36.2575],[-80.471,36.261],[-80.4837,36.256],[-80.5342,36.2585],[-80.5367,36.2793],[-80.5479,36.2854],[-80.573,36.2802],[-80.5933,36.2698],[-80.6292,36.2877],[-80.6277,36.2736],[-80.643,36.2726],[-80.6489,36.2558],[-80.6682,36.2509],[-80.6846,36.2688],[-80.7333,36.2672],[-80.7322,36.2768],[-80.738,36.2803],[-80.7518,36.2634],[-80.7687,36.275],[-80.7758,36.274],[-80.78,36.2689],[-80.7784,36.2569],[-80.7965,36.248],[-80.8087,36.2543],[-80.8695,36.2384],[-80.8732,36.2363],[-80.8816,36.0557],[-80.9757,36.0588],[-81.0288,36.0457],[-81.0034,35.9967],[-81.0055,35.9583],[-81.0413,35.8579],[-81.0775,35.8127],[-81.0791,35.8026],[-81.1095,35.7766],[-81.1284,35.7894],[-81.1308,35.8032],[-81.1411,35.8122],[-81.1423,35.8274],[-81.1496,35.829],[-81.2051,35.8228],[-81.2258,35.8095],[-81.2496,35.8157],[-81.2541,35.8088],[-81.2673,35.8045],[-81.2801,35.8061],[-81.2981,35.7982],[-81.3083,35.8025],[-81.3159,35.7969],[-81.3443,35.7951],[-81.3556,35.7803],[-81.3539,35.7689],[-81.3638,35.7678],[-81.4329,35.6778],[-81.5068,35.608],[-81.5375,35.5644]]]},"properties":{"name":"CD10","district_number":10,"fips":"37-10"}},{"type":"Feature","geometry":{"type":"Polygon","coordinates":[[[-84.3217,34.9892],[-83.62,34.9867],[-83.6201,34.992],[-83.1086,35.0007],[-82.7832,35.0859],[-82.7762,35.0812],[-82.7817,35.0653],[-82.7565,35.0674],[-82.7514,35.0815],[-82.7389,35.0781],[-82.7267,35.0947],[-82.7158,35.0929],[-82.7001,35.1009],[-82.6976,35.096],[-82.6868,35.108],[-82.6945,35.1162],[-82.6817,35.128],[-82.6749,35.1273],[-82.6736,35.1173],[-82.6557,35.1199],[-82.6519,35.1262],[-82.6449,35.127],[-82.6433,35.1338],[-82.6361,35.1255],[-82.6288,35.1258],[-82.6131,35.1397],[-82.5978,35.1377],[-82.5686,35.1455],[-82.5642,35.1524],[-82.5541,35.1526],[-82.5556,35.1595],[-82.5459,35.1642],[-82.5368,35.16],[-82.5359,35.1545],[-82.5274,35.1558],[-82.5042,35.1659],[-82.4955,35.162],[-82.4863,35.1742],[-82.4782,35.176],[-82.455,35.1769],[-82.4518,35.1726],[-82.4573,35.1639],[-82.4399,35.1657],[-82.4259,35.1794],[-82.4283,35.1838],[-82.4226,35.1959],[-82.4001,35.2052],[-82.3938,35.2152],[-82.3839,35.2108],[-82.3779,35.1958],[-82.3833,35.1913],[-82.3726,35.1808],[-82.3596,35.1925],[-82.3444,35.1937],[-82.3231,35.1852],[-82.3135,35.1911],[-82.3124,35.2215],[-82.2732,35.2318],[-82.2438,35.2661],[-82.2063,35.2883],[-82.1938,35.2932],[-82.1574,35.2831],[-82.1659,35.2936],[-82.1591,35.2961],[-82.1423,35.2849],[-82.1509,35.2808],[-82.1477,35.2776],[-82.1222,35.2819],[-82.106,35.2906],[-82.0755,35.2893],[-82.1058,35.3092],[-82.1128,35.3202],[-82.1041,35.3306],[-82.1056,35.3365],[-82.1115,35.3381],[-82.108,35.349],[-82.0895,35.3597],[-82.0975,35.3701],[-82.1052,35.3672],[-82.1077,35.3812],[-82.1278,35.3963],[-82.16,35.4094],[-82.1714,35.4095],[-82.1852,35.3966],[-82.2046,35.4036],[-82.209,35.3977],[-82.2205,35.3946],[-82.2391,35.4026],[-82.2605,35.3931],[-82.2702,35.4005],[-82.2685,35.4062],[-82.2758,35.4233],[-82.2734,35.4307],[-82.2801,35.445],[-82.2658,35.4678],[-82.2514,35.4607],[-82.2425,35.4678],[-82.2243,35.4983],[-82.2333,35.5096],[-82.2332,35.5194],[-82.169,35.5278],[-82.1505,35.518],[-82.0936,35.532],[-82.0398,35.5327],[-82.0221,35.5373],[-82.0028,35.5518],[-81.9676,35.526],[-81.9331,35.5361],[-81.9209,35.5337],[-81.905,35.5419],[-81.8425,35.5423],[-81.841,35.5541],[-81.8241,35.575],[-81.8694,35.7196],[-81.9869,35.8069],[-81.9735,35.8212],[-81.9569,35.8197],[-81.9397,35.8377],[-81.9205,35.8471],[-81.9067,35.8834],[-81.9093,35.8978],[-81.9143,35.9014],[-81.9103,35.9056],[-81.9149,35.9164],[-81.9206,35.9191],[-81.9285,35.9315],[-81.9257,35.9374],[-81.9432,35.96],[-81.8999,35.9999],[-81.8814,35.9929],[-81.8775,35.9812],[-81.8704,35.9764],[-81.8445,35.975],[-81.8326,35.9672],[-81.8176,35.9684],[-81.8072,35.962],[-81.7357,36.0676],[-81.7543,36.0731],[-81.7608,36.0898],[-81.7741,36.0986],[-81.8115,36.1115],[-81.8292,36.1688],[-81.8356,36.1685],[-81.8567,36.1936],[-81.8854,36.1895],[-81.9031,36.2073],[-81.9112,36.2295],[-81.9077,36.2386],[-81.897,36.2427],[-81.9039,36.2514],[-81.8967,36.2551],[-81.8935,36.2645],[-81.9001,36.2807],[-81.9076,36.2786],[-81.9181,36.2871],[-82.0338,36.1205],[-82.0541,36.1267],[-82.0619,36.1131],[-82.0811,36.1032],[-82.1054,36.1078],[-82.1292,36.1041],[-82.1486,36.1499],[-82.1772,36.1424],[-82.1876,36.151],[-82.1927,36.149],[-82.2132,36.1591],[-82.2221,36.1569],[-82.2451,36.1312],[-82.2543,36.1361],[-82.2668,36.127],[-82.2898,36.1356],[-82.3361,36.1147],[-82.3528,36.1165],[-82.4098,36.083],[-82.4606,36.0077],[-82.4816,35.998],[-82.5052,35.9775],[-82.5497,35.964],[-82.5579,35.9539],[-82.5762,35.9587],[-82.5805,35.9652],[-82.6107,35.9672],[-82.6044,35.9875],[-82.6129,35.9936],[-82.6149,36.002],[-82.5914,36.0356],[-82.6017,36.0361],[-82.6087,36.0444],[-82.6184,36.0469],[-82.618,36.0559],[-82.6326,36.0659],[-82.6706,36.053],[-82.6896,36.0382],[-82.7151,36.0286],[-82.7165,36.0224],[-82.7546,36.0043],[-82.7758,36.0011],[-82.7853,35.9885],[-82.7857,35.9778],[-82.7751,35.9718],[-82.785,35.9625],[-82.7876,35.952],[-82.8062,35.9378],[-82.8051,35.9271],[-82.8219,35.9218],[-82.8281,35.9324],[-82.846,35.9462],[-82.8743,35.9528],[-82.8982,35.9452],[-82.9018,35.927],[-82.9198,35.9289],[-82.9135,35.9243],[-82.9144,35.9152],[-82.908,35.9113],[-82.901,35.8928],[-82.9068,35.8839],[-82.8962,35.8792],[-82.9066,35.8702],[-82.9208,35.8682],[-82.921,35.8509],[-82.9163,35.8417],[-82.9341,35.8367],[-82.936,35.8255],[-82.9458,35.8244],[-82.9618,35.8004],[-82.9618,35.791],[-82.9921,35.7739],[-83.036,35.7875],[-83.0743,35.7901],[-83.1206,35.7664],[-83.1596,35.7647],[-83.1859,35.7301],[-83.2142,35.7241],[-83.2408,35.7269],[-83.2515,35.7198],[-83.2554,35.7152],[-83.2516,35.709],[-83.2574,35.7051],[-83.2543,35.6954],[-83.2707,35.6868],[-83.2745,35.6791],[-83.2903,35.6735],[-83.2982,35.6573],[-83.3121,35.6546],[-83.3216,35.6631],[-83.3347,35.6657],[-83.3508,35.6605],[-83.3678,35.6378],[-83.3887,35.6336],[-83.3961,35.6229],[-83.422,35.611],[-83.4457,35.6117],[-83.4566,35.5972],[-83.4791,35.5832],[-83.4854,35.5685],[-83.4985,35.5629],[-83.565,35.5661],[-83.5844,35.5627],[-83.5961,35.575],[-83.6083,35.58],[-83.6186,35.5723],[-83.6401,35.5662],[-83.6956,35.5703],[-83.7228,35.5623],[-83.7361,35.5655],[-83.7472,35.5603],[-83.755,35.5646],[-83.7719,35.5614],[-83.7802,35.5506],[-83.8028,35.5415],[-83.8205,35.5257],[-83.8491,35.5186],[-83.8803,35.5188],[-83.9015,35.4966],[-83.9119,35.4761],[-83.9367,35.4716],[-83.9496,35.4609],[-83.9611,35.4641],[-83.9646,35.4541],[-83.9719,35.4548],[-83.9727,35.4473],[-83.9798,35.4483],[-83.9844,35.4401],[-83.992,35.4405],[-83.9996,35.4339],[-84.0013,35.4234],[-84.0144,35.4123],[-84.0234,35.4116],[-84.0082,35.3906],[-84.0114,35.3846],[-84.0074,35.3716],[-84.0233,35.3543],[-84.0389,35.3482],[-84.034,35.3433],[-84.0362,35.3377],[-84.0293,35.3331],[-84.0359,35.3132],[-84.0214,35.3014],[-84.0525,35.2702],[-84.0809,35.2613],[-84.0975,35.2476],[-84.1199,35.252],[-84.1252,35.2499],[-84.1271,35.2408],[-84.1478,35.2469],[-84.1615,35.2435],[-84.17,35.2465],[-84.1835,35.24],[-84.1995,35.2439],[-84.2114,35.2656],[-84.2241,35.269],[-84.2902,35.2254],[-84.3217,34.9892]]]},"properties":{"name":"CD11","district_number":11,"fips":"37-11"}},{"type":"Feature","geometry":{"type":"Polygon","coordinates":[[[-80.9865,35.3016],[-80.9693,35.291],[-80.9705,35.2861],[-80.9569,35.2744],[-80.9659,35.2679],[-80.9612,35.2555],[-80.9659,35.2567],[-80.9746,35.2403],[-80.9593,35.2376],[-80.9593,35.2329],[-80.9462,35.2286],[-80.9551,35.232],[-80.9613,35.2238],[-80.9582,35.2117],[-80.9624,35.201],[-80.958,35.1896],[-80.9333,35.1939],[-80.9212,35.1637],[-80.9544,35.1705],[-80.9509,35.1572],[-80.9608,35.1514],[-80.9619,35.1384],[-80.9568,35.1325],[-80.9381,35.1288],[-80.9315,35.1182],[-80.9155,35.1113],[-80.9027,35.1218],[-80.8929,35.1228],[-80.8959,35.1094],[-80.8774,35.0983],[-80.8868,35.0854],[-80.8765,35.06],[-80.8703,35.0608],[-80.8703,35.0664],[-80.8636,35.0603],[-80.8582,35.0654],[-80.821,35.0636],[-80.8234,35.0757],[-80.817,35.0763],[-80.8119,35.0875],[-80.8287,35.0828],[-80.8539,35.0898],[-80.844,35.1079],[-80.8316,35.1103],[-80.8287,35.1172],[-80.8241,35.1155],[-80.8076,35.1334],[-80.8024,35.118],[-80.792,35.1198],[-80.7681,35.1374],[-80.7552,35.128],[-80.7559,35.1181],[-80.7629,35.1215],[-80.7794,35.1174],[-80.7787,35.1],[-80.7373,35.1193],[-80.746,35.128],[-80.7365,35.1251],[-80.735,35.1313],[-80.7286,35.1223],[-80.7098,35.1225],[-80.7054,35.1259],[-80.7225,35.1451],[-80.7161,35.148],[-80.7203,35.1548],[-80.7176,35.162],[-80.7068,35.1733],[-80.6979,35.1609],[-80.6719,35.1747],[-80.7049,35.1929],[-80.6924,35.2021],[-80.683,35.1999],[-80.6864,35.2032],[-80.6818,35.2067],[-80.6714,35.2048],[-80.6433,35.2225],[-80.617,35.2246],[-80.5997,35.2341],[-80.6665,35.2679],[-80.6931,35.3464],[-80.7444,35.3807],[-80.7643,35.4002],[-80.8197,35.3639],[-80.8323,35.3703],[-80.8566,35.3667],[-80.8841,35.347],[-80.9049,35.3448],[-80.9143,35.3359],[-80.9363,35.3342],[-80.9565,35.3175],[-80.9865,35.3016]]]},"properties":{"name":"CD12","district_number":12,"fips":"37-12"}},{"type":"Feature","geometry":{"type":"Polygon","coordinates":[[[-79.5319,36.2497],[-78.8023,36.2358],[-78.8031,36.0896],[-78.8076,36.0875],[-78.7926,36.086],[-78.7931,36.0777],[-78.7849,36.0767],[-78.7881,36.0729],[-78.7838,36.07],[-78.7513,36.0708],[-78.7536,36.0314],[-78.7402,36.0236],[-78.72,36.0296],[-78.7074,36.0111],[-78.6917,36.0134],[-78.6852,36.0208],[-78.6835,36.0128],[-78.6655,36.0106],[-78.6673,36.0032],[-78.6595,35.9936],[-78.6563,35.9748],[-78.6417,35.954],[-78.6522,35.9009],[-78.6272,35.8915],[-78.6113,35.8966],[-78.5798,35.9328],[-78.5799,35.9427],[-78.5636,35.96],[-78.5607,35.9756],[-78.5144,35.9801],[-78.4919,35.9698],[-78.4693,35.9666],[-78.4593,35.9756],[-78.453,35.9665],[-78.4574,35.9233],[-78.4796,35.9075],[-78.475,35.8797],[-78.4497,35.8787],[-78.4501,35.87],[-78.4456,35.8659],[-78.389,35.8504],[-78.3663,35.8369],[-78.36,35.8375],[-78.3547,35.8305],[-78.3425,35.8351],[-78.3037,35.8355],[-78.2907,35.83],[-78.3017,35.8278],[-78.3004,35.8245],[-78.2875,35.8235],[-78.2932,35.8166],[-78.3085,35.815],[-78.3041,35.7972],[-78.3081,35.7966],[-78.3138,35.8071],[-78.3245,35.7838],[-78.3584,35.7728],[-78.3518,35.7642],[-78.3669,35.7602],[-78.3751,35.7646],[-78.3908,35.7534],[-78.3931,35.7577],[-78.4293,35.7525],[-78.4234,35.7296],[-78.4552,35.7327],[-78.4549,35.7248],[-78.4638,35.7268],[-78.4806,35.6988],[-78.5028,35.7027],[-78.5275,35.6991],[-78.5213,35.6763],[-78.5357,35.6738],[-78.5348,35.6824],[-78.5503,35.6876],[-78.5505,35.6825],[-78.5423,35.6804],[-78.5426,35.6742],[-78.5486,35.6717],[-78.5468,35.6616],[-78.5638,35.6657],[-78.5657,35.6448],[-78.5982,35.6601],[-78.6092,35.6519],[-78.6072,35.6588],[-78.6312,35.6731],[-78.6364,35.6691],[-78.6491,35.6812],[-78.6763,35.6823],[-78.6843,35.6943],[-78.7093,35.6922],[-78.7398,35.716],[-78.752,35.7191],[-78.7826,35.6877],[-78.7779,35.6634],[-78.7944,35.6625],[-78.7985,35.6672],[-78.8092,35.6574],[-78.824,35.6548],[-78.8177,35.6475],[-78.8021,35.6424],[-78.8108,35.6228],[-78.8174,35.6215],[-78.7967,35.595],[-78.7846,35.5918],[-78.7974,35.5911],[-78.7998,35.5843],[-78.7864,35.5671],[-78.7874,35.5596],[-78.7765,35.5405],[-78.9147,35.5837],[-78.9696,35.5217],[-78.9908,35.5402],[-79.024,35.5484],[-79.0459,35.5687],[-79.0523,35.5959],[-79.0691,35.6093],[-79.1188,35.6283],[-79.1425,35.6227],[-79.1579,35.6036],[-79.1861,35.5803],[-79.2009,35.5767],[-79.1999,35.5586],[-79.2245,35.5508],[-79.2193,35.5665],[-79.2437,35.5699],[-79.2452,35.553],[-79.2684,35.5325],[-79.2763,35.532],[-79.2909,35.5404],[-79.2906,35.5459],[-79.2821,35.5516],[-79.2849,35.5551],[-79.3236,35.5441],[-79.311,35.5318],[-79.3224,35.5245],[-79.3341,35.5253],[-79.3496,35.5188],[-79.3512,35.5143],[-79.3359,35.4978],[-79.3515,35.4777],[-79.3598,35.4777],[-79.3566,35.4733],[-79.3598,35.4697],[-79.3483,35.4634],[-79.3505,35.4579],[-79.3289,35.4392],[-79.3297,35.4234],[-79.3174,35.4199],[-79.3045,35.4048],[-79.2896,35.4004],[-79.2719,35.3623],[-79.273,35.3519],[-79.1836,35.3072],[-79.223,35.2681],[-79.1935,35.2501],[-79.1651,35.2409],[-79.1539,35.2292],[-79.1513,35.2137],[-79.0958,35.1921],[-78.998,35.2141],[-78.9355,35.2187],[-78.9247,35.2239],[-78.9202,35.2203],[-78.898,35.2312],[-78.8804,35.2304],[-78.874,35.236],[-78.8761,35.2415],[-78.8597,35.2426],[-78.8472,35.253],[-78.8347,35.2524],[-78.8194,35.2605],[-78.8059,35.2566],[-78.7943,35.2661],[-78.7659,35.2582],[-78.76,35.2639],[-78.754,35.2597],[-78.7256,35.2669],[-78.712,35.2576],[-78.6171,35.2457],[-78.5846,35.2733],[-78.5835,35.2968],[-78.5761,35.296],[-78.5383,35.3164],[-78.4919,35.2633],[-78.4117,35.2547],[-78.3977,35.263],[-78.3066,35.2876],[-78.2897,35.3151],[-78.276,35.3151],[-78.2684,35.3231],[-78.2569,35.3256],[-78.2426,35.3198],[-78.2157,35.3335],[-78.2155,35.3415],[-78.1973,35.3401],[-78.1963,35.3436],[-78.1532,35.3507],[-78.1537,35.3564],[-78.1601,35.3566],[-78.1577,35.3601],[-78.1624,35.3674],[-78.1442,35.3869],[-78.1537,35.392],[-78.1549,35.4178],[-78.0648,35.5853],[-78.1256,35.6031],[-78.1578,35.6856],[-78.1613,35.7129],[-78.175,35.7176],[-78.1823,35.7289],[-78.2094,35.7306],[-78.2156,35.736],[-78.213,35.7448],[-78.2191,35.7551],[-78.2329,35.7514],[-78.2383,35.7673],[-78.2508,35.7735],[-78.2439,35.7921],[-78.2504,35.7969],[-78.2514,35.8112],[-78.2572,35.8135],[-78.1822,35.9388],[-78.0066,36.2026],[-78.0162,36.2078],[-78.0223,36.2054],[-78.0305,36.2145],[-78.0354,36.207],[-78.0445,36.2154],[-78.0582,36.211],[-78.0662,36.2165],[-78.0916,36.2077],[-78.1101,36.2102],[-78.1106,36.2161],[-78.1257,36.2263],[-78.125,36.2352],[-78.1327,36.2463],[-78.157,36.2444],[-78.1732,36.2555],[-78.1939,36.2468],[-78.1984,36.2516],[-78.2248,36.2565],[-78.307,36.2662],[-78.3381,36.2344],[-78.3781,36.2351],[-78.4121,36.1696],[-78.422,36.1681],[-78.4215,36.1644],[-78.4499,36.1691],[-78.4579,36.1637],[-78.4661,36.1723],[-78.4856,36.1751],[-78.4845,36.179],[-78.4925,36.184],[-78.4959,36.1752],[-78.5024,36.1779],[-78.5083,36.1829],[-78.5092,36.2657],[-78.5446,36.269],[-78.5574,36.2622],[-78.5721,36.2738],[-78.5733,36.292],[-78.5894,36.2981],[-78.6053,36.2926],[-78.6018,36.2985],[-78.6115,36.3089],[-78.6066,36.3099],[-78.6143,36.3127],[-78.6058,36.3177],[-78.6051,36.3234],[-78.6098,36.3246],[-78.5978,36.3289],[-78.59,36.3446],[-78.5908,36.3617],[-78.5561,36.3524],[-78.5488,36.3684],[-78.5387,36.3691],[-78.541,36.3762],[-78.5273,36.371],[-78.5214,36.3764],[-78.5104,36.376],[-78.5112,36.4548],[-78.5009,36.487],[-78.5042,36.4952],[-78.4949,36.5082],[-78.4978,36.5146],[-78.4666,36.524],[-78.4673,36.5319],[-78.4559,36.5334],[-78.4536,36.5405],[-79.5136,36.5409],[-79.5319,36.2497]]]},"properties":{"name":"CD13","district_number":13,"fips":"37-13"}},{"type":"Feature","geometry":{"type":"Polygon","coordinates":[[[-82.3135,35.1911],[-82.2942,35.1954],[-82.2911,35.2001],[-81.0343,35.1493],[-81.0463,35.1467],[-81.0521,35.1335],[-81.038,35.1245],[-81.0329,35.1074],[-81.0504,35.0984],[-81.0571,35.0857],[-81.0577,35.0619],[-81.0415,35.0447],[-80.9347,35.1073],[-80.8403,35.0017],[-80.8045,35.0277],[-80.8002,35.0392],[-80.8082,35.0426],[-80.7992,35.0425],[-80.8019,35.0504],[-80.7878,35.0629],[-80.7943,35.069],[-80.7912,35.0871],[-80.7974,35.0904],[-80.7964,35.0854],[-80.8043,35.0789],[-80.8223,35.0769],[-80.821,35.0636],[-80.8582,35.0654],[-80.8636,35.0603],[-80.8703,35.0664],[-80.8703,35.0608],[-80.8765,35.06],[-80.8868,35.0854],[-80.8774,35.0983],[-80.8959,35.1094],[-80.8929,35.1228],[-80.9027,35.1218],[-80.9155,35.1113],[-80.9315,35.1182],[-80.9384,35.129],[-80.9578,35.1332],[-80.9617,35.1456],[-80.96,35.1523],[-80.9509,35.1572],[-80.9544,35.1705],[-80.9212,35.1637],[-80.9333,35.1939],[-80.958,35.1896],[-80.9624,35.201],[-80.9582,35.2117],[-80.9613,35.2238],[-80.9551,35.232],[-80.9462,35.2286],[-80.9593,35.2329],[-80.9593,35.2376],[-80.9746,35.2403],[-80.9659,35.2567],[-80.9612,35.2555],[-80.9659,35.2679],[-80.9569,35.2744],[-80.9705,35.2861],[-80.9693,35.291],[-80.9869,35.301],[-80.9363,35.3342],[-80.9143,35.3359],[-80.9049,35.3448],[-80.8841,35.347],[-80.8566,35.3667],[-80.8323,35.3703],[-80.8197,35.3639],[-80.7643,35.4002],[-80.7635,35.4121],[-80.7522,35.4141],[-80.7868,35.4931],[-80.7842,35.506],[-80.9067,35.5148],[-80.9473,35.4885],[-80.9453,35.4836],[-80.9517,35.4682],[-80.9424,35.4551],[-80.9586,35.4329],[-80.9549,35.4001],[-81.4556,35.4198],[-81.513,35.5233],[-81.5092,35.5504],[-81.5154,35.5583],[-81.5376,35.5642],[-81.5068,35.608],[-81.4329,35.6778],[-81.3638,35.7678],[-81.3712,35.7664],[-81.3775,35.7575],[-81.3986,35.7584],[-81.4265,35.772],[-81.4415,35.7739],[-81.4464,35.7853],[-81.556,35.7775],[-81.6008,35.8251],[-81.6104,35.8196],[-81.6301,35.8304],[-81.6261,35.8335],[-81.6322,35.8358],[-81.6392,35.8483],[-81.7102,35.8752],[-81.7446,35.9087],[-81.7525,35.9244],[-81.7587,35.9285],[-81.7762,35.9271],[-81.7775,35.9474],[-81.7996,35.9504],[-81.8174,35.9684],[-81.8322,35.9671],[-81.8445,35.975],[-81.8732,35.9776],[-81.8814,35.9929],[-81.8999,35.9999],[-81.9432,35.96],[-81.9257,35.9374],[-81.9283,35.931],[-81.9103,35.9056],[-81.9143,35.9014],[-81.9093,35.8978],[-81.9066,35.8836],[-81.9181,35.8602],[-81.9176,35.8517],[-81.925,35.8431],[-81.9414,35.8363],[-81.9514,35.8231],[-81.9579,35.8193],[-81.9735,35.8212],[-81.9869,35.8069],[-81.8694,35.7196],[-81.8241,35.575],[-81.841,35.5541],[-81.8425,35.5423],[-81.905,35.5419],[-81.9209,35.5337],[-81.9331,35.5361],[-81.9676,35.526],[-82.0028,35.5518],[-82.0221,35.5373],[-82.0398,35.5327],[-82.0936,35.532],[-82.1505,35.518],[-82.169,35.5278],[-82.2332,35.5194],[-82.2333,35.5096],[-82.2243,35.4983],[-82.2425,35.4678],[-82.2514,35.4607],[-82.2658,35.4678],[-82.2801,35.445],[-82.2734,35.4307],[-82.2758,35.4233],[-82.2685,35.4062],[-82.2702,35.4005],[-82.2605,35.3931],[-82.2391,35.4026],[-82.2205,35.3946],[-82.209,35.3977],[-82.2046,35.4036],[-82.1852,35.3966],[-82.1714,35.4095],[-82.16,35.4094],[-82.1278,35.3963],[-82.1077,35.3812],[-82.1052,35.3672],[-82.0975,35.3701],[-82.0895,35.3597],[-82.108,35.349],[-82.1115,35.3381],[-82.1056,35.3365],[-82.1041,35.3306],[-82.1128,35.3202],[-82.1058,35.3092],[-82.0755,35.2893],[-82.106,35.2906],[-82.1222,35.2819],[-82.1477,35.2776],[-82.1509,35.2808],[-82.1423,35.2849],[-82.1591,35.2961],[-82.1659,35.2936],[-82.1574,35.2831],[-82.1938,35.2932],[-82.2063,35.2883],[-82.2438,35.2661],[-82.2732,35.2318],[-82.3124,35.2215],[-82.3135,35.1911]]]},"properties":{"name":"CD14","district_number":14,"fips":"37-14"}}],"source":"U.S. Census Bureau TIGERweb, 120th Congressional Districts (January 1, 2026 vintage)"}