{"type":"FeatureCollection","features":[{"type":"Feature","id":"38001","properties":{"name":"Adams","fips":"38001"},"geometry":{"type":"Polygon","coordinates":[[[-101.9986,45.9446],[-101.9987,45.9446],[-102.0004,45.9446],[-102.0007,45.9445],[-102.0007,45.9445],[-102.0609,45.9446],[-102.0851,45.9446],[-102.0876,45.9446],[-102.1246,45.9448],[-102.1254,45.9447],[-102.1353,45.9446],[-102.1454,45.9447],[-102.1564,45.9447],[-102.158,45.9446],[-102.1594,45.9446],[-102.1767,45.9446],[-102.177,45.9446],[-102.2179,45.9447],[-102.3282,45.9448],[-102.3534,45.945],[-102.3543,45.9449],[-102.3927,45.945],[-102.3928,45.945],[-102.3964,45.9449],[-102.3986,45.9449],[-102.4062,45.945],[-102.4103,45.9451],[-102.4202,45.9451],[-102.4254,45.945],[-102.4254,45.945],[-102.4464,45.9451],[-102.4596,45.9451],[-102.4676,45.9452],[-102.476,45.9452],[-102.5509,45.945],[-102.5586,45.9451],[-102.6426,45.9454],[-102.6516,45.9455],[-102.6667,45.9453],[-102.6725,45.9452],[-102.6741,45.9453],[-102.7049,45.9451],[-102.8803,45.9451],[-102.9205,45.945],[-102.9421,45.9451],[-102.9899,45.9452],[-102.9953,45.9452],[-102.9957,45.9452],[-102.9955,46.2807],[-102.9699,46.2811],[-102.9245,46.2815],[-102.4974,46.2832],[-102.4975,46.2061],[-101.9979,46.2055],[-101.9986,46.0535],[-101.9986,45.9446]]]}},{"type":"Feature","id":"38003","properties":{"name":"Barnes","fips":"38003"},"geometry":{"type":"Polygon","coordinates":[[[-98.0339,46.6307],[-98.4391,46.6311],[-98.4395,46.9797],[-98.4675,46.9796],[-98.4675,47.2405],[-97.9612,47.2405],[-97.706,47.24],[-97.706,46.9786],[-97.6815,46.9785],[-97.682,46.6299],[-98.0339,46.6307]]]}},{"type":"Feature","id":"38005","properties":{"name":"Benson","fips":"38005"},"geometry":{"type":"Polygon","coordinates":[[[-99.2003,48.3707],[-99.1999,48.1553],[-99.0704,48.1079],[-99.0704,48.022],[-99.001,48.0533],[-98.9913,47.9903],[-98.8039,48.0599],[-98.7506,47.9825],[-98.6721,48.0004],[-98.6254,47.9164],[-98.5256,47.9151],[-98.5255,47.8463],[-99.2972,47.8468],[-99.8122,47.8473],[-99.8121,48.0215],[-99.8482,48.0214],[-99.8466,48.3713],[-99.4929,48.3709],[-99.2003,48.3707]]]}},{"type":"Feature","id":"38007","properties":{"name":"Billings","fips":"38007"},"geometry":{"type":"Polygon","coordinates":[[[-103.6092,46.6298],[-103.6095,46.9799],[-103.667,46.9798],[-103.6667,47.3294],[-103.0992,47.3287],[-103.0326,47.3287],[-103.0327,46.9806],[-103.231,46.9803],[-103.2316,46.6299],[-103.6092,46.6298]]]}},{"type":"Feature","id":"38009","properties":{"name":"Bottineau","fips":"38009"},"geometry":{"type":"Polygon","coordinates":[[[-101.0597,48.5453],[-101.4513,48.5461],[-101.4512,48.72],[-101.4967,48.7201],[-101.4967,48.9994],[-101.2259,48.9995],[-101.2252,48.9996],[-101.2208,48.9995],[-101.2162,48.9995],[-100.9206,48.9996],[-100.9179,48.9996],[-100.9136,48.9997],[-100.9071,48.9996],[-100.434,48.9994],[-100.4344,48.9996],[-100.4316,48.9996],[-100.4317,48.9994],[-100.1827,48.9992],[-100.183,48.7189],[-100.1455,48.7189],[-100.1459,48.5452],[-100.2767,48.5448],[-100.4064,48.5447],[-100.4068,48.6319],[-101.0596,48.6324],[-101.0597,48.5453]]]}},{"type":"Feature","id":"38011","properties":{"name":"Bowman","fips":"38011"},"geometry":{"type":"Polygon","coordinates":[[[-102.9957,45.9452],[-103.0261,45.9453],[-103.0478,45.9453],[-103.0785,45.9453],[-103.0979,45.9453],[-103.1409,45.9453],[-103.1613,45.9453],[-103.2106,45.9452],[-103.2184,45.9452],[-103.2841,45.9451],[-103.2841,45.9452],[-103.4113,45.9453],[-103.418,45.9452],[-103.4324,45.9453],[-103.4349,45.9453],[-103.5587,45.9451],[-103.5771,45.9453],[-103.6608,45.9452],[-103.6608,45.9452],[-103.6685,45.9452],[-104.0454,45.9453],[-104.0467,46.0],[-104.0456,46.2802],[-102.9955,46.2807],[-102.9957,45.9452]]]}},{"type":"Feature","id":"38013","properties":{"name":"Burke","fips":"38013"},"geometry":{"type":"Polygon","coordinates":[[[-102.9388,48.999],[-102.217,48.9986],[-102.2113,48.9986],[-102.1518,48.9988],[-102.1316,48.9988],[-102.0211,48.999],[-102.0217,48.8071],[-102.1522,48.8072],[-102.1525,48.7203],[-102.2336,48.7203],[-102.2339,48.5463],[-102.8858,48.5464],[-102.8858,48.5606],[-102.886,48.5612],[-102.8858,48.6333],[-102.9399,48.7205],[-102.9388,48.999]]]}},{"type":"Feature","id":"38015","properties":{"name":"Burleigh","fips":"38015"},"geometry":{"type":"Polygon","coordinates":[[[-100.936,46.9828],[-100.8822,47.0151],[-100.9652,47.1566],[-100.7494,47.1572],[-100.7493,47.3277],[-100.6734,47.3277],[-100.6696,47.3274],[-100.1133,47.3273],[-100.1146,46.9817],[-100.0752,46.9813],[-100.0812,46.6334],[-100.6619,46.6345],[-100.8394,46.7638],[-100.8191,46.7924],[-100.936,46.9828]]]}},{"type":"Feature","id":"38017","properties":{"name":"Cass","fips":"38017"},"geometry":{"type":"Polygon","coordinates":[[[-96.8329,47.2376],[-96.8267,47.1505],[-96.8248,47.125],[-96.8232,47.0],[-96.8246,46.9933],[-96.8232,46.9709],[-96.7916,46.9343],[-96.7803,46.9283],[-96.7675,46.9052],[-96.802,46.8125],[-96.7842,46.6868],[-96.783,46.6306],[-97.2799,46.6293],[-97.682,46.6299],[-97.6815,46.9785],[-97.706,46.9786],[-97.706,47.24],[-97.4515,47.2391],[-96.833,47.2381],[-96.8329,47.2376]]]}},{"type":"Feature","id":"38019","properties":{"name":"Cavalier","fips":"38019"},"geometry":{"type":"Polygon","coordinates":[[[-98.9998,48.9998],[-97.9502,49.0005],[-97.9496,48.7177],[-97.9272,48.5431],[-98.3181,48.5438],[-98.9704,48.5442],[-98.9704,48.7181],[-98.9999,48.7181],[-98.9998,48.9998]]]}},{"type":"Feature","id":"38021","properties":{"name":"Dickey","fips":"38021"},"geometry":{"type":"Polygon","coordinates":[[[-98.0081,45.9361],[-98.0082,45.9361],[-98.0705,45.9362],[-98.1846,45.9362],[-98.1856,45.9362],[-98.7244,45.9387],[-98.9044,45.9395],[-98.9055,45.9395],[-99.0056,45.9399],[-99.0058,45.9399],[-99.0031,46.2829],[-98.0346,46.2828],[-98.0298,46.2826],[-98.0067,46.2826],[-98.0081,45.9361]]]}},{"type":"Feature","id":"38023","properties":{"name":"Divide","fips":"38023"},"geometry":{"type":"Polygon","coordinates":[[[-102.8858,48.6333],[-104.0476,48.634],[-104.0476,48.634],[-104.0478,48.6486],[-104.0479,48.6499],[-104.0479,48.6574],[-104.0479,48.6589],[-104.0478,48.6632],[-104.0479,48.6642],[-104.0483,48.7471],[-104.0485,48.7514],[-104.0485,48.7886],[-104.0486,48.7971],[-104.0489,48.8474],[-104.0487,48.8657],[-104.0488,48.8675],[-104.0489,48.874],[-104.0489,48.8757],[-104.0487,48.8799],[-104.0486,48.9026],[-104.0487,48.9069],[-104.0487,48.9121],[-104.0488,48.9336],[-104.0487,48.9403],[-104.0488,48.9433],[-104.0489,48.9496],[-104.0487,48.9518],[-104.0486,48.9571],[-104.0488,48.959],[-104.0486,48.9638],[-104.0486,48.9667],[-104.0485,48.987],[-104.0487,48.9999],[-103.9925,48.9996],[-103.9889,48.9996],[-103.9838,48.9996],[-103.9824,48.9996],[-103.9809,48.9996],[-103.9765,48.9996],[-103.9695,48.9995],[-103.9686,48.9995],[-103.9233,48.9996],[-103.922,48.9996],[-103.9189,48.9996],[-103.9174,48.9996],[-103.8769,48.9995],[-103.8653,48.9996],[-103.8627,48.9996],[-103.8584,48.9996],[-103.8561,48.9996],[-103.8523,48.9996],[-102.9388,48.999],[-102.9399,48.7205],[-102.8858,48.6333]]]}},{"type":"Feature","id":"38025","properties":{"name":"Dunn","fips":"38025"},"geometry":{"type":"Polygon","coordinates":[[[-103.0992,47.3287],[-103.0999,47.6744],[-102.6428,47.6739],[-102.6423,47.8237],[-102.562,47.7801],[-102.3858,47.758],[-102.261,47.7814],[-102.2655,47.6243],[-102.2053,47.5745],[-102.2056,47.3281],[-102.1445,47.3281],[-102.1448,47.0103],[-102.5255,47.0102],[-102.5255,46.9813],[-103.0327,46.9806],[-103.0326,47.3287],[-103.0992,47.3287]]]}},{"type":"Feature","id":"38027","properties":{"name":"Eddy","fips":"38027"},"geometry":{"type":"Polygon","coordinates":[[[-99.2658,47.5876],[-99.2973,47.673],[-99.2972,47.8468],[-98.5255,47.8463],[-98.5002,47.6724],[-98.5001,47.5872],[-99.2658,47.5876]]]}},{"type":"Feature","id":"38029","properties":{"name":"Emmons","fips":"38029"},"geometry":{"type":"Polygon","coordinates":[[[-99.8801,45.9417],[-99.8803,45.9417],[-99.9658,45.9418],[-100.0055,45.9419],[-100.069,45.9422],[-100.0842,45.9423],[-100.1085,45.9424],[-100.1103,45.9424],[-100.1417,45.9425],[-100.1521,45.9425],[-100.1708,45.9425],[-100.2748,45.9429],[-100.2756,45.9429],[-100.2841,45.943],[-100.2853,45.9431],[-100.2941,45.9433],[-100.4104,45.9435],[-100.4202,45.9435],[-100.4244,45.9436],[-100.4306,45.9436],[-100.4628,45.9436],[-100.4994,45.9436],[-100.5118,45.9437],[-100.5119,45.9437],[-100.6145,46.0718],[-100.6291,46.1456],[-100.5585,46.25],[-100.5512,46.3635],[-100.5902,46.4279],[-100.5446,46.5338],[-100.6619,46.6345],[-100.0812,46.6334],[-99.9155,46.6329],[-99.9168,46.2832],[-99.8784,46.2828],[-99.8801,45.9417]]]}},{"type":"Feature","id":"38031","properties":{"name":"Foster","fips":"38031"},"geometry":{"type":"Polygon","coordinates":[[[-99.2658,47.5876],[-98.5001,47.5872],[-98.4992,47.3265],[-99.2504,47.3269],[-99.2663,47.3272],[-99.2658,47.5876]]]}},{"type":"Feature","id":"38033","properties":{"name":"Golden Valley","fips":"38033"},"geometry":{"type":"Polygon","coordinates":[[[-104.0453,46.5409],[-104.0453,46.6414],[-104.0453,46.6414],[-104.0455,46.7087],[-104.0456,46.7139],[-104.0454,46.7213],[-104.0454,46.7222],[-104.0454,46.7254],[-104.0455,46.9339],[-104.0455,46.934],[-104.0456,46.9412],[-104.0451,47.0376],[-104.0451,47.0409],[-104.0452,47.0536],[-104.0452,47.0575],[-104.0453,47.0639],[-104.0454,47.0786],[-104.045,47.0812],[-104.0451,47.0928],[-104.0452,47.2639],[-104.0451,47.266],[-104.0451,47.2669],[-104.0451,47.2714],[-104.0452,47.2739],[-104.0451,47.277],[-104.0453,47.3301],[-103.6667,47.3294],[-103.667,46.9798],[-103.6095,46.9799],[-103.6092,46.6298],[-103.8008,46.6296],[-103.8009,46.5407],[-104.0453,46.5409]]]}},{"type":"Feature","id":"38035","properties":{"name":"Grand Forks","fips":"38035"},"geometry":{"type":"Polygon","coordinates":[[[-97.9034,48.1949],[-97.1474,48.1938],[-97.1475,48.1732],[-97.1475,48.1706],[-97.1231,48.1095],[-97.0983,48.0713],[-97.0882,48.0595],[-97.0232,47.874],[-97.0004,47.8609],[-96.9804,47.8157],[-96.8907,47.6722],[-97.4727,47.6721],[-97.8824,47.6722],[-97.8822,48.0208],[-97.9034,48.1949]]]}},{"type":"Feature","id":"38037","properties":{"name":"Grant","fips":"38037"},"geometry":{"type":"Polygon","coordinates":[[[-101.0257,46.2842],[-101.1981,46.1838],[-101.1904,46.1478],[-101.5542,46.0068],[-101.8421,46.0291],[-101.8494,46.0733],[-101.9986,46.0535],[-101.9979,46.2055],[-102.0469,46.2836],[-102.051,46.6309],[-102.0966,46.631],[-102.0964,46.6889],[-102.0962,46.7177],[-101.7182,46.718],[-101.7181,46.631],[-101.2991,46.6303],[-101.299,46.3715],[-101.0485,46.3714],[-101.0257,46.2842]]]}},{"type":"Feature","id":"38039","properties":{"name":"Griggs","fips":"38039"},"geometry":{"type":"Polygon","coordinates":[[[-98.5001,47.5872],[-98.5002,47.6724],[-97.9848,47.6723],[-97.9866,47.3261],[-97.9612,47.2405],[-98.4675,47.2405],[-98.4673,47.3265],[-98.4992,47.3265],[-98.5001,47.5872]]]}},{"type":"Feature","id":"38041","properties":{"name":"Hettinger","fips":"38041"},"geometry":{"type":"Polygon","coordinates":[[[-102.928,46.6301],[-102.0966,46.631],[-102.051,46.6309],[-102.0469,46.2836],[-101.9979,46.2055],[-102.4975,46.2061],[-102.4974,46.2832],[-102.9245,46.2815],[-102.9245,46.2826],[-102.928,46.6301]]]}},{"type":"Feature","id":"38043","properties":{"name":"Kidder","fips":"38043"},"geometry":{"type":"Polygon","coordinates":[[[-99.9155,46.6329],[-100.0812,46.6334],[-100.0752,46.9813],[-100.1146,46.9817],[-100.1133,47.3273],[-100.0947,47.3273],[-100.0935,47.3271],[-100.0361,47.3273],[-100.0333,47.3272],[-99.4807,47.3271],[-99.4811,46.9807],[-99.4464,46.9809],[-99.4497,46.6316],[-99.9155,46.6329]]]}},{"type":"Feature","id":"38045","properties":{"name":"LaMoure","fips":"38045"},"geometry":{"type":"Polygon","coordinates":[[[-98.0346,46.2828],[-99.0031,46.2829],[-99.0374,46.2832],[-99.0366,46.6306],[-98.4391,46.6311],[-98.0339,46.6307],[-98.0346,46.2828]]]}},{"type":"Feature","id":"38047","properties":{"name":"Logan","fips":"38047"},"geometry":{"type":"Polygon","coordinates":[[[-99.4497,46.6316],[-99.0366,46.6306],[-99.0374,46.2832],[-99.8784,46.2828],[-99.9168,46.2832],[-99.9155,46.6329],[-99.4497,46.6316]]]}},{"type":"Feature","id":"38049","properties":{"name":"McHenry","fips":"38049"},"geometry":{"type":"Polygon","coordinates":[[[-100.9713,47.8487],[-100.9705,48.0226],[-101.015,48.0227],[-101.0141,48.3714],[-101.0598,48.4584],[-101.06,48.4586],[-101.0597,48.5453],[-101.0596,48.6324],[-100.4068,48.6319],[-100.4064,48.5447],[-100.2767,48.5448],[-100.2764,48.3713],[-100.2373,48.3712],[-100.2371,48.0219],[-100.1976,48.0219],[-100.198,47.8476],[-100.5852,47.8475],[-100.9713,47.8487]]]}},{"type":"Feature","id":"38051","properties":{"name":"McIntosh","fips":"38051"},"geometry":{"type":"Polygon","coordinates":[[[-99.7181,45.9409],[-99.7181,45.9409],[-99.7479,45.9409],[-99.7493,45.9409],[-99.7495,45.941],[-99.7504,45.9409],[-99.8387,45.9413],[-99.8801,45.9417],[-99.8784,46.2828],[-99.0374,46.2832],[-99.0031,46.2829],[-99.0058,45.9399],[-99.0929,45.9402],[-99.1024,45.9402],[-99.2126,45.9401],[-99.2136,45.9401],[-99.2217,45.9401],[-99.2223,45.9401],[-99.2577,45.9401],[-99.2763,45.9402],[-99.284,45.9402],[-99.2973,45.9402],[-99.3179,45.9403],[-99.3448,45.9403],[-99.345,45.9403],[-99.3785,45.9404],[-99.3856,45.9404],[-99.4013,45.9404],[-99.4903,45.9404],[-99.4931,45.9404],[-99.5888,45.9411],[-99.6112,45.9411],[-99.6719,45.9411],[-99.693,45.9409],[-99.7181,45.9409]]]}},{"type":"Feature","id":"38053","properties":{"name":"McKenzie","fips":"38053"},"geometry":{"type":"Polygon","coordinates":[[[-103.0992,47.3287],[-103.6667,47.3294],[-104.0453,47.3301],[-104.0453,47.332],[-104.0453,47.3435],[-104.0451,47.3975],[-104.0448,47.4384],[-104.0446,47.4594],[-104.0432,47.7471],[-104.0432,47.7473],[-104.0424,47.8033],[-104.0424,47.8054],[-104.0426,47.8082],[-104.0419,47.8417],[-104.0417,47.8623],[-104.0422,47.891],[-104.0433,47.9496],[-104.0435,47.9545],[-104.0439,47.9715],[-104.0442,47.9928],[-104.0441,47.9961],[-103.9198,47.956],[-103.8563,48.0151],[-103.8008,47.9943],[-103.7422,48.0934],[-103.597,48.1344],[-103.5486,48.0877],[-103.5848,48.0541],[-103.5012,48.0059],[-103.2349,48.0619],[-103.2019,48.1352],[-103.1071,48.1465],[-102.8285,48.1237],[-102.6635,48.0767],[-102.553,47.9986],[-102.6448,47.9067],[-102.6423,47.8237],[-102.6428,47.6739],[-103.0999,47.6744],[-103.0992,47.3287]]]}},{"type":"Feature","id":"38055","properties":{"name":"McLean","fips":"38055"},"geometry":{"type":"Polygon","coordinates":[[[-100.9652,47.1566],[-100.9776,47.25],[-101.0604,47.2933],[-101.257,47.2649],[-101.3457,47.2919],[-101.3625,47.368],[-101.4401,47.4773],[-101.3709,47.5187],[-101.428,47.562],[-101.6417,47.5284],[-101.7075,47.5383],[-101.8261,47.4944],[-102.0366,47.5727],[-102.2053,47.5745],[-102.2655,47.6243],[-102.261,47.7814],[-102.3858,47.758],[-102.3856,47.8477],[-101.8719,47.8476],[-100.9713,47.8487],[-100.5852,47.8475],[-100.5851,47.6739],[-100.6723,47.6741],[-100.6734,47.3277],[-100.7493,47.3277],[-100.7494,47.1572],[-100.9652,47.1566]]]}},{"type":"Feature","id":"38057","properties":{"name":"Mercer","fips":"38057"},"geometry":{"type":"Polygon","coordinates":[[[-101.7644,46.9813],[-102.0967,46.9812],[-102.1449,46.9814],[-102.1448,47.0103],[-102.1445,47.3281],[-102.2056,47.3281],[-102.2053,47.5745],[-102.0366,47.5727],[-101.8261,47.4944],[-101.7075,47.5383],[-101.6417,47.5284],[-101.428,47.562],[-101.3709,47.5187],[-101.4401,47.4773],[-101.3625,47.368],[-101.3457,47.2919],[-101.257,47.2649],[-101.2579,47.2413],[-101.7644,47.2414],[-101.7644,46.9813]]]}},{"type":"Feature","id":"38059","properties":{"name":"Morton","fips":"38059"},"geometry":{"type":"Polygon","coordinates":[[[-101.0257,46.2842],[-101.0485,46.3714],[-101.299,46.3715],[-101.2991,46.6303],[-101.7181,46.631],[-101.7182,46.718],[-102.0962,46.7177],[-102.0971,46.9808],[-102.0967,46.9812],[-101.7644,46.9813],[-100.936,46.9828],[-100.8191,46.7924],[-100.8394,46.7638],[-100.6619,46.6345],[-100.5446,46.5338],[-100.5902,46.4279],[-100.7213,46.3901],[-100.9189,46.395],[-101.0257,46.2842]]]}},{"type":"Feature","id":"38061","properties":{"name":"Mountrail","fips":"38061"},"geometry":{"type":"Polygon","coordinates":[[[-102.3858,47.758],[-102.562,47.7801],[-102.6423,47.8237],[-102.6448,47.9067],[-102.553,47.9986],[-102.6635,48.0767],[-102.8285,48.1237],[-102.8281,48.3729],[-102.8857,48.3726],[-102.8858,48.5464],[-102.2339,48.5463],[-101.9733,48.5471],[-101.9734,48.3721],[-101.9222,48.3723],[-101.9221,48.0232],[-101.8715,48.0232],[-101.8719,47.8476],[-102.3856,47.8477],[-102.3858,47.758]]]}},{"type":"Feature","id":"38063","properties":{"name":"Nelson","fips":"38063"},"geometry":{"type":"Polygon","coordinates":[[[-98.5255,47.8463],[-98.5256,47.9151],[-98.5256,48.0211],[-98.4227,48.0211],[-98.4221,48.1948],[-98.2922,48.1952],[-97.9034,48.1949],[-97.8822,48.0208],[-97.8824,47.6722],[-97.9848,47.6723],[-98.5002,47.6724],[-98.5255,47.8463]]]}},{"type":"Feature","id":"38065","properties":{"name":"Oliver","fips":"38065"},"geometry":{"type":"Polygon","coordinates":[[[-100.936,46.9828],[-101.7644,46.9813],[-101.7644,47.2414],[-101.2579,47.2413],[-101.257,47.2649],[-101.0604,47.2933],[-100.9776,47.25],[-100.9652,47.1566],[-100.8822,47.0151],[-100.936,46.9828]]]}},{"type":"Feature","id":"38067","properties":{"name":"Pembina","fips":"38067"},"geometry":{"type":"Polygon","coordinates":[[[-97.9502,49.0005],[-97.7758,49.0006],[-97.4112,49.0005],[-97.229,49.0007],[-97.234,48.9975],[-97.2384,48.9826],[-97.2392,48.9676],[-97.2326,48.9466],[-97.1995,48.8812],[-97.1578,48.7877],[-97.1376,48.7492],[-97.0926,48.682],[-97.163,48.544],[-97.1631,48.5439],[-97.1611,48.5432],[-97.1625,48.5423],[-97.9272,48.5431],[-97.9496,48.7177],[-97.9502,49.0005]]]}},{"type":"Feature","id":"38069","properties":{"name":"Pierce","fips":"38069"},"geometry":{"type":"Polygon","coordinates":[[[-99.4929,48.3709],[-99.8466,48.3713],[-99.8482,48.0214],[-99.8121,48.0215],[-99.8122,47.8473],[-100.0692,47.8473],[-100.1646,47.8475],[-100.1661,47.8476],[-100.198,47.8476],[-100.1976,48.0219],[-100.2371,48.0219],[-100.2373,48.3712],[-100.2764,48.3713],[-100.2767,48.5448],[-100.1459,48.5452],[-99.4932,48.5448],[-99.4934,48.3737],[-99.4929,48.3709]]]}},{"type":"Feature","id":"38071","properties":{"name":"Ramsey","fips":"38071"},"geometry":{"type":"Polygon","coordinates":[[[-98.9704,48.5442],[-98.3181,48.5438],[-98.2922,48.1952],[-98.4221,48.1948],[-98.4227,48.0211],[-98.5256,48.0211],[-98.5256,47.9151],[-98.6254,47.9164],[-98.6721,48.0004],[-98.7506,47.9825],[-98.8039,48.0599],[-98.9913,47.9903],[-99.001,48.0533],[-99.0704,48.022],[-99.0704,48.1079],[-99.1999,48.1553],[-99.2003,48.3707],[-98.971,48.3705],[-98.9704,48.5442]]]}},{"type":"Feature","id":"38073","properties":{"name":"Ransom","fips":"38073"},"geometry":{"type":"Polygon","coordinates":[[[-98.0067,46.2826],[-98.0298,46.2826],[-98.0346,46.2828],[-98.0339,46.6307],[-97.682,46.6299],[-97.2799,46.6293],[-97.2806,46.2823],[-98.0067,46.2826]]]}},{"type":"Feature","id":"38075","properties":{"name":"Renville","fips":"38075"},"geometry":{"type":"Polygon","coordinates":[[[-102.0211,48.999],[-101.4967,48.9994],[-101.4967,48.7201],[-101.4512,48.72],[-101.4513,48.5461],[-101.0597,48.5453],[-101.06,48.4586],[-101.0598,48.4584],[-101.842,48.4595],[-101.8421,48.7201],[-102.0214,48.7203],[-102.0217,48.8071],[-102.0211,48.999]]]}},{"type":"Feature","id":"38077","properties":{"name":"Richland","fips":"38077"},"geometry":{"type":"Polygon","coordinates":[[[-96.7391,46.5437],[-96.7164,46.4446],[-96.722,46.44],[-96.6698,46.3846],[-96.6316,46.3538],[-96.5982,46.3126],[-96.5991,46.2637],[-96.5856,46.1773],[-96.5784,46.1701],[-96.558,46.1024],[-96.5548,46.0848],[-96.5569,46.0646],[-96.5593,46.0583],[-96.5663,46.0514],[-96.5779,46.0269],[-96.5773,46.0218],[-96.5704,45.9636],[-96.5633,45.9352],[-96.5769,45.9353],[-96.5974,45.9352],[-96.6071,45.9353],[-96.6183,45.9354],[-96.6391,45.9353],[-96.6599,45.9356],[-96.6806,45.9357],[-96.7013,45.9358],[-96.7915,45.9359],[-96.9987,45.9357],[-97.0196,45.9354],[-97.1181,45.9355],[-97.145,45.9353],[-97.2283,45.9351],[-97.2596,45.9972],[-97.2593,46.2822],[-97.2806,46.2823],[-97.2799,46.6293],[-96.783,46.6306],[-96.783,46.6304],[-96.783,46.6304],[-96.7391,46.5437]]]}},{"type":"Feature","id":"38079","properties":{"name":"Rolette","fips":"38079"},"geometry":{"type":"Polygon","coordinates":[[[-99.5257,48.9994],[-99.5259,48.7184],[-99.493,48.7184],[-99.4932,48.5448],[-100.1459,48.5452],[-100.1455,48.7189],[-100.183,48.7189],[-100.1827,48.9992],[-99.9138,48.999],[-99.9137,48.999],[-99.8615,48.9992],[-99.8615,48.9992],[-99.5257,48.9994]]]}},{"type":"Feature","id":"38081","properties":{"name":"Sargent","fips":"38081"},"geometry":{"type":"Polygon","coordinates":[[[-97.2283,45.9351],[-97.2283,45.9351],[-97.3122,45.9351],[-97.3189,45.9351],[-97.482,45.9351],[-97.4919,45.9351],[-97.5189,45.9353],[-97.519,45.9353],[-97.5426,45.9353],[-97.6967,45.9354],[-97.777,45.9354],[-97.7846,45.9353],[-97.9587,45.9359],[-97.9788,45.9359],[-97.9869,45.936],[-98.0081,45.9361],[-98.0067,46.2826],[-97.2806,46.2823],[-97.2593,46.2822],[-97.2596,45.9972],[-97.2283,45.9351],[-97.2283,45.9351]]]}},{"type":"Feature","id":"38083","properties":{"name":"Sheridan","fips":"38083"},"geometry":{"type":"Polygon","coordinates":[[[-100.6734,47.3277],[-100.6723,47.6741],[-100.5851,47.6739],[-100.5852,47.8475],[-100.198,47.8476],[-100.1661,47.8476],[-100.1646,47.8475],[-100.0692,47.8473],[-100.0695,47.6737],[-100.0328,47.6736],[-100.0333,47.3272],[-100.0361,47.3273],[-100.0935,47.3271],[-100.0947,47.3273],[-100.1133,47.3273],[-100.6696,47.3274],[-100.6734,47.3277]]]}},{"type":"Feature","id":"38085","properties":{"name":"Sioux","fips":"38085"},"geometry":{"type":"Polygon","coordinates":[[[-100.5119,45.9437],[-100.6277,45.9436],[-100.6508,45.9437],[-100.7209,45.944],[-100.7504,45.9436],[-100.7621,45.9438],[-100.7621,45.9438],[-100.7698,45.9438],[-100.8902,45.9439],[-100.9356,45.9438],[-100.939,45.9438],[-100.9644,45.9438],[-100.9766,45.9439],[-100.9807,45.9441],[-101.1013,45.9438],[-101.1068,45.944],[-101.1426,45.9438],[-101.1461,45.9438],[-101.1632,45.9439],[-101.1711,45.944],[-101.1757,45.944],[-101.1791,45.9439],[-101.2038,45.9439],[-101.224,45.944],[-101.2715,45.9442],[-101.2872,45.9441],[-101.3133,45.9442],[-101.3339,45.9442],[-101.3653,45.9441],[-101.3707,45.9442],[-101.3738,45.9443],[-101.5573,45.9441],[-101.5622,45.9442],[-101.6286,45.9443],[-101.6576,45.9444],[-101.6806,45.9443],[-101.6818,45.9444],[-101.7088,45.9443],[-101.7234,45.9442],[-101.7301,45.9444],[-101.7586,45.9445],[-101.7643,45.9444],[-101.7653,45.9444],[-101.7662,45.9443],[-101.7901,45.9444],[-101.7946,45.9444],[-101.833,45.9445],[-101.8526,45.9445],[-101.8868,45.9446],[-101.9574,45.9445],[-101.9737,45.9445],[-101.9895,45.9445],[-101.9922,45.9445],[-101.9986,45.9446],[-101.9986,46.0535],[-101.8494,46.0733],[-101.8421,46.0291],[-101.5542,46.0068],[-101.1904,46.1478],[-101.1981,46.1838],[-101.0257,46.2842],[-100.9189,46.395],[-100.7213,46.3901],[-100.5902,46.4279],[-100.5512,46.3635],[-100.5585,46.25],[-100.6291,46.1456],[-100.6145,46.0718],[-100.5119,45.9437]]]}},{"type":"Feature","id":"38087","properties":{"name":"Slope","fips":"38087"},"geometry":{"type":"Polygon","coordinates":[[[-104.0453,46.5409],[-103.8009,46.5407],[-103.8008,46.6296],[-103.6092,46.6298],[-103.2316,46.6299],[-102.928,46.6301],[-102.9245,46.2826],[-102.9245,46.2815],[-102.9699,46.2811],[-102.9955,46.2807],[-104.0456,46.2802],[-104.0455,46.3245],[-104.0455,46.3419],[-104.0453,46.5409]]]}},{"type":"Feature","id":"38089","properties":{"name":"Stark","fips":"38089"},"geometry":{"type":"Polygon","coordinates":[[[-102.0967,46.9812],[-102.0971,46.9808],[-102.0962,46.7177],[-102.0964,46.6889],[-102.0966,46.631],[-102.928,46.6301],[-103.2316,46.6299],[-103.231,46.9803],[-103.0327,46.9806],[-102.5255,46.9813],[-102.5255,47.0102],[-102.1448,47.0103],[-102.1449,46.9814],[-102.0967,46.9812]]]}},{"type":"Feature","id":"38091","properties":{"name":"Steele","fips":"38091"},"geometry":{"type":"Polygon","coordinates":[[[-97.706,47.24],[-97.9612,47.2405],[-97.9866,47.3261],[-97.9848,47.6723],[-97.8824,47.6722],[-97.4727,47.6721],[-97.4743,47.3248],[-97.4515,47.2391],[-97.706,47.24]]]}},{"type":"Feature","id":"38093","properties":{"name":"Stutsman","fips":"38093"},"geometry":{"type":"Polygon","coordinates":[[[-98.4675,47.2405],[-98.4675,46.9796],[-98.4395,46.9797],[-98.4391,46.6311],[-99.0366,46.6306],[-99.4497,46.6316],[-99.4464,46.9809],[-99.4811,46.9807],[-99.4807,47.3271],[-99.2663,47.3272],[-99.2504,47.3269],[-98.4992,47.3265],[-98.4673,47.3265],[-98.4675,47.2405]]]}},{"type":"Feature","id":"38095","properties":{"name":"Towner","fips":"38095"},"geometry":{"type":"Polygon","coordinates":[[[-98.9998,48.9998],[-98.9999,48.7181],[-98.9704,48.7181],[-98.9704,48.5442],[-98.971,48.3705],[-99.2003,48.3707],[-99.4929,48.3709],[-99.4934,48.3737],[-99.4932,48.5448],[-99.493,48.7184],[-99.5259,48.7184],[-99.5257,48.9994],[-98.9998,48.9998]]]}},{"type":"Feature","id":"38097","properties":{"name":"Traill","fips":"38097"},"geometry":{"type":"Polygon","coordinates":[[[-96.8533,47.5039],[-96.8538,47.4995],[-96.8623,47.4223],[-96.8527,47.375],[-96.833,47.2381],[-97.4515,47.2391],[-97.4743,47.3248],[-97.4727,47.6721],[-96.8907,47.6722],[-96.8857,47.6643],[-96.851,47.5983],[-96.8424,47.5082],[-96.8533,47.5039]]]}},{"type":"Feature","id":"38099","properties":{"name":"Walsh","fips":"38099"},"geometry":{"type":"Polygon","coordinates":[[[-98.3181,48.5438],[-97.9272,48.5431],[-97.1625,48.5423],[-97.1611,48.5432],[-97.1505,48.5394],[-97.1268,48.5202],[-97.1234,48.4212],[-97.1315,48.4066],[-97.1457,48.3974],[-97.1364,48.3524],[-97.1267,48.3421],[-97.1156,48.3239],[-97.1166,48.2797],[-97.1299,48.2497],[-97.1345,48.2497],[-97.1431,48.2467],[-97.1472,48.243],[-97.1474,48.1938],[-97.9034,48.1949],[-98.2922,48.1952],[-98.3181,48.5438]]]}},{"type":"Feature","id":"38101","properties":{"name":"Ward","fips":"38101"},"geometry":{"type":"Polygon","coordinates":[[[-102.0217,48.8071],[-102.0214,48.7203],[-101.8421,48.7201],[-101.842,48.4595],[-101.0598,48.4584],[-101.0141,48.3714],[-101.015,48.0227],[-100.9705,48.0226],[-100.9713,47.8487],[-101.8719,47.8476],[-101.8715,48.0232],[-101.9221,48.0232],[-101.9222,48.3723],[-101.9734,48.3721],[-101.9733,48.5471],[-102.2339,48.5463],[-102.2336,48.7203],[-102.1525,48.7203],[-102.1522,48.8072],[-102.0217,48.8071]]]}},{"type":"Feature","id":"38103","properties":{"name":"Wells","fips":"38103"},"geometry":{"type":"Polygon","coordinates":[[[-99.2658,47.5876],[-99.2663,47.3272],[-99.4807,47.3271],[-100.0333,47.3272],[-100.0328,47.6736],[-100.0695,47.6737],[-100.0692,47.8473],[-99.8122,47.8473],[-99.2972,47.8468],[-99.2973,47.673],[-99.2658,47.5876]]]}},{"type":"Feature","id":"38105","properties":{"name":"Williams","fips":"38105"},"geometry":{"type":"Polygon","coordinates":[[[-104.0469,48.3894],[-104.047,48.3907],[-104.0471,48.4111],[-104.047,48.4211],[-104.0471,48.4459],[-104.0472,48.4473],[-104.0473,48.4525],[-104.0473,48.4529],[-104.0474,48.4671],[-104.0476,48.4941],[-104.0477,48.5179],[-104.0475,48.5259],[-104.0479,48.5308],[-104.0476,48.5315],[-104.0478,48.5397],[-104.0478,48.5628],[-104.048,48.5916],[-104.0482,48.5991],[-104.0479,48.6202],[-104.0476,48.6256],[-104.0476,48.627],[-104.0476,48.634],[-102.8858,48.6333],[-102.886,48.5612],[-102.8858,48.5606],[-102.8858,48.5464],[-102.8857,48.3726],[-102.8281,48.3729],[-102.8285,48.1237],[-103.1071,48.1465],[-103.2019,48.1352],[-103.2349,48.0619],[-103.5012,48.0059],[-103.5848,48.0541],[-103.5486,48.0877],[-103.597,48.1344],[-103.7422,48.0934],[-103.8008,47.9943],[-103.8563,48.0151],[-103.9198,47.956],[-104.0441,47.9961],[-104.0454,48.1644],[-104.0455,48.1762],[-104.0454,48.1925],[-104.0456,48.1939],[-104.0457,48.2414],[-104.0457,48.2446],[-104.0456,48.2462],[-104.0459,48.2551],[-104.046,48.2568],[-104.0463,48.3423],[-104.0464,48.3742],[-104.0467,48.3748],[-104.0469,48.3894],[-104.0469,48.3894]]]}}]}