{"type":"FeatureCollection","features":[{"type":"Feature","geometry":{"type":"Polygon","coordinates":[[[-97.8345,42.0898],[-97.8298,41.5262],[-97.7036,41.5268],[-97.7038,41.3949],[-97.5985,41.3951],[-97.5982,41.328],[-97.5796,41.3341],[-97.5798,41.2354],[-97.5605,41.2354],[-97.5604,41.1919],[-97.5793,41.1919],[-97.5795,41.1774],[-97.5605,41.1774],[-97.5605,41.1629],[-97.3681,41.163],[-97.3684,40.6986],[-96.9135,40.6979],[-96.9126,40.5236],[-96.4636,40.523],[-96.4638,40.784],[-95.8341,40.7838],[-95.8453,40.8113],[-95.8372,40.8353],[-95.8486,40.8611],[-95.8425,40.8703],[-95.8159,40.8798],[-95.8094,40.8933],[-95.8143,40.9029],[-95.8349,40.9196],[-95.8397,40.9328],[-95.8298,40.9773],[-95.8673,41.0016],[-95.8695,41.0094],[-95.8599,41.0254],[-95.8597,41.0357],[-95.8816,41.0544],[-95.8825,41.0614],[-95.8624,41.0897],[-95.8672,41.1215],[-95.8815,41.1421],[-95.8833,41.1527],[-95.8721,41.1673],[-95.8434,41.1691],[-95.8434,41.1797],[-95.8561,41.1869],[-95.9102,41.1844],[-95.9237,41.191],[-96.1743,41.1906],[-96.1583,41.1865],[-96.1608,41.1701],[-96.1574,41.1654],[-96.1678,41.1616],[-96.1677,41.158],[-96.1773,41.1579],[-96.1773,41.1501],[-96.1581,41.147],[-96.158,41.1325],[-96.0141,41.1327],[-96.0141,41.1289],[-96.0045,41.129],[-96.0052,41.0606],[-96.0563,41.0654],[-96.1002,41.0532],[-96.1447,41.0176],[-96.2144,40.9945],[-96.233,41.0009],[-96.2476,41.0178],[-96.2967,41.0265],[-96.3192,41.045],[-96.349,41.045],[-96.3495,41.0152],[-96.3695,41.015],[-96.4639,41.0161],[-96.4639,41.0451],[-96.9085,41.0461],[-96.9059,41.4534],[-96.8338,41.4457],[-96.8152,41.4396],[-96.7742,41.4501],[-96.7467,41.4497],[-96.6946,41.4257],[-96.6711,41.4263],[-96.6399,41.4362],[-96.569,41.4333],[-96.4959,41.394],[-96.4921,41.3975],[-96.4882,41.3933],[-96.329,41.3931],[-96.3289,41.4366],[-96.3673,41.4367],[-96.3672,41.451],[-96.3865,41.4513],[-96.3864,41.4657],[-96.4056,41.4658],[-96.4059,41.4805],[-96.4252,41.4803],[-96.4252,41.4949],[-96.4348,41.4949],[-96.4345,41.5239],[-96.4439,41.5239],[-96.4442,41.7418],[-96.5552,41.742],[-96.5555,42.09],[-97.8345,42.0898]]]},"properties":{"name":"CD1","district_number":1,"fips":"31-01"}},{"type":"Feature","geometry":{"type":"Polygon","coordinates":[[[-96.9091,41.2644],[-96.9085,41.0461],[-96.4639,41.0451],[-96.4639,41.0161],[-96.3695,41.015],[-96.3495,41.0152],[-96.349,41.045],[-96.3192,41.045],[-96.2949,41.0257],[-96.2476,41.0178],[-96.233,41.0009],[-96.2189,40.9943],[-96.1447,41.0176],[-96.1002,41.0532],[-96.0563,41.0654],[-96.0052,41.0606],[-96.0045,41.129],[-96.0141,41.1289],[-96.0141,41.1327],[-96.158,41.1325],[-96.1581,41.147],[-96.1773,41.1501],[-96.1773,41.1579],[-96.1677,41.158],[-96.1678,41.1616],[-96.1574,41.1654],[-96.1608,41.1701],[-96.1583,41.1865],[-96.1743,41.1906],[-95.9237,41.191],[-95.9272,41.209],[-95.9106,41.2346],[-95.9223,41.263],[-95.9141,41.2724],[-95.9286,41.2813],[-95.9276,41.2984],[-95.9059,41.301],[-95.9061,41.2875],[-95.9126,41.2795],[-95.9028,41.2744],[-95.8775,41.2846],[-95.8711,41.2967],[-95.8751,41.3095],[-95.8856,41.3181],[-95.9252,41.3214],[-95.9553,41.3419],[-95.9543,41.3535],[-95.9369,41.3592],[-95.9297,41.3671],[-95.9387,41.3932],[-96.4882,41.3933],[-96.4921,41.3975],[-96.4957,41.394],[-96.5042,41.3966],[-96.5104,41.4049],[-96.569,41.4333],[-96.6399,41.4362],[-96.6711,41.4263],[-96.6946,41.4257],[-96.7467,41.4497],[-96.7742,41.4501],[-96.8152,41.4396],[-96.8338,41.4457],[-96.9059,41.4534],[-96.9091,41.2644]]]},"properties":{"name":"CD2","district_number":2,"fips":"31-02"}},{"type":"Feature","geometry":{"type":"Polygon","coordinates":[[[-104.0535,41.1573],[-104.0532,41.0014],[-102.0517,41.0024],[-102.0517,40.0031],[-95.3083,40.0],[-95.3153,40.0121],[-95.3362,40.0191],[-95.3488,40.0293],[-95.3915,40.0271],[-95.4151,40.0403],[-95.4213,40.0607],[-95.4094,40.075],[-95.4101,40.094],[-95.3942,40.1083],[-95.3933,40.1192],[-95.4003,40.1273],[-95.4274,40.1346],[-95.4363,40.1587],[-95.4638,40.1712],[-95.4792,40.1857],[-95.4823,40.2007],[-95.4697,40.2279],[-95.4787,40.2437],[-95.4934,40.2496],[-95.521,40.2501],[-95.5525,40.2619],[-95.5563,40.2708],[-95.5516,40.2887],[-95.5622,40.2974],[-95.5818,40.2996],[-95.6104,40.314],[-95.6453,40.3057],[-95.6573,40.3109],[-95.6537,40.3226],[-95.6276,40.3324],[-95.6227,40.3423],[-95.641,40.3664],[-95.6439,40.3869],[-95.6606,40.4124],[-95.6566,40.4387],[-95.6677,40.4535],[-95.6947,40.4715],[-95.6948,40.4947],[-95.7,40.5053],[-95.6617,40.5173],[-95.6557,40.5236],[-95.6534,40.5419],[-95.6718,40.5626],[-95.6787,40.5626],[-95.6941,40.5569],[-95.6955,40.532],[-95.7086,40.5216],[-95.7175,40.5278],[-95.7487,40.5243],[-95.7669,40.5316],[-95.7693,40.5367],[-95.7638,40.5539],[-95.7747,40.5736],[-95.7503,40.5963],[-95.7497,40.6068],[-95.7689,40.6213],[-95.7715,40.6398],[-95.7819,40.6533],[-95.7955,40.6624],[-95.8229,40.6672],[-95.8428,40.6775],[-95.8526,40.7023],[-95.8832,40.7176],[-95.8889,40.7319],[-95.879,40.7531],[-95.8437,40.7705],[-95.8341,40.7838],[-96.4638,40.784],[-96.4636,40.523],[-96.9126,40.5236],[-96.9135,40.6979],[-97.3684,40.6986],[-97.3681,41.163],[-97.5605,41.1629],[-97.5605,41.1774],[-97.5795,41.1774],[-97.5793,41.1919],[-97.5604,41.1919],[-97.5605,41.2354],[-97.5798,41.2354],[-97.5796,41.3341],[-97.5982,41.328],[-97.5985,41.3951],[-97.7038,41.3949],[-97.7036,41.5268],[-97.8298,41.5262],[-97.8345,42.0898],[-96.5555,42.09],[-96.5552,41.742],[-96.4442,41.7418],[-96.4439,41.5239],[-96.4345,41.5239],[-96.4348,41.4949],[-96.4252,41.4949],[-96.4252,41.4803],[-96.4059,41.4805],[-96.4056,41.4658],[-96.3864,41.4657],[-96.3865,41.4513],[-96.3672,41.451],[-96.3673,41.4367],[-96.3289,41.4366],[-96.329,41.3931],[-95.9378,41.3908],[-95.9297,41.4111],[-95.9328,41.4308],[-95.9195,41.4482],[-95.9228,41.4573],[-95.9359,41.4652],[-95.9667,41.4634],[-95.9843,41.4709],[-96.0049,41.4724],[-96.0136,41.4785],[-96.0195,41.4916],[-96.0006,41.5025],[-95.9928,41.5146],[-96.0,41.5395],[-96.0051,41.5433],[-96.0191,41.5451],[-96.0267,41.5404],[-96.0344,41.5128],[-96.0406,41.5069],[-96.0528,41.5084],[-96.0827,41.526],[-96.0944,41.5395],[-96.095,41.5548],[-96.0814,41.5779],[-96.0872,41.5866],[-96.1095,41.5968],[-96.1183,41.615],[-96.0978,41.6396],[-96.0952,41.6501],[-96.1001,41.6611],[-96.118,41.6733],[-96.1226,41.683],[-96.1135,41.6976],[-96.0846,41.6977],[-96.0732,41.7041],[-96.0766,41.7157],[-96.1022,41.7276],[-96.1064,41.7378],[-96.101,41.7476],[-96.0809,41.7575],[-96.0775,41.7778],[-96.0664,41.789],[-96.0653,41.7972],[-96.0768,41.8085],[-96.1066,41.8196],[-96.111,41.8288],[-96.1076,41.8404],[-96.1105,41.8492],[-96.1419,41.869],[-96.1488,41.8882],[-96.1618,41.9018],[-96.1591,41.9101],[-96.1367,41.9208],[-96.1446,41.9415],[-96.13,41.9626],[-96.1304,41.9729],[-96.158,41.9803],[-96.1872,41.9779],[-96.1921,41.9845],[-96.184,42.0031],[-96.1946,42.0087],[-96.2152,42.0067],[-96.2272,41.9943],[-96.2407,41.9994],[-96.2408,42.0093],[-96.2236,42.0227],[-96.2219,42.0296],[-96.235,42.0401],[-96.227,42.0374],[-96.2303,42.0394],[-96.2584,42.0383],[-96.2744,42.0492],[-96.2795,42.0709],[-96.2677,42.0971],[-96.2695,42.1142],[-96.283,42.125],[-96.3098,42.1321],[-96.3207,42.1479],[-96.3402,42.1581],[-96.3486,42.168],[-96.3474,42.1931],[-96.3599,42.2106],[-96.3566,42.2152],[-96.337,42.2175],[-96.3237,42.2299],[-96.33,42.2402],[-96.3289,42.2547],[-96.336,42.2648],[-96.3658,42.2858],[-96.3692,42.3083],[-96.3753,42.3183],[-96.408,42.3374],[-96.4178,42.3514],[-96.4084,42.3761],[-96.4152,42.4042],[-96.3876,42.4325],[-96.3807,42.4464],[-96.3813,42.4617],[-96.3926,42.4814],[-96.402,42.4864],[-96.4455,42.4906],[-96.4788,42.4797],[-96.5013,42.4827],[-96.5158,42.4942],[-96.5288,42.5133],[-96.5488,42.5205],[-96.5679,42.5179],[-96.5911,42.5054],[-96.6115,42.5061],[-96.6282,42.517],[-96.6353,42.5476],[-96.6436,42.5576],[-96.6841,42.5765],[-96.7098,42.6051],[-96.7095,42.6219],[-96.6878,42.646],[-96.6913,42.6562],[-96.728,42.6669],[-96.7641,42.662],[-96.7932,42.666],[-96.8022,42.6722],[-96.8005,42.6925],[-96.8062,42.7042],[-96.9068,42.7338],[-96.9183,42.7319],[-96.9376,42.7196],[-96.9616,42.7198],[-96.9658,42.7271],[-96.9612,42.7406],[-96.9689,42.7543],[-96.9791,42.7601],[-97.0249,42.7624],[-97.0672,42.7723],[-97.1303,42.7715],[-97.1508,42.7956],[-97.2101,42.8093],[-97.2183,42.8296],[-97.2188,42.8458],[-97.2486,42.8554],[-97.2899,42.8555],[-97.3067,42.8676],[-97.3362,42.8568],[-97.3596,42.8548],[-97.3767,42.8652],[-97.4108,42.868],[-97.4449,42.8459],[-97.487,42.8506],[-97.5048,42.8585],[-97.5579,42.8475],[-97.6118,42.8584],[-97.6579,42.8444],[-97.6865,42.8422],[-97.7744,42.8497],[-97.8286,42.8688],[-97.8454,42.8677],[-97.8755,42.8587],[-97.8886,42.8172],[-97.909,42.7948],[-97.9348,42.7769],[-97.9502,42.7695],[-97.9776,42.7698],[-98.0131,42.7622],[-98.0567,42.7707],[-98.0675,42.7846],[-98.1277,42.82],[-98.1471,42.8396],[-98.1675,42.8369],[-98.1898,42.8416],[-98.2198,42.8532],[-98.2518,42.8728],[-98.3259,42.8865],[-98.3462,42.9027],[-98.4207,42.9319],[-98.4441,42.9292],[-98.4483,42.9364],[-98.4674,42.9476],[-98.4905,42.9779],[-98.4986,42.9986],[-101.633,42.9963],[-104.053,43.0006],[-104.0535,41.1573]]]},"properties":{"name":"CD3","district_number":3,"fips":"31-03"}}],"source":"U.S. Census Bureau TIGERweb, 120th Congressional Districts (January 1, 2026 vintage)"}