{"type":"FeatureCollection","features":[{"type":"Feature","id":"33001","properties":{"name":"Belknap","fips":"33001"},"geometry":{"type":"Polygon","coordinates":[[[-71.5324,43.765],[-71.4603,43.7097],[-71.4396,43.696],[-71.3442,43.6293],[-71.1636,43.5394],[-71.1922,43.5126],[-71.1601,43.3559],[-71.2358,43.2847],[-71.347,43.3466],[-71.4674,43.4094],[-71.5447,43.4507],[-71.547,43.4526],[-71.6257,43.471],[-71.6291,43.4788],[-71.6319,43.4779],[-71.6387,43.4927],[-71.6534,43.4888],[-71.6538,43.4916],[-71.6619,43.4958],[-71.6693,43.497],[-71.6727,43.4996],[-71.6759,43.5002],[-71.6786,43.503],[-71.68,43.5064],[-71.684,43.5105],[-71.6884,43.5131],[-71.6907,43.5157],[-71.6907,43.5183],[-71.6893,43.5303],[-71.7061,43.5382],[-71.7099,43.542],[-71.7102,43.545],[-71.7141,43.551],[-71.7207,43.5526],[-71.728,43.5595],[-71.7278,43.5635],[-71.6509,43.6212],[-71.6481,43.6862],[-71.5222,43.6972],[-71.5324,43.765]]]}},{"type":"Feature","id":"33003","properties":{"name":"Carroll","fips":"33003"},"geometry":{"type":"Polygon","coordinates":[[[-71.0373,43.5297],[-71.1636,43.5394],[-71.3442,43.6293],[-71.4396,43.696],[-71.4603,43.7097],[-71.5324,43.765],[-71.5646,43.8931],[-71.3619,43.9155],[-71.4158,44.2121],[-71.4072,44.2133],[-71.4069,44.2133],[-71.3952,44.2149],[-71.385,44.1791],[-71.3575,44.166],[-71.3432,44.1223],[-71.3436,44.0922],[-71.2524,44.2442],[-71.0425,44.2378],[-71.0102,44.2848],[-71.0087,44.2588],[-71.0088,44.2584],[-71.0013,44.0932],[-71.0014,44.0929],[-70.993,43.9142],[-70.9921,43.8863],[-70.9891,43.7924],[-70.989,43.7922],[-70.9821,43.715],[-70.9822,43.7119],[-70.982,43.702],[-70.9819,43.701],[-70.9808,43.6841],[-70.98,43.6732],[-70.9727,43.5703],[-70.9533,43.5527],[-70.9553,43.5407],[-70.9553,43.541],[-70.959,43.5376],[-71.0373,43.5297]]]}},{"type":"Feature","id":"33005","properties":{"name":"Cheshire","fips":"33005"},"geometry":{"type":"Polygon","coordinates":[[[-72.001,42.9195],[-71.9288,42.7122],[-72.0785,42.7164],[-72.1111,42.7173],[-72.283,42.722],[-72.412,42.7256],[-72.4513,42.7267],[-72.4585,42.7269],[-72.4602,42.7321],[-72.4785,42.7623],[-72.4911,42.7725],[-72.5095,42.7812],[-72.5428,42.8085],[-72.5557,42.8564],[-72.5558,42.8582],[-72.5561,42.8663],[-72.5562,42.867],[-72.4438,43.0062],[-72.4327,43.1141],[-72.4331,43.12],[-72.4419,43.1366],[-72.4521,43.1614],[-72.1565,43.182],[-72.1785,43.132],[-72.0381,43.1288],[-72.0624,42.9448],[-72.001,42.9195]]]}},{"type":"Feature","id":"33007","properties":{"name":"Coos","fips":"33007"},"geometry":{"type":"Polygon","coordinates":[[[-71.0291,44.6103],[-71.0135,44.3409],[-71.0102,44.2848],[-71.0425,44.2378],[-71.2524,44.2442],[-71.3436,44.0922],[-71.3432,44.1223],[-71.3575,44.166],[-71.385,44.1791],[-71.3952,44.2149],[-71.4069,44.2133],[-71.4072,44.2133],[-71.4158,44.2121],[-71.4433,44.2493],[-71.5758,44.2547],[-71.5871,44.3048],[-71.6967,44.3323],[-71.7645,44.4064],[-71.762,44.407],[-71.7561,44.4064],[-71.745,44.4014],[-71.7089,44.4116],[-71.68,44.4279],[-71.5995,44.4865],[-71.5803,44.5065],[-71.5363,44.5879],[-71.5532,44.6266],[-71.5987,44.698],[-71.6253,44.7297],[-71.6274,44.7475],[-71.6239,44.7551],[-71.5725,44.8101],[-71.4958,44.905],[-71.494,44.9113],[-71.5168,44.9476],[-71.5378,44.9843],[-71.5386,44.9882],[-71.537,44.9942],[-71.5301,44.9997],[-71.505,45.0082],[-71.4865,45.007],[-71.4686,45.0102],[-71.4646,45.0136],[-71.5025,45.0134],[-71.4961,45.0692],[-71.4891,45.0723],[-71.4288,45.1239],[-71.3978,45.2036],[-71.4033,45.2153],[-71.4429,45.2348],[-71.4012,45.2425],[-71.343,45.2713],[-71.2971,45.299],[-71.2844,45.3024],[-71.2668,45.2912],[-71.263,45.2774],[-71.2596,45.2732],[-71.233,45.2566],[-71.1838,45.2449],[-71.1394,45.243],[-71.132,45.2454],[-71.1245,45.2553],[-71.1199,45.2623],[-71.1201,45.2657],[-71.1052,45.2946],[-71.0978,45.3019],[-71.0843,45.3053],[-71.0756,45.2241],[-71.0601,45.0197],[-71.0375,44.7556],[-71.0291,44.6103]]]}},{"type":"Feature","id":"33009","properties":{"name":"Grafton","fips":"33009"},"geometry":{"type":"Polygon","coordinates":[[[-71.8641,43.5994],[-71.8921,43.5747],[-71.9352,43.5284],[-72.3296,43.6002],[-72.3347,43.6145],[-72.3344,43.6193],[-72.3297,43.6346],[-72.3029,43.7027],[-72.2712,43.7341],[-72.2642,43.7342],[-72.2327,43.7483],[-72.2057,43.7711],[-72.2048,43.7719],[-72.1837,43.8066],[-72.1822,43.834],[-72.1672,43.8861],[-72.121,43.919],[-72.1044,43.9505],[-72.1056,43.959],[-72.107,43.9695],[-72.1131,43.9728],[-72.1128,43.988],[-72.0907,44.0352],[-72.0547,44.1121],[-72.0401,44.1557],[-72.0401,44.1557],[-72.0421,44.1576],[-72.053,44.1679],[-72.0643,44.1879],[-72.0678,44.271],[-72.0654,44.2772],[-72.0589,44.2862],[-72.0122,44.3214],[-72.0023,44.3249],[-71.8495,44.3593],[-71.8161,44.3668],[-71.8144,44.3819],[-71.7939,44.3993],[-71.7645,44.4064],[-71.6967,44.3323],[-71.5871,44.3048],[-71.5758,44.2547],[-71.4433,44.2493],[-71.4158,44.2121],[-71.3619,43.9155],[-71.5646,43.8931],[-71.5324,43.765],[-71.5222,43.6972],[-71.6481,43.6862],[-71.6509,43.6212],[-71.7278,43.5635],[-71.818,43.5446],[-71.8641,43.5994]]]}},{"type":"Feature","id":"33011","properties":{"name":"Hillsborough","fips":"33011"},"geometry":{"type":"Polygon","coordinates":[[[-71.8097,43.1245],[-71.7331,43.1394],[-71.7074,43.1443],[-71.7075,43.1445],[-71.7047,43.145],[-71.7006,43.1462],[-71.6678,43.1526],[-71.6413,43.0542],[-71.5185,43.0689],[-71.3922,43.009],[-71.3919,43.0079],[-71.3774,42.9472],[-71.4418,42.8896],[-71.3608,42.799],[-71.2455,42.7426],[-71.2545,42.7341],[-71.2942,42.697],[-71.5425,42.7027],[-71.6318,42.7048],[-71.6362,42.7049],[-71.7725,42.7083],[-71.8054,42.7091],[-71.8987,42.7115],[-71.9288,42.7122],[-72.001,42.9195],[-72.0624,42.9448],[-72.0381,43.1288],[-72.0234,43.1602],[-72.0368,43.1826],[-72.009,43.1879],[-71.9133,43.2073],[-71.856,43.1154],[-71.8097,43.1245]]]}},{"type":"Feature","id":"33013","properties":{"name":"Merrimack","fips":"33013"},"geometry":{"type":"Polygon","coordinates":[[[-71.8097,43.1245],[-71.856,43.1154],[-71.9133,43.2073],[-72.009,43.1879],[-72.09,43.3226],[-72.0538,43.4411],[-71.9352,43.5284],[-71.8921,43.5747],[-71.8641,43.5994],[-71.818,43.5446],[-71.7278,43.5635],[-71.728,43.5595],[-71.7207,43.5526],[-71.7141,43.551],[-71.7102,43.545],[-71.7099,43.542],[-71.7061,43.5382],[-71.6893,43.5303],[-71.6907,43.5183],[-71.6907,43.5157],[-71.6884,43.5131],[-71.684,43.5105],[-71.68,43.5064],[-71.6786,43.503],[-71.6759,43.5002],[-71.6727,43.4996],[-71.6693,43.497],[-71.6619,43.4958],[-71.6538,43.4916],[-71.6534,43.4888],[-71.6387,43.4927],[-71.6319,43.4779],[-71.6291,43.4788],[-71.6257,43.471],[-71.547,43.4526],[-71.5447,43.4507],[-71.4674,43.4094],[-71.347,43.3466],[-71.2358,43.2847],[-71.2472,43.2742],[-71.3562,43.102],[-71.3922,43.009],[-71.5185,43.0689],[-71.6413,43.0542],[-71.6678,43.1526],[-71.7006,43.1462],[-71.7047,43.145],[-71.7075,43.1445],[-71.7074,43.1443],[-71.7331,43.1394],[-71.8097,43.1245]]]}},{"type":"Feature","id":"33015","properties":{"name":"Rockingham","fips":"33015"},"geometry":{"type":"Polygon","coordinates":[[[-70.8195,43.1232],[-70.7841,43.099],[-70.7564,43.08],[-70.7039,43.0596],[-70.7189,43.0324],[-70.7446,43.0001],[-70.749,42.9955],[-70.76,42.9886],[-70.7956,42.9363],[-70.8101,42.9095],[-70.8146,42.8913],[-70.8163,42.8845],[-70.8173,42.8723],[-70.8486,42.8609],[-70.8861,42.8826],[-70.9028,42.8865],[-70.9149,42.8866],[-70.9149,42.8866],[-70.9308,42.8846],[-70.9317,42.8842],[-70.9969,42.8646],[-71.0379,42.8541],[-71.0584,42.847],[-71.1139,42.8279],[-71.1497,42.8155],[-71.1656,42.8087],[-71.1861,42.7907],[-71.1818,42.7376],[-71.2081,42.7433],[-71.2082,42.7433],[-71.2083,42.7433],[-71.2455,42.7426],[-71.3608,42.799],[-71.4418,42.8896],[-71.3774,42.9472],[-71.3919,43.0079],[-71.3922,43.009],[-71.3562,43.102],[-71.2472,43.2742],[-71.0267,43.1381],[-71.073,43.0817],[-70.8755,43.0805],[-70.861,43.0956],[-70.8615,43.125],[-70.8195,43.1232]]]}},{"type":"Feature","id":"33017","properties":{"name":"Strafford","fips":"33017"},"geometry":{"type":"Polygon","coordinates":[[[-71.0373,43.5297],[-70.959,43.5376],[-70.9626,43.5343],[-70.9548,43.5098],[-70.9637,43.4762],[-70.9645,43.4733],[-70.9644,43.4733],[-70.9868,43.4143],[-70.9877,43.3915],[-70.9843,43.3768],[-70.9843,43.3761],[-70.9672,43.3438],[-70.9524,43.334],[-70.9308,43.3296],[-70.9168,43.3177],[-70.9125,43.3083],[-70.9098,43.3067],[-70.8632,43.2651],[-70.8632,43.2651],[-70.8392,43.2512],[-70.8397,43.2504],[-70.8337,43.2429],[-70.828,43.2416],[-70.8267,43.2413],[-70.8251,43.2409],[-70.8233,43.2403],[-70.823,43.2402],[-70.8179,43.2379],[-70.8178,43.2374],[-70.8162,43.235],[-70.8283,43.1867],[-70.8292,43.1804],[-70.8338,43.1469],[-70.8281,43.1291],[-70.8195,43.1232],[-70.8615,43.125],[-70.861,43.0956],[-70.8755,43.0805],[-71.073,43.0817],[-71.0267,43.1381],[-71.2472,43.2742],[-71.2358,43.2847],[-71.1601,43.3559],[-71.1922,43.5126],[-71.1636,43.5394],[-71.0373,43.5297]]]}},{"type":"Feature","id":"33019","properties":{"name":"Sullivan","fips":"33019"},"geometry":{"type":"Polygon","coordinates":[[[-72.0538,43.4411],[-72.09,43.3226],[-72.009,43.1879],[-72.0368,43.1826],[-72.0234,43.1602],[-72.0381,43.1288],[-72.1785,43.132],[-72.1565,43.182],[-72.4521,43.1614],[-72.4394,43.2113],[-72.4312,43.2318],[-72.3971,43.3165],[-72.4005,43.3371],[-72.4039,43.3581],[-72.4053,43.39],[-72.3969,43.4289],[-72.3969,43.429],[-72.3879,43.4716],[-72.3876,43.5025],[-72.3958,43.5206],[-72.3296,43.6002],[-71.9352,43.5284],[-72.0538,43.4411]]]}}]}