{"type":"FeatureCollection","features":[{"type":"Feature","id":"34001","properties":{"name":"Atlantic","fips":"34001"},"geometry":{"type":"Polygon","coordinates":[[[-74.8772,39.6083],[-74.8011,39.6741],[-74.7363,39.7299],[-74.622,39.6266],[-74.4796,39.556],[-74.4174,39.5573],[-74.3125,39.4999],[-74.3137,39.4939],[-74.3083,39.4839],[-74.3048,39.4829],[-74.3022,39.4789],[-74.3043,39.4714],[-74.3348,39.432],[-74.367,39.402],[-74.4067,39.3775],[-74.4068,39.3739],[-74.4082,39.3651],[-74.4127,39.3608],[-74.4599,39.345],[-74.5218,39.3138],[-74.5414,39.3002],[-74.6997,39.2896],[-74.8611,39.3238],[-74.8559,39.4246],[-74.9852,39.5148],[-74.9116,39.5786],[-74.8772,39.6083]]]}},{"type":"Feature","id":"34003","properties":{"name":"Bergen","fips":"34003"},"geometry":{"type":"Polygon","coordinates":[[[-74.2134,41.1338],[-74.0968,41.0838],[-74.0925,41.0819],[-74.0411,41.0591],[-74.041,41.0591],[-73.9119,41.0013],[-73.9027,40.9973],[-73.894,40.9972],[-73.9179,40.9176],[-73.9197,40.9135],[-73.9275,40.8957],[-73.9334,40.8821],[-73.9334,40.8821],[-73.9381,40.8747],[-73.9483,40.8584],[-73.9869,40.7983],[-74.0172,40.8235],[-74.045,40.8077],[-74.1475,40.7865],[-74.1385,40.7987],[-74.1398,40.8031],[-74.1365,40.8182],[-74.13,40.82],[-74.1481,40.9416],[-74.1482,40.9423],[-74.1464,40.9484],[-74.141,40.9663],[-74.1702,40.9839],[-74.171,40.977],[-74.2705,41.0221],[-74.2134,41.1338]]]}},{"type":"Feature","id":"34005","properties":{"name":"Burlington","fips":"34005"},"geometry":{"type":"Polygon","coordinates":[[[-74.9002,40.0771],[-74.838,40.1009],[-74.7406,40.1352],[-74.7243,40.147],[-74.7242,40.1473],[-74.5948,40.1379],[-74.594,40.1375],[-74.5934,40.1379],[-74.5927,40.1378],[-74.5925,40.1385],[-74.5918,40.138],[-74.5912,40.1379],[-74.59,40.1389],[-74.5896,40.1387],[-74.5896,40.1382],[-74.5893,40.1381],[-74.5878,40.1382],[-74.5531,40.0791],[-74.5288,40.037],[-74.4347,39.8548],[-74.3899,39.7734],[-74.3904,39.596],[-74.4174,39.5573],[-74.4796,39.556],[-74.622,39.6266],[-74.7363,39.7299],[-74.7581,39.7437],[-74.7729,39.7509],[-74.7915,39.7721],[-74.8125,39.7853],[-74.8452,39.79],[-74.8765,39.7816],[-74.8891,39.7818],[-74.9025,39.7908],[-74.9033,39.7912],[-74.9269,39.8738],[-74.9322,39.8875],[-74.9518,39.9015],[-74.9641,39.9207],[-74.9837,39.9269],[-74.9845,39.9312],[-74.9749,39.9384],[-74.9889,39.941],[-74.9944,39.9393],[-75.015,39.9465],[-75.0135,39.9542],[-75.0131,39.9564],[-75.0175,39.9591],[-75.0167,39.9606],[-75.0175,39.9635],[-75.0187,39.9637],[-75.0192,39.9675],[-75.0101,39.9798],[-75.0355,39.996],[-75.056,39.9918],[-75.0143,40.021],[-74.9747,40.0487],[-74.9743,40.0489],[-74.9002,40.0771]]]}},{"type":"Feature","id":"34007","properties":{"name":"Camden","fips":"34007"},"geometry":{"type":"Polygon","coordinates":[[[-75.1332,39.9225],[-75.0858,39.9676],[-75.072,39.9806],[-75.056,39.9918],[-75.0355,39.996],[-75.0101,39.9798],[-75.0192,39.9675],[-75.0187,39.9637],[-75.0175,39.9635],[-75.0167,39.9606],[-75.0175,39.9591],[-75.0131,39.9564],[-75.0135,39.9542],[-75.015,39.9465],[-74.9944,39.9393],[-74.9889,39.941],[-74.9749,39.9384],[-74.9845,39.9312],[-74.9837,39.9269],[-74.9641,39.9207],[-74.9518,39.9015],[-74.9322,39.8875],[-74.9269,39.8738],[-74.9033,39.7912],[-74.9025,39.7908],[-74.8891,39.7818],[-74.8765,39.7816],[-74.8452,39.79],[-74.8125,39.7853],[-74.7915,39.7721],[-74.7729,39.7509],[-74.7581,39.7437],[-74.7363,39.7299],[-74.8011,39.6741],[-74.8772,39.6083],[-74.9306,39.6908],[-75.0871,39.7796],[-75.1539,39.9061],[-75.1332,39.9225]]]}},{"type":"Feature","id":"34009","properties":{"name":"Cape May","fips":"34009"},"geometry":{"type":"Polygon","coordinates":[[[-74.9149,39.1776],[-74.8611,39.3238],[-74.6997,39.2896],[-74.5414,39.3002],[-74.5512,39.2935],[-74.5534,39.2869],[-74.561,39.2787],[-74.581,39.2708],[-74.5979,39.2589],[-74.6145,39.2447],[-74.6363,39.2208],[-74.6466,39.212],[-74.6514,39.1986],[-74.6714,39.1798],[-74.7143,39.1198],[-74.7153,39.1169],[-74.7141,39.1146],[-74.7044,39.1079],[-74.7059,39.1029],[-74.7383,39.0747],[-74.7788,39.0231],[-74.7864,39.0001],[-74.7927,38.992],[-74.8079,38.9859],[-74.8194,38.9794],[-74.8507,38.9545],[-74.8645,38.9404],[-74.8652,38.9414],[-74.8705,38.9435],[-74.8823,38.9418],[-74.907,38.932],[-74.9204,38.9291],[-74.9336,38.9285],[-74.9635,38.9312],[-74.9673,38.9334],[-74.972,38.9404],[-74.9554,39.0013],[-74.9495,39.0156],[-74.9383,39.0352],[-74.9037,39.0874],[-74.8978,39.0988],[-74.8925,39.1132],[-74.8859,39.1436],[-74.8872,39.1588],[-74.9052,39.1749],[-74.9149,39.1776]]]}},{"type":"Feature","id":"34011","properties":{"name":"Cumberland","fips":"34011"},"geometry":{"type":"Polygon","coordinates":[[[-75.4073,39.382],[-75.3682,39.4565],[-75.2395,39.5592],[-75.0842,39.458],[-75.062,39.5686],[-74.9852,39.5148],[-74.8559,39.4246],[-74.8611,39.3238],[-74.9149,39.1776],[-74.9624,39.1902],[-74.9763,39.1923],[-74.998,39.1913],[-75.0262,39.1936],[-75.0289,39.1946],[-75.0278,39.1995],[-75.0236,39.2026],[-75.0234,39.2048],[-75.0264,39.2099],[-75.0357,39.2154],[-75.0417,39.2155],[-75.0478,39.2117],[-75.0523,39.2136],[-75.0625,39.2136],[-75.0864,39.2082],[-75.101,39.2117],[-75.1073,39.2114],[-75.1147,39.2076],[-75.1271,39.1898],[-75.1365,39.1794],[-75.1391,39.18],[-75.166,39.2018],[-75.1648,39.2166],[-75.1704,39.2346],[-75.1775,39.2427],[-75.2059,39.2626],[-75.2125,39.2628],[-75.2416,39.2741],[-75.2441,39.2777],[-75.2429,39.2806],[-75.2444,39.2857],[-75.2518,39.2999],[-75.2716,39.304],[-75.2826,39.2991],[-75.2853,39.2922],[-75.2889,39.2896],[-75.306,39.3017],[-75.3152,39.3106],[-75.3268,39.3325],[-75.3275,39.3393],[-75.3337,39.3453],[-75.342,39.3487],[-75.3556,39.3478],[-75.365,39.3414],[-75.39,39.3583],[-75.3943,39.3638],[-75.3952,39.3714],[-75.3993,39.3795],[-75.4073,39.382]]]}},{"type":"Feature","id":"34013","properties":{"name":"Essex","fips":"34013"},"geometry":{"type":"Polygon","coordinates":[[[-74.1648,40.7547],[-74.166,40.7452],[-74.162,40.736],[-74.117,40.7371],[-74.1171,40.7104],[-74.1128,40.7031],[-74.1229,40.6912],[-74.1367,40.6744],[-74.2016,40.6866],[-74.2225,40.7072],[-74.2859,40.7222],[-74.3012,40.7135],[-74.3021,40.7133],[-74.3027,40.7136],[-74.3037,40.7133],[-74.3054,40.7137],[-74.307,40.714],[-74.3076,40.7142],[-74.3088,40.7145],[-74.3094,40.7149],[-74.3098,40.7155],[-74.3117,40.7156],[-74.3128,40.7171],[-74.3138,40.718],[-74.3153,40.7186],[-74.316,40.7192],[-74.319,40.7192],[-74.3214,40.7191],[-74.3256,40.7171],[-74.3427,40.7252],[-74.3549,40.7345],[-74.3719,40.7392],[-74.3343,40.9053],[-74.2707,40.8969],[-74.2598,40.8838],[-74.2467,40.8808],[-74.13,40.82],[-74.1365,40.8182],[-74.1398,40.8031],[-74.1385,40.7987],[-74.1475,40.7865],[-74.1479,40.7847],[-74.1483,40.7799],[-74.1558,40.7708],[-74.1577,40.7661],[-74.1634,40.7594],[-74.1648,40.7547]]]}},{"type":"Feature","id":"34015","properties":{"name":"Gloucester","fips":"34015"},"geometry":{"type":"Polygon","coordinates":[[[-75.211,39.8657],[-75.2104,39.8659],[-75.185,39.8816],[-75.1539,39.9061],[-75.0871,39.7796],[-74.9306,39.6908],[-74.8772,39.6083],[-74.9116,39.5786],[-74.9852,39.5148],[-75.062,39.5686],[-75.1997,39.6669],[-75.3265,39.69],[-75.3782,39.7458],[-75.4406,39.7809],[-75.4379,39.7834],[-75.4161,39.7958],[-75.415,39.8018],[-75.3902,39.8165],[-75.3746,39.8258],[-75.3065,39.8498],[-75.2712,39.8494],[-75.235,39.8566],[-75.211,39.8657]]]}},{"type":"Feature","id":"34017","properties":{"name":"Hudson","fips":"34017"},"geometry":{"type":"Polygon","coordinates":[[[-73.9869,40.7983],[-73.993,40.7887],[-74.0009,40.7765],[-74.0092,40.7636],[-74.0138,40.7566],[-74.0245,40.7094],[-74.0385,40.7107],[-74.0512,40.6958],[-74.0699,40.6845],[-74.0828,40.6737],[-74.09,40.6599],[-74.0874,40.6536],[-74.0941,40.6497],[-74.1434,40.6419],[-74.1614,40.6441],[-74.1603,40.6459],[-74.153,40.6548],[-74.1367,40.6744],[-74.1229,40.6912],[-74.1128,40.7031],[-74.1171,40.7104],[-74.117,40.7371],[-74.162,40.736],[-74.166,40.7452],[-74.1648,40.7547],[-74.1634,40.7594],[-74.1577,40.7661],[-74.1558,40.7708],[-74.1483,40.7799],[-74.1479,40.7847],[-74.1475,40.7865],[-74.045,40.8077],[-74.0172,40.8235],[-73.9869,40.7983]]]}},{"type":"Feature","id":"34019","properties":{"name":"Hunterdon","fips":"34019"},"geometry":{"type":"Polygon","coordinates":[[[-74.7244,40.7195],[-74.7131,40.5839],[-74.7825,40.4878],[-74.7481,40.4242],[-74.8563,40.3467],[-74.938,40.3406],[-75.0248,40.4035],[-75.0355,40.4063],[-75.0588,40.4181],[-75.0615,40.4228],[-75.0706,40.4552],[-75.0659,40.5195],[-75.0651,40.5261],[-75.0673,40.5364],[-75.0686,40.5422],[-75.1003,40.5678],[-75.1173,40.5732],[-75.1354,40.5756],[-75.1474,40.5732],[-75.1902,40.5893],[-75.1909,40.5913],[-74.9685,40.7108],[-74.8898,40.7878],[-74.7244,40.7195]]]}},{"type":"Feature","id":"34021","properties":{"name":"Mercer","fips":"34021"},"geometry":{"type":"Polygon","coordinates":[[[-74.7242,40.1473],[-74.7216,40.1538],[-74.7223,40.1606],[-74.7586,40.2013],[-74.7707,40.2149],[-74.8605,40.2846],[-74.938,40.3406],[-74.8563,40.3467],[-74.7481,40.4242],[-74.7222,40.3751],[-74.6227,40.3844],[-74.6175,40.3779],[-74.6196,40.3744],[-74.5726,40.3011],[-74.4843,40.2533],[-74.5878,40.1382],[-74.5893,40.1381],[-74.5896,40.1382],[-74.5896,40.1387],[-74.59,40.1389],[-74.5912,40.1379],[-74.5918,40.138],[-74.5925,40.1385],[-74.5927,40.1378],[-74.5934,40.1379],[-74.594,40.1375],[-74.5948,40.1379],[-74.7242,40.1473]]]}},{"type":"Feature","id":"34023","properties":{"name":"Middlesex","fips":"34023"},"geometry":{"type":"Polygon","coordinates":[[[-74.4905,40.523],[-74.4954,40.5294],[-74.4994,40.532],[-74.5033,40.5341],[-74.5127,40.5405],[-74.5146,40.5427],[-74.5158,40.545],[-74.4634,40.5992],[-74.4568,40.5955],[-74.4373,40.5972],[-74.4247,40.5985],[-74.4161,40.5989],[-74.3999,40.6006],[-74.3946,40.6009],[-74.3728,40.6023],[-74.3034,40.6089],[-74.2914,40.5919],[-74.2581,40.6022],[-74.2558,40.6022],[-74.2538,40.601],[-74.2478,40.6001],[-74.2317,40.5989],[-74.2151,40.6041],[-74.2067,40.5946],[-74.209,40.5763],[-74.2148,40.5606],[-74.2182,40.5572],[-74.2316,40.5592],[-74.2486,40.5496],[-74.2514,40.5423],[-74.2462,40.521],[-74.2683,40.4992],[-74.27,40.495],[-74.2727,40.4884],[-74.2676,40.4718],[-74.2619,40.4647],[-74.2367,40.4578],[-74.225,40.4533],[-74.3607,40.3184],[-74.3786,40.3041],[-74.3811,40.3015],[-74.3941,40.2885],[-74.3935,40.2796],[-74.4081,40.2738],[-74.4608,40.2514],[-74.4843,40.2533],[-74.5726,40.3011],[-74.6196,40.3744],[-74.4943,40.4698],[-74.4932,40.4708],[-74.4895,40.4744],[-74.4599,40.491],[-74.4905,40.523]]]}},{"type":"Feature","id":"34025","properties":{"name":"Monmouth","fips":"34025"},"geometry":{"type":"Polygon","coordinates":[[[-74.4081,40.2738],[-74.3935,40.2796],[-74.3941,40.2885],[-74.3811,40.3015],[-74.3786,40.3041],[-74.3607,40.3184],[-74.225,40.4533],[-74.224,40.4529],[-74.223,40.4525],[-74.2098,40.4474],[-74.2062,40.4407],[-74.2064,40.4388],[-74.2087,40.4375],[-74.2072,40.4354],[-74.2021,40.4389],[-74.1939,40.441],[-74.1913,40.443],[-74.1878,40.4474],[-74.1748,40.4556],[-74.1749,40.4545],[-74.1751,40.4491],[-74.1768,40.4477],[-74.1753,40.4466],[-74.17,40.4506],[-74.167,40.4487],[-74.1662,40.4471],[-74.164,40.4483],[-74.1633,40.4484],[-74.1578,40.4466],[-74.1536,40.4476],[-74.1527,40.4473],[-74.152,40.4481],[-74.1429,40.4504],[-74.1399,40.4534],[-74.1384,40.4545],[-74.1358,40.4552],[-74.1337,40.4547],[-74.1311,40.4532],[-74.1275,40.4511],[-74.1247,40.4496],[-74.1223,40.4483],[-74.1169,40.4461],[-74.0881,40.4384],[-74.0762,40.4337],[-74.059,40.4227],[-74.0479,40.4189],[-74.0064,40.4111],[-73.9985,40.4109],[-73.9955,40.4195],[-73.9917,40.4429],[-74.0061,40.4646],[-74.0178,40.4722],[-74.0179,40.4743],[-74.014,40.4765],[-74.0071,40.4753],[-73.9957,40.4687],[-73.9783,40.4402],[-73.977,40.4085],[-73.9714,40.3717],[-73.9714,40.348],[-73.9774,40.2994],[-73.9817,40.2794],[-73.9933,40.2377],[-74.016,40.1669],[-74.0302,40.1228],[-74.0341,40.1031],[-74.0319,40.101],[-74.108,40.1369],[-74.2244,40.109],[-74.2638,40.1683],[-74.4068,40.1724],[-74.5531,40.0791],[-74.5878,40.1382],[-74.4843,40.2533],[-74.4608,40.2514],[-74.4081,40.2738]]]}},{"type":"Feature","id":"34027","properties":{"name":"Morris","fips":"34027"},"geometry":{"type":"Polygon","coordinates":[[[-74.7679,40.9118],[-74.653,40.9216],[-74.536,41.0585],[-74.5049,41.0848],[-74.5029,41.0859],[-74.3346,41.0037],[-74.3152,41.002],[-74.3098,40.9985],[-74.3003,41.0027],[-74.2707,40.8969],[-74.3343,40.9053],[-74.3719,40.7392],[-74.4612,40.6734],[-74.47,40.6679],[-74.4843,40.6661],[-74.4841,40.6634],[-74.5039,40.6596],[-74.5105,40.6503],[-74.5236,40.6497],[-74.5344,40.6673],[-74.5136,40.6973],[-74.5268,40.7109],[-74.5288,40.7281],[-74.549,40.741],[-74.5558,40.758],[-74.7244,40.7195],[-74.8898,40.7878],[-74.7679,40.9118]]]}},{"type":"Feature","id":"34029","properties":{"name":"Ocean","fips":"34029"},"geometry":{"type":"Polygon","coordinates":[[[-74.4174,39.5573],[-74.3904,39.596],[-74.3899,39.7734],[-74.4347,39.8548],[-74.5288,40.037],[-74.5531,40.0791],[-74.4068,40.1724],[-74.2638,40.1683],[-74.2244,40.109],[-74.108,40.1369],[-74.0319,40.101],[-74.0313,40.1005],[-74.0335,40.0995],[-74.0394,40.0814],[-74.0588,40.0012],[-74.0641,39.9792],[-74.0772,39.911],[-74.0909,39.8],[-74.0971,39.7678],[-74.0969,39.763],[-74.0989,39.7595],[-74.1014,39.7562],[-74.1137,39.7407],[-74.1417,39.6894],[-74.191,39.6251],[-74.2405,39.5549],[-74.249,39.548],[-74.2774,39.5141],[-74.2916,39.5077],[-74.311,39.5067],[-74.3125,39.4999],[-74.4174,39.5573]]]}},{"type":"Feature","id":"34031","properties":{"name":"Passaic","fips":"34031"},"geometry":{"type":"Polygon","coordinates":[[[-74.2345,41.1429],[-74.2134,41.1338],[-74.2705,41.0221],[-74.171,40.977],[-74.1702,40.9839],[-74.141,40.9663],[-74.1464,40.9484],[-74.1482,40.9423],[-74.1481,40.9416],[-74.13,40.82],[-74.2467,40.8808],[-74.2598,40.8838],[-74.2707,40.8969],[-74.3003,41.0027],[-74.3098,40.9985],[-74.3152,41.002],[-74.3346,41.0037],[-74.5029,41.0859],[-74.3659,41.2029],[-74.3657,41.2034],[-74.2345,41.1429]]]}},{"type":"Feature","id":"34033","properties":{"name":"Salem","fips":"34033"},"geometry":{"type":"Polygon","coordinates":[[[-75.4406,39.7809],[-75.3782,39.7458],[-75.3265,39.69],[-75.1997,39.6669],[-75.062,39.5686],[-75.0842,39.458],[-75.2395,39.5592],[-75.3682,39.4565],[-75.4073,39.382],[-75.4221,39.3865],[-75.4318,39.3916],[-75.4424,39.4023],[-75.4652,39.4389],[-75.4763,39.4381],[-75.4836,39.4408],[-75.5057,39.4529],[-75.5084,39.4591],[-75.5364,39.4606],[-75.5429,39.4704],[-75.5444,39.4796],[-75.5427,39.4966],[-75.5281,39.4981],[-75.5271,39.5001],[-75.5148,39.5626],[-75.5119,39.5676],[-75.5127,39.578],[-75.5257,39.584],[-75.5311,39.588],[-75.5345,39.5904],[-75.5372,39.5929],[-75.5395,39.5943],[-75.5399,39.5944],[-75.544,39.596],[-75.5454,39.5968],[-75.5559,39.6058],[-75.5594,39.6298],[-75.5268,39.6557],[-75.5263,39.6564],[-75.5093,39.6853],[-75.5097,39.6861],[-75.504,39.6983],[-75.4754,39.7311],[-75.4742,39.7355],[-75.4692,39.7436],[-75.4663,39.7507],[-75.4662,39.7508],[-75.4481,39.774],[-75.4406,39.7809]]]}},{"type":"Feature","id":"34035","properties":{"name":"Somerset","fips":"34035"},"geometry":{"type":"Polygon","coordinates":[[[-74.7825,40.4878],[-74.7131,40.5839],[-74.7244,40.7195],[-74.5558,40.758],[-74.549,40.741],[-74.5288,40.7281],[-74.5268,40.7109],[-74.5136,40.6973],[-74.5344,40.6673],[-74.5236,40.6497],[-74.5105,40.6503],[-74.5039,40.6596],[-74.4841,40.6634],[-74.4843,40.6661],[-74.47,40.6679],[-74.4612,40.6734],[-74.4083,40.6442],[-74.417,40.6281],[-74.438,40.6099],[-74.4634,40.5992],[-74.5158,40.545],[-74.5146,40.5427],[-74.5127,40.5405],[-74.5033,40.5341],[-74.4994,40.532],[-74.4954,40.5294],[-74.4905,40.523],[-74.4599,40.491],[-74.4895,40.4744],[-74.4932,40.4708],[-74.4943,40.4698],[-74.6196,40.3744],[-74.6175,40.3779],[-74.6227,40.3844],[-74.7222,40.3751],[-74.7481,40.4242],[-74.7825,40.4878]]]}},{"type":"Feature","id":"34037","properties":{"name":"Sussex","fips":"34037"},"geometry":{"type":"Polygon","coordinates":[[[-74.9694,41.0961],[-74.9743,41.1039],[-74.9232,41.1381],[-74.8821,41.1808],[-74.8673,41.2088],[-74.8644,41.2249],[-74.8673,41.2289],[-74.8617,41.2416],[-74.8384,41.2773],[-74.8301,41.2872],[-74.7958,41.319],[-74.7617,41.3364],[-74.6949,41.3574],[-74.4576,41.2482],[-74.3921,41.2156],[-74.3657,41.2034],[-74.3659,41.2029],[-74.5029,41.0859],[-74.5049,41.0848],[-74.536,41.0585],[-74.653,40.9216],[-74.7679,40.9118],[-74.7892,40.9313],[-74.9663,41.094],[-74.9674,41.094],[-74.9694,41.0961]]]}},{"type":"Feature","id":"34039","properties":{"name":"Union","fips":"34039"},"geometry":{"type":"Polygon","coordinates":[[[-74.2067,40.5946],[-74.2151,40.6041],[-74.2317,40.5989],[-74.2478,40.6001],[-74.2538,40.601],[-74.2558,40.6022],[-74.2581,40.6022],[-74.2914,40.5919],[-74.3034,40.6089],[-74.3728,40.6023],[-74.3946,40.6009],[-74.3999,40.6006],[-74.4161,40.5989],[-74.4247,40.5985],[-74.4373,40.5972],[-74.4568,40.5955],[-74.4634,40.5992],[-74.438,40.6099],[-74.417,40.6281],[-74.4083,40.6442],[-74.4612,40.6734],[-74.3719,40.7392],[-74.3549,40.7345],[-74.3427,40.7252],[-74.3256,40.7171],[-74.3214,40.7191],[-74.319,40.7192],[-74.316,40.7192],[-74.3153,40.7186],[-74.3138,40.718],[-74.3128,40.7171],[-74.3117,40.7156],[-74.3098,40.7155],[-74.3094,40.7149],[-74.3088,40.7145],[-74.3076,40.7142],[-74.307,40.714],[-74.3054,40.7137],[-74.3037,40.7133],[-74.3027,40.7136],[-74.3021,40.7133],[-74.3012,40.7135],[-74.2859,40.7222],[-74.2225,40.7072],[-74.2016,40.6866],[-74.1367,40.6744],[-74.153,40.6548],[-74.1603,40.6459],[-74.1614,40.6441],[-74.1811,40.6465],[-74.186,40.6461],[-74.1891,40.6438],[-74.2022,40.6311],[-74.2067,40.5946]]]}},{"type":"Feature","id":"34041","properties":{"name":"Warren","fips":"34041"},"geometry":{"type":"Polygon","coordinates":[[[-74.9807,41.0782],[-74.9684,41.0878],[-74.9668,41.0934],[-74.9674,41.094],[-74.9663,41.094],[-74.7892,40.9313],[-74.7679,40.9118],[-74.8898,40.7878],[-74.9685,40.7108],[-75.1909,40.5913],[-75.1968,40.6086],[-75.2007,40.6184],[-75.2039,40.6915],[-75.1965,40.7516],[-75.1716,40.7777],[-75.1637,40.7784],[-75.1494,40.7748],[-75.1344,40.7738],[-75.1085,40.7911],[-75.0533,40.8599],[-75.051,40.8657],[-75.0525,40.8721],[-75.1178,40.953],[-75.1199,40.9616],[-75.1203,40.9626],[-75.1204,40.9683],[-75.1206,40.9683],[-75.1314,40.9693],[-75.1355,40.9738],[-75.1306,40.9911],[-75.1091,41.0041],[-75.0914,41.0123],[-75.0693,41.0193],[-75.0518,41.0271],[-75.037,41.0347],[-75.026,41.0427],[-74.9807,41.0782]]]}}]}