{"type":"FeatureCollection","features":[{"type":"Feature","id":"35001","properties":{"name":"Bernalillo","fips":"35001"},"geometry":{"type":"Polygon","coordinates":[[[-106.4145,34.8922],[-106.6859,34.9061],[-106.7207,34.8701],[-107.0248,34.8703],[-107.0667,34.9572],[-107.1962,35.2193],[-106.962,35.2184],[-106.7632,35.2181],[-106.7299,35.2181],[-106.5987,35.2179],[-106.2448,35.2152],[-106.2437,35.0412],[-106.2439,35.0401],[-106.2439,34.9533],[-106.1502,34.9534],[-106.1496,34.8701],[-106.411,34.8703],[-106.411,34.8895],[-106.4145,34.8922]]]}},{"type":"Feature","id":"35003","properties":{"name":"Catron","fips":"35003"},"geometry":{"type":"Polygon","coordinates":[[[-108.0006,33.2016],[-108.45,33.201],[-109.0472,33.209],[-109.0468,33.3653],[-109.0469,33.3656],[-109.047,33.3693],[-109.0469,33.3727],[-109.0466,33.7782],[-109.0462,34.5224],[-109.0462,34.5226],[-109.0462,34.5793],[-107.7249,34.5781],[-107.7255,34.2598],[-107.7163,34.2599],[-107.7127,33.4769],[-108.0006,33.478],[-108.0006,33.2016]]]}},{"type":"Feature","id":"35005","properties":{"name":"Chaves","fips":"35005"},"geometry":{"type":"Polygon","coordinates":[[[-103.9459,34.0828],[-103.8416,34.0817],[-103.8419,33.8193],[-103.7168,33.8193],[-103.7183,33.6561],[-103.5097,33.6572],[-103.5103,33.5703],[-103.7207,33.5697],[-103.7214,33.3959],[-103.7664,33.3955],[-103.7663,32.9652],[-103.8146,32.9652],[-103.8289,32.9655],[-104.8412,32.9633],[-104.842,32.5207],[-104.8515,32.5205],[-105.3539,32.5188],[-105.3525,32.962],[-105.3162,32.962],[-105.3169,33.1322],[-104.9058,33.1386],[-104.9038,33.3062],[-104.8852,33.3063],[-104.8931,34.0883],[-104.7862,34.0878],[-104.786,34.0001],[-104.1563,33.9954],[-104.1558,34.0833],[-103.9459,34.0828]]]}},{"type":"Feature","id":"35006","properties":{"name":"Cibola","fips":"35006"},"geometry":{"type":"Polygon","coordinates":[[[-109.0459,34.9597],[-108.4693,34.959],[-108.4686,35.2992],[-108.4686,35.3068],[-107.7342,35.3049],[-107.7341,35.3483],[-107.6282,35.3483],[-107.6283,35.3048],[-107.31,35.3052],[-107.2392,35.3054],[-107.1962,35.2193],[-107.0667,34.9572],[-107.203,34.9581],[-107.2044,34.5788],[-107.7249,34.5781],[-109.0462,34.5793],[-109.0459,34.9597]]]}},{"type":"Feature","id":"35007","properties":{"name":"Colfax","fips":"35007"},"geometry":{"type":"Polygon","coordinates":[[[-105.1208,36.9954],[-105.0006,36.9933],[-104.7321,36.9935],[-104.732,36.9934],[-104.0079,36.9962],[-104.0089,36.218],[-104.4361,36.2188],[-104.8655,36.218],[-104.8652,36.2611],[-105.3409,36.2622],[-105.3273,36.4054],[-105.3568,36.4495],[-105.3187,36.4917],[-105.3777,36.5521],[-105.3706,36.681],[-105.3118,36.7245],[-105.2306,36.7238],[-105.2206,36.9952],[-105.155,36.9953],[-105.1208,36.9954]]]}},{"type":"Feature","id":"35009","properties":{"name":"Curry","fips":"35009"},"geometry":{"type":"Polygon","coordinates":[[[-103.0425,34.9541],[-103.0425,34.8995],[-103.0428,34.8502],[-103.0428,34.7922],[-103.0428,34.7474],[-103.0428,34.6712],[-103.0431,34.6198],[-103.0436,34.4627],[-103.0436,34.4598],[-103.0436,34.4597],[-103.0436,34.4557],[-103.0435,34.4055],[-103.0436,34.4007],[-103.0436,34.3971],[-103.0436,34.3937],[-103.0436,34.3904],[-103.0436,34.3887],[-103.0436,34.385],[-103.0436,34.3847],[-103.0437,34.3836],[-103.0439,34.3809],[-103.0439,34.3797],[-103.0439,34.3796],[-103.044,34.3128],[-103.044,34.3127],[-103.0439,34.3026],[-103.74,34.3031],[-103.7382,34.6047],[-103.7065,34.6049],[-103.7058,34.6925],[-103.496,34.6915],[-103.4954,34.7787],[-103.3903,34.7781],[-103.3894,34.8653],[-103.2842,34.865],[-103.283,34.954],[-103.0425,34.9541]]]}},{"type":"Feature","id":"35011","properties":{"name":"De Baca","fips":"35011"},"geometry":{"type":"Polygon","coordinates":[[[-103.9488,34.6051],[-103.9459,34.0828],[-104.1558,34.0833],[-104.1563,33.9954],[-104.786,34.0001],[-104.7862,34.0878],[-104.8931,34.0883],[-104.8919,34.347],[-104.892,34.6044],[-104.4449,34.6048],[-104.3401,34.7791],[-104.1294,34.7793],[-104.1289,34.6052],[-103.9488,34.6051]]]}},{"type":"Feature","id":"35013","properties":{"name":"Do\u00f1a Ana","fips":"35013"},"geometry":{"type":"Polygon","coordinates":[[[-106.3772,32.0015],[-106.3943,32.0015],[-106.4111,32.0013],[-106.5651,32.0007],[-106.5661,32.0008],[-106.588,32.0007],[-106.5953,32.0008],[-106.5986,32.0008],[-106.5991,32.0007],[-106.6147,31.956],[-106.6161,31.9484],[-106.6278,31.8606],[-106.6258,31.8563],[-106.6219,31.8529],[-106.6146,31.8465],[-106.6058,31.8463],[-106.6052,31.8459],[-106.5668,31.8133],[-106.5634,31.8126],[-106.5453,31.805],[-106.5447,31.8043],[-106.5421,31.8021],[-106.5421,31.8021],[-106.5358,31.7986],[-106.5353,31.7975],[-106.5352,31.7971],[-106.5347,31.7961],[-106.533,31.7919],[-106.533,31.7918],[-106.5325,31.7919],[-106.5305,31.7921],[-106.5279,31.7905],[-106.5277,31.7898],[-106.5276,31.7891],[-106.528,31.7869],[-106.5285,31.7844],[-106.5285,31.7839],[-106.7505,31.7837],[-106.7505,31.7839],[-106.9935,31.7837],[-106.9982,31.7837],[-107.0006,31.7837],[-107.0006,31.7835],[-107.2968,31.7838],[-107.2995,32.6055],[-107.2994,32.7806],[-106.8877,32.7793],[-106.8879,32.8228],[-106.3405,33.0528],[-106.3407,32.9582],[-106.3766,32.9579],[-106.3772,32.0015]]]}},{"type":"Feature","id":"35015","properties":{"name":"Eddy","fips":"35015"},"geometry":{"type":"Polygon","coordinates":[[[-104.0245,32.0],[-104.5318,32.0001],[-104.5319,32.0003],[-104.6409,32.0004],[-104.6435,32.0004],[-104.8478,32.0005],[-104.8515,32.5205],[-104.842,32.5207],[-104.8412,32.9633],[-103.8289,32.9655],[-103.8146,32.9652],[-103.814,32.5225],[-103.7229,32.5226],[-103.7229,32.0002],[-103.9802,32.0001],[-104.0245,32.0]]]}},{"type":"Feature","id":"35017","properties":{"name":"Grant","fips":"35017"},"geometry":{"type":"Polygon","coordinates":[[[-107.6083,32.6054],[-107.9235,32.6044],[-107.9235,32.5173],[-108.2293,32.517],[-108.2172,31.8641],[-108.5247,31.8637],[-108.5246,32.0797],[-108.5381,32.0798],[-108.537,32.5168],[-108.6472,32.5169],[-108.6464,32.6036],[-108.8531,32.6036],[-108.8544,32.7773],[-109.0471,32.7776],[-109.0471,32.7776],[-109.0475,33.0684],[-109.0475,33.0694],[-109.0469,33.0919],[-109.047,33.0929],[-109.0471,33.1376],[-109.0471,33.138],[-109.0472,33.209],[-108.45,33.201],[-108.0006,33.2016],[-107.8583,33.2009],[-107.8362,33.0678],[-107.8567,33.0025],[-107.7805,32.9528],[-107.7731,32.8538],[-107.7162,32.7627],[-107.7369,32.6295],[-107.6083,32.6054]]]}},{"type":"Feature","id":"35019","properties":{"name":"Guadalupe","fips":"35019"},"geometry":{"type":"Polygon","coordinates":[[[-105.313,34.3467],[-105.3126,34.6071],[-105.2903,34.6067],[-105.2909,35.0421],[-105.2914,35.2163],[-104.1248,35.2156],[-104.1248,35.1422],[-104.1294,34.7793],[-104.3401,34.7791],[-104.4449,34.6048],[-104.892,34.6044],[-104.8919,34.347],[-105.313,34.3467]]]}},{"type":"Feature","id":"35021","properties":{"name":"Harding","fips":"35021"},"geometry":{"type":"Polygon","coordinates":[[[-103.375,35.74],[-103.3799,35.398],[-103.6371,35.3897],[-103.7246,35.4222],[-103.9769,35.8017],[-104.0213,35.7815],[-104.3674,35.7814],[-104.3897,35.8576],[-104.3274,35.9605],[-104.4361,36.2188],[-104.0089,36.218],[-104.009,36.1745],[-103.794,36.174],[-103.7943,36.0858],[-103.365,36.0864],[-103.375,35.74]]]}},{"type":"Feature","id":"35023","properties":{"name":"Hidalgo","fips":"35023"},"geometry":{"type":"Polygon","coordinates":[[[-109.0483,32.0891],[-109.0479,32.4264],[-109.0477,32.6814],[-109.0477,32.6863],[-109.0476,32.69],[-109.0476,32.6934],[-109.0471,32.7776],[-108.8544,32.7773],[-108.8531,32.6036],[-108.6464,32.6036],[-108.6472,32.5169],[-108.537,32.5168],[-108.5381,32.0798],[-108.5246,32.0797],[-108.5247,31.8637],[-108.2172,31.8641],[-108.2173,31.8203],[-108.21,31.8204],[-108.21,31.7837],[-108.2084,31.7836],[-108.2085,31.4998],[-108.2086,31.4997],[-108.2086,31.3334],[-108.8511,31.3323],[-108.861,31.3323],[-109.05,31.3325],[-109.0498,31.4995],[-109.0498,31.4995],[-109.0492,31.7966],[-109.0488,31.8108],[-109.0488,31.8614],[-109.0486,31.8708],[-109.0486,32.0137],[-109.0487,32.0282],[-109.0483,32.0841],[-109.0483,32.0891]]]}},{"type":"Feature","id":"35025","properties":{"name":"Lea","fips":"35025"},"geometry":{"type":"Polygon","coordinates":[[[-103.0567,33.3884],[-103.0575,33.3295],[-103.0579,33.3152],[-103.0601,33.2192],[-103.0639,33.0421],[-103.064,33.0387],[-103.0645,33.0103],[-103.0646,32.9999],[-103.0647,32.9644],[-103.0647,32.9591],[-103.0646,32.9],[-103.0647,32.8794],[-103.0649,32.8683],[-103.0648,32.8577],[-103.0649,32.8573],[-103.0649,32.8494],[-103.0647,32.8285],[-103.0647,32.8275],[-103.0647,32.7846],[-103.0647,32.7836],[-103.0648,32.7773],[-103.0648,32.7266],[-103.0648,32.7087],[-103.0648,32.6908],[-103.0649,32.6826],[-103.0646,32.6464],[-103.0648,32.6245],[-103.0648,32.6019],[-103.0648,32.6004],[-103.0648,32.588],[-103.0647,32.5222],[-103.0644,32.145],[-103.0643,32.123],[-103.0643,32.0871],[-103.0644,32.0005],[-103.0859,32.0005],[-103.0887,32.0005],[-103.2156,32.0005],[-103.2676,32.0005],[-103.2677,32.0003],[-103.2704,32.0003],[-103.2785,32.0004],[-103.3265,32.0004],[-103.7229,32.0002],[-103.7229,32.5226],[-103.814,32.5225],[-103.8146,32.9652],[-103.7663,32.9652],[-103.7664,33.3955],[-103.7214,33.3959],[-103.7207,33.5697],[-103.5103,33.5703],[-103.0526,33.5706],[-103.0567,33.3884],[-103.0567,33.3884]]]}},{"type":"Feature","id":"35027","properties":{"name":"Lincoln","fips":"35027"},"geometry":{"type":"Polygon","coordinates":[[[-105.313,34.3467],[-104.8919,34.347],[-104.8931,34.0883],[-104.8852,33.3063],[-104.9038,33.3062],[-104.9058,33.1386],[-105.3169,33.1322],[-105.319,33.3051],[-105.726,33.3048],[-105.7273,33.3905],[-106.3459,33.3908],[-106.3722,33.3909],[-106.3731,33.4801],[-106.3739,33.6604],[-106.0528,33.6503],[-106.0528,33.8259],[-105.9247,33.8256],[-105.924,34.26],[-105.3132,34.26],[-105.313,34.3467]]]}},{"type":"Feature","id":"35028","properties":{"name":"Los Alamos","fips":"35028"},"geometry":{"type":"Polygon","coordinates":[[[-106.2482,35.7557],[-106.4007,35.8076],[-106.3996,35.9601],[-106.2479,35.9663],[-106.2481,35.9594],[-106.2455,35.9593],[-106.2454,35.9309],[-106.2483,35.8392],[-106.1717,35.8282],[-106.2482,35.7557]]]}},{"type":"Feature","id":"35029","properties":{"name":"Luna","fips":"35029"},"geometry":{"type":"Polygon","coordinates":[[[-107.2968,31.7838],[-107.4222,31.7836],[-107.4225,31.7836],[-108.2084,31.7836],[-108.21,31.7837],[-108.21,31.8204],[-108.2173,31.8203],[-108.2172,31.8641],[-108.2293,32.517],[-107.9235,32.5173],[-107.9235,32.6044],[-107.6083,32.6054],[-107.2995,32.6055],[-107.2968,31.7838]]]}},{"type":"Feature","id":"35031","properties":{"name":"McKinley","fips":"35031"},"geometry":{"type":"Polygon","coordinates":[[[-108.4686,35.2992],[-108.4693,34.959],[-109.0459,34.9597],[-109.0461,35.1747],[-109.0465,35.5463],[-109.0465,35.5464],[-109.0463,35.6143],[-109.0463,35.6165],[-109.046,35.8798],[-109.0461,35.8887],[-109.0461,35.9259],[-109.046,35.9259],[-109.046,36.0023],[-107.6265,36.0003],[-107.3082,35.9987],[-107.3066,35.4185],[-107.3096,35.419],[-107.31,35.3052],[-107.6283,35.3048],[-107.6282,35.3483],[-107.7341,35.3483],[-107.7342,35.3049],[-108.4686,35.3068],[-108.4686,35.2992]]]}},{"type":"Feature","id":"35033","properties":{"name":"Mora","fips":"35033"},"geometry":{"type":"Polygon","coordinates":[[[-105.5304,36.013],[-105.42,36.1317],[-105.4097,36.2368],[-105.3409,36.2622],[-104.8652,36.2611],[-104.8655,36.218],[-104.4361,36.2188],[-104.3274,35.9605],[-104.3897,35.8576],[-104.3674,35.7814],[-105.0188,35.7694],[-105.0255,35.7542],[-105.11,35.8079],[-105.3478,35.8707],[-105.7203,35.871],[-105.7205,35.875],[-105.7174,35.9788],[-105.5724,35.9725],[-105.5304,36.013]]]}},{"type":"Feature","id":"35035","properties":{"name":"Otero","fips":"35035"},"geometry":{"type":"Polygon","coordinates":[[[-105.998,32.0023],[-106.0998,32.0022],[-106.1818,32.002],[-106.2007,32.0018],[-106.2059,32.0018],[-106.3133,32.0015],[-106.3772,32.0015],[-106.3766,32.9579],[-106.3407,32.9582],[-106.3405,33.0528],[-106.3459,33.3908],[-105.7273,33.3905],[-105.726,33.3048],[-105.319,33.3051],[-105.3169,33.1322],[-105.3162,32.962],[-105.3525,32.962],[-105.3539,32.5188],[-104.8515,32.5205],[-104.8478,32.0005],[-104.9183,32.0005],[-105.077,32.0006],[-105.0786,32.0005],[-105.118,32.0005],[-105.1314,32.0005],[-105.1329,32.0005],[-105.1482,32.0005],[-105.1503,32.0005],[-105.154,32.0005],[-105.3904,32.0006],[-105.427,32.0006],[-105.4286,32.0006],[-105.4293,32.0006],[-105.8862,32.002],[-105.9006,32.0021],[-105.998,32.0023]]]}},{"type":"Feature","id":"35037","properties":{"name":"Quay","fips":"35037"},"geometry":{"type":"Polygon","coordinates":[[[-103.0425,35.1356],[-103.0425,34.9541],[-103.283,34.954],[-103.2842,34.865],[-103.3894,34.8653],[-103.3903,34.7781],[-103.4954,34.7787],[-103.496,34.6915],[-103.7058,34.6925],[-103.7065,34.6049],[-103.7382,34.6047],[-103.9488,34.6051],[-104.1289,34.6052],[-104.1294,34.7793],[-104.1248,35.1422],[-103.8577,35.2641],[-103.8575,35.2422],[-103.6371,35.2409],[-103.6371,35.3897],[-103.3799,35.398],[-103.375,35.74],[-103.0414,35.7393],[-103.0416,35.6225],[-103.0425,35.2119],[-103.0424,35.1832],[-103.0424,35.1831],[-103.0424,35.1828],[-103.0423,35.1819],[-103.0424,35.1786],[-103.0426,35.1593],[-103.0427,35.1447],[-103.0426,35.1428],[-103.0425,35.1356]]]}},{"type":"Feature","id":"35039","properties":{"name":"Rio Arriba","fips":"35039"},"geometry":{"type":"Polygon","coordinates":[[[-107.6243,36.2198],[-107.6183,36.8047],[-107.6055,36.798],[-107.4514,36.904],[-107.4209,37.0],[-107.4209,37.0],[-107.0006,37.0],[-106.8698,36.9924],[-106.6756,36.9931],[-106.6613,36.9932],[-106.6287,36.9932],[-106.6287,36.9932],[-106.6171,36.993],[-106.6172,36.993],[-106.4762,36.9935],[-106.2487,36.9943],[-106.2477,36.9943],[-106.0066,36.9953],[-105.9719,36.8862],[-105.9844,36.8121],[-105.9725,36.6481],[-105.9388,36.4624],[-105.9598,36.3544],[-106.0584,36.297],[-105.8569,36.2304],[-105.7359,36.1001],[-105.5304,36.013],[-105.5724,35.9725],[-105.7174,35.9788],[-105.7168,36.0024],[-106.0714,36.002],[-106.0541,35.9308],[-106.2454,35.9309],[-106.2455,35.9593],[-106.2481,35.9594],[-106.2479,35.9663],[-106.2472,36.0015],[-106.8853,35.999],[-106.885,36.2166],[-107.6243,36.2198]]]}},{"type":"Feature","id":"35041","properties":{"name":"Roosevelt","fips":"35041"},"geometry":{"type":"Polygon","coordinates":[[[-103.0439,34.3026],[-103.0437,34.2894],[-103.0436,34.2569],[-103.0436,34.0879],[-103.0435,34.0794],[-103.0437,34.0631],[-103.0437,34.05],[-103.0438,34.0435],[-103.0437,34.0423],[-103.0438,34.0415],[-103.0437,34.0373],[-103.0436,34.0327],[-103.0435,34.018],[-103.0436,34.0036],[-103.0439,33.9746],[-103.0449,33.9456],[-103.0457,33.9063],[-103.0456,33.9015],[-103.0469,33.8503],[-103.0473,33.8247],[-103.0491,33.7463],[-103.0501,33.702],[-103.0505,33.6724],[-103.0511,33.6582],[-103.0515,33.6505],[-103.0514,33.642],[-103.0517,33.6295],[-103.0526,33.5706],[-103.5103,33.5703],[-103.5097,33.6572],[-103.7183,33.6561],[-103.7168,33.8193],[-103.8419,33.8193],[-103.8416,34.0817],[-103.9459,34.0828],[-103.9488,34.6051],[-103.7382,34.6047],[-103.74,34.3031],[-103.0439,34.3026]]]}},{"type":"Feature","id":"35045","properties":{"name":"San Juan","fips":"35045"},"geometry":{"type":"Polygon","coordinates":[[[-107.6243,36.2198],[-107.6265,36.0003],[-109.046,36.0023],[-109.0454,36.8746],[-109.0454,36.875],[-109.0453,36.9689],[-109.0452,36.9695],[-109.0452,36.9991],[-108.9589,36.9989],[-108.9544,36.9989],[-108.6203,36.9993],[-108.6197,36.9992],[-108.3792,36.9995],[-108.3207,36.9995],[-108.3205,36.9995],[-108.2884,36.9995],[-108.2881,36.9996],[-107.4817,37.0],[-107.4209,37.0],[-107.4514,36.904],[-107.6055,36.798],[-107.6183,36.8047],[-107.6243,36.2198]]]}},{"type":"Feature","id":"35047","properties":{"name":"San Miguel","fips":"35047"},"geometry":{"type":"Polygon","coordinates":[[[-105.2909,35.0421],[-105.7145,35.0416],[-105.7203,35.871],[-105.3478,35.8707],[-105.11,35.8079],[-105.0255,35.7542],[-105.0188,35.7694],[-104.3674,35.7814],[-104.0213,35.7815],[-103.9769,35.8017],[-103.7246,35.4222],[-103.6371,35.3897],[-103.6371,35.2409],[-103.8575,35.2422],[-103.8577,35.2641],[-104.1248,35.1422],[-104.1248,35.2156],[-105.2914,35.2163],[-105.2909,35.0421]]]}},{"type":"Feature","id":"35043","properties":{"name":"Sandoval","fips":"35043"},"geometry":{"type":"Polygon","coordinates":[[[-106.2448,35.2152],[-106.5987,35.2179],[-106.7299,35.2181],[-106.7632,35.2181],[-106.962,35.2184],[-107.1962,35.2193],[-107.2392,35.3054],[-107.31,35.3052],[-107.3096,35.419],[-107.3066,35.4185],[-107.3082,35.9987],[-107.6265,36.0003],[-107.6243,36.2198],[-106.885,36.2166],[-106.8853,35.999],[-106.2472,36.0015],[-106.2479,35.9663],[-106.3996,35.9601],[-106.4007,35.8076],[-106.2482,35.7557],[-106.2485,35.4432],[-106.2457,35.2385],[-106.2452,35.2318],[-106.2455,35.2297],[-106.2451,35.2283],[-106.2448,35.2152]]]}},{"type":"Feature","id":"35049","properties":{"name":"Santa Fe","fips":"35049"},"geometry":{"type":"Polygon","coordinates":[[[-106.1942,35.0403],[-106.2439,35.0401],[-106.2437,35.0412],[-106.2448,35.2152],[-106.2451,35.2283],[-106.2455,35.2297],[-106.2452,35.2318],[-106.2457,35.2385],[-106.2485,35.4432],[-106.2482,35.7557],[-106.1717,35.8282],[-106.2483,35.8392],[-106.2454,35.9309],[-106.0541,35.9308],[-106.0714,36.002],[-105.7168,36.0024],[-105.7174,35.9788],[-105.7205,35.875],[-105.7203,35.871],[-105.7145,35.0416],[-106.1942,35.0403]]]}},{"type":"Feature","id":"35051","properties":{"name":"Sierra","fips":"35051"},"geometry":{"type":"Polygon","coordinates":[[[-107.2995,32.6055],[-107.6083,32.6054],[-107.7369,32.6295],[-107.7162,32.7627],[-107.7731,32.8538],[-107.7805,32.9528],[-107.8567,33.0025],[-107.8362,33.0678],[-107.8583,33.2009],[-108.0006,33.2016],[-108.0006,33.478],[-107.7127,33.4769],[-106.4743,33.4758],[-106.3731,33.4801],[-106.3722,33.3909],[-106.3459,33.3908],[-106.3405,33.0528],[-106.8879,32.8228],[-106.8877,32.7793],[-107.2994,32.7806],[-107.2995,32.6055]]]}},{"type":"Feature","id":"35053","properties":{"name":"Socorro","fips":"35053"},"geometry":{"type":"Polygon","coordinates":[[[-107.2044,34.5788],[-106.8826,34.5795],[-106.7731,34.5333],[-106.417,34.4398],[-106.4159,34.2597],[-105.924,34.26],[-105.9247,33.8256],[-106.0528,33.8259],[-106.0528,33.6503],[-106.3739,33.6604],[-106.3731,33.4801],[-106.4743,33.4758],[-107.7127,33.4769],[-107.7163,34.2599],[-107.7255,34.2598],[-107.7249,34.5781],[-107.2044,34.5788]]]}},{"type":"Feature","id":"35055","properties":{"name":"Taos","fips":"35055"},"geometry":{"type":"Polygon","coordinates":[[[-105.2206,36.9952],[-105.2306,36.7238],[-105.3118,36.7245],[-105.3706,36.681],[-105.3777,36.5521],[-105.3187,36.4917],[-105.3568,36.4495],[-105.3273,36.4054],[-105.3409,36.2622],[-105.4097,36.2368],[-105.42,36.1317],[-105.5304,36.013],[-105.7359,36.1001],[-105.8569,36.2304],[-106.0584,36.297],[-105.9598,36.3544],[-105.9388,36.4624],[-105.9725,36.6481],[-105.9844,36.8121],[-105.9719,36.8862],[-106.0066,36.9953],[-105.9975,36.9954],[-105.9962,36.9954],[-105.7185,36.9958],[-105.7165,36.9958],[-105.6647,36.9959],[-105.6275,36.9957],[-105.5339,36.9959],[-105.5125,36.9958],[-105.5088,36.9959],[-105.4652,36.996],[-105.4473,36.996],[-105.4425,36.996],[-105.4193,36.9959],[-105.2206,36.9952]]]}},{"type":"Feature","id":"35057","properties":{"name":"Torrance","fips":"35057"},"geometry":{"type":"Polygon","coordinates":[[[-106.417,34.4398],[-106.4175,34.5217],[-106.47,34.5212],[-106.4645,34.8092],[-106.4642,34.8702],[-106.411,34.8703],[-106.1496,34.8701],[-106.1502,34.9534],[-106.2439,34.9533],[-106.2439,35.0401],[-106.1942,35.0403],[-105.7145,35.0416],[-105.2909,35.0421],[-105.2903,34.6067],[-105.3126,34.6071],[-105.313,34.3467],[-105.3132,34.26],[-105.924,34.26],[-106.4159,34.2597],[-106.417,34.4398]]]}},{"type":"Feature","id":"35059","properties":{"name":"Union","fips":"35059"},"geometry":{"type":"Polygon","coordinates":[[[-103.0408,36.0552],[-103.0414,35.7393],[-103.375,35.74],[-103.365,36.0864],[-103.7943,36.0858],[-103.794,36.174],[-104.009,36.1745],[-104.0089,36.218],[-104.0079,36.9962],[-103.7344,36.998],[-103.7332,36.998],[-103.0861,36.9999],[-103.0022,37.0001],[-103.0022,36.9116],[-103.002,36.9096],[-103.0022,36.7194],[-103.0025,36.6752],[-103.0023,36.6172],[-103.0022,36.6027],[-103.0026,36.5266],[-103.0024,36.5004],[-103.0417,36.4785],[-103.0417,36.3183],[-103.0417,36.3175],[-103.0408,36.0552]]]}},{"type":"Feature","id":"35061","properties":{"name":"Valencia","fips":"35061"},"geometry":{"type":"Polygon","coordinates":[[[-107.0667,34.9572],[-107.0248,34.8703],[-106.7207,34.8701],[-106.6859,34.9061],[-106.4145,34.8922],[-106.411,34.8895],[-106.411,34.8703],[-106.4642,34.8702],[-106.4645,34.8092],[-106.47,34.5212],[-106.4175,34.5217],[-106.417,34.4398],[-106.7731,34.5333],[-106.8826,34.5795],[-107.2044,34.5788],[-107.203,34.9581],[-107.0667,34.9572]]]}}]}