{"type":"FeatureCollection","features":[{"type":"Feature","geometry":{"type":"Polygon","coordinates":[[[-115.2164,35.8973],[-115.207,35.8973],[-115.2058,35.8085],[-115.2114,35.7291],[-115.2073,35.5903],[-114.6588,35.5883],[-114.6539,35.6117],[-114.6895,35.6514],[-114.6902,35.6652],[-114.681,35.6859],[-114.7056,35.7083],[-114.6943,35.7566],[-114.701,35.7697],[-114.6993,35.7905],[-114.712,35.8055],[-114.6953,35.8311],[-114.7059,35.8505],[-114.6616,35.8712],[-114.7081,35.9099],[-114.7076,35.928],[-114.7437,35.9849],[-114.7393,35.9918],[-114.7423,36.0103],[-114.7221,36.029],[-114.7334,36.0379],[-114.7413,36.038],[-114.7417,36.0479],[-114.7351,36.0544],[-114.7411,36.0655],[-114.7712,36.0821],[-114.8196,36.1078],[-114.8592,36.1203],[-114.8747,36.1325],[-114.9064,36.1218],[-114.9081,36.1009],[-114.9037,36.0994],[-114.9125,36.0879],[-114.9395,36.0776],[-114.9385,36.1021],[-114.9754,36.0898],[-114.9768,36.1592],[-114.991,36.1591],[-114.9905,36.202],[-115.0087,36.1988],[-115.0102,36.2025],[-115.0269,36.2025],[-115.0253,36.2182],[-115.0299,36.2183],[-115.0331,36.2106],[-115.0436,36.2109],[-115.0437,36.2035],[-115.0712,36.2033],[-115.0708,36.1885],[-115.1339,36.1884],[-115.1381,36.1711],[-115.1573,36.1437],[-115.1711,36.1443],[-115.1798,36.1335],[-115.1809,36.0935],[-115.1856,36.0936],[-115.1805,36.0767],[-115.1723,36.0711],[-115.1187,36.0716],[-115.1188,36.0862],[-115.0777,36.0837],[-115.0916,36.064],[-115.1005,36.0607],[-115.1003,36.0534],[-115.1182,36.0495],[-115.1137,36.0423],[-115.1183,36.0404],[-115.1184,36.0331],[-115.1139,36.0331],[-115.114,36.0276],[-115.1005,36.0278],[-115.1006,36.0205],[-115.1186,36.0205],[-115.1189,36.0034],[-115.1369,35.9991],[-115.1368,35.9908],[-115.1453,35.9847],[-115.1458,35.9938],[-115.1548,35.9929],[-115.1547,35.978],[-115.1816,35.9619],[-115.1846,35.9426],[-115.2164,35.8973]]]},"properties":{"name":"CD1","district_number":1,"fips":"32-01"}},{"type":"Feature","geometry":{"type":"Polygon","coordinates":[[[-120.0065,39.2777],[-120.001,38.9996],[-119.3301,38.536],[-119.3296,38.5881],[-119.3038,38.5837],[-119.2884,38.5698],[-119.2814,38.6129],[-119.2645,38.6339],[-119.3249,38.723],[-119.331,38.7373],[-119.3289,38.7883],[-119.3449,38.7819],[-119.3476,38.802],[-119.2919,38.802],[-119.2919,38.8053],[-119.2772,38.807],[-119.2827,38.802],[-119.2763,38.8021],[-119.2569,38.8102],[-119.2237,38.8075],[-119.1767,38.8378],[-119.1631,38.838],[-119.1631,38.8291],[-119.1537,38.8304],[-119.1445,38.8351],[-119.1448,38.845],[-119.0736,38.8469],[-119.0324,38.8384],[-119.0231,38.8409],[-119.0176,38.8482],[-119.0002,38.852],[-119.0145,38.852],[-119.0149,38.9441],[-118.9231,39.0694],[-118.9401,39.0697],[-118.9401,39.0793],[-118.9481,39.0839],[-118.9956,39.0839],[-118.9957,39.1116],[-119.0136,39.1126],[-119.0146,39.1223],[-119.0563,39.1198],[-119.1167,39.128],[-119.1123,39.1414],[-119.0992,39.1524],[-119.0879,39.1533],[-119.1021,39.1543],[-119.1073,39.1579],[-119.1073,39.1651],[-119.0498,39.165],[-119.0434,39.2399],[-119.049,39.2411],[-119.0426,39.2443],[-119.0398,39.2679],[-118.9815,39.2452],[-118.9801,39.2325],[-118.9671,39.226],[-118.9335,39.2269],[-118.9091,39.2346],[-118.909,39.2272],[-118.8907,39.2272],[-118.8908,39.1982],[-118.8668,39.1982],[-118.8667,39.1853],[-118.8481,39.1853],[-118.8481,39.1712],[-118.7924,39.1714],[-118.7927,39.1415],[-118.5702,39.1419],[-118.5703,39.1273],[-118.5333,39.1269],[-118.5332,39.1122],[-118.4777,39.1128],[-118.4775,39.0737],[-117.8651,39.0737],[-117.7755,39.0934],[-117.3319,39.1634],[-115.9071,39.1618],[-115.0008,38.6773],[-114.8363,38.6773],[-114.817,38.6458],[-114.8011,38.6412],[-114.7981,38.6264],[-114.7707,38.5936],[-114.7588,38.588],[-114.7322,38.5934],[-114.7212,38.5909],[-114.6986,38.5978],[-114.6477,38.586],[-114.6428,38.6278],[-114.6295,38.6774],[-114.0498,38.6774],[-114.0415,41.9939],[-114.5983,41.9946],[-114.8235,42.0018],[-115.0694,41.9961],[-117.1337,42.0004],[-118.7079,41.9921],[-119.9992,41.9949],[-119.9957,40.3758],[-120.0065,39.2777]]]},"properties":{"name":"CD2","district_number":2,"fips":"32-02"}},{"type":"Feature","geometry":{"type":"Polygon","coordinates":[[[-115.8455,35.9864],[-115.846,35.9637],[-115.2597,35.5035],[-114.6335,35.0019],[-114.6382,35.0221],[-114.6347,35.0337],[-114.6271,35.0447],[-114.6067,35.0589],[-114.6029,35.0686],[-114.6131,35.0831],[-114.6468,35.1019],[-114.6284,35.1189],[-114.5978,35.1217],[-114.5783,35.1288],[-114.5726,35.1396],[-114.5688,35.1722],[-114.5719,35.2002],[-114.5795,35.2089],[-114.5866,35.2624],[-114.5963,35.2919],[-114.5952,35.3242],[-114.5998,35.3411],[-114.6257,35.408],[-114.6528,35.4308],[-114.6629,35.4464],[-114.6657,35.4669],[-114.6732,35.4748],[-114.6786,35.4976],[-114.6757,35.5156],[-114.6646,35.5215],[-114.6568,35.535],[-114.6644,35.5684],[-114.6757,35.58],[-114.6588,35.5883],[-115.2073,35.5903],[-115.2114,35.7291],[-115.2058,35.8085],[-115.207,35.8973],[-115.2164,35.8973],[-115.1846,35.9426],[-115.1816,35.9619],[-115.1547,35.978],[-115.1548,35.9929],[-115.1458,35.9938],[-115.1453,35.9847],[-115.1368,35.9908],[-115.1369,35.9991],[-115.1189,36.0034],[-115.1186,36.0205],[-115.1006,36.0205],[-115.1005,36.0278],[-115.114,36.0276],[-115.1139,36.0331],[-115.1184,36.0331],[-115.1183,36.0404],[-115.1137,36.0423],[-115.1182,36.0495],[-115.1003,36.0534],[-115.1005,36.0607],[-115.0823,36.0736],[-115.0776,36.0856],[-115.1188,36.0862],[-115.1187,36.0716],[-115.1723,36.0711],[-115.1805,36.0767],[-115.1856,36.0936],[-115.1809,36.0935],[-115.1775,36.1371],[-115.1905,36.1364],[-115.1907,36.1427],[-115.1998,36.1446],[-115.243,36.1442],[-115.2447,36.2034],[-115.2514,36.2034],[-115.247,36.2256],[-115.2789,36.2262],[-115.2787,36.263],[-115.331,36.2626],[-115.3335,36.3209],[-115.3469,36.3237],[-115.4046,36.3057],[-115.424,36.2931],[-115.4235,36.1885],[-115.4144,36.1889],[-115.4136,36.1678],[-115.3951,36.1536],[-115.3883,36.1537],[-115.3878,36.145],[-115.4264,36.1292],[-115.4808,36.1461],[-115.5015,36.1623],[-115.5085,36.1626],[-115.5228,36.1541],[-115.5325,36.1305],[-115.5481,36.1274],[-115.5623,36.1116],[-115.5735,36.1089],[-115.5714,36.1552],[-115.5789,36.1671],[-115.6045,36.1676],[-115.6366,36.1605],[-115.6561,36.1652],[-115.6689,36.1609],[-115.6822,36.1477],[-115.7122,36.1436],[-115.7285,36.1476],[-115.7822,36.125],[-115.8458,36.122],[-115.8455,35.9864]]]},"properties":{"name":"CD3","district_number":3,"fips":"32-03"}},{"type":"Feature","geometry":{"type":"Polygon","coordinates":[[[-119.3476,38.8011],[-119.3449,38.7819],[-119.3289,38.7883],[-119.331,38.7373],[-119.3249,38.723],[-119.2645,38.6339],[-119.2814,38.6129],[-119.2884,38.5698],[-119.3038,38.5837],[-119.3296,38.5881],[-119.3301,38.5351],[-118.501,37.949],[-117.5001,37.2204],[-116.542,36.5],[-115.846,35.9637],[-115.8458,36.122],[-115.7822,36.125],[-115.7285,36.1476],[-115.7122,36.1436],[-115.6818,36.1478],[-115.6689,36.1609],[-115.6564,36.1652],[-115.6366,36.1605],[-115.6045,36.1676],[-115.5791,36.1673],[-115.574,36.1622],[-115.5703,36.1403],[-115.5735,36.1089],[-115.5623,36.1116],[-115.5481,36.1274],[-115.5325,36.1305],[-115.5228,36.1541],[-115.5085,36.1626],[-115.5015,36.1623],[-115.4808,36.1461],[-115.4312,36.1306],[-115.4126,36.1338],[-115.3878,36.145],[-115.3883,36.1537],[-115.3951,36.1536],[-115.4136,36.1678],[-115.4144,36.1889],[-115.4235,36.1885],[-115.424,36.2931],[-115.4046,36.3057],[-115.3469,36.3237],[-115.3335,36.3209],[-115.331,36.2626],[-115.2787,36.263],[-115.2789,36.2262],[-115.247,36.2256],[-115.2514,36.2034],[-115.2447,36.2034],[-115.243,36.1442],[-115.1998,36.1446],[-115.1907,36.1427],[-115.1905,36.1364],[-115.1787,36.1362],[-115.1711,36.1443],[-115.1573,36.1437],[-115.1381,36.1711],[-115.1339,36.1884],[-115.0708,36.1885],[-115.0712,36.2033],[-115.0437,36.2035],[-115.0436,36.2109],[-115.0331,36.2106],[-115.0299,36.2183],[-115.0253,36.2182],[-115.0269,36.2025],[-115.0102,36.2025],[-115.0087,36.1988],[-114.9905,36.202],[-114.991,36.1591],[-114.9768,36.1592],[-114.9754,36.0898],[-114.9377,36.102],[-114.9395,36.0776],[-114.9107,36.0891],[-114.9037,36.0994],[-114.9081,36.1009],[-114.9064,36.1218],[-114.8787,36.1326],[-114.8543,36.1181],[-114.8196,36.1078],[-114.7411,36.0655],[-114.7547,36.0851],[-114.7489,36.0952],[-114.7341,36.1047],[-114.6937,36.1125],[-114.6805,36.1095],[-114.6643,36.1163],[-114.6305,36.1422],[-114.6155,36.1297],[-114.5711,36.1511],[-114.5392,36.1518],[-114.5311,36.1476],[-114.5112,36.1506],[-114.5002,36.1432],[-114.5092,36.1332],[-114.5047,36.1272],[-114.4838,36.1297],[-114.4626,36.1396],[-114.445,36.1253],[-114.4153,36.1451],[-114.4056,36.147],[-114.3702,36.1426],[-114.359,36.1278],[-114.3258,36.1039],[-114.3042,36.0756],[-114.3136,36.0641],[-114.3119,36.0577],[-114.2986,36.0573],[-114.288,36.0491],[-114.2709,36.0455],[-114.2644,36.0279],[-114.2439,36.0153],[-114.2135,36.0146],[-114.1747,36.0267],[-114.1534,36.0232],[-114.147,36.0261],[-114.1457,36.033],[-114.1357,36.0412],[-114.1334,36.0617],[-114.112,36.0949],[-114.121,36.1039],[-114.1209,36.1108],[-114.097,36.1208],[-114.0668,36.1791],[-114.0587,36.1878],[-114.0439,36.1934],[-114.0428,36.4482],[-114.0499,36.7095],[-114.0525,37.1129],[-114.0529,37.5883],[-114.0483,37.8094],[-114.0498,38.6774],[-114.6295,38.6774],[-114.6428,38.6278],[-114.6477,38.586],[-114.6986,38.5978],[-114.7212,38.5909],[-114.7322,38.5934],[-114.7588,38.588],[-114.7707,38.5936],[-114.7981,38.6264],[-114.8011,38.6412],[-114.817,38.6458],[-114.8363,38.6773],[-115.0008,38.6773],[-115.9071,39.1618],[-117.3319,39.1634],[-117.7755,39.0934],[-117.8651,39.0737],[-118.4775,39.0737],[-118.4777,39.1128],[-118.5332,39.1122],[-118.5333,39.1269],[-118.5703,39.1273],[-118.5702,39.1419],[-118.7927,39.1415],[-118.7924,39.1714],[-118.8481,39.1712],[-118.8481,39.1853],[-118.8667,39.1853],[-118.8668,39.1982],[-118.8908,39.1982],[-118.8907,39.2272],[-118.909,39.2272],[-118.9091,39.2346],[-118.9335,39.2269],[-118.9671,39.226],[-118.9801,39.2325],[-118.9815,39.2452],[-119.0398,39.2679],[-119.0426,39.2443],[-119.049,39.2411],[-119.0434,39.2399],[-119.0498,39.165],[-119.1073,39.1651],[-119.1073,39.1579],[-119.1021,39.1543],[-119.0879,39.1533],[-119.0992,39.1524],[-119.1123,39.1414],[-119.1167,39.128],[-119.0563,39.1198],[-119.0146,39.1223],[-119.0136,39.1126],[-118.9957,39.1116],[-118.9956,39.0839],[-118.9481,39.0839],[-118.9401,39.0793],[-118.9401,39.0697],[-118.9231,39.0694],[-119.0149,38.9441],[-119.0145,38.852],[-119.0002,38.852],[-119.0176,38.8482],[-119.0231,38.8409],[-119.0324,38.8384],[-119.0736,38.8469],[-119.1448,38.845],[-119.1445,38.8351],[-119.1537,38.8304],[-119.1631,38.8291],[-119.1631,38.838],[-119.1767,38.8378],[-119.2237,38.8075],[-119.2569,38.8102],[-119.2763,38.8021],[-119.2827,38.802],[-119.2772,38.807],[-119.2919,38.8053],[-119.2919,38.802],[-119.3476,38.8011]]]},"properties":{"name":"CD4","district_number":4,"fips":"32-04"}}],"source":"U.S. Census Bureau TIGERweb, 120th Congressional Districts (January 1, 2026 vintage)"}