{"type":"FeatureCollection","features":[{"type":"Feature","id":"36001","properties":{"name":"Albany","fips":"36001"},"geometry":{"type":"Polygon","coordinates":[[[-73.8094,42.7789],[-73.7227,42.8207],[-73.7199,42.8013],[-73.6884,42.7755],[-73.6768,42.7833],[-73.7613,42.6104],[-73.7732,42.5094],[-73.7846,42.4899],[-73.7837,42.4642],[-74.2543,42.4082],[-74.2416,42.5508],[-74.1697,42.6674],[-74.1803,42.73],[-73.8096,42.775],[-73.8094,42.7789]]]}},{"type":"Feature","id":"36003","properties":{"name":"Allegany","fips":"36003"},"geometry":{"type":"Polygon","coordinates":[[[-78.2066,42.0],[-78.3081,41.9994],[-78.3088,42.5212],[-78.0402,42.521],[-78.0383,42.5215],[-77.8409,42.5178],[-77.8402,42.4746],[-77.723,42.4712],[-77.7499,41.9988],[-77.8228,41.9985],[-77.832,41.9985],[-78.031,41.9994],[-78.0312,41.9994],[-78.1247,42.0005],[-78.2066,42.0]]]}},{"type":"Feature","id":"36005","properties":{"name":"Bronx","fips":"36005"},"geometry":{"type":"MultiPolygon","coordinates":[[[[-73.7734,40.8594],[-73.7706,40.8603],[-73.7663,40.8573],[-73.7651,40.8542],[-73.766,40.845],[-73.7696,40.8447],[-73.773,40.8481],[-73.7737,40.8548],[-73.7734,40.8594]]],[[[-73.786,40.8009],[-73.7934,40.7999],[-73.811,40.8051],[-73.8305,40.8032],[-73.8627,40.7973],[-73.8667,40.7937],[-73.871,40.787],[-73.8849,40.7866],[-73.8899,40.7874],[-73.8906,40.7901],[-73.8922,40.7904],[-73.8998,40.7925],[-73.9125,40.7962],[-73.907,40.8735],[-73.9071,40.8763],[-73.9114,40.8793],[-73.9152,40.8756],[-73.9334,40.8821],[-73.9334,40.8821],[-73.9275,40.8957],[-73.9197,40.9135],[-73.9179,40.9176],[-73.824,40.8899],[-73.8236,40.8899],[-73.8236,40.8904],[-73.8231,40.8906],[-73.8232,40.8912],[-73.8064,40.8868],[-73.8048,40.8865],[-73.7835,40.881],[-73.7848,40.8785],[-73.7855,40.8691],[-73.7888,40.8585],[-73.7881,40.8541],[-73.7848,40.8518],[-73.7822,40.8474],[-73.7821,40.8446],[-73.7823,40.8424],[-73.7812,40.8389],[-73.7826,40.8376],[-73.7839,40.8368],[-73.7854,40.838],[-73.7882,40.842],[-73.791,40.8466],[-73.7895,40.8514],[-73.7923,40.8558],[-73.7938,40.8556],[-73.7973,40.8522],[-73.7995,40.848],[-73.8069,40.8495],[-73.8128,40.8467],[-73.8156,40.8351],[-73.8152,40.8311],[-73.8119,40.8254],[-73.8045,40.8185],[-73.7973,40.8156],[-73.786,40.8009]]]]}},{"type":"Feature","id":"36007","properties":{"name":"Broome","fips":"36007"},"geometry":{"type":"Polygon","coordinates":[[[-75.3596,41.9994],[-75.432,41.9994],[-75.4362,41.9994],[-75.4771,41.9994],[-75.4831,41.9993],[-75.4837,41.9992],[-75.9802,41.999],[-75.9831,41.999],[-76.1058,41.9989],[-76.1111,42.1124],[-76.114,42.1534],[-76.0811,42.2305],[-76.1302,42.4103],[-75.864,42.4157],[-75.8438,42.2597],[-75.6383,42.2487],[-75.6371,42.1956],[-75.5328,42.1952],[-75.4199,42.1949],[-75.4184,42.195],[-75.4185,42.1895],[-75.4188,42.1881],[-75.4187,42.188],[-75.4184,42.1868],[-75.4188,42.1807],[-75.4197,42.1504],[-75.4218,42.042],[-75.3596,41.9994]]]}},{"type":"Feature","id":"36009","properties":{"name":"Cattaraugus","fips":"36009"},"geometry":{"type":"Polygon","coordinates":[[[-78.9189,41.998],[-79.0525,41.9992],[-79.0613,41.9993],[-79.0608,42.5379],[-78.9917,42.5292],[-78.9204,42.4426],[-78.6959,42.4719],[-78.4639,42.5363],[-78.4646,42.5192],[-78.3088,42.5212],[-78.3081,41.9994],[-78.5966,41.9999],[-78.8748,41.9976],[-78.9189,41.998]]]}},{"type":"Feature","id":"36011","properties":{"name":"Cayuga","fips":"36011"},"geometry":{"type":"Polygon","coordinates":[[[-76.4792,43.2275],[-76.4993,43.0979],[-76.463,43.0063],[-76.4507,42.8458],[-76.357,42.8494],[-76.2747,42.7713],[-76.2656,42.6236],[-76.6665,42.6235],[-76.7335,42.7279],[-76.7367,42.9703],[-76.7138,43.024],[-76.7053,43.1255],[-76.7225,43.3437],[-76.6984,43.3444],[-76.6849,43.3527],[-76.6696,43.3665],[-76.6427,43.4012],[-76.6308,43.4134],[-76.6171,43.4191],[-76.605,43.2536],[-76.4792,43.2275]]]}},{"type":"Feature","id":"36013","properties":{"name":"Chautauqua","fips":"36013"},"geometry":{"type":"Polygon","coordinates":[[[-79.6108,41.999],[-79.6253,41.9991],[-79.6253,41.999],[-79.7614,41.9991],[-79.7621,42.1312],[-79.7619,42.1507],[-79.7618,42.1627],[-79.7619,42.1733],[-79.7619,42.1797],[-79.7618,42.1836],[-79.7622,42.2431],[-79.762,42.2514],[-79.762,42.2699],[-79.7178,42.2847],[-79.6454,42.3156],[-79.594,42.3416],[-79.5463,42.3634],[-79.511,42.3824],[-79.4748,42.4043],[-79.4535,42.4112],[-79.4291,42.4284],[-79.4055,42.4533],[-79.3819,42.4665],[-79.3621,42.4802],[-79.352,42.4889],[-79.3423,42.4897],[-79.3351,42.4883],[-79.3315,42.4891],[-79.3231,42.4948],[-79.3177,42.4999],[-79.2834,42.5112],[-79.2646,42.5232],[-79.2429,42.5318],[-79.2232,42.5361],[-79.1932,42.5459],[-79.1487,42.5537],[-79.1386,42.5645],[-79.1367,42.5697],[-79.0608,42.5379],[-79.0613,41.9993],[-79.5384,41.9985],[-79.5514,41.9987],[-79.6108,41.999]]]}},{"type":"Feature","id":"36015","properties":{"name":"Chemung","fips":"36015"},"geometry":{"type":"Polygon","coordinates":[[[-76.9271,42.0017],[-76.9371,42.0017],[-76.9426,42.0016],[-76.9657,42.0013],[-76.9657,42.0013],[-76.965,42.2785],[-76.7339,42.2937],[-76.6423,42.2337],[-76.6193,42.2829],[-76.5616,42.282],[-76.5383,42.2818],[-76.5576,42.0001],[-76.5581,42.0002],[-76.8159,42.0017],[-76.8351,42.0018],[-76.9208,42.0018],[-76.9219,42.0017],[-76.9271,42.0017]]]}},{"type":"Feature","id":"36017","properties":{"name":"Chenango","fips":"36017"},"geometry":{"type":"Polygon","coordinates":[[[-75.5328,42.1952],[-75.6371,42.1956],[-75.6383,42.2487],[-75.8438,42.2597],[-75.864,42.4157],[-75.8898,42.7238],[-75.2959,42.7441],[-75.3301,42.5681],[-75.4045,42.4791],[-75.3749,42.4108],[-75.4153,42.3142],[-75.4184,42.195],[-75.4199,42.1949],[-75.5328,42.1952]]]}},{"type":"Feature","id":"36019","properties":{"name":"Clinton","fips":"36019"},"geometry":{"type":"Polygon","coordinates":[[[-73.9097,44.4297],[-73.9661,44.7091],[-73.9864,44.7078],[-74.0274,44.9958],[-73.8746,45.0012],[-73.6246,45.004],[-73.3431,45.0108],[-73.3502,44.9943],[-73.3594,44.9157],[-73.3696,44.8291],[-73.34,44.7789],[-73.3653,44.7033],[-73.3902,44.6184],[-73.3744,44.5755],[-73.362,44.5631],[-73.3568,44.5579],[-73.3386,44.5468],[-73.4638,44.5377],[-73.4966,44.4861],[-73.7007,44.4456],[-73.9097,44.4297]]]}},{"type":"Feature","id":"36021","properties":{"name":"Columbia","fips":"36021"},"geometry":{"type":"Polygon","coordinates":[[[-73.9296,42.0788],[-73.9215,42.11],[-73.9107,42.1273],[-73.7895,42.2677],[-73.7837,42.4642],[-73.3525,42.51],[-73.4106,42.3517],[-73.5081,42.0863],[-73.4969,42.0497],[-73.5271,41.978],[-73.7109,42.0055],[-73.9296,42.0788]]]}},{"type":"Feature","id":"36023","properties":{"name":"Cortland","fips":"36023"},"geometry":{"type":"Polygon","coordinates":[[[-76.1302,42.4103],[-76.2534,42.4076],[-76.2656,42.6236],[-76.2747,42.7713],[-75.8961,42.791],[-75.8898,42.7238],[-75.864,42.4157],[-76.1302,42.4103]]]}},{"type":"Feature","id":"36025","properties":{"name":"Delaware","fips":"36025"},"geometry":{"type":"Polygon","coordinates":[[[-75.3596,41.9994],[-75.4218,42.042],[-75.4197,42.1504],[-75.4188,42.1807],[-75.4184,42.1868],[-75.4187,42.188],[-75.4188,42.1881],[-75.4185,42.1895],[-75.4184,42.195],[-75.4153,42.3142],[-75.1972,42.3583],[-74.9749,42.4675],[-74.7116,42.5178],[-74.6189,42.4244],[-74.4435,42.355],[-74.5373,42.2014],[-74.4517,42.1692],[-74.7807,42.0164],[-74.9973,41.9185],[-75.1464,41.8509],[-75.263,41.8851],[-75.2791,41.9389],[-75.2926,41.9539],[-75.3419,41.9933],[-75.3596,41.9994]]]}},{"type":"Feature","id":"36027","properties":{"name":"Dutchess","fips":"36027"},"geometry":{"type":"Polygon","coordinates":[[[-73.9533,41.59],[-73.9474,41.6675],[-73.9425,41.6841],[-73.9435,41.6903],[-73.9458,41.6956],[-73.9467,41.6994],[-73.9444,41.7146],[-73.9411,41.7327],[-73.9411,41.736],[-73.9622,41.901],[-73.9296,42.0788],[-73.7109,42.0055],[-73.5271,41.978],[-73.4969,42.0497],[-73.4873,42.0496],[-73.5049,41.8243],[-73.505,41.8238],[-73.5102,41.7587],[-73.5175,41.6666],[-73.5215,41.6164],[-73.5301,41.5272],[-73.9338,41.4883],[-73.9815,41.4389],[-74.0001,41.4565],[-73.9976,41.4872],[-73.9533,41.59]]]}},{"type":"Feature","id":"36029","properties":{"name":"Erie","fips":"36029"},"geometry":{"type":"Polygon","coordinates":[[[-79.1367,42.5697],[-79.1296,42.5898],[-79.1263,42.5909],[-79.1219,42.5942],[-79.1137,42.606],[-79.1114,42.6134],[-79.0788,42.6401],[-79.0733,42.64],[-79.0638,42.6448],[-79.0623,42.6684],[-79.0489,42.6892],[-79.0189,42.7016],[-79.0062,42.7046],[-78.9912,42.7054],[-78.9442,42.732],[-78.9182,42.7373],[-78.8686,42.7703],[-78.8535,42.784],[-78.8514,42.7918],[-78.8565,42.8003],[-78.8594,42.8007],[-78.8637,42.8131],[-78.8657,42.8268],[-78.8604,42.8351],[-78.8595,42.8414],[-78.8656,42.8524],[-78.8722,42.8533],[-78.8826,42.8673],[-78.8917,42.8848],[-78.9125,42.8866],[-78.9058,42.9],[-78.9057,42.9234],[-78.9092,42.9333],[-78.9189,42.9469],[-78.9212,42.9484],[-78.9324,42.9559],[-78.9725,42.9668],[-79.0116,42.9853],[-79.02,42.9948],[-79.0284,43.0669],[-79.0097,43.0696],[-78.9453,43.067],[-78.8288,43.0301],[-78.7336,43.0842],[-78.4644,43.0887],[-78.4639,42.9243],[-78.4644,42.8675],[-78.4639,42.5363],[-78.6959,42.4719],[-78.9204,42.4426],[-78.9917,42.5292],[-79.0608,42.5379],[-79.1367,42.5697]]]}},{"type":"Feature","id":"36031","properties":{"name":"Essex","fips":"36031"},"geometry":{"type":"Polygon","coordinates":[[[-73.3247,44.2436],[-73.3508,44.2259],[-73.3906,44.1909],[-73.4037,44.1531],[-73.4292,44.0794],[-73.4374,44.0469],[-73.4369,44.0426],[-73.4108,44.0269],[-73.406,44.0162],[-73.4055,43.9488],[-73.4077,43.9299],[-73.3973,43.9057],[-73.3884,43.8324],[-73.3793,43.8085],[-73.4332,43.8041],[-73.4359,43.8038],[-73.4381,43.8037],[-73.4955,43.7993],[-73.8687,43.7628],[-74.057,43.7445],[-74.0471,43.7963],[-74.2137,43.8109],[-74.3368,43.9252],[-74.256,43.9698],[-74.2819,44.1206],[-74.0935,44.1376],[-74.1276,44.3302],[-74.1414,44.4073],[-73.9097,44.4297],[-73.7007,44.4456],[-73.4966,44.4861],[-73.4638,44.5377],[-73.3386,44.5468],[-73.3386,44.5468],[-73.3067,44.5003],[-73.2999,44.4767],[-73.2936,44.4389],[-73.296,44.4283],[-73.315,44.3885],[-73.3233,44.2648],[-73.3247,44.2436]]]}},{"type":"Feature","id":"36033","properties":{"name":"Franklin","fips":"36033"},"geometry":{"type":"Polygon","coordinates":[[[-74.0935,44.1376],[-74.2819,44.1206],[-74.5352,44.0992],[-74.5257,44.1706],[-74.6419,44.9526],[-74.7203,44.953],[-74.725,45.0059],[-74.702,45.0033],[-74.2913,44.9921],[-74.1468,44.9915],[-74.0274,44.9958],[-73.9864,44.7078],[-73.9661,44.7091],[-73.9097,44.4297],[-74.1414,44.4073],[-74.1276,44.3302],[-74.0935,44.1376]]]}},{"type":"Feature","id":"36035","properties":{"name":"Fulton","fips":"36035"},"geometry":{"type":"Polygon","coordinates":[[[-74.0975,42.9829],[-74.2893,42.9844],[-74.4888,42.9851],[-74.5424,42.9855],[-74.7599,43.0474],[-74.6963,43.1735],[-74.7126,43.2861],[-74.5347,43.2281],[-74.3264,43.2416],[-74.2209,43.2214],[-74.1401,43.254],[-74.0975,42.9829]]]}},{"type":"Feature","id":"36037","properties":{"name":"Genesee","fips":"36037"},"geometry":{"type":"Polygon","coordinates":[[[-78.4644,42.8675],[-78.4639,42.9243],[-78.4644,43.0887],[-78.4643,43.0915],[-78.4655,43.1286],[-78.4109,43.1306],[-77.9973,43.133],[-77.9059,43.1336],[-77.951,43.0395],[-77.9098,42.9878],[-77.955,42.8628],[-78.4644,42.8675]]]}},{"type":"Feature","id":"36039","properties":{"name":"Greene","fips":"36039"},"geometry":{"type":"Polygon","coordinates":[[[-74.4517,42.1692],[-74.5373,42.2014],[-74.4435,42.355],[-74.2447,42.3772],[-74.2543,42.4082],[-73.7837,42.4642],[-73.7895,42.2677],[-73.9107,42.1273],[-74.0424,42.1704],[-74.0748,42.0966],[-74.3076,42.1143],[-74.4517,42.1692]]]}},{"type":"Feature","id":"36041","properties":{"name":"Hamilton","fips":"36041"},"geometry":{"type":"Polygon","coordinates":[[[-74.5352,44.0992],[-74.2819,44.1206],[-74.256,43.9698],[-74.3368,43.9252],[-74.2137,43.8109],[-74.0471,43.7963],[-74.057,43.7445],[-74.2146,43.7287],[-74.1601,43.3715],[-74.1401,43.254],[-74.2209,43.2214],[-74.3264,43.2416],[-74.5347,43.2281],[-74.7126,43.2861],[-74.8677,43.3398],[-74.7756,43.4867],[-74.8542,44.0701],[-74.5352,44.0992]]]}},{"type":"Feature","id":"36043","properties":{"name":"Herkimer","fips":"36043"},"geometry":{"type":"Polygon","coordinates":[[[-75.2122,42.88],[-75.2191,43.0525],[-75.0692,43.2273],[-75.1603,43.2558],[-75.0766,43.3307],[-75.0869,43.417],[-75.1102,43.6152],[-75.1702,44.097],[-75.0628,44.0504],[-74.8542,44.0701],[-74.7756,43.4867],[-74.8677,43.3398],[-74.7126,43.2861],[-74.6963,43.1735],[-74.7599,43.0474],[-74.7633,42.8632],[-74.8788,42.8983],[-74.9067,42.8249],[-75.101,42.9084],[-75.1399,42.8598],[-75.2122,42.88]]]}},{"type":"Feature","id":"36045","properties":{"name":"Jefferson","fips":"36045"},"geometry":{"type":"Polygon","coordinates":[[[-76.3557,44.1333],[-76.3126,44.199],[-76.2865,44.2038],[-76.2455,44.2037],[-76.2068,44.2145],[-76.1913,44.2212],[-76.1643,44.2396],[-76.1181,44.2948],[-76.0452,44.3317],[-76.001,44.3475],[-75.9783,44.3469],[-75.9702,44.3428],[-75.9495,44.3491],[-75.913,44.3681],[-75.8715,44.3948],[-75.8601,44.4033],[-75.4461,44.2177],[-75.5459,44.103],[-75.4845,44.0742],[-75.5429,43.9678],[-75.6037,43.9714],[-75.7582,43.8788],[-75.8406,43.884],[-75.8505,43.7919],[-75.7868,43.7883],[-75.7746,43.6889],[-76.0251,43.707],[-76.022,43.6681],[-76.2005,43.6802],[-76.2054,43.7188],[-76.2132,43.7535],[-76.2293,43.8041],[-76.2501,43.8257],[-76.267,43.838],[-76.2778,43.8412],[-76.2833,43.8439],[-76.2845,43.851],[-76.2827,43.8586],[-76.2763,43.8633],[-76.2692,43.8686],[-76.2616,43.8733],[-76.2498,43.8756],[-76.2434,43.878],[-76.2346,43.8774],[-76.2275,43.8751],[-76.2193,43.8668],[-76.2023,43.8649],[-76.1928,43.8692],[-76.1806,43.8775],[-76.1582,43.8875],[-76.1455,43.8887],[-76.1333,43.893],[-76.1273,43.8979],[-76.125,43.9128],[-76.1304,43.9331],[-76.1337,43.9404],[-76.1344,43.9456],[-76.1343,43.9547],[-76.1391,43.9621],[-76.1461,43.9647],[-76.1698,43.9622],[-76.1849,43.9711],[-76.228,43.9827],[-76.2369,43.9779],[-76.2444,43.9758],[-76.2523,43.9758],[-76.2583,43.9761],[-76.2643,43.978],[-76.2687,43.9808],[-76.2687,43.9873],[-76.2667,43.9956],[-76.2697,44.0011],[-76.2819,44.0092],[-76.2878,44.0114],[-76.2968,44.0133],[-76.299,44.0177],[-76.3002,44.0228],[-76.2996,44.031],[-76.297,44.0455],[-76.3005,44.0572],[-76.3042,44.0594],[-76.3603,44.0709],[-76.3608,44.0876],[-76.367,44.1004],[-76.3638,44.1117],[-76.3582,44.1233],[-76.3557,44.1333]]]}},{"type":"Feature","id":"36047","properties":{"name":"Kings","fips":"36047"},"geometry":{"type":"Polygon","coordinates":[[[-73.8689,40.6951],[-73.866,40.6819],[-73.8557,40.6638],[-73.8605,40.6547],[-73.8499,40.5887],[-73.9386,40.5662],[-73.9446,40.5687],[-73.9501,40.5734],[-73.9594,40.5727],[-73.9913,40.5703],[-74.0021,40.5706],[-74.009,40.5728],[-74.012,40.5745],[-74.013,40.5782],[-74.0073,40.5836],[-74.0063,40.5848],[-74.0016,40.5907],[-74.0033,40.5958],[-74.0109,40.6008],[-74.0329,40.6044],[-74.0396,40.6129],[-74.0424,40.6248],[-74.0383,40.6371],[-74.0359,40.6408],[-74.0321,40.6465],[-74.0183,40.659],[-74.0205,40.6788],[-74.0229,40.6813],[-74.0193,40.6795],[-74.0081,40.6866],[-74.0039,40.689],[-73.9946,40.7041],[-73.9698,40.709],[-73.9626,40.7227],[-73.9615,40.7239],[-73.9628,40.7377],[-73.9612,40.7371],[-73.9547,40.7393],[-73.9471,40.7375],[-73.9373,40.7299],[-73.9292,40.7278],[-73.9239,40.7201],[-73.9215,40.709],[-73.9121,40.7034],[-73.9044,40.6957],[-73.8965,40.6824],[-73.8896,40.6842],[-73.874,40.6942],[-73.8689,40.6951]]]}},{"type":"Feature","id":"36049","properties":{"name":"Lewis","fips":"36049"},"geometry":{"type":"Polygon","coordinates":[[[-75.1702,44.097],[-75.1102,43.6152],[-75.5335,43.4198],[-75.7562,43.4704],[-75.7746,43.6889],[-75.7868,43.7883],[-75.8505,43.7919],[-75.8406,43.884],[-75.7582,43.8788],[-75.6037,43.9714],[-75.5429,43.9678],[-75.4845,44.0742],[-75.5459,44.103],[-75.4461,44.2177],[-75.1702,44.097]]]}},{"type":"Feature","id":"36051","properties":{"name":"Livingston","fips":"36051"},"geometry":{"type":"Polygon","coordinates":[[[-77.9098,42.9878],[-77.731,42.9884],[-77.7324,42.9453],[-77.5804,42.944],[-77.6117,42.7632],[-77.5988,42.672],[-77.4869,42.6703],[-77.4909,42.5773],[-77.6599,42.5804],[-77.723,42.4712],[-77.8402,42.4746],[-77.8409,42.5178],[-78.0383,42.5215],[-78.0482,42.5793],[-77.9563,42.6673],[-77.955,42.8628],[-77.9098,42.9878]]]}},{"type":"Feature","id":"36053","properties":{"name":"Madison","fips":"36053"},"geometry":{"type":"Polygon","coordinates":[[[-75.8843,43.1556],[-75.7378,43.1647],[-75.5528,43.0376],[-75.5442,42.9318],[-75.4442,42.9331],[-75.4372,42.8633],[-75.248,42.8716],[-75.2959,42.7441],[-75.8898,42.7238],[-75.8961,42.791],[-75.9172,43.0858],[-75.9756,43.0913],[-75.9758,43.0946],[-75.9747,43.0969],[-75.9763,43.0985],[-75.9756,43.1003],[-75.9764,43.103],[-75.9741,43.1036],[-75.9715,43.1049],[-75.973,43.1064],[-75.972,43.1075],[-75.9703,43.1076],[-75.9717,43.1092],[-75.9692,43.1105],[-75.9654,43.1167],[-75.9656,43.1196],[-75.9647,43.1198],[-75.9634,43.119],[-75.9635,43.1176],[-75.9597,43.1155],[-75.956,43.1151],[-75.956,43.1162],[-75.9544,43.1169],[-75.9558,43.1183],[-75.9574,43.1182],[-75.956,43.1195],[-75.9571,43.1202],[-75.9594,43.1198],[-75.957,43.122],[-75.9583,43.1237],[-75.9605,43.123],[-75.9588,43.1251],[-75.9588,43.1281],[-75.9568,43.1268],[-75.9546,43.128],[-75.9524,43.1307],[-75.9503,43.1326],[-75.9533,43.1334],[-75.9501,43.1344],[-75.9503,43.1352],[-75.9534,43.1355],[-75.9548,43.134],[-75.9571,43.1363],[-75.9582,43.1351],[-75.9572,43.1339],[-75.9605,43.1328],[-75.9617,43.1339],[-75.964,43.1338],[-75.9644,43.1351],[-75.9673,43.1348],[-75.9692,43.1368],[-75.9699,43.1386],[-75.9723,43.1405],[-75.9753,43.1389],[-75.9738,43.1373],[-75.9756,43.1362],[-75.9773,43.1363],[-75.9768,43.1379],[-75.9775,43.1398],[-75.977,43.1408],[-75.9726,43.143],[-75.9718,43.1438],[-75.9727,43.1455],[-75.9733,43.1492],[-75.9712,43.1546],[-75.9729,43.1559],[-75.9771,43.1576],[-75.9768,43.1603],[-75.9746,43.1619],[-75.9744,43.1632],[-75.9779,43.1646],[-75.9791,43.1663],[-75.9783,43.1677],[-75.981,43.1677],[-75.9795,43.1707],[-75.9827,43.1736],[-75.9865,43.1716],[-75.9884,43.1726],[-75.99,43.1715],[-75.9919,43.173],[-75.9926,43.1738],[-75.9897,43.1796],[-75.9908,43.1809],[-75.9914,43.1833],[-75.9934,43.1834],[-75.9924,43.1852],[-75.9869,43.1839],[-75.9795,43.1774],[-75.9734,43.1799],[-75.9594,43.1804],[-75.9556,43.1722],[-75.9328,43.1766],[-75.9275,43.1627],[-75.8843,43.1556]]]}},{"type":"Feature","id":"36055","properties":{"name":"Monroe","fips":"36055"},"geometry":{"type":"Polygon","coordinates":[[[-77.9956,43.3653],[-77.9948,43.3653],[-77.9764,43.3692],[-77.9652,43.3681],[-77.9529,43.3635],[-77.9227,43.357],[-77.9048,43.357],[-77.8753,43.3497],[-77.8165,43.3436],[-77.7974,43.3399],[-77.7851,43.3393],[-77.7602,43.3412],[-77.7569,43.3374],[-77.7306,43.3302],[-77.7141,43.3236],[-77.7014,43.3083],[-77.6604,43.283],[-77.6538,43.2795],[-77.6283,43.2713],[-77.6022,43.2569],[-77.5772,43.2433],[-77.551,43.2358],[-77.5342,43.2346],[-77.5009,43.2504],[-77.4766,43.2545],[-77.4368,43.2657],[-77.4145,43.2693],[-77.391,43.2764],[-77.3854,43.2768],[-77.376,43.2777],[-77.3744,43.1526],[-77.3715,43.0347],[-77.4854,43.0346],[-77.4825,42.9432],[-77.5804,42.944],[-77.7324,42.9453],[-77.731,42.9884],[-77.9098,42.9878],[-77.951,43.0395],[-77.9059,43.1336],[-77.9973,43.133],[-77.9957,43.285],[-77.9957,43.2874],[-77.9956,43.3653]]]}},{"type":"Feature","id":"36057","properties":{"name":"Montgomery","fips":"36057"},"geometry":{"type":"Polygon","coordinates":[[[-74.2893,42.9844],[-74.0975,42.9829],[-74.0938,42.9594],[-74.093,42.9559],[-74.0839,42.8974],[-74.2633,42.7965],[-74.4549,42.773],[-74.6483,42.8296],[-74.6502,42.8299],[-74.7021,42.8453],[-74.7633,42.8632],[-74.7599,43.0474],[-74.5424,42.9855],[-74.4888,42.9851],[-74.2893,42.9844]]]}},{"type":"Feature","id":"36059","properties":{"name":"Nassau","fips":"36059"},"geometry":{"type":"Polygon","coordinates":[[[-73.7543,40.5864],[-73.7006,40.7432],[-73.7009,40.7469],[-73.7017,40.7525],[-73.7468,40.7804],[-73.7684,40.8007],[-73.7683,40.8008],[-73.754,40.8209],[-73.7544,40.8268],[-73.7283,40.8529],[-73.7267,40.8568],[-73.7307,40.8654],[-73.7296,40.8665],[-73.7137,40.8701],[-73.6756,40.857],[-73.6707,40.8587],[-73.6559,40.8639],[-73.6544,40.8782],[-73.6411,40.8926],[-73.6338,40.8982],[-73.627,40.8994],[-73.6176,40.8979],[-73.6019,40.9028],[-73.5952,40.9073],[-73.57,40.9154],[-73.5662,40.9158],[-73.5481,40.9087],[-73.5193,40.9143],[-73.515,40.9128],[-73.4999,40.9182],[-73.4971,40.9228],[-73.4542,40.8341],[-73.441,40.7644],[-73.4248,40.6791],[-73.4233,40.6709],[-73.4246,40.6663],[-73.4256,40.6563],[-73.4238,40.6099],[-73.4504,40.6035],[-73.5624,40.5837],[-73.5838,40.5867],[-73.6109,40.5877],[-73.6467,40.5828],[-73.7011,40.5836],[-73.7548,40.5844],[-73.7543,40.5864]]]}},{"type":"Feature","id":"36061","properties":{"name":"New York","fips":"36061"},"geometry":{"type":"MultiPolygon","coordinates":[[[[-74.0409,40.7001],[-74.04,40.7007],[-74.0394,40.7005],[-74.038,40.699],[-74.0434,40.6897],[-74.0445,40.6884],[-74.0464,40.6892],[-74.0473,40.6905],[-74.0469,40.6911],[-74.0409,40.7001]]],[[[-73.9628,40.7377],[-73.9615,40.7239],[-73.9626,40.7227],[-73.9698,40.709],[-73.9946,40.7041],[-74.0039,40.689],[-74.0081,40.6866],[-74.0193,40.6795],[-74.0229,40.6813],[-74.024,40.6824],[-74.0248,40.687],[-74.0217,40.6935],[-74.0185,40.6955],[-74.0168,40.7018],[-74.0195,40.707],[-74.0245,40.7094],[-74.0138,40.7566],[-74.0092,40.7636],[-74.0009,40.7765],[-73.993,40.7887],[-73.9869,40.7983],[-73.9483,40.8584],[-73.9381,40.8747],[-73.9334,40.8821],[-73.9152,40.8756],[-73.9114,40.8793],[-73.9071,40.8763],[-73.907,40.8735],[-73.9125,40.7962],[-73.9106,40.791],[-73.9163,40.7866],[-73.928,40.7768],[-73.9351,40.7792],[-73.9384,40.7746],[-73.9381,40.7726],[-73.9352,40.7717],[-73.9365,40.7698],[-73.9408,40.7674],[-73.944,40.7644],[-73.9549,40.7515],[-73.9583,40.7457],[-73.9615,40.7431],[-73.9628,40.7377]]]]}},{"type":"Feature","id":"36063","properties":{"name":"Niagara","fips":"36063"},"geometry":{"type":"Polygon","coordinates":[[[-78.8288,43.0301],[-78.9453,43.067],[-79.0097,43.0696],[-79.0284,43.0669],[-79.0287,43.0695],[-79.0584,43.0752],[-79.0663,43.091],[-79.0568,43.1269],[-79.0441,43.1381],[-79.0424,43.1437],[-79.0584,43.2389],[-79.0705,43.2625],[-79.0198,43.2737],[-78.9719,43.2813],[-78.9308,43.2933],[-78.8594,43.311],[-78.8363,43.3185],[-78.8341,43.3176],[-78.7778,43.3271],[-78.7472,43.3346],[-78.6969,43.3413],[-78.6343,43.3576],[-78.5474,43.3695],[-78.4889,43.3748],[-78.4825,43.3744],[-78.4731,43.3708],[-78.4655,43.3712],[-78.4664,43.3028],[-78.4604,43.2162],[-78.4655,43.1286],[-78.4643,43.0915],[-78.4644,43.0887],[-78.7336,43.0842],[-78.8288,43.0301]]]}},{"type":"Feature","id":"36065","properties":{"name":"Oneida","fips":"36065"},"geometry":{"type":"Polygon","coordinates":[[[-75.248,42.8716],[-75.4372,42.8633],[-75.4442,42.9331],[-75.5442,42.9318],[-75.5528,43.0376],[-75.7378,43.1647],[-75.8843,43.1556],[-75.8868,43.325],[-75.8146,43.4836],[-75.7562,43.4704],[-75.5335,43.4198],[-75.1102,43.6152],[-75.0869,43.417],[-75.0766,43.3307],[-75.1603,43.2558],[-75.0692,43.2273],[-75.2191,43.0525],[-75.2122,42.88],[-75.2427,42.8779],[-75.248,42.8716]]]}},{"type":"Feature","id":"36067","properties":{"name":"Onondaga","fips":"36067"},"geometry":{"type":"Polygon","coordinates":[[[-76.4993,43.0979],[-76.4792,43.2275],[-76.259,43.2375],[-76.2029,43.2716],[-75.9934,43.1834],[-75.9914,43.1833],[-75.9908,43.1809],[-75.9897,43.1796],[-75.9926,43.1738],[-75.9919,43.173],[-75.99,43.1715],[-75.9884,43.1726],[-75.9865,43.1716],[-75.9827,43.1736],[-75.9795,43.1707],[-75.981,43.1677],[-75.9783,43.1677],[-75.9791,43.1663],[-75.9779,43.1646],[-75.9744,43.1632],[-75.9746,43.1619],[-75.9768,43.1603],[-75.9771,43.1576],[-75.9729,43.1559],[-75.9712,43.1546],[-75.9733,43.1492],[-75.9727,43.1455],[-75.9718,43.1438],[-75.9726,43.143],[-75.977,43.1408],[-75.9775,43.1398],[-75.9768,43.1379],[-75.9773,43.1363],[-75.9756,43.1362],[-75.9738,43.1373],[-75.9753,43.1389],[-75.9723,43.1405],[-75.9699,43.1386],[-75.9692,43.1368],[-75.9673,43.1348],[-75.9644,43.1351],[-75.964,43.1338],[-75.9617,43.1339],[-75.9605,43.1328],[-75.9572,43.1339],[-75.9582,43.1351],[-75.9571,43.1363],[-75.9548,43.134],[-75.9534,43.1355],[-75.9503,43.1352],[-75.9501,43.1344],[-75.9533,43.1334],[-75.9503,43.1326],[-75.9524,43.1307],[-75.9546,43.128],[-75.9568,43.1268],[-75.9588,43.1281],[-75.9588,43.1251],[-75.9605,43.123],[-75.9583,43.1237],[-75.957,43.122],[-75.9594,43.1198],[-75.9571,43.1202],[-75.956,43.1195],[-75.9574,43.1182],[-75.9558,43.1183],[-75.9544,43.1169],[-75.956,43.1162],[-75.956,43.1151],[-75.9597,43.1155],[-75.9635,43.1176],[-75.9634,43.119],[-75.9647,43.1198],[-75.9656,43.1196],[-75.9654,43.1167],[-75.9692,43.1105],[-75.9717,43.1092],[-75.9703,43.1076],[-75.972,43.1075],[-75.973,43.1064],[-75.9715,43.1049],[-75.9741,43.1036],[-75.9764,43.103],[-75.9756,43.1003],[-75.9763,43.0985],[-75.9747,43.0969],[-75.9758,43.0946],[-75.9756,43.0913],[-75.9172,43.0858],[-75.8961,42.791],[-76.2747,42.7713],[-76.357,42.8494],[-76.4507,42.8458],[-76.463,43.0063],[-76.4993,43.0979]]]}},{"type":"Feature","id":"36069","properties":{"name":"Ontario","fips":"36069"},"geometry":{"type":"Polygon","coordinates":[[[-76.9714,42.7642],[-77.0186,42.7638],[-77.313,42.7613],[-77.3671,42.6679],[-77.3665,42.5764],[-77.4909,42.5773],[-77.4869,42.6703],[-77.5988,42.672],[-77.6117,42.7632],[-77.5804,42.944],[-77.4825,42.9432],[-77.4854,43.0346],[-77.3715,43.0347],[-77.1343,43.0399],[-77.1334,43.0125],[-76.9639,43.0132],[-76.9634,42.903],[-76.9714,42.7642]]]}},{"type":"Feature","id":"36071","properties":{"name":"Orange","fips":"36071"},"geometry":{"type":"Polygon","coordinates":[[[-73.9533,41.59],[-73.9976,41.4872],[-74.0001,41.4565],[-73.9815,41.4389],[-73.9814,41.3247],[-74.1618,41.1958],[-74.2345,41.1429],[-74.3657,41.2034],[-74.3921,41.2156],[-74.4576,41.2482],[-74.6949,41.3574],[-74.6898,41.3616],[-74.6911,41.3673],[-74.7526,41.4265],[-74.7559,41.4268],[-74.7524,41.4937],[-74.4756,41.5043],[-74.3671,41.591],[-74.2641,41.6327],[-74.1264,41.5825],[-73.9533,41.59]]]}},{"type":"Feature","id":"36073","properties":{"name":"Orleans","fips":"36073"},"geometry":{"type":"Polygon","coordinates":[[[-77.9957,43.2874],[-77.9957,43.285],[-77.9973,43.133],[-78.4109,43.1306],[-78.4655,43.1286],[-78.4604,43.2162],[-78.4664,43.3028],[-78.4655,43.3712],[-78.3702,43.3765],[-78.3587,43.374],[-78.2506,43.3709],[-78.2336,43.3691],[-78.1452,43.3755],[-78.1045,43.3756],[-78.0236,43.3666],[-77.9956,43.3653],[-77.9957,43.2874]]]}},{"type":"Feature","id":"36075","properties":{"name":"Oswego","fips":"36075"},"geometry":{"type":"Polygon","coordinates":[[[-76.4792,43.2275],[-76.605,43.2536],[-76.6171,43.4191],[-76.6071,43.4234],[-76.5628,43.4485],[-76.5318,43.4603],[-76.522,43.4686],[-76.5159,43.4711],[-76.5069,43.4691],[-76.487,43.4753],[-76.4725,43.4928],[-76.4375,43.5092],[-76.4176,43.5213],[-76.4106,43.5232],[-76.3688,43.5258],[-76.3455,43.5134],[-76.3309,43.512],[-76.2971,43.5129],[-76.2599,43.5247],[-76.2358,43.5293],[-76.2287,43.533],[-76.218,43.5452],[-76.2099,43.5601],[-76.2035,43.575],[-76.1991,43.6005],[-76.1966,43.6498],[-76.2005,43.6802],[-76.022,43.6681],[-76.0251,43.707],[-75.7746,43.6889],[-75.7562,43.4704],[-75.8146,43.4836],[-75.8868,43.325],[-75.8843,43.1556],[-75.9275,43.1627],[-75.9328,43.1766],[-75.9556,43.1722],[-75.9594,43.1804],[-75.9734,43.1799],[-75.9795,43.1774],[-75.9869,43.1839],[-75.9924,43.1852],[-75.9934,43.1834],[-76.2029,43.2716],[-76.259,43.2375],[-76.4792,43.2275]]]}},{"type":"Feature","id":"36077","properties":{"name":"Otsego","fips":"36077"},"geometry":{"type":"Polygon","coordinates":[[[-74.7116,42.5178],[-74.9749,42.4675],[-75.1972,42.3583],[-75.4153,42.3142],[-75.3749,42.4108],[-75.4045,42.4791],[-75.3301,42.5681],[-75.2959,42.7441],[-75.248,42.8716],[-75.2427,42.8779],[-75.2122,42.88],[-75.1399,42.8598],[-75.101,42.9084],[-74.9067,42.8249],[-74.8788,42.8983],[-74.7633,42.8632],[-74.7021,42.8453],[-74.6502,42.8299],[-74.6483,42.8296],[-74.6675,42.7507],[-74.6306,42.6267],[-74.7116,42.5178]]]}},{"type":"Feature","id":"36079","properties":{"name":"Putnam","fips":"36079"},"geometry":{"type":"Polygon","coordinates":[[[-73.9826,41.3217],[-73.9814,41.3247],[-73.9815,41.4389],[-73.9338,41.4883],[-73.5301,41.5272],[-73.534,41.4797],[-73.5341,41.479],[-73.5341,41.4781],[-73.5343,41.4769],[-73.5343,41.4764],[-73.5344,41.4759],[-73.5358,41.4572],[-73.5359,41.4557],[-73.5359,41.4552],[-73.536,41.4531],[-73.5361,41.4513],[-73.537,41.4411],[-73.5375,41.4359],[-73.5377,41.4339],[-73.5436,41.3768],[-73.5447,41.3664],[-73.9826,41.3217]]]}},{"type":"Feature","id":"36081","properties":{"name":"Queens","fips":"36081"},"geometry":{"type":"Polygon","coordinates":[[[-73.8689,40.6951],[-73.874,40.6942],[-73.8896,40.6842],[-73.8965,40.6824],[-73.9044,40.6957],[-73.9121,40.7034],[-73.9215,40.709],[-73.9239,40.7201],[-73.9292,40.7278],[-73.9373,40.7299],[-73.9471,40.7375],[-73.9547,40.7393],[-73.9612,40.7371],[-73.9628,40.7377],[-73.9615,40.7431],[-73.9583,40.7457],[-73.9549,40.7515],[-73.944,40.7644],[-73.9408,40.7674],[-73.9365,40.7698],[-73.9352,40.7717],[-73.9381,40.7726],[-73.9384,40.7746],[-73.9351,40.7792],[-73.928,40.7768],[-73.9163,40.7866],[-73.9106,40.791],[-73.9125,40.7962],[-73.8998,40.7925],[-73.8922,40.7904],[-73.8906,40.7901],[-73.8899,40.7874],[-73.8849,40.7866],[-73.871,40.787],[-73.8667,40.7937],[-73.8627,40.7973],[-73.8305,40.8032],[-73.811,40.8051],[-73.7934,40.7999],[-73.786,40.8009],[-73.7814,40.7949],[-73.776,40.7953],[-73.7684,40.8007],[-73.7468,40.7804],[-73.7017,40.7525],[-73.7009,40.7469],[-73.7006,40.7432],[-73.7543,40.5864],[-73.7533,40.5906],[-73.7749,40.5908],[-73.8014,40.5857],[-73.8068,40.5846],[-73.8344,40.5772],[-73.8789,40.5609],[-73.9345,40.5452],[-73.9345,40.5553],[-73.9327,40.5603],[-73.9357,40.5649],[-73.9386,40.5662],[-73.8499,40.5887],[-73.8605,40.6547],[-73.8557,40.6638],[-73.866,40.6819],[-73.8689,40.6951]]]}},{"type":"Feature","id":"36083","properties":{"name":"Rensselaer","fips":"36083"},"geometry":{"type":"Polygon","coordinates":[[[-73.6597,42.819],[-73.6846,42.8924],[-73.6355,42.9413],[-73.2743,42.9437],[-73.2744,42.9425],[-73.2745,42.9404],[-73.2787,42.8334],[-73.2854,42.8341],[-73.2909,42.8019],[-73.2764,42.746],[-73.265,42.7459],[-73.307,42.6327],[-73.3525,42.51],[-73.7837,42.4642],[-73.7846,42.4899],[-73.7732,42.5094],[-73.7613,42.6104],[-73.6768,42.7833],[-73.6735,42.7903],[-73.6724,42.7958],[-73.6614,42.803],[-73.6597,42.819]]]}},{"type":"Feature","id":"36085","properties":{"name":"Richmond","fips":"36085"},"geometry":{"type":"Polygon","coordinates":[[[-74.1444,40.5352],[-74.1487,40.5345],[-74.1609,40.5268],[-74.178,40.5196],[-74.1822,40.5206],[-74.1999,40.5117],[-74.2105,40.5094],[-74.2198,40.5026],[-74.2332,40.5013],[-74.2467,40.4961],[-74.2502,40.4967],[-74.2546,40.5023],[-74.2561,40.5079],[-74.2527,40.5139],[-74.2429,40.5209],[-74.2417,40.5313],[-74.2478,40.5434],[-74.229,40.555],[-74.217,40.555],[-74.2109,40.5609],[-74.2041,40.5893],[-74.1968,40.597],[-74.1954,40.6018],[-74.1961,40.6162],[-74.201,40.6169],[-74.2018,40.6195],[-74.2006,40.6314],[-74.1894,40.6421],[-74.1802,40.6455],[-74.1741,40.6451],[-74.1702,40.6422],[-74.153,40.6389],[-74.1202,40.6422],[-74.0865,40.6486],[-74.0759,40.6481],[-74.0697,40.6412],[-74.0676,40.6239],[-74.0603,40.612],[-74.0531,40.6037],[-74.0592,40.5935],[-74.0682,40.5841],[-74.0908,40.5665],[-74.1115,40.5469],[-74.1126,40.5476],[-74.1217,40.5427],[-74.1372,40.5301],[-74.1402,40.5337],[-74.1444,40.5352]]]}},{"type":"Feature","id":"36087","properties":{"name":"Rockland","fips":"36087"},"geometry":{"type":"Polygon","coordinates":[[[-73.948,41.2231],[-73.9315,41.205],[-73.9093,41.1644],[-73.8954,41.154],[-73.8872,41.1331],[-73.8949,41.0824],[-73.8947,41.0699],[-73.8894,41.0376],[-73.894,40.9972],[-73.9027,40.9973],[-73.9119,41.0013],[-74.041,41.0591],[-74.0411,41.0591],[-74.0925,41.0819],[-74.0968,41.0838],[-74.2134,41.1338],[-74.2345,41.1429],[-74.1618,41.1958],[-73.9814,41.3247],[-73.9826,41.3217],[-73.948,41.2231]]]}},{"type":"Feature","id":"36091","properties":{"name":"Saratoga","fips":"36091"},"geometry":{"type":"Polygon","coordinates":[[[-73.6768,42.7833],[-73.6884,42.7755],[-73.7199,42.8013],[-73.7227,42.8207],[-73.8094,42.7789],[-73.8959,42.8511],[-74.093,42.9559],[-74.0938,42.9594],[-74.0975,42.9829],[-74.1401,43.254],[-74.1601,43.3715],[-73.8841,43.398],[-73.8358,43.2538],[-73.595,43.3061],[-73.5733,43.1005],[-73.6355,42.9413],[-73.6846,42.8924],[-73.6597,42.819],[-73.6614,42.803],[-73.6724,42.7958],[-73.6735,42.7903],[-73.6768,42.7833]]]}},{"type":"Feature","id":"36093","properties":{"name":"Schenectady","fips":"36093"},"geometry":{"type":"Polygon","coordinates":[[[-74.1803,42.73],[-74.2723,42.7143],[-74.2633,42.7965],[-74.0839,42.8974],[-74.093,42.9559],[-73.8959,42.8511],[-73.8094,42.7789],[-73.8096,42.775],[-74.1803,42.73]]]}},{"type":"Feature","id":"36095","properties":{"name":"Schoharie","fips":"36095"},"geometry":{"type":"Polygon","coordinates":[[[-74.4435,42.355],[-74.6189,42.4244],[-74.7116,42.5178],[-74.6306,42.6267],[-74.6675,42.7507],[-74.6483,42.8296],[-74.4549,42.773],[-74.2633,42.7965],[-74.2723,42.7143],[-74.1803,42.73],[-74.1697,42.6674],[-74.2416,42.5508],[-74.2543,42.4082],[-74.2447,42.3772],[-74.4435,42.355]]]}},{"type":"Feature","id":"36097","properties":{"name":"Schuyler","fips":"36097"},"geometry":{"type":"Polygon","coordinates":[[[-76.8956,42.5415],[-76.6967,42.5468],[-76.6914,42.2843],[-76.6193,42.2829],[-76.6423,42.2337],[-76.7339,42.2937],[-76.965,42.2785],[-77.0997,42.2724],[-77.1072,42.4838],[-76.8898,42.4631],[-76.8956,42.5415]]]}},{"type":"Feature","id":"36099","properties":{"name":"Seneca","fips":"36099"},"geometry":{"type":"Polygon","coordinates":[[[-76.9634,42.903],[-76.9639,43.0132],[-76.7138,43.024],[-76.7367,42.9703],[-76.7335,42.7279],[-76.6665,42.6235],[-76.586,42.5499],[-76.6967,42.5468],[-76.8956,42.5415],[-76.8953,42.6563],[-76.9714,42.7642],[-76.9634,42.903]]]}},{"type":"Feature","id":"36089","properties":{"name":"St. Lawrence","fips":"36089"},"geometry":{"type":"Polygon","coordinates":[[[-74.725,45.0059],[-74.7203,44.953],[-74.6419,44.9526],[-74.5257,44.1706],[-74.5352,44.0992],[-74.8542,44.0701],[-75.0628,44.0504],[-75.1702,44.097],[-75.4461,44.2177],[-75.8601,44.4033],[-75.8208,44.4322],[-75.8078,44.4716],[-75.7655,44.5163],[-75.6966,44.5676],[-75.4912,44.7129],[-75.4331,44.7501],[-75.3337,44.8064],[-75.302,44.8266],[-75.3076,44.8368],[-75.2831,44.8492],[-75.2165,44.8775],[-75.1893,44.883],[-75.1399,44.8967],[-75.0648,44.9294],[-75.0271,44.9466],[-75.0052,44.9584],[-74.9997,44.9659],[-74.9993,44.9716],[-74.9928,44.9774],[-74.9725,44.9834],[-74.8266,45.0159],[-74.8016,45.0146],[-74.725,45.0059]]]}},{"type":"Feature","id":"36101","properties":{"name":"Steuben","fips":"36101"},"geometry":{"type":"Polygon","coordinates":[[[-76.9657,42.0013],[-77.0075,42.0008],[-77.0076,42.0008],[-77.1247,41.9994],[-77.5053,42.0001],[-77.61,41.9995],[-77.7499,41.9988],[-77.723,42.4712],[-77.6599,42.5804],[-77.4909,42.5773],[-77.3665,42.5764],[-77.1438,42.5769],[-77.1072,42.4838],[-77.0997,42.2724],[-76.965,42.2785],[-76.9657,42.0013]]]}},{"type":"Feature","id":"36103","properties":{"name":"Suffolk","fips":"36103"},"geometry":{"type":"MultiPolygon","coordinates":[[[[-72.1322,41.1044],[-72.1284,41.1081],[-72.1267,41.1151],[-72.0842,41.1015],[-72.0812,41.0939],[-72.087,41.0583],[-72.0957,41.054],[-72.0972,41.0549],[-72.0971,41.0758],[-72.1032,41.0865],[-72.1064,41.0889],[-72.1206,41.0932],[-72.1392,41.0925],[-72.1419,41.0944],[-72.1429,41.0978],[-72.1407,41.1008],[-72.1322,41.1044]]],[[[-71.9436,41.2867],[-71.9268,41.2901],[-71.9353,41.2806],[-71.9463,41.2763],[-71.9626,41.271],[-71.9789,41.265],[-71.9947,41.2565],[-72.0025,41.2529],[-72.0368,41.2498],[-72.035,41.2555],[-72.0294,41.2631],[-72.0234,41.271],[-72.0189,41.2741],[-72.0069,41.2735],[-71.9911,41.2813],[-71.9801,41.2803],[-71.9529,41.2851],[-71.9436,41.2867]]],[[[-73.4542,40.8341],[-73.4971,40.9228],[-73.4966,40.9235],[-73.4918,40.9421],[-73.4854,40.9464],[-73.4848,40.9461],[-73.4801,40.9433],[-73.4784,40.9423],[-73.4744,40.9411],[-73.4637,40.9377],[-73.4606,40.9374],[-73.4565,40.937],[-73.445,40.9358],[-73.4375,40.935],[-73.4367,40.9349],[-73.4299,40.9298],[-73.4297,40.9282],[-73.4288,40.9215],[-73.4061,40.9202],[-73.403,40.9251],[-73.4035,40.9422],[-73.4009,40.954],[-73.3998,40.9552],[-73.3929,40.9553],[-73.3745,40.9376],[-73.366,40.9317],[-73.3528,40.9267],[-73.3456,40.9253],[-73.3442,40.9273],[-73.3314,40.9296],[-73.2951,40.9245],[-73.2951,40.9245],[-73.2293,40.9051],[-73.149,40.9289],[-73.1462,40.9351],[-73.1447,40.9558],[-73.1408,40.9662],[-73.1104,40.9719],[-73.0816,40.9731],[-73.0437,40.9622],[-73.0404,40.9645],[-72.9959,40.9665],[-72.9552,40.9661],[-72.9138,40.9625],[-72.8882,40.963],[-72.8261,40.9698],[-72.7741,40.9653],[-72.76,40.9753],[-72.7144,40.9856],[-72.6893,40.9898],[-72.665,40.9875],[-72.6354,40.9905],[-72.5853,40.9976],[-72.5654,41.0095],[-72.561,41.0154],[-72.5499,41.0198],[-72.5215,41.0377],[-72.4773,41.0522],[-72.4608,41.067],[-72.4452,41.0861],[-72.4179,41.088],[-72.397,41.0963],[-72.3561,41.1336],[-72.3334,41.138],[-72.3224,41.1407],[-72.2911,41.1559],[-72.2788,41.1587],[-72.273,41.155],[-72.2681,41.1541],[-72.2453,41.1612],[-72.2382,41.1595],[-72.2377,41.1564],[-72.2536,41.1371],[-72.2651,41.1285],[-72.3004,41.1123],[-72.3,41.1321],[-72.3064,41.1378],[-72.3127,41.1385],[-72.3181,41.1371],[-72.3266,41.1322],[-72.3353,41.1203],[-72.3352,41.1069],[-72.3172,41.0887],[-72.2977,41.081],[-72.2804,41.0804],[-72.2767,41.0767],[-72.2831,41.0679],[-72.2737,41.0515],[-72.2605,41.0421],[-72.2413,41.0448],[-72.2294,41.0444],[-72.2175,41.0406],[-72.2019,41.0323],[-72.1906,41.0326],[-72.1833,41.0356],[-72.1795,41.0384],[-72.1749,41.0461],[-72.1629,41.0532],[-72.1604,41.0538],[-72.1539,41.0519],[-72.1373,41.0397],[-72.1351,41.0313],[-72.1374,41.0239],[-72.1164,40.9998],[-72.109,40.9941],[-72.1022,40.9915],[-72.0955,40.9913],[-72.083,40.9965],[-72.08,41.0034],[-72.0792,41.0064],[-72.0762,41.0091],[-72.0614,41.0094],[-72.0579,41.0048],[-72.0571,41.0049],[-72.0552,41.0052],[-72.0516,41.0064],[-72.0495,41.0097],[-72.0515,41.0157],[-72.0519,41.0205],[-72.0475,41.0226],[-72.0358,41.0208],[-72.015,41.0283],[-71.9993,41.0397],[-71.967,41.0478],[-71.9611,41.0543],[-71.9604,41.0599],[-71.9616,41.064],[-71.9596,41.0712],[-71.9382,41.0774],[-71.9194,41.0805],[-71.8993,41.0808],[-71.8955,41.0774],[-71.8895,41.0757],[-71.8696,41.075],[-71.8645,41.0769],[-71.8575,41.0736],[-71.8562,41.0706],[-71.8739,41.0523],[-71.9037,41.0402],[-71.9357,41.0342],[-72.0294,40.9999],[-72.1144,40.9721],[-72.3958,40.8667],[-72.47,40.8427],[-72.5734,40.8133],[-72.7452,40.7671],[-72.7531,40.7636],[-72.7572,40.7644],[-72.7682,40.7616],[-72.8632,40.733],[-72.9232,40.7133],[-73.0125,40.6797],[-73.055,40.6664],[-73.1453,40.6455],[-73.2084,40.6309],[-73.2391,40.6251],[-73.2621,40.6215],[-73.2645,40.6214],[-73.3064,40.6208],[-73.3097,40.6225],[-73.3193,40.6358],[-73.3515,40.6305],[-73.392,40.6175],[-73.4238,40.6099],[-73.4256,40.6563],[-73.4246,40.6663],[-73.4233,40.6709],[-73.4248,40.6791],[-73.441,40.7644],[-73.4542,40.8341]]]]}},{"type":"Feature","id":"36105","properties":{"name":"Sullivan","fips":"36105"},"geometry":{"type":"Polygon","coordinates":[[[-75.0501,41.6069],[-75.0531,41.6186],[-75.0482,41.632],[-75.0534,41.7525],[-75.0908,41.812],[-75.1144,41.8436],[-75.1402,41.8521],[-75.1464,41.8509],[-74.9973,41.9185],[-74.7807,42.0164],[-74.4537,41.8756],[-74.5751,41.7453],[-74.3951,41.6449],[-74.3671,41.591],[-74.4756,41.5043],[-74.7524,41.4937],[-74.7559,41.4268],[-74.7992,41.4305],[-74.8767,41.4403],[-74.8919,41.4489],[-74.9125,41.4756],[-74.9398,41.4834],[-74.9842,41.5063],[-75.0405,41.5697],[-75.0501,41.6069]]]}},{"type":"Feature","id":"36107","properties":{"name":"Tioga","fips":"36107"},"geometry":{"type":"Polygon","coordinates":[[[-76.1455,41.9989],[-76.3437,41.9983],[-76.3499,41.9984],[-76.4622,41.9989],[-76.4665,41.999],[-76.5576,42.0001],[-76.5383,42.2818],[-76.4162,42.263],[-76.4153,42.3184],[-76.3946,42.3185],[-76.2501,42.2967],[-76.2534,42.4076],[-76.1302,42.4103],[-76.0811,42.2305],[-76.114,42.1534],[-76.1111,42.1124],[-76.1058,41.9989],[-76.1237,41.999],[-76.1312,41.999],[-76.1455,41.9989]]]}},{"type":"Feature","id":"36109","properties":{"name":"Tompkins","fips":"36109"},"geometry":{"type":"Polygon","coordinates":[[[-76.2534,42.4076],[-76.2501,42.2967],[-76.3946,42.3185],[-76.4153,42.3184],[-76.4162,42.263],[-76.5383,42.2818],[-76.5616,42.282],[-76.6193,42.2829],[-76.6914,42.2843],[-76.6967,42.5468],[-76.586,42.5499],[-76.6665,42.6235],[-76.2656,42.6236],[-76.2534,42.4076]]]}},{"type":"Feature","id":"36111","properties":{"name":"Ulster","fips":"36111"},"geometry":{"type":"Polygon","coordinates":[[[-73.9425,41.6841],[-73.9474,41.6675],[-73.9533,41.59],[-74.1264,41.5825],[-74.2641,41.6327],[-74.3671,41.591],[-74.3951,41.6449],[-74.5751,41.7453],[-74.4537,41.8756],[-74.7807,42.0164],[-74.4517,42.1692],[-74.3076,42.1143],[-74.0748,42.0966],[-74.0424,42.1704],[-73.9107,42.1273],[-73.9215,42.11],[-73.9296,42.0788],[-73.9622,41.901],[-73.9411,41.736],[-73.9411,41.7327],[-73.9444,41.7146],[-73.9467,41.6994],[-73.9458,41.6956],[-73.9435,41.6903],[-73.9425,41.6841]]]}},{"type":"Feature","id":"36113","properties":{"name":"Warren","fips":"36113"},"geometry":{"type":"Polygon","coordinates":[[[-73.8687,43.7628],[-73.4955,43.7993],[-73.4381,43.8037],[-73.4929,43.6573],[-73.6289,43.4864],[-73.595,43.3061],[-73.8358,43.2538],[-73.8841,43.398],[-74.1601,43.3715],[-74.2146,43.7287],[-74.057,43.7445],[-73.8687,43.7628]]]}},{"type":"Feature","id":"36115","properties":{"name":"Washington","fips":"36115"},"geometry":{"type":"Polygon","coordinates":[[[-73.2695,43.0307],[-73.2743,42.9437],[-73.6355,42.9413],[-73.5733,43.1005],[-73.595,43.3061],[-73.6289,43.4864],[-73.4929,43.6573],[-73.4381,43.8037],[-73.4359,43.8038],[-73.4332,43.8041],[-73.3793,43.8085],[-73.3793,43.8084],[-73.3575,43.7859],[-73.3504,43.7714],[-73.3607,43.7533],[-73.3707,43.7356],[-73.4035,43.685],[-73.4087,43.674],[-73.4216,43.6466],[-73.4312,43.5883],[-73.4286,43.584],[-73.4003,43.5689],[-73.3756,43.6133],[-73.3665,43.6235],[-73.3062,43.628],[-73.3026,43.6257],[-73.2456,43.5403],[-73.242,43.5349],[-73.2471,43.5149],[-73.2526,43.371],[-73.2527,43.3703],[-73.2528,43.3635],[-73.2531,43.3547],[-73.2548,43.3147],[-73.2592,43.2168],[-73.2695,43.0307]]]}},{"type":"Feature","id":"36117","properties":{"name":"Wayne","fips":"36117"},"geometry":{"type":"Polygon","coordinates":[[[-77.3744,43.1526],[-77.376,43.2777],[-77.3411,43.2807],[-77.3146,43.281],[-77.304,43.2781],[-77.2642,43.2774],[-77.2141,43.2841],[-77.1731,43.2815],[-77.1434,43.2876],[-77.1304,43.2856],[-77.1119,43.2879],[-77.0673,43.2809],[-77.0339,43.2712],[-76.9997,43.2715],[-76.9884,43.2745],[-76.9584,43.27],[-76.9522,43.2707],[-76.9224,43.285],[-76.9043,43.2918],[-76.8869,43.2939],[-76.8774,43.2929],[-76.855,43.2984],[-76.8417,43.3054],[-76.7947,43.3096],[-76.769,43.3185],[-76.7471,43.3315],[-76.731,43.3434],[-76.7225,43.3437],[-76.7053,43.1255],[-76.7138,43.024],[-76.9639,43.0132],[-77.1334,43.0125],[-77.1343,43.0399],[-77.3715,43.0347],[-77.3744,43.1526]]]}},{"type":"Feature","id":"36119","properties":{"name":"Westchester","fips":"36119"},"geometry":{"type":"MultiPolygon","coordinates":[[[[-73.7672,40.8863],[-73.7671,40.8854],[-73.7671,40.8848],[-73.7671,40.8835],[-73.7663,40.8811],[-73.767,40.8801],[-73.7709,40.8793],[-73.7753,40.8822],[-73.7752,40.8842],[-73.7728,40.8846],[-73.7723,40.8875],[-73.7706,40.8884],[-73.7683,40.8876],[-73.7673,40.8869],[-73.7672,40.8863]]],[[[-73.5146,41.1984],[-73.6144,41.153],[-73.6322,41.1449],[-73.6397,41.1415],[-73.7278,41.1007],[-73.6943,41.0593],[-73.6872,41.0507],[-73.68,41.0418],[-73.6705,41.0301],[-73.6554,41.0128],[-73.6547,41.0117],[-73.6573,40.9852],[-73.656,40.9796],[-73.66,40.9684],[-73.6621,40.9662],[-73.6645,40.9672],[-73.6781,40.9628],[-73.6833,40.949],[-73.6865,40.9452],[-73.698,40.9396],[-73.7217,40.932],[-73.7318,40.925],[-73.7568,40.9126],[-73.7813,40.8854],[-73.7835,40.881],[-73.8048,40.8865],[-73.8064,40.8868],[-73.8232,40.8912],[-73.8231,40.8906],[-73.8236,40.8904],[-73.8236,40.8899],[-73.824,40.8899],[-73.9179,40.9176],[-73.894,40.9972],[-73.8894,41.0376],[-73.8947,41.0699],[-73.8949,41.0824],[-73.8872,41.1331],[-73.8954,41.154],[-73.9093,41.1644],[-73.9315,41.205],[-73.948,41.2231],[-73.9826,41.3217],[-73.5447,41.3664],[-73.551,41.2954],[-73.4827,41.2128],[-73.5095,41.2008],[-73.5146,41.1984]]]]}},{"type":"Feature","id":"36121","properties":{"name":"Wyoming","fips":"36121"},"geometry":{"type":"Polygon","coordinates":[[[-78.4639,42.5363],[-78.4644,42.8675],[-77.955,42.8628],[-77.9563,42.6673],[-78.0482,42.5793],[-78.0383,42.5215],[-78.0402,42.521],[-78.3088,42.5212],[-78.4646,42.5192],[-78.4639,42.5363]]]}},{"type":"Feature","id":"36123","properties":{"name":"Yates","fips":"36123"},"geometry":{"type":"Polygon","coordinates":[[[-77.3665,42.5764],[-77.3671,42.6679],[-77.313,42.7613],[-77.0186,42.7638],[-76.9714,42.7642],[-76.8953,42.6563],[-76.8956,42.5415],[-76.8898,42.4631],[-77.1072,42.4838],[-77.1438,42.5769],[-77.3665,42.5764]]]}}]}