{"type":"FeatureCollection","features":[{"type":"Feature","id":"39001","properties":{"name":"Adams","fips":"39001"},"geometry":{"type":"Polygon","coordinates":[[[-83.643,38.6433],[-83.6467,38.6375],[-83.6497,38.6328],[-83.6554,38.6297],[-83.6639,38.6279],[-83.6795,38.63],[-83.706,38.6371],[-83.7053,38.6399],[-83.673,39.0204],[-83.6116,39.0189],[-83.3856,39.0552],[-83.2708,39.0158],[-83.2658,38.6053],[-83.2821,38.603],[-83.3205,38.6227],[-83.3242,38.6333],[-83.3333,38.6416],[-83.3691,38.6593],[-83.5126,38.7017],[-83.521,38.703],[-83.5333,38.7021],[-83.5748,38.6927],[-83.6157,38.6841],[-83.6269,38.6794],[-83.6362,38.6706],[-83.643,38.6433]]]}},{"type":"Feature","id":"39003","properties":{"name":"Allen","fips":"39003"},"geometry":{"type":"Polygon","coordinates":[[[-84.3405,40.8591],[-84.1096,40.861],[-84.1095,40.9047],[-83.8804,40.9204],[-83.8801,40.8199],[-83.8802,40.6447],[-84.1078,40.6431],[-84.2228,40.686],[-84.3968,40.6849],[-84.3974,40.8159],[-84.3405,40.8591]]]}},{"type":"Feature","id":"39005","properties":{"name":"Ashland","fips":"39005"},"geometry":{"type":"Polygon","coordinates":[[[-82.4165,40.9023],[-82.4179,40.9929],[-82.4329,40.9929],[-82.4369,41.0654],[-82.3365,41.0658],[-82.1715,41.0635],[-82.1734,40.992],[-82.1293,40.9918],[-82.1279,40.9373],[-82.1285,40.93],[-82.1279,40.9009],[-82.125,40.8863],[-82.1262,40.6682],[-82.2207,40.6676],[-82.2201,40.5682],[-82.337,40.555],[-82.3392,40.7267],[-82.3784,40.7271],[-82.4165,40.9023]]]}},{"type":"Feature","id":"39007","properties":{"name":"Ashtabula","fips":"39007"},"geometry":{"type":"Polygon","coordinates":[[[-80.9737,41.8581],[-80.9711,41.8584],[-80.9585,41.8598],[-80.9362,41.8624],[-80.9165,41.866],[-80.9003,41.8689],[-80.8535,41.8847],[-80.8521,41.8852],[-80.8269,41.8937],[-80.8192,41.8963],[-80.8164,41.8972],[-80.8149,41.8977],[-80.8132,41.8988],[-80.8127,41.8991],[-80.8087,41.9016],[-80.808,41.9023],[-80.8061,41.9042],[-80.8014,41.909],[-80.8008,41.9096],[-80.7998,41.9097],[-80.7983,41.9099],[-80.7944,41.9104],[-80.7864,41.9113],[-80.7855,41.9114],[-80.7847,41.9115],[-80.7829,41.9083],[-80.7821,41.9066],[-80.7811,41.9069],[-80.7771,41.908],[-80.7718,41.9095],[-80.7708,41.9098],[-80.768,41.9105],[-80.766,41.9111],[-80.7622,41.9122],[-80.7579,41.9134],[-80.7275,41.9186],[-80.7208,41.9197],[-80.7175,41.9207],[-80.7122,41.9221],[-80.7083,41.9232],[-80.6994,41.9256],[-80.6934,41.9272],[-80.6356,41.943],[-80.6194,41.9474],[-80.6192,41.9474],[-80.6086,41.9503],[-80.5819,41.9576],[-80.5794,41.9585],[-80.5767,41.9595],[-80.5766,41.9595],[-80.5755,41.9599],[-80.572,41.9612],[-80.5633,41.9644],[-80.5607,41.9653],[-80.5559,41.9671],[-80.5538,41.9678],[-80.5338,41.9735],[-80.5314,41.9741],[-80.5302,41.9745],[-80.5293,41.9747],[-80.5255,41.9758],[-80.5221,41.9768],[-80.5195,41.9775],[-80.5194,41.9775],[-80.5194,41.9775],[-80.5194,41.9762],[-80.5193,41.944],[-80.5193,41.9292],[-80.5193,41.8496],[-80.5192,41.7651],[-80.5194,41.7525],[-80.5194,41.7394],[-80.5194,41.7015],[-80.5194,41.6712],[-80.5194,41.6698],[-80.5193,41.5393],[-80.5192,41.5288],[-80.5192,41.4999],[-81.0031,41.5017],[-81.003,41.7],[-81.0036,41.7151],[-81.0048,41.7264],[-81.0021,41.8549],[-80.9918,41.8561],[-80.9737,41.8581]]]}},{"type":"Feature","id":"39009","properties":{"name":"Athens","fips":"39009"},"geometry":{"type":"Polygon","coordinates":[[[-82.0558,39.4601],[-81.8449,39.4502],[-81.8537,39.3182],[-81.7218,39.2696],[-81.7216,39.2124],[-81.7401,39.1907],[-81.7499,39.1865],[-81.7497,39.1807],[-82.2686,39.2038],[-82.264,39.2533],[-82.2638,39.2538],[-82.2636,39.2559],[-82.2637,39.2562],[-82.2602,39.2929],[-82.2985,39.295],[-82.2897,39.3842],[-82.2804,39.4729],[-82.1674,39.4663],[-82.1592,39.5566],[-82.0475,39.5508],[-82.0558,39.4601]]]}},{"type":"Feature","id":"39011","properties":{"name":"Auglaize","fips":"39011"},"geometry":{"type":"Polygon","coordinates":[[[-84.4557,40.5679],[-84.4562,40.6849],[-84.3968,40.6849],[-84.2228,40.686],[-84.1078,40.6431],[-83.8802,40.6447],[-83.8799,40.5387],[-83.9939,40.5352],[-84.0024,40.4831],[-84.3391,40.4813],[-84.3389,40.3787],[-84.4344,40.3545],[-84.4554,40.3586],[-84.4557,40.5679]]]}},{"type":"Feature","id":"39013","properties":{"name":"Belmont","fips":"39013"},"geometry":{"type":"Polygon","coordinates":[[[-80.7055,40.153],[-80.7265,40.0891],[-80.7331,40.0588],[-80.7309,40.0492],[-80.7315,40.0375],[-80.7321,40.0332],[-80.7401,39.9708],[-80.7432,39.9691],[-80.7595,39.9582],[-80.806,39.9171],[-80.8087,39.9126],[-80.8096,39.9056],[-80.8062,39.8973],[-80.8123,39.8488],[-81.2373,39.8678],[-81.2341,39.9513],[-81.2259,40.1701],[-81.0355,40.1649],[-80.8829,40.1595],[-80.7031,40.1572],[-80.7055,40.153]]]}},{"type":"Feature","id":"39015","properties":{"name":"Brown","fips":"39015"},"geometry":{"type":"Polygon","coordinates":[[[-83.9039,38.7681],[-83.904,38.7682],[-83.944,38.7836],[-83.9621,38.7874],[-83.9788,38.7871],[-84.0445,38.7706],[-84.0527,38.7705],[-83.9953,39.2282],[-83.9931,39.2542],[-83.8657,39.2473],[-83.8722,39.0213],[-83.673,39.0204],[-83.7053,38.6399],[-83.706,38.6371],[-83.7624,38.6521],[-83.7693,38.6552],[-83.7737,38.6613],[-83.7778,38.6745],[-83.8533,38.7526],[-83.859,38.7568],[-83.8704,38.7616],[-83.9039,38.7681]]]}},{"type":"Feature","id":"39017","properties":{"name":"Butler","fips":"39017"},"geometry":{"type":"Polygon","coordinates":[[[-84.3482,39.3485],[-84.3532,39.2923],[-84.3911,39.2976],[-84.4284,39.2987],[-84.447,39.3008],[-84.631,39.3119],[-84.8195,39.3052],[-84.8194,39.3095],[-84.8175,39.3918],[-84.8158,39.4774],[-84.8158,39.4774],[-84.8156,39.511],[-84.8156,39.5111],[-84.8154,39.5219],[-84.8154,39.522],[-84.8152,39.5481],[-84.815,39.5663],[-84.815,39.5673],[-84.815,39.5677],[-84.4789,39.5688],[-84.4792,39.591],[-84.4742,39.5902],[-84.3652,39.5895],[-84.3321,39.5488],[-84.3482,39.3485]]]}},{"type":"Feature","id":"39019","properties":{"name":"Carroll","fips":"39019"},"geometry":{"type":"Polygon","coordinates":[[[-80.862,40.5994],[-80.9209,40.5563],[-80.9419,40.4247],[-81.27,40.4335],[-81.2647,40.565],[-81.3217,40.5666],[-81.3177,40.6516],[-81.2412,40.6505],[-81.2372,40.7235],[-81.0873,40.7278],[-80.9172,40.7269],[-80.9181,40.6435],[-80.862,40.5994]]]}},{"type":"Feature","id":"39021","properties":{"name":"Champaign","fips":"39021"},"geometry":{"type":"Polygon","coordinates":[[[-83.5513,40.2294],[-83.4945,40.2255],[-83.5037,40.1115],[-83.5162,40.0102],[-84.0361,40.0402],[-84.0229,40.1839],[-84.0148,40.2735],[-83.5513,40.2294]]]}},{"type":"Feature","id":"39023","properties":{"name":"Clark","fips":"39023"},"geometry":{"type":"Polygon","coordinates":[[[-84.051,39.8798],[-84.0361,40.0402],[-83.5162,40.0102],[-83.588,39.7688],[-83.6472,39.773],[-83.8295,39.7979],[-83.8274,39.8227],[-84.0537,39.8505],[-84.0533,39.8551],[-84.0531,39.8562],[-84.0521,39.8663],[-84.0516,39.8777],[-84.051,39.8798]]]}},{"type":"Feature","id":"39025","properties":{"name":"Clermont","fips":"39025"},"geometry":{"type":"Polygon","coordinates":[[[-84.2594,39.2708],[-84.0068,39.2551],[-83.9931,39.2542],[-83.9953,39.2282],[-84.0527,38.7705],[-84.0715,38.7705],[-84.2056,38.8026],[-84.2129,38.8057],[-84.2253,38.8177],[-84.23,38.8276],[-84.2313,38.8306],[-84.2337,38.8536],[-84.2325,38.8746],[-84.2321,38.8805],[-84.2345,38.8932],[-84.3047,39.0065],[-84.3137,39.017],[-84.3199,39.0221],[-84.3167,39.2269],[-84.2594,39.2708]]]}},{"type":"Feature","id":"39027","properties":{"name":"Clinton","fips":"39027"},"geometry":{"type":"Polygon","coordinates":[[[-83.9886,39.4444],[-83.977,39.5692],[-83.6702,39.5503],[-83.5763,39.5445],[-83.5909,39.3787],[-83.7848,39.2629],[-83.8657,39.2473],[-83.9931,39.2542],[-84.0068,39.2551],[-83.9886,39.4444]]]}},{"type":"Feature","id":"39029","properties":{"name":"Columbiana","fips":"39029"},"geometry":{"type":"Polygon","coordinates":[[[-80.5198,40.8999],[-80.519,40.8513],[-80.519,40.8501],[-80.5191,40.8492],[-80.519,40.8012],[-80.5191,40.7923],[-80.519,40.6388],[-80.5607,40.6237],[-80.589,40.6201],[-80.5941,40.6237],[-80.6015,40.6254],[-80.6272,40.6199],[-80.6344,40.6161],[-80.6659,40.5877],[-80.668,40.5825],[-80.862,40.5994],[-80.9181,40.6435],[-80.9172,40.7269],[-81.0873,40.7278],[-81.0867,40.9016],[-80.5198,40.8999]]]}},{"type":"Feature","id":"39031","properties":{"name":"Coshocton","fips":"39031"},"geometry":{"type":"Polygon","coordinates":[[[-82.1871,40.1669],[-82.1828,40.2386],[-82.1959,40.2391],[-82.1845,40.4543],[-82.1846,40.4563],[-81.7091,40.4448],[-81.7123,40.3708],[-81.616,40.3681],[-81.6227,40.2213],[-81.7163,40.1522],[-81.7169,40.1529],[-82.1871,40.1669]]]}},{"type":"Feature","id":"39033","properties":{"name":"Crawford","fips":"39033"},"geometry":{"type":"Polygon","coordinates":[[[-83.1114,40.7029],[-83.1127,40.9934],[-82.8295,40.9966],[-82.7248,40.9956],[-82.7272,40.7112],[-82.8583,40.705],[-83.1114,40.7029]]]}},{"type":"Feature","id":"39035","properties":{"name":"Cuyahoga","fips":"39035"},"geometry":{"type":"Polygon","coordinates":[[[-81.8781,41.275],[-81.8771,41.3436],[-81.9713,41.3513],[-81.9681,41.5064],[-81.9649,41.5054],[-81.9627,41.5013],[-81.9585,41.4986],[-81.9379,41.4914],[-81.9304,41.4905],[-81.9287,41.4902],[-81.8774,41.4834],[-81.8603,41.4838],[-81.8501,41.4863],[-81.8371,41.4894],[-81.8361,41.4896],[-81.811,41.4956],[-81.8108,41.4956],[-81.8012,41.4962],[-81.8003,41.4963],[-81.7997,41.4963],[-81.7944,41.4966],[-81.7942,41.4966],[-81.7823,41.496],[-81.7689,41.4917],[-81.7689,41.4916],[-81.7625,41.4905],[-81.7586,41.4897],[-81.7461,41.4874],[-81.7458,41.4873],[-81.7448,41.4871],[-81.7443,41.4873],[-81.7419,41.4878],[-81.7388,41.4885],[-81.7327,41.4914],[-81.7278,41.4937],[-81.7264,41.4944],[-81.7258,41.4947],[-81.7193,41.4978],[-81.7168,41.499],[-81.7156,41.4995],[-81.711,41.5017],[-81.711,41.5018],[-81.7076,41.5051],[-81.7069,41.5059],[-81.6933,41.5142],[-81.6912,41.5154],[-81.6881,41.5173],[-81.6649,41.5314],[-81.6649,41.5314],[-81.6499,41.5358],[-81.6485,41.5362],[-81.6411,41.5383],[-81.6337,41.5405],[-81.6274,41.5442],[-81.6169,41.5504],[-81.6166,41.5506],[-81.6158,41.5511],[-81.6102,41.5544],[-81.6097,41.5547],[-81.5997,41.5606],[-81.5931,41.5655],[-81.5931,41.5655],[-81.592,41.5663],[-81.5915,41.5667],[-81.5798,41.5752],[-81.5797,41.5752],[-81.5797,41.5752],[-81.5793,41.5756],[-81.5787,41.576],[-81.5775,41.5769],[-81.5757,41.5782],[-81.5756,41.5783],[-81.5628,41.5875],[-81.5317,41.613],[-81.5316,41.613],[-81.53,41.6144],[-81.5297,41.6145],[-81.527,41.6154],[-81.5207,41.6173],[-81.5094,41.6207],[-81.5004,41.6234],[-81.4886,41.6313],[-81.4889,41.6279],[-81.4881,41.5986],[-81.4881,41.5773],[-81.4878,41.5701],[-81.4199,41.5699],[-81.4176,41.5697],[-81.409,41.5699],[-81.391,41.5697],[-81.3917,41.3483],[-81.3996,41.3486],[-81.4503,41.3491],[-81.5927,41.3511],[-81.5981,41.3509],[-81.5905,41.2776],[-81.685,41.2771],[-81.8781,41.275]]]}},{"type":"Feature","id":"39037","properties":{"name":"Darke","fips":"39037"},"geometry":{"type":"Polygon","coordinates":[[[-84.8039,40.3101],[-84.8039,40.3101],[-84.8041,40.3528],[-84.4346,40.3543],[-84.4326,40.197],[-84.4259,39.9196],[-84.4461,39.9193],[-84.4465,39.9189],[-84.448,39.9192],[-84.4854,39.9185],[-84.8124,39.9169],[-84.8124,39.9169],[-84.8124,39.9218],[-84.8122,39.9273],[-84.8107,40.0051],[-84.8101,40.0342],[-84.8097,40.0489],[-84.8087,40.1072],[-84.8083,40.127],[-84.8083,40.129],[-84.8068,40.1801],[-84.8063,40.1923],[-84.8063,40.1923],[-84.8062,40.198],[-84.8056,40.2237],[-84.8041,40.3025],[-84.8039,40.3101]]]}},{"type":"Feature","id":"39039","properties":{"name":"Defiance","fips":"39039"},"geometry":{"type":"Polygon","coordinates":[[[-84.8039,41.368],[-84.8041,41.4083],[-84.804,41.4084],[-84.804,41.4117],[-84.804,41.426],[-84.3417,41.4276],[-84.2285,41.4278],[-84.2282,41.1659],[-84.3416,41.1655],[-84.3419,41.2092],[-84.4571,41.2094],[-84.4572,41.2535],[-84.8035,41.2526],[-84.8036,41.2709],[-84.8036,41.2711],[-84.8036,41.2713],[-84.8039,41.368]]]}},{"type":"Feature","id":"39041","properties":{"name":"Delaware","fips":"39041"},"geometry":{"type":"Polygon","coordinates":[[[-82.7499,40.2886],[-82.7502,40.2841],[-82.7507,40.277],[-82.7618,40.1259],[-83.064,40.1383],[-83.1491,40.1416],[-83.17,40.1431],[-83.1723,40.2443],[-83.2484,40.2445],[-83.2486,40.444],[-83.0208,40.4338],[-82.9248,40.415],[-82.9296,40.3581],[-82.7449,40.3496],[-82.7499,40.2886]]]}},{"type":"Feature","id":"39043","properties":{"name":"Erie","fips":"39043"},"geometry":{"type":"MultiPolygon","coordinates":[[[[-82.7002,41.6122],[-82.6911,41.6113],[-82.6801,41.619],[-82.6778,41.618],[-82.6807,41.5946],[-82.686,41.5872],[-82.6887,41.5859],[-82.702,41.5854],[-82.7258,41.5952],[-82.7358,41.601],[-82.7357,41.6034],[-82.7188,41.6196],[-82.7073,41.6196],[-82.7034,41.6177],[-82.7002,41.6122]]],[[[-82.9522,41.4582],[-82.9202,41.4584],[-82.9066,41.4602],[-82.8561,41.4719],[-82.8283,41.4818],[-82.6947,41.4939],[-82.6879,41.4923],[-82.6583,41.4619],[-82.6177,41.4318],[-82.617,41.4284],[-82.5581,41.4],[-82.5138,41.3843],[-82.4991,41.3815],[-82.4812,41.3813],[-82.4606,41.3863],[-82.4313,41.3969],[-82.3981,41.4139],[-82.3618,41.4266],[-82.3481,41.4284],[-82.3423,41.2836],[-82.8415,41.29],[-82.8477,41.4303],[-82.9522,41.4582]]]]}},{"type":"Feature","id":"39045","properties":{"name":"Fairfield","fips":"39045"},"geometry":{"type":"Polygon","coordinates":[[[-82.8243,39.795],[-82.8115,39.9324],[-82.8108,39.9412],[-82.7825,39.9397],[-82.5818,39.9302],[-82.4734,39.9251],[-82.4628,39.9304],[-82.4724,39.8372],[-82.3966,39.8331],[-82.3745,39.655],[-82.4903,39.6617],[-82.4961,39.6028],[-82.6175,39.6086],[-82.6201,39.564],[-82.7315,39.5544],[-82.843,39.5615],[-82.8243,39.795]]]}},{"type":"Feature","id":"39047","properties":{"name":"Fayette","fips":"39047"},"geometry":{"type":"Polygon","coordinates":[[[-83.2667,39.5162],[-83.3175,39.45],[-83.3727,39.3774],[-83.3754,39.3775],[-83.5909,39.3787],[-83.5763,39.5445],[-83.6702,39.5503],[-83.6533,39.7169],[-83.2524,39.6954],[-83.2667,39.5162]]]}},{"type":"Feature","id":"39049","properties":{"name":"Franklin","fips":"39049"},"geometry":{"type":"Polygon","coordinates":[[[-82.8115,39.9324],[-82.8243,39.795],[-83.0131,39.8044],[-83.2437,39.8125],[-83.2538,40.0492],[-83.2063,40.1077],[-83.1702,40.1069],[-83.17,40.1431],[-83.1491,40.1416],[-83.064,40.1383],[-82.7618,40.1259],[-82.7825,39.9397],[-82.8108,39.9412],[-82.8115,39.9324]]]}},{"type":"Feature","id":"39051","properties":{"name":"Fulton","fips":"39051"},"geometry":{"type":"Polygon","coordinates":[[[-83.8804,41.7201],[-83.8825,41.6032],[-83.8829,41.4875],[-84.3419,41.4855],[-84.3807,41.5139],[-84.3995,41.7058],[-84.3994,41.7058],[-84.3965,41.7059],[-84.3604,41.7069],[-83.8805,41.7201],[-83.8804,41.7201]]]}},{"type":"Feature","id":"39053","properties":{"name":"Gallia","fips":"39053"},"geometry":{"type":"Polygon","coordinates":[[[-82.1393,38.8664],[-82.1844,38.8165],[-82.1912,38.8151],[-82.2158,38.7975],[-82.2216,38.7872],[-82.2204,38.7737],[-82.1989,38.7577],[-82.1883,38.7341],[-82.1825,38.7088],[-82.1721,38.626],[-82.1721,38.6193],[-82.1752,38.6085],[-82.1773,38.6038],[-82.182,38.5994],[-82.1938,38.5931],[-82.219,38.5917],[-82.246,38.5985],[-82.2621,38.5982],[-82.2743,38.5937],[-82.2871,38.5826],[-82.3617,38.5852],[-82.3545,38.6761],[-82.4725,38.6823],[-82.4836,38.7723],[-82.5827,38.7791],[-82.5756,38.8445],[-82.4552,38.8446],[-82.4353,39.0351],[-82.3229,39.0277],[-82.0955,39.0028],[-82.0988,38.9583],[-82.1393,38.8664]]]}},{"type":"Feature","id":"39055","properties":{"name":"Geauga","fips":"39055"},"geometry":{"type":"Polygon","coordinates":[[[-81.0031,41.4259],[-81.0032,41.4245],[-81.0033,41.3479],[-81.3917,41.3483],[-81.391,41.5697],[-81.2959,41.5699],[-81.2947,41.6409],[-81.1014,41.6415],[-81.1023,41.7143],[-81.0036,41.7151],[-81.003,41.7],[-81.0031,41.5017],[-81.0031,41.4259]]]}},{"type":"Feature","id":"39057","properties":{"name":"Greene","fips":"39057"},"geometry":{"type":"Polygon","coordinates":[[[-84.0969,39.793],[-84.0929,39.8383],[-84.0552,39.836],[-84.0537,39.8505],[-83.8274,39.8227],[-83.8295,39.7979],[-83.6472,39.773],[-83.6486,39.7685],[-83.6489,39.7611],[-83.6533,39.7169],[-83.6702,39.5503],[-83.977,39.5692],[-84.1142,39.578],[-84.0969,39.793]]]}},{"type":"Feature","id":"39059","properties":{"name":"Guernsey","fips":"39059"},"geometry":{"type":"Polygon","coordinates":[[[-81.6941,39.8426],[-81.7286,39.9317],[-81.7163,40.1522],[-81.6227,40.2213],[-81.3381,40.2143],[-81.3396,40.172],[-81.2259,40.1701],[-81.2341,39.9513],[-81.386,39.9507],[-81.4641,39.8946],[-81.5786,39.8977],[-81.5803,39.8391],[-81.6941,39.8426]]]}},{"type":"Feature","id":"39061","properties":{"name":"Hamilton","fips":"39061"},"geometry":{"type":"Polygon","coordinates":[[[-84.5101,39.0936],[-84.6034,39.0737],[-84.6201,39.0735],[-84.6237,39.0744],[-84.6324,39.0768],[-84.6848,39.1005],[-84.6897,39.1042],[-84.7185,39.1371],[-84.732,39.1445],[-84.7441,39.1475],[-84.7544,39.1467],[-84.7667,39.1386],[-84.7877,39.1153],[-84.8202,39.1055],[-84.82,39.1491],[-84.8198,39.1565],[-84.8198,39.1576],[-84.8198,39.2443],[-84.8198,39.2478],[-84.8199,39.251],[-84.8196,39.2619],[-84.8196,39.2716],[-84.8195,39.3052],[-84.8195,39.3052],[-84.631,39.3119],[-84.447,39.3008],[-84.4284,39.2987],[-84.3911,39.2976],[-84.3532,39.2923],[-84.2594,39.2708],[-84.3167,39.2269],[-84.3199,39.0221],[-84.3265,39.0275],[-84.4328,39.0943],[-84.4937,39.1025],[-84.5021,39.0966],[-84.5061,39.0951],[-84.5097,39.0937],[-84.5101,39.0936]]]}},{"type":"Feature","id":"39063","properties":{"name":"Hancock","fips":"39063"},"geometry":{"type":"Polygon","coordinates":[[[-83.4211,41.1668],[-83.4203,40.9919],[-83.5159,40.8181],[-83.8801,40.8199],[-83.8804,40.9204],[-83.8811,41.1678],[-83.4211,41.1668]]]}},{"type":"Feature","id":"39065","properties":{"name":"Hardin","fips":"39065"},"geometry":{"type":"Polygon","coordinates":[[[-83.5202,40.5041],[-83.8799,40.5387],[-83.8802,40.6447],[-83.8801,40.8199],[-83.5159,40.8181],[-83.4958,40.7016],[-83.4198,40.6868],[-83.4153,40.5155],[-83.4184,40.5052],[-83.5202,40.5041]]]}},{"type":"Feature","id":"39067","properties":{"name":"Harrison","fips":"39067"},"geometry":{"type":"Polygon","coordinates":[[[-81.0355,40.1649],[-81.2259,40.1701],[-81.3396,40.172],[-81.3381,40.2143],[-81.3346,40.3043],[-81.2753,40.3034],[-81.27,40.4335],[-80.9419,40.4247],[-80.8655,40.4229],[-80.8829,40.1595],[-81.0355,40.1649]]]}},{"type":"Feature","id":"39069","properties":{"name":"Henry","fips":"39069"},"geometry":{"type":"Polygon","coordinates":[[[-84.2282,41.1659],[-84.2285,41.4278],[-84.3417,41.4276],[-84.3419,41.4855],[-83.8829,41.4875],[-83.8832,41.4145],[-83.8811,41.1678],[-84.2282,41.1659]]]}},{"type":"Feature","id":"39071","properties":{"name":"Highland","fips":"39071"},"geometry":{"type":"Polygon","coordinates":[[[-83.3727,39.3774],[-83.3935,39.2673],[-83.3535,39.1976],[-83.3856,39.0552],[-83.6116,39.0189],[-83.673,39.0204],[-83.8722,39.0213],[-83.8657,39.2473],[-83.7848,39.2629],[-83.5909,39.3787],[-83.3754,39.3775],[-83.3727,39.3774]]]}},{"type":"Feature","id":"39073","properties":{"name":"Hocking","fips":"39073"},"geometry":{"type":"Polygon","coordinates":[[[-82.3745,39.655],[-82.3799,39.5967],[-82.1592,39.5566],[-82.1674,39.4663],[-82.2804,39.4729],[-82.2897,39.3842],[-82.5145,39.3958],[-82.5176,39.3695],[-82.7486,39.3682],[-82.7408,39.466],[-82.7407,39.4684],[-82.7315,39.5544],[-82.6201,39.564],[-82.6175,39.6086],[-82.4961,39.6028],[-82.4903,39.6617],[-82.3745,39.655]]]}},{"type":"Feature","id":"39075","properties":{"name":"Holmes","fips":"39075"},"geometry":{"type":"Polygon","coordinates":[[[-82.1262,40.6682],[-81.65,40.6681],[-81.65,40.6553],[-81.6492,40.6351],[-81.6697,40.4439],[-81.7091,40.4448],[-82.1846,40.4563],[-82.1791,40.5731],[-82.2201,40.5682],[-82.2207,40.6676],[-82.1262,40.6682]]]}},{"type":"Feature","id":"39077","properties":{"name":"Huron","fips":"39077"},"geometry":{"type":"Polygon","coordinates":[[[-82.8295,40.9966],[-82.8401,41.2553],[-82.8415,41.29],[-82.3423,41.2836],[-82.3365,41.0658],[-82.4369,41.0654],[-82.4329,40.9929],[-82.7248,40.9956],[-82.8295,40.9966]]]}},{"type":"Feature","id":"39079","properties":{"name":"Jackson","fips":"39079"},"geometry":{"type":"Polygon","coordinates":[[[-82.7859,39.1688],[-82.7667,39.1678],[-82.7629,39.208],[-82.5363,39.1808],[-82.4247,39.138],[-82.4353,39.0351],[-82.4552,38.8446],[-82.5756,38.8445],[-82.625,38.8475],[-82.626,38.8476],[-82.65,38.8491],[-82.7607,38.8549],[-82.7534,38.9454],[-82.8071,38.9481],[-82.7859,39.1688]]]}},{"type":"Feature","id":"39081","properties":{"name":"Jefferson","fips":"39081"},"geometry":{"type":"Polygon","coordinates":[[[-80.6173,40.396],[-80.6192,40.3818],[-80.6093,40.3605],[-80.5999,40.3177],[-80.6029,40.3071],[-80.6167,40.2803],[-80.6372,40.2551],[-80.6446,40.2513],[-80.6521,40.245],[-80.6854,40.1876],[-80.7031,40.1572],[-80.8829,40.1595],[-80.8655,40.4229],[-80.9419,40.4247],[-80.9209,40.5563],[-80.862,40.5994],[-80.668,40.5825],[-80.6669,40.5737],[-80.6103,40.491],[-80.5992,40.4826],[-80.6123,40.4349],[-80.6173,40.396]]]}},{"type":"Feature","id":"39083","properties":{"name":"Knox","fips":"39083"},"geometry":{"type":"Polygon","coordinates":[[[-82.3643,40.241],[-82.4761,40.2647],[-82.7507,40.277],[-82.7502,40.2841],[-82.7499,40.2886],[-82.7449,40.3496],[-82.6465,40.3451],[-82.6236,40.5499],[-82.3749,40.5509],[-82.337,40.555],[-82.2201,40.5682],[-82.1791,40.5731],[-82.1846,40.4563],[-82.1845,40.4543],[-82.1959,40.2391],[-82.326,40.2397],[-82.3643,40.241]]]}},{"type":"Feature","id":"39085","properties":{"name":"Lake","fips":"39085"},"geometry":{"type":"Polygon","coordinates":[[[-81.391,41.5697],[-81.409,41.5699],[-81.4176,41.5697],[-81.4199,41.5699],[-81.4878,41.5701],[-81.4881,41.5773],[-81.4881,41.5986],[-81.4889,41.6279],[-81.4886,41.6313],[-81.4869,41.6327],[-81.4775,41.6401],[-81.466,41.6491],[-81.4525,41.6631],[-81.4477,41.668],[-81.4436,41.6722],[-81.4428,41.6731],[-81.4427,41.6732],[-81.4426,41.6733],[-81.4426,41.6733],[-81.4418,41.6738],[-81.4413,41.6741],[-81.439,41.6756],[-81.4378,41.6763],[-81.437,41.6768],[-81.4356,41.6777],[-81.4314,41.6803],[-81.4131,41.6918],[-81.408,41.695],[-81.4061,41.6962],[-81.4045,41.6972],[-81.4024,41.6985],[-81.4007,41.6996],[-81.4006,41.6996],[-81.3886,41.7071],[-81.3883,41.7074],[-81.3809,41.7116],[-81.3745,41.7154],[-81.3745,41.7154],[-81.3737,41.7159],[-81.3726,41.7165],[-81.3689,41.7186],[-81.3687,41.7188],[-81.3675,41.7194],[-81.3532,41.7277],[-81.3302,41.7379],[-81.3095,41.7471],[-81.307,41.7482],[-81.3065,41.7484],[-81.3016,41.7505],[-81.2889,41.7589],[-81.2869,41.7602],[-81.2799,41.7599],[-81.2792,41.7599],[-81.2656,41.7583],[-81.2642,41.7581],[-81.2638,41.7582],[-81.2631,41.7584],[-81.2593,41.7591],[-81.2555,41.7599],[-81.253,41.7604],[-81.2519,41.7606],[-81.2487,41.7613],[-81.2486,41.7613],[-81.2478,41.7616],[-81.2476,41.7617],[-81.2024,41.7796],[-81.2017,41.7798],[-81.1927,41.7834],[-81.1844,41.7867],[-81.1833,41.7871],[-81.1676,41.7939],[-81.1223,41.8135],[-81.1129,41.8176],[-81.0989,41.8213],[-81.0956,41.8222],[-81.0927,41.823],[-81.0519,41.8396],[-81.0245,41.8465],[-81.0105,41.854],[-81.0027,41.8548],[-81.0021,41.8549],[-81.0048,41.7264],[-81.0036,41.7151],[-81.1023,41.7143],[-81.1014,41.6415],[-81.2947,41.6409],[-81.2959,41.5699],[-81.391,41.5697]]]}},{"type":"Feature","id":"39087","properties":{"name":"Lawrence","fips":"39087"},"geometry":{"type":"Polygon","coordinates":[[[-82.5067,38.4101],[-82.5202,38.4076],[-82.5607,38.4043],[-82.5937,38.4218],[-82.6655,38.5057],[-82.6655,38.5058],[-82.6905,38.5366],[-82.6966,38.5421],[-82.7248,38.5576],[-82.731,38.5593],[-82.7898,38.56],[-82.8001,38.5632],[-82.816,38.5707],[-82.7404,38.5972],[-82.7639,38.68],[-82.7068,38.6775],[-82.65,38.8491],[-82.626,38.8476],[-82.625,38.8475],[-82.5756,38.8445],[-82.5827,38.7791],[-82.4836,38.7723],[-82.4725,38.6823],[-82.3545,38.6761],[-82.3617,38.5852],[-82.2871,38.5826],[-82.2913,38.579],[-82.2939,38.5727],[-82.2933,38.5603],[-82.2956,38.5398],[-82.3139,38.4681],[-82.3202,38.4545],[-82.324,38.4493],[-82.3303,38.4445],[-82.3406,38.4409],[-82.5067,38.4101]]]}},{"type":"Feature","id":"39089","properties":{"name":"Licking","fips":"39089"},"geometry":{"type":"Polygon","coordinates":[[[-82.5818,39.9302],[-82.7825,39.9397],[-82.7618,40.1259],[-82.7507,40.277],[-82.4761,40.2647],[-82.3643,40.241],[-82.326,40.2397],[-82.1959,40.2391],[-82.1828,40.2386],[-82.1871,40.1669],[-82.1988,39.9501],[-82.234,39.9133],[-82.4628,39.9304],[-82.4734,39.9251],[-82.5818,39.9302]]]}},{"type":"Feature","id":"39091","properties":{"name":"Logan","fips":"39091"},"geometry":{"type":"Polygon","coordinates":[[[-83.5513,40.2294],[-84.0148,40.2735],[-84.0024,40.4831],[-83.9939,40.5352],[-83.8799,40.5387],[-83.5202,40.5041],[-83.5513,40.2294]]]}},{"type":"Feature","id":"39093","properties":{"name":"Lorain","fips":"39093"},"geometry":{"type":"Polygon","coordinates":[[[-81.9681,41.5064],[-81.9713,41.3513],[-81.8771,41.3436],[-81.8781,41.275],[-81.8979,41.2749],[-81.9062,41.2754],[-81.9148,41.2755],[-81.9205,41.2754],[-81.927,41.2748],[-81.9725,41.2748],[-81.9739,41.1998],[-82.0725,41.1998],[-82.0743,41.1365],[-82.1699,41.1371],[-82.1715,41.0635],[-82.3365,41.0658],[-82.3423,41.2836],[-82.3481,41.4284],[-82.3342,41.4302],[-82.2916,41.4284],[-82.2835,41.4293],[-82.2685,41.4308],[-82.2547,41.4344],[-82.1934,41.4645],[-82.1889,41.4681],[-82.1862,41.4734],[-82.1848,41.474],[-82.1816,41.4716],[-82.1654,41.4744],[-82.0942,41.495],[-82.012,41.5156],[-81.9946,41.5144],[-81.9681,41.5064]]]}},{"type":"Feature","id":"39095","properties":{"name":"Lucas","fips":"39095"},"geometry":{"type":"Polygon","coordinates":[[[-83.4538,41.7326],[-83.4556,41.7274],[-83.449,41.7107],[-83.446,41.7068],[-83.4095,41.6912],[-83.3926,41.6919],[-83.3757,41.6866],[-83.3571,41.6878],[-83.3418,41.6935],[-83.338,41.6987],[-83.338,41.7034],[-83.3268,41.7016],[-83.2987,41.6839],[-83.2956,41.6819],[-83.2939,41.6808],[-83.2907,41.6768],[-83.2897,41.6764],[-83.2885,41.6759],[-83.2871,41.6754],[-83.2852,41.6747],[-83.2785,41.6721],[-83.2382,41.6512],[-83.2317,41.6442],[-83.1945,41.631],[-83.1657,41.6232],[-83.4159,41.6189],[-83.5699,41.6172],[-83.7033,41.529],[-83.7124,41.4929],[-83.8832,41.4145],[-83.8829,41.4875],[-83.8825,41.6032],[-83.8804,41.7201],[-83.7632,41.7239],[-83.6853,41.7264],[-83.6659,41.7269],[-83.6396,41.7277],[-83.6366,41.7278],[-83.5952,41.7291],[-83.5938,41.7291],[-83.5852,41.7293],[-83.5043,41.7315],[-83.5034,41.7315],[-83.4997,41.7316],[-83.4977,41.7318],[-83.4538,41.7326]]]}},{"type":"Feature","id":"39097","properties":{"name":"Madison","fips":"39097"},"geometry":{"type":"Polygon","coordinates":[[[-83.5037,40.1115],[-83.2063,40.1077],[-83.2538,40.0492],[-83.2437,39.8125],[-83.2524,39.6954],[-83.6533,39.7169],[-83.6489,39.7611],[-83.6486,39.7685],[-83.6472,39.773],[-83.588,39.7688],[-83.5162,40.0102],[-83.5037,40.1115]]]}},{"type":"Feature","id":"39099","properties":{"name":"Mahoning","fips":"39099"},"geometry":{"type":"Polygon","coordinates":[[[-80.5192,41.1334],[-80.5192,41.1333],[-80.519,41.1251],[-80.519,41.1251],[-80.519,41.1251],[-80.5191,41.1251],[-80.519,41.116],[-80.5192,41.1054],[-80.5191,41.1008],[-80.5191,41.0907],[-80.5191,41.0821],[-80.519,41.075],[-80.519,41.0719],[-80.5189,41.071],[-80.519,41.0615],[-80.5189,41.0154],[-80.519,40.9954],[-80.519,40.9874],[-80.5191,40.9211],[-80.5198,40.9008],[-80.5198,40.8999],[-81.0867,40.9016],[-81.0867,40.9317],[-81.0866,40.9322],[-81.0866,40.9376],[-81.0869,40.9397],[-81.0866,40.9408],[-81.0866,40.9448],[-81.0867,40.9449],[-81.0869,40.9812],[-81.0868,40.9882],[-81.0017,40.9878],[-81.0023,41.1342],[-80.7895,41.1342],[-80.5192,41.1334]]]}},{"type":"Feature","id":"39101","properties":{"name":"Marion","fips":"39101"},"geometry":{"type":"Polygon","coordinates":[[[-83.4198,40.6868],[-83.3047,40.702],[-83.1114,40.7029],[-82.8583,40.705],[-82.8598,40.6464],[-82.9578,40.6451],[-82.9584,40.4907],[-83.0208,40.4338],[-83.2486,40.444],[-83.2482,40.507],[-83.4184,40.5052],[-83.4153,40.5155],[-83.4198,40.6868]]]}},{"type":"Feature","id":"39103","properties":{"name":"Medina","fips":"39103"},"geometry":{"type":"Polygon","coordinates":[[[-81.9739,41.1998],[-81.9725,41.2748],[-81.927,41.2748],[-81.9205,41.2754],[-81.9148,41.2755],[-81.9062,41.2754],[-81.8979,41.2749],[-81.8781,41.275],[-81.685,41.2771],[-81.6856,41.2021],[-81.6885,40.9886],[-82.1293,40.9918],[-82.1734,40.992],[-82.1715,41.0635],[-82.1699,41.1371],[-82.0743,41.1365],[-82.0725,41.1998],[-81.9739,41.1998]]]}},{"type":"Feature","id":"39105","properties":{"name":"Meigs","fips":"39105"},"geometry":{"type":"Polygon","coordinates":[[[-81.7497,39.1807],[-81.7473,39.0954],[-81.7473,39.0954],[-81.8124,39.0821],[-81.8142,39.0735],[-81.8117,39.0596],[-81.8034,39.0477],[-81.7933,39.0404],[-81.7729,39.0262],[-81.7643,39.0153],[-81.7561,38.9335],[-81.76,38.9258],[-81.8749,38.8812],[-81.9086,38.8785],[-81.927,38.8916],[-81.9284,38.8954],[-81.9267,38.9013],[-81.9009,38.9243],[-81.8985,38.9296],[-81.9006,38.9377],[-81.9198,38.9685],[-81.9356,38.9895],[-82.0023,39.0279],[-82.0176,39.0301],[-82.036,39.0255],[-82.0416,39.0179],[-82.0457,39.0038],[-82.0516,38.9944],[-82.0932,38.971],[-82.0988,38.9583],[-82.0955,39.0028],[-82.3229,39.0277],[-82.3067,39.2055],[-82.2686,39.2038],[-81.7497,39.1807]]]}},{"type":"Feature","id":"39107","properties":{"name":"Mercer","fips":"39107"},"geometry":{"type":"Polygon","coordinates":[[[-84.4557,40.5679],[-84.4554,40.3586],[-84.4344,40.3545],[-84.4316,40.3542],[-84.4346,40.3543],[-84.8041,40.3528],[-84.8041,40.3528],[-84.8031,40.4654],[-84.8025,40.528],[-84.8023,40.5722],[-84.8023,40.5722],[-84.8021,40.6449],[-84.8022,40.6603],[-84.8022,40.6748],[-84.8022,40.6893],[-84.8021,40.6914],[-84.8021,40.7025],[-84.8022,40.7186],[-84.8021,40.7281],[-84.4562,40.7283],[-84.4562,40.6849],[-84.4557,40.5679]]]}},{"type":"Feature","id":"39109","properties":{"name":"Miami","fips":"39109"},"geometry":{"type":"Polygon","coordinates":[[[-84.1572,39.8856],[-84.1577,39.923],[-84.4259,39.9196],[-84.4326,40.197],[-84.0229,40.1839],[-84.0361,40.0402],[-84.051,39.8798],[-84.0564,39.8799],[-84.0982,39.8825],[-84.1048,39.8827],[-84.1545,39.8856],[-84.1572,39.8856]]]}},{"type":"Feature","id":"39111","properties":{"name":"Monroe","fips":"39111"},"geometry":{"type":"Polygon","coordinates":[[[-80.8123,39.8488],[-80.8286,39.7208],[-80.8298,39.7118],[-80.8319,39.7057],[-80.8804,39.6207],[-80.8922,39.6168],[-80.9438,39.6069],[-81.0201,39.5554],[-81.0387,39.5405],[-81.0368,39.5721],[-81.2468,39.579],[-81.2831,39.6058],[-81.3191,39.7074],[-81.3136,39.8695],[-81.2373,39.8678],[-80.8123,39.8488]]]}},{"type":"Feature","id":"39113","properties":{"name":"Montgomery","fips":"39113"},"geometry":{"type":"Polygon","coordinates":[[[-84.1572,39.8856],[-84.1545,39.8856],[-84.1048,39.8827],[-84.0982,39.8825],[-84.0564,39.8799],[-84.051,39.8798],[-84.0516,39.8777],[-84.0521,39.8663],[-84.0531,39.8562],[-84.0533,39.8551],[-84.0537,39.8505],[-84.0552,39.836],[-84.0929,39.8383],[-84.0969,39.793],[-84.1142,39.578],[-84.1873,39.5831],[-84.3652,39.5895],[-84.4742,39.5902],[-84.4792,39.591],[-84.4854,39.9185],[-84.448,39.9192],[-84.4465,39.9189],[-84.4461,39.9193],[-84.4259,39.9196],[-84.1577,39.923],[-84.1572,39.8856]]]}},{"type":"Feature","id":"39115","properties":{"name":"Morgan","fips":"39115"},"geometry":{"type":"Polygon","coordinates":[[[-81.8449,39.4502],[-82.0558,39.4601],[-82.0475,39.5508],[-82.0242,39.7247],[-82.0766,39.771],[-81.6974,39.7556],[-81.6399,39.7534],[-81.6432,39.6657],[-81.5861,39.664],[-81.5882,39.587],[-81.7144,39.5842],[-81.7085,39.4808],[-81.8232,39.4941],[-81.8449,39.4502]]]}},{"type":"Feature","id":"39117","properties":{"name":"Morrow","fips":"39117"},"geometry":{"type":"Polygon","coordinates":[[[-82.7272,40.7112],[-82.6272,40.7094],[-82.6236,40.5499],[-82.6465,40.3451],[-82.7449,40.3496],[-82.9296,40.3581],[-82.9248,40.415],[-83.0208,40.4338],[-82.9584,40.4907],[-82.9578,40.6451],[-82.8598,40.6464],[-82.8583,40.705],[-82.7272,40.7112]]]}},{"type":"Feature","id":"39119","properties":{"name":"Muskingum","fips":"39119"},"geometry":{"type":"Polygon","coordinates":[[[-82.0766,39.771],[-82.0729,39.8162],[-82.17,39.8207],[-82.1624,39.9094],[-82.234,39.9133],[-82.1988,39.9501],[-82.1871,40.1669],[-81.7169,40.1529],[-81.7163,40.1522],[-81.7286,39.9317],[-81.6941,39.8426],[-81.6974,39.7556],[-82.0766,39.771]]]}},{"type":"Feature","id":"39121","properties":{"name":"Noble","fips":"39121"},"geometry":{"type":"Polygon","coordinates":[[[-81.5882,39.587],[-81.5861,39.664],[-81.6432,39.6657],[-81.6399,39.7534],[-81.6974,39.7556],[-81.6941,39.8426],[-81.5803,39.8391],[-81.5786,39.8977],[-81.4641,39.8946],[-81.386,39.9507],[-81.2341,39.9513],[-81.2373,39.8678],[-81.3136,39.8695],[-81.3191,39.7074],[-81.2831,39.6058],[-81.3949,39.6015],[-81.4732,39.646],[-81.4735,39.5833],[-81.5882,39.587]]]}},{"type":"Feature","id":"39123","properties":{"name":"Ottawa","fips":"39123"},"geometry":{"type":"MultiPolygon","coordinates":[[[[-82.8247,41.6594],[-82.8086,41.6617],[-82.8052,41.6643],[-82.7963,41.666],[-82.7931,41.6647],[-82.7942,41.6625],[-82.7975,41.6582],[-82.827,41.6337],[-82.8347,41.6293],[-82.8421,41.6283],[-82.8436,41.647],[-82.8341,41.6571],[-82.8247,41.6594]]],[[[-82.8033,41.6938],[-82.7863,41.6971],[-82.7827,41.694],[-82.7906,41.69],[-82.8015,41.6826],[-82.8051,41.6749],[-82.8054,41.6719],[-82.8138,41.6706],[-82.8264,41.6848],[-82.8128,41.692],[-82.8033,41.6938]]],[[[-82.8135,41.7235],[-82.8105,41.7205],[-82.8089,41.7083],[-82.8161,41.7067],[-82.8351,41.709],[-82.8356,41.7108],[-82.8327,41.7156],[-82.8257,41.7228],[-82.8204,41.7245],[-82.8135,41.7235]]],[[[-82.8283,41.4818],[-82.8561,41.4719],[-82.9066,41.4602],[-82.9202,41.4584],[-82.9522,41.4582],[-83.3382,41.4575],[-83.4146,41.5002],[-83.4159,41.6189],[-83.1657,41.6232],[-83.1459,41.6179],[-83.1039,41.6136],[-83.086,41.6067],[-83.0666,41.5953],[-83.0482,41.574],[-83.0433,41.5682],[-83.0431,41.568],[-83.0429,41.5678],[-83.0317,41.5586],[-83.0308,41.5579],[-83.0281,41.5557],[-83.0191,41.5502],[-83.0175,41.5492],[-83.0168,41.5488],[-82.9999,41.5385],[-82.9999,41.5385],[-82.9698,41.5243],[-82.9696,41.5242],[-82.9696,41.5242],[-82.9585,41.5211],[-82.9344,41.5144],[-82.8977,41.5192],[-82.8969,41.5195],[-82.8882,41.5225],[-82.8823,41.5258],[-82.8752,41.5297],[-82.8694,41.534],[-82.8663,41.5375],[-82.8613,41.5431],[-82.8578,41.5471],[-82.8568,41.5483],[-82.8565,41.5506],[-82.8552,41.5641],[-82.8561,41.5666],[-82.8566,41.5682],[-82.8587,41.574],[-82.8595,41.5764],[-82.8579,41.578],[-82.8573,41.5787],[-82.8569,41.5791],[-82.8543,41.5819],[-82.853,41.5833],[-82.8477,41.5856],[-82.8341,41.5876],[-82.8202,41.5707],[-82.7943,41.5465],[-82.7855,41.5407],[-82.772,41.5406],[-82.7499,41.5465],[-82.7399,41.545],[-82.7329,41.5441],[-82.7319,41.5439],[-82.7316,41.5439],[-82.7305,41.5437],[-82.7285,41.5434],[-82.7277,41.5433],[-82.7221,41.5425],[-82.7205,41.5423],[-82.7179,41.5419],[-82.7176,41.5417],[-82.7152,41.5399],[-82.7113,41.5369],[-82.7109,41.5366],[-82.711,41.5362],[-82.7116,41.5272],[-82.7165,41.5222],[-82.7219,41.5167],[-82.72,41.5107],[-82.7198,41.5103],[-82.7139,41.5017],[-82.71,41.4976],[-82.6947,41.4939],[-82.8283,41.4818]]]]}},{"type":"Feature","id":"39125","properties":{"name":"Paulding","fips":"39125"},"geometry":{"type":"Polygon","coordinates":[[[-84.3416,41.1655],[-84.3419,40.9907],[-84.3995,40.9903],[-84.8033,40.9894],[-84.8034,41.0893],[-84.8034,41.0969],[-84.8034,41.1646],[-84.8036,41.1732],[-84.8035,41.1739],[-84.8035,41.2525],[-84.8035,41.2526],[-84.4572,41.2535],[-84.4571,41.2094],[-84.3419,41.2092],[-84.3416,41.1655]]]}},{"type":"Feature","id":"39127","properties":{"name":"Perry","fips":"39127"},"geometry":{"type":"Polygon","coordinates":[[[-82.0766,39.771],[-82.0242,39.7247],[-82.0475,39.5508],[-82.1592,39.5566],[-82.3799,39.5967],[-82.3745,39.655],[-82.3966,39.8331],[-82.4724,39.8372],[-82.4628,39.9304],[-82.234,39.9133],[-82.1624,39.9094],[-82.17,39.8207],[-82.0729,39.8162],[-82.0766,39.771]]]}},{"type":"Feature","id":"39129","properties":{"name":"Pickaway","fips":"39129"},"geometry":{"type":"Polygon","coordinates":[[[-82.7407,39.4684],[-82.9982,39.4801],[-82.9846,39.5068],[-83.2667,39.5162],[-83.2524,39.6954],[-83.2437,39.8125],[-83.0131,39.8044],[-82.8243,39.795],[-82.843,39.5615],[-82.7315,39.5544],[-82.7407,39.4684]]]}},{"type":"Feature","id":"39131","properties":{"name":"Pike","fips":"39131"},"geometry":{"type":"Polygon","coordinates":[[[-83.0436,38.9569],[-83.2121,38.9601],[-83.2708,39.0158],[-83.3856,39.0552],[-83.3535,39.1976],[-82.7859,39.1688],[-82.8071,38.9481],[-83.0436,38.9569]]]}},{"type":"Feature","id":"39133","properties":{"name":"Portage","fips":"39133"},"geometry":{"type":"Polygon","coordinates":[[[-81.3934,40.9885],[-81.3921,41.1357],[-81.3924,41.137],[-81.3918,41.2767],[-81.3916,41.3316],[-81.3919,41.3366],[-81.3917,41.3413],[-81.3917,41.3483],[-81.0033,41.3479],[-81.0029,41.2718],[-81.0023,41.1342],[-81.0017,40.9878],[-81.0868,40.9882],[-81.3934,40.9885]]]}},{"type":"Feature","id":"39135","properties":{"name":"Preble","fips":"39135"},"geometry":{"type":"Polygon","coordinates":[[[-84.8142,39.7856],[-84.8142,39.7869],[-84.8142,39.7998],[-84.8141,39.8114],[-84.8142,39.8142],[-84.8139,39.8246],[-84.8138,39.8268],[-84.8137,39.8431],[-84.8137,39.8432],[-84.8135,39.8508],[-84.8135,39.8533],[-84.8131,39.873],[-84.8128,39.8908],[-84.8127,39.8916],[-84.8124,39.9169],[-84.4854,39.9185],[-84.4792,39.591],[-84.4789,39.5688],[-84.815,39.5677],[-84.8152,39.5684],[-84.8147,39.6289],[-84.8146,39.6692],[-84.8145,39.6804],[-84.8141,39.7266],[-84.8141,39.7266],[-84.8142,39.7856]]]}},{"type":"Feature","id":"39137","properties":{"name":"Putnam","fips":"39137"},"geometry":{"type":"Polygon","coordinates":[[[-84.3416,41.1655],[-84.2282,41.1659],[-83.8811,41.1678],[-83.8804,40.9204],[-84.1095,40.9047],[-84.1096,40.861],[-84.3405,40.8591],[-84.3984,40.9033],[-84.3995,40.9903],[-84.3419,40.9907],[-84.3416,41.1655]]]}},{"type":"Feature","id":"39139","properties":{"name":"Richland","fips":"39139"},"geometry":{"type":"Polygon","coordinates":[[[-82.4165,40.9023],[-82.3784,40.7271],[-82.3392,40.7267],[-82.337,40.555],[-82.3749,40.5509],[-82.6236,40.5499],[-82.6272,40.7094],[-82.7272,40.7112],[-82.7248,40.9956],[-82.4329,40.9929],[-82.4179,40.9929],[-82.4165,40.9023]]]}},{"type":"Feature","id":"39141","properties":{"name":"Ross","fips":"39141"},"geometry":{"type":"Polygon","coordinates":[[[-82.9982,39.4801],[-82.7407,39.4684],[-82.7408,39.466],[-82.7486,39.3682],[-82.7629,39.208],[-82.7667,39.1678],[-82.7859,39.1688],[-83.3535,39.1976],[-83.3935,39.2673],[-83.3727,39.3774],[-83.3175,39.45],[-83.2667,39.5162],[-82.9846,39.5068],[-82.9982,39.4801]]]}},{"type":"Feature","id":"39143","properties":{"name":"Sandusky","fips":"39143"},"geometry":{"type":"Polygon","coordinates":[[[-83.4146,41.5002],[-83.3382,41.4575],[-82.9522,41.4582],[-82.8477,41.4303],[-82.8415,41.29],[-82.8401,41.2553],[-83.4198,41.254],[-83.4146,41.5002]]]}},{"type":"Feature","id":"39145","properties":{"name":"Scioto","fips":"39145"},"geometry":{"type":"Polygon","coordinates":[[[-83.0436,38.9569],[-82.8071,38.9481],[-82.7534,38.9454],[-82.7607,38.8549],[-82.65,38.8491],[-82.7068,38.6775],[-82.7639,38.68],[-82.7404,38.5972],[-82.816,38.5707],[-82.8202,38.5727],[-82.8395,38.5862],[-82.8472,38.5952],[-82.8536,38.6109],[-82.8696,38.6782],[-82.8735,38.7101],[-82.8704,38.7221],[-82.87,38.7305],[-82.8713,38.7394],[-82.8745,38.7453],[-82.8755,38.7473],[-82.8795,38.7515],[-82.8892,38.7561],[-82.8942,38.7566],[-82.9237,38.7501],[-82.9431,38.7433],[-82.9687,38.7288],[-82.9794,38.726],[-83.0118,38.7301],[-83.0307,38.7257],[-83.0309,38.7256],[-83.1277,38.6425],[-83.135,38.6317],[-83.1428,38.6251],[-83.1569,38.6205],[-83.2658,38.6053],[-83.2708,39.0158],[-83.2121,38.9601],[-83.0436,38.9569]]]}},{"type":"Feature","id":"39147","properties":{"name":"Seneca","fips":"39147"},"geometry":{"type":"Polygon","coordinates":[[[-83.305,40.9928],[-83.4203,40.9919],[-83.4211,41.1668],[-83.4198,41.254],[-82.8401,41.2553],[-82.8295,40.9966],[-83.1127,40.9934],[-83.305,40.9928]]]}},{"type":"Feature","id":"39149","properties":{"name":"Shelby","fips":"39149"},"geometry":{"type":"Polygon","coordinates":[[[-84.0229,40.1839],[-84.4326,40.197],[-84.4346,40.3543],[-84.4316,40.3542],[-84.4344,40.3545],[-84.3389,40.3787],[-84.3391,40.4813],[-84.0024,40.4831],[-84.0148,40.2735],[-84.0229,40.1839]]]}},{"type":"Feature","id":"39151","properties":{"name":"Stark","fips":"39151"},"geometry":{"type":"Polygon","coordinates":[[[-81.4676,40.908],[-81.4204,40.9065],[-81.3934,40.9885],[-81.0868,40.9882],[-81.0869,40.9812],[-81.0867,40.9449],[-81.0866,40.9448],[-81.0866,40.9408],[-81.0869,40.9397],[-81.0866,40.9376],[-81.0866,40.9322],[-81.0867,40.9317],[-81.0867,40.9016],[-81.0873,40.7278],[-81.2372,40.7235],[-81.2412,40.6505],[-81.3177,40.6516],[-81.6492,40.6351],[-81.65,40.6553],[-81.65,40.6681],[-81.6477,40.9144],[-81.6459,40.9143],[-81.4676,40.908]]]}},{"type":"Feature","id":"39153","properties":{"name":"Summit","fips":"39153"},"geometry":{"type":"Polygon","coordinates":[[[-81.5905,41.2776],[-81.5981,41.3509],[-81.5927,41.3511],[-81.4503,41.3491],[-81.3996,41.3486],[-81.3917,41.3483],[-81.3917,41.3413],[-81.3919,41.3366],[-81.3916,41.3316],[-81.3918,41.2767],[-81.3924,41.137],[-81.3921,41.1357],[-81.3934,40.9885],[-81.4204,40.9065],[-81.4676,40.908],[-81.6459,40.9143],[-81.6477,40.9144],[-81.6885,40.9886],[-81.6856,41.2021],[-81.685,41.2771],[-81.5905,41.2776]]]}},{"type":"Feature","id":"39155","properties":{"name":"Trumbull","fips":"39155"},"geometry":{"type":"Polygon","coordinates":[[[-80.5193,41.3407],[-80.5193,41.3401],[-80.5193,41.3397],[-80.5193,41.3391],[-80.5193,41.3391],[-80.5193,41.3372],[-80.5193,41.3371],[-80.5193,41.336],[-80.5193,41.3335],[-80.5191,41.3124],[-80.5188,41.3055],[-80.519,41.2683],[-80.519,41.2682],[-80.5189,41.2652],[-80.5187,41.2489],[-80.5189,41.2326],[-80.5189,41.2194],[-80.5189,41.2194],[-80.5188,41.2092],[-80.5191,41.1712],[-80.5191,41.1455],[-80.5192,41.1334],[-80.7895,41.1342],[-81.0023,41.1342],[-81.0029,41.2718],[-81.0033,41.3479],[-81.0032,41.4245],[-81.0031,41.4259],[-81.0031,41.5017],[-80.5192,41.4999],[-80.5192,41.489],[-80.5192,41.4626],[-80.519,41.4355],[-80.519,41.4164],[-80.519,41.4164],[-80.5192,41.3789],[-80.5192,41.372],[-80.5192,41.361],[-80.5193,41.3508],[-80.5193,41.3407]]]}},{"type":"Feature","id":"39157","properties":{"name":"Tuscarawas","fips":"39157"},"geometry":{"type":"Polygon","coordinates":[[[-81.6492,40.6351],[-81.3177,40.6516],[-81.3217,40.5666],[-81.2647,40.565],[-81.27,40.4335],[-81.2753,40.3034],[-81.3346,40.3043],[-81.3381,40.2143],[-81.6227,40.2213],[-81.616,40.3681],[-81.7123,40.3708],[-81.7091,40.4448],[-81.6697,40.4439],[-81.6492,40.6351]]]}},{"type":"Feature","id":"39159","properties":{"name":"Union","fips":"39159"},"geometry":{"type":"Polygon","coordinates":[[[-83.5513,40.2294],[-83.5202,40.5041],[-83.4184,40.5052],[-83.2482,40.507],[-83.2486,40.444],[-83.2484,40.2445],[-83.1723,40.2443],[-83.17,40.1431],[-83.1702,40.1069],[-83.2063,40.1077],[-83.5037,40.1115],[-83.4945,40.2255],[-83.5513,40.2294]]]}},{"type":"Feature","id":"39161","properties":{"name":"Van Wert","fips":"39161"},"geometry":{"type":"Polygon","coordinates":[[[-84.3405,40.8591],[-84.3974,40.8159],[-84.3968,40.6849],[-84.4562,40.6849],[-84.4562,40.7283],[-84.8021,40.7281],[-84.8021,40.7282],[-84.8023,40.7423],[-84.8025,40.7655],[-84.8029,40.9224],[-84.8029,40.9226],[-84.8033,40.9892],[-84.8033,40.9894],[-84.3995,40.9903],[-84.3984,40.9033],[-84.3405,40.8591]]]}},{"type":"Feature","id":"39163","properties":{"name":"Vinton","fips":"39163"},"geometry":{"type":"Polygon","coordinates":[[[-82.2897,39.3842],[-82.2985,39.295],[-82.2602,39.2929],[-82.2637,39.2562],[-82.2636,39.2559],[-82.2638,39.2538],[-82.264,39.2533],[-82.2686,39.2038],[-82.3067,39.2055],[-82.3229,39.0277],[-82.4353,39.0351],[-82.4247,39.138],[-82.5363,39.1808],[-82.7629,39.208],[-82.7486,39.3682],[-82.5176,39.3695],[-82.5145,39.3958],[-82.2897,39.3842]]]}},{"type":"Feature","id":"39165","properties":{"name":"Warren","fips":"39165"},"geometry":{"type":"Polygon","coordinates":[[[-83.9886,39.4444],[-84.0068,39.2551],[-84.2594,39.2708],[-84.3532,39.2923],[-84.3482,39.3485],[-84.3321,39.5488],[-84.3652,39.5895],[-84.1873,39.5831],[-84.1142,39.578],[-83.977,39.5692],[-83.9886,39.4444]]]}},{"type":"Feature","id":"39167","properties":{"name":"Washington","fips":"39167"},"geometry":{"type":"Polygon","coordinates":[[[-81.3713,39.3421],[-81.376,39.3417],[-81.3846,39.3434],[-81.3938,39.3517],[-81.4067,39.3881],[-81.4127,39.3946],[-81.4356,39.4085],[-81.4465,39.4104],[-81.4561,39.4093],[-81.4677,39.4038],[-81.5423,39.3529],[-81.6058,39.2759],[-81.6957,39.2429],[-81.7216,39.2124],[-81.7218,39.2696],[-81.8537,39.3182],[-81.8449,39.4502],[-81.8232,39.4941],[-81.7085,39.4808],[-81.7144,39.5842],[-81.5882,39.587],[-81.4735,39.5833],[-81.4732,39.646],[-81.3949,39.6015],[-81.2831,39.6058],[-81.2468,39.579],[-81.0368,39.5721],[-81.0387,39.5405],[-81.0636,39.5205],[-81.1277,39.4649],[-81.2156,39.3886],[-81.2236,39.3861],[-81.2491,39.39],[-81.2707,39.3859],[-81.2954,39.3753],[-81.3476,39.3458],[-81.3569,39.3432],[-81.3713,39.3421]]]}},{"type":"Feature","id":"39169","properties":{"name":"Wayne","fips":"39169"},"geometry":{"type":"Polygon","coordinates":[[[-82.1279,40.9009],[-82.1285,40.93],[-82.1279,40.9373],[-82.1293,40.9918],[-81.6885,40.9886],[-81.6477,40.9144],[-81.65,40.6681],[-82.1262,40.6682],[-82.125,40.8863],[-82.1279,40.9009]]]}},{"type":"Feature","id":"39171","properties":{"name":"Williams","fips":"39171"},"geometry":{"type":"Polygon","coordinates":[[[-84.3417,41.4276],[-84.804,41.426],[-84.804,41.4261],[-84.8039,41.4355],[-84.8045,41.4882],[-84.8046,41.5004],[-84.8047,41.5301],[-84.8047,41.5301],[-84.8047,41.5302],[-84.8058,41.613],[-84.8057,41.6314],[-84.8057,41.6323],[-84.8062,41.6746],[-84.8061,41.6961],[-84.4381,41.7049],[-84.3995,41.7058],[-84.3807,41.5139],[-84.3419,41.4855],[-84.3417,41.4276]]]}},{"type":"Feature","id":"39173","properties":{"name":"Wood","fips":"39173"},"geometry":{"type":"Polygon","coordinates":[[[-83.7033,41.529],[-83.5699,41.6172],[-83.4159,41.6189],[-83.4146,41.5002],[-83.4198,41.254],[-83.4211,41.1668],[-83.8811,41.1678],[-83.8832,41.4145],[-83.7124,41.4929],[-83.7033,41.529]]]}},{"type":"Feature","id":"39175","properties":{"name":"Wyandot","fips":"39175"},"geometry":{"type":"Polygon","coordinates":[[[-83.1114,40.7029],[-83.3047,40.702],[-83.4198,40.6868],[-83.4958,40.7016],[-83.5159,40.8181],[-83.4203,40.9919],[-83.305,40.9928],[-83.1127,40.9934],[-83.1114,40.7029]]]}}]}