{"type":"FeatureCollection","features":[{"type":"Feature","id":"40001","properties":{"name":"Adair","fips":"40001"},"geometry":{"type":"Polygon","coordinates":[[[-94.4726,35.6386],[-94.8073,35.6386],[-94.7973,36.1614],[-94.5628,36.1619],[-94.5628,36.1617],[-94.5612,36.1521],[-94.5522,36.1022],[-94.5479,36.0783],[-94.5477,36.0773],[-94.5357,36.0078],[-94.5349,36.0027],[-94.5336,35.9968],[-94.5321,35.9879],[-94.5283,35.9661],[-94.5282,35.9657],[-94.5246,35.9457],[-94.5243,35.944],[-94.5229,35.9361],[-94.5226,35.9349],[-94.5227,35.9348],[-94.5227,35.9342],[-94.5076,35.8459],[-94.5056,35.8336],[-94.5044,35.8264],[-94.503,35.8172],[-94.5012,35.8064],[-94.5008,35.8038],[-94.5005,35.8026],[-94.4996,35.7969],[-94.499,35.7935],[-94.4945,35.7683],[-94.4934,35.7619],[-94.4929,35.7592],[-94.4882,35.7292],[-94.4876,35.7261],[-94.4726,35.6386]]]}},{"type":"Feature","id":"40003","properties":{"name":"Alfalfa","fips":"40003"},"geometry":{"type":"Polygon","coordinates":[[[-98.1043,36.5936],[-98.1044,36.4631],[-98.5336,36.4632],[-98.5447,36.999],[-98.4202,36.9985],[-98.4183,36.9985],[-98.409,36.9985],[-98.3541,36.998],[-98.3471,36.998],[-98.3462,36.998],[-98.2377,36.998],[-98.2195,36.9978],[-98.2082,36.998],[-98.1776,36.998],[-98.1475,36.9982],[-98.112,36.9981],[-98.1093,36.5936],[-98.1043,36.5936]]]}},{"type":"Feature","id":"40005","properties":{"name":"Atoka","fips":"40005"},"geometry":{"type":"Polygon","coordinates":[[[-95.672,34.5939],[-95.6717,34.5068],[-95.7794,34.5066],[-95.7794,34.1567],[-95.9916,34.1568],[-96.4076,34.1573],[-96.4073,34.4184],[-96.1451,34.4187],[-96.1453,34.5061],[-96.0919,34.5062],[-96.092,34.6806],[-95.8821,34.6805],[-95.882,34.5935],[-95.672,34.5939]]]}},{"type":"Feature","id":"40007","properties":{"name":"Beaver","fips":"40007"},"geometry":{"type":"Polygon","coordinates":[[[-100.5461,36.4993],[-100.5781,36.4994],[-100.5781,36.4995],[-100.5834,36.4994],[-100.5835,36.4995],[-100.5926,36.4994],[-100.5926,36.4995],[-100.5926,36.4995],[-100.6483,36.4995],[-100.6483,36.4995],[-100.6578,36.4995],[-100.6578,36.4995],[-100.7086,36.4995],[-100.7086,36.4996],[-100.7244,36.4996],[-100.7244,36.4996],[-100.7618,36.4996],[-100.7618,36.4996],[-100.8029,36.4996],[-100.8029,36.4996],[-100.8062,36.4996],[-100.8062,36.4997],[-100.8242,36.4996],[-100.8242,36.4996],[-100.8508,36.4997],[-100.8597,36.4997],[-100.8841,36.4997],[-100.8842,36.4997],[-100.9185,36.4996],[-100.9361,36.4996],[-100.9542,36.4996],[-100.9455,36.9982],[-100.9046,36.9986],[-100.9043,36.9987],[-100.8917,36.9986],[-100.8556,36.9986],[-100.8143,36.9991],[-100.8061,36.9991],[-100.7655,36.9992],[-100.7569,36.9994],[-100.6756,36.9997],[-100.6333,36.9999],[-100.6333,36.9999],[-100.6298,37.0],[-100.5914,37.0004],[-100.5913,37.0004],[-100.5527,37.0007],[-100.5516,37.0006],[-100.2017,37.0021],[-100.1938,37.0021],[-100.1924,37.002],[-100.1875,37.0021],[-100.1157,37.0022],[-100.0895,37.0021],[-100.0057,37.0017],[-100.0026,37.0017],[-100.0029,37.0],[-100.0032,36.5932],[-100.0038,36.4997],[-100.09,36.4996],[-100.1812,36.4996],[-100.3106,36.4996],[-100.311,36.4997],[-100.3112,36.4996],[-100.3242,36.4997],[-100.3344,36.4994],[-100.3345,36.4994],[-100.3518,36.4995],[-100.3519,36.4995],[-100.3786,36.4994],[-100.3786,36.4995],[-100.4136,36.4995],[-100.4136,36.4994],[-100.4213,36.4995],[-100.4213,36.4994],[-100.434,36.4995],[-100.4411,36.4995],[-100.4411,36.4995],[-100.5222,36.4993],[-100.5303,36.4994],[-100.5305,36.4992],[-100.5312,36.4993],[-100.5312,36.4993],[-100.5461,36.4993]]]}},{"type":"Feature","id":"40009","properties":{"name":"Beckham","fips":"40009"},"geometry":{"type":"Polygon","coordinates":[[[-100.0004,35.1827],[-100.0004,35.4224],[-99.5758,35.4217],[-99.5756,35.5089],[-99.3641,35.5088],[-99.3642,35.4653],[-99.3602,35.1167],[-99.4093,35.1165],[-99.4093,35.1145],[-99.7827,35.1168],[-99.7829,35.0301],[-99.8886,35.0303],[-100.0004,35.0304],[-100.0004,35.1827]]]}},{"type":"Feature","id":"40011","properties":{"name":"Blaine","fips":"40011"},"geometry":{"type":"Polygon","coordinates":[[[-98.6369,36.1649],[-98.6012,36.1658],[-98.2105,36.1649],[-98.2071,35.7251],[-98.3134,35.7252],[-98.3133,35.5515],[-98.6231,35.5516],[-98.6321,35.5516],[-98.632,35.8124],[-98.6369,36.1649]]]}},{"type":"Feature","id":"40013","properties":{"name":"Bryan","fips":"40013"},"geometry":{"type":"Polygon","coordinates":[[[-95.8463,33.8411],[-95.9499,33.8575],[-96.0975,33.8475],[-96.1481,33.8378],[-96.1567,33.8133],[-96.1641,33.7843],[-96.1701,33.7692],[-96.1817,33.7585],[-96.1999,33.7521],[-96.2205,33.7474],[-96.2299,33.7483],[-96.3047,33.7459],[-96.3696,33.7168],[-96.3785,33.7266],[-96.4234,33.7764],[-96.4365,33.7801],[-96.448,33.781],[-96.5003,33.7726],[-96.6129,33.8339],[-96.6149,33.8412],[-96.6158,33.8534],[-96.613,33.8677],[-96.6115,33.8753],[-96.6135,33.8783],[-96.577,33.9644],[-96.6247,34.0054],[-96.548,34.0633],[-96.5854,34.1145],[-96.4538,34.1144],[-96.4076,34.1573],[-95.9916,34.1568],[-95.9381,34.1251],[-95.9379,33.9482],[-95.8369,33.8734],[-95.7572,33.8673],[-95.7636,33.848],[-95.8247,33.8377],[-95.8463,33.8411]]]}},{"type":"Feature","id":"40015","properties":{"name":"Caddo","fips":"40015"},"geometry":{"type":"Polygon","coordinates":[[[-98.6198,34.855],[-98.6211,35.0974],[-98.6233,35.4642],[-98.6231,35.5516],[-98.3133,35.5515],[-98.3063,35.3772],[-98.096,35.3778],[-98.0926,34.8549],[-98.6198,34.855]]]}},{"type":"Feature","id":"40017","properties":{"name":"Canadian","fips":"40017"},"geometry":{"type":"Polygon","coordinates":[[[-97.6713,35.4643],[-97.6714,35.3772],[-97.6715,35.3375],[-97.6716,35.3359],[-97.6851,35.3343],[-97.6959,35.3277],[-97.7062,35.325],[-97.72,35.3285],[-97.7247,35.3258],[-97.7373,35.3238],[-97.7718,35.3457],[-97.7776,35.3371],[-97.7883,35.3366],[-97.792,35.3327],[-97.7967,35.3391],[-97.8072,35.3408],[-97.8121,35.3338],[-97.8337,35.3354],[-98.096,35.3778],[-98.3063,35.3772],[-98.3133,35.5515],[-98.3134,35.7252],[-98.2071,35.7251],[-97.674,35.726],[-97.6713,35.4643]]]}},{"type":"Feature","id":"40019","properties":{"name":"Carter","fips":"40019"},"geometry":{"type":"Polygon","coordinates":[[[-96.9337,34.1726],[-96.9696,34.071],[-97.5608,34.0711],[-97.5626,34.0829],[-97.5626,34.2892],[-97.5623,34.507],[-97.3521,34.5068],[-97.3522,34.3762],[-97.0365,34.3754],[-96.9335,34.3327],[-96.9337,34.1726]]]}},{"type":"Feature","id":"40021","properties":{"name":"Cherokee","fips":"40021"},"geometry":{"type":"Polygon","coordinates":[[[-94.8073,35.6386],[-95.1275,35.6389],[-95.1272,35.8128],[-95.2657,35.8133],[-95.2315,35.8512],[-95.2787,35.9641],[-95.2079,36.0747],[-95.1184,36.0745],[-95.1185,36.1616],[-95.0113,36.1618],[-94.7973,36.1614],[-94.8073,35.6386]]]}},{"type":"Feature","id":"40023","properties":{"name":"Choctaw","fips":"40023"},"geometry":{"type":"Polygon","coordinates":[[[-95.156,33.944],[-95.2194,33.9616],[-95.2264,33.962],[-95.2311,33.9604],[-95.2529,33.9336],[-95.2536,33.9297],[-95.2498,33.9222],[-95.2482,33.9123],[-95.2499,33.902],[-95.2555,33.892],[-95.2608,33.8877],[-95.2876,33.8736],[-95.3105,33.8715],[-95.3398,33.8688],[-95.4078,33.8663],[-95.4458,33.8689],[-95.5443,33.8801],[-95.5483,33.8827],[-95.5521,33.8884],[-95.5523,33.8944],[-95.5495,33.9013],[-95.5491,33.9079],[-95.5594,33.9302],[-95.567,33.9327],[-95.5997,33.9342],[-95.7572,33.8673],[-95.8369,33.8734],[-95.9379,33.9482],[-95.9381,34.1251],[-95.9916,34.1568],[-95.7794,34.1567],[-95.1565,34.157],[-95.156,33.944]]]}},{"type":"Feature","id":"40025","properties":{"name":"Cimarron","fips":"40025"},"geometry":{"type":"Polygon","coordinates":[[[-102.1625,36.5003],[-103.0024,36.5004],[-103.0026,36.5266],[-103.0022,36.6027],[-103.0023,36.6172],[-103.0025,36.6752],[-103.0022,36.7194],[-103.002,36.9096],[-103.0022,36.9116],[-103.0022,37.0001],[-102.987,36.9985],[-102.9858,36.9986],[-102.9796,36.9985],[-102.8755,36.9996],[-102.5709,36.9951],[-102.3554,36.9946],[-102.3553,36.9945],[-102.2083,36.9937],[-102.1843,36.9936],[-102.0545,36.9931],[-102.0422,36.9931],[-102.0282,36.9931],[-102.0282,36.9931],[-102.0323,36.5001],[-102.1625,36.5003]]]}},{"type":"Feature","id":"40027","properties":{"name":"Cleveland","fips":"40027"},"geometry":{"type":"Polygon","coordinates":[[[-97.6714,35.3772],[-97.4236,35.3773],[-97.265,35.3774],[-97.1421,35.3769],[-97.1423,34.9282],[-97.3415,34.964],[-97.3542,35.0767],[-97.5415,35.2142],[-97.557,35.2884],[-97.6715,35.3375],[-97.6714,35.3772]]]}},{"type":"Feature","id":"40029","properties":{"name":"Coal","fips":"40029"},"geometry":{"type":"Polygon","coordinates":[[[-96.092,34.6806],[-96.0919,34.5062],[-96.1453,34.5061],[-96.1451,34.4187],[-96.4073,34.4184],[-96.5138,34.4196],[-96.5139,34.5054],[-96.5122,34.6801],[-96.4064,34.68],[-96.4065,34.7676],[-96.092,34.7675],[-96.092,34.6806]]]}},{"type":"Feature","id":"40031","properties":{"name":"Comanche","fips":"40031"},"geometry":{"type":"Polygon","coordinates":[[[-98.1421,34.507],[-98.2441,34.5071],[-98.2959,34.449],[-98.505,34.4494],[-98.505,34.4205],[-98.662,34.4059],[-98.662,34.5075],[-98.8261,34.5074],[-98.826,34.5944],[-98.8261,34.8555],[-98.6198,34.855],[-98.0926,34.8549],[-98.0896,34.8549],[-98.0891,34.6811],[-98.1418,34.6812],[-98.1421,34.507]]]}},{"type":"Feature","id":"40033","properties":{"name":"Cotton","fips":"40033"},"geometry":{"type":"Polygon","coordinates":[[[-98.1691,34.1142],[-98.2001,34.1168],[-98.2939,34.133],[-98.3002,34.1346],[-98.3254,34.151],[-98.364,34.1571],[-98.3832,34.1478],[-98.3984,34.1285],[-98.4005,34.1218],[-98.4338,34.0961],[-98.4751,34.0643],[-98.5042,34.0724],[-98.5537,34.1337],[-98.5774,34.1491],[-98.5998,34.1606],[-98.6101,34.161],[-98.6097,34.3337],[-98.662,34.4059],[-98.505,34.4205],[-98.505,34.4494],[-98.2959,34.449],[-98.2441,34.5071],[-98.1421,34.507],[-98.1392,34.507],[-98.1392,34.2898],[-98.1391,34.1419],[-98.1691,34.1142]]]}},{"type":"Feature","id":"40035","properties":{"name":"Craig","fips":"40035"},"geometry":{"type":"Polygon","coordinates":[[[-95.0076,36.9995],[-94.9994,36.6706],[-95.0057,36.5099],[-95.3282,36.5102],[-95.3284,36.5976],[-95.4316,36.5975],[-95.4317,36.9428],[-95.4076,36.9992],[-95.3312,36.9994],[-95.3283,36.9994],[-95.3281,36.9994],[-95.3226,36.9994],[-95.1953,36.9996],[-95.1773,36.9995],[-95.1554,36.9995],[-95.1552,36.9995],[-95.0735,36.9995],[-95.0735,36.9995],[-95.0495,36.9996],[-95.0379,36.9995],[-95.0303,36.9995],[-95.0114,36.9995],[-95.0076,36.9995]]]}},{"type":"Feature","id":"40037","properties":{"name":"Creek","fips":"40037"},"geometry":{"type":"Polygon","coordinates":[[[-96.0331,35.8568],[-96.1925,35.857],[-96.1926,35.6391],[-96.6206,35.639],[-96.6211,35.9415],[-96.6214,36.1599],[-96.6213,36.1636],[-96.2979,36.1623],[-96.2978,36.0758],[-96.0296,36.0754],[-96.0295,35.9884],[-96.0331,35.8568]]]}},{"type":"Feature","id":"40039","properties":{"name":"Custer","fips":"40039"},"geometry":{"type":"Polygon","coordinates":[[[-99.3758,35.8122],[-98.632,35.8124],[-98.6321,35.5516],[-98.6231,35.5516],[-98.6233,35.4642],[-99.3642,35.4653],[-99.3641,35.5088],[-99.3758,35.8122]]]}},{"type":"Feature","id":"40041","properties":{"name":"Delaware","fips":"40041"},"geometry":{"type":"Polygon","coordinates":[[[-95.0057,36.5099],[-94.9994,36.6706],[-94.618,36.6679],[-94.6178,36.6126],[-94.6179,36.6069],[-94.6179,36.5991],[-94.6178,36.5777],[-94.6179,36.537],[-94.6179,36.5361],[-94.618,36.5343],[-94.6179,36.5178],[-94.6179,36.515],[-94.6179,36.4994],[-94.6153,36.485],[-94.6138,36.4762],[-94.6116,36.4615],[-94.6054,36.4219],[-94.6026,36.4053],[-94.602,36.4021],[-94.5997,36.3876],[-94.5934,36.3457],[-94.5862,36.3],[-94.5779,36.2501],[-94.5779,36.2495],[-94.576,36.2401],[-94.5751,36.2337],[-94.5749,36.2327],[-94.5744,36.23],[-94.5718,36.2137],[-94.5713,36.2109],[-94.5666,36.1838],[-94.5657,36.1784],[-94.5628,36.1619],[-94.7973,36.1614],[-95.0113,36.1618],[-95.0057,36.5099]]]}},{"type":"Feature","id":"40043","properties":{"name":"Dewey","fips":"40043"},"geometry":{"type":"Polygon","coordinates":[[[-99.381,36.0129],[-99.3821,36.1643],[-98.9558,36.1616],[-98.6369,36.1649],[-98.632,35.8124],[-99.3758,35.8122],[-99.381,36.0129]]]}},{"type":"Feature","id":"40045","properties":{"name":"Ellis","fips":"40045"},"geometry":{"type":"Polygon","coordinates":[[[-100.0004,36.0557],[-100.0004,36.4997],[-100.0038,36.4997],[-100.0032,36.5932],[-99.6056,36.5928],[-99.5961,36.1641],[-99.3821,36.1643],[-99.381,36.0129],[-99.4958,35.9787],[-99.5585,35.866],[-99.7171,35.8598],[-99.8014,35.9106],[-99.8094,36.0],[-99.8883,35.9878],[-99.9251,35.9137],[-100.0004,35.8809],[-100.0004,36.0557]]]}},{"type":"Feature","id":"40047","properties":{"name":"Garfield","fips":"40047"},"geometry":{"type":"Polygon","coordinates":[[[-97.4625,36.5936],[-97.4616,36.5936],[-97.4608,36.1645],[-97.6756,36.1647],[-98.1039,36.1649],[-98.1044,36.4631],[-98.1043,36.5936],[-97.4625,36.5936]]]}},{"type":"Feature","id":"40049","properties":{"name":"Garvin","fips":"40049"},"geometry":{"type":"Polygon","coordinates":[[[-97.5623,34.507],[-97.5628,34.6811],[-97.6684,34.6813],[-97.6681,34.8552],[-96.9325,34.8545],[-96.9323,34.6368],[-97.2001,34.6228],[-97.144,34.5065],[-97.3521,34.5068],[-97.5623,34.507]]]}},{"type":"Feature","id":"40051","properties":{"name":"Grady","fips":"40051"},"geometry":{"type":"Polygon","coordinates":[[[-98.096,35.3778],[-97.8337,35.3354],[-97.8121,35.3338],[-97.8072,35.3408],[-97.7967,35.3391],[-97.792,35.3327],[-97.7883,35.3366],[-97.7776,35.3371],[-97.7718,35.3457],[-97.7373,35.3238],[-97.7247,35.3258],[-97.72,35.3285],[-97.7062,35.325],[-97.6959,35.3277],[-97.6851,35.3343],[-97.6716,35.3359],[-97.6681,34.8552],[-97.6684,34.6813],[-98.0878,34.6813],[-98.0891,34.6811],[-98.0896,34.8549],[-98.0926,34.8549],[-98.096,35.3778]]]}},{"type":"Feature","id":"40053","properties":{"name":"Grant","fips":"40053"},"geometry":{"type":"Polygon","coordinates":[[[-97.4625,36.5936],[-98.1043,36.5936],[-98.1093,36.5936],[-98.112,36.9981],[-98.0453,36.9983],[-98.0399,36.9983],[-98.034,36.9984],[-97.8023,36.9987],[-97.8023,36.9987],[-97.7835,36.9988],[-97.7834,36.999],[-97.7687,36.9988],[-97.6971,36.9988],[-97.6505,36.999],[-97.6371,36.9991],[-97.6065,36.9987],[-97.5645,36.9987],[-97.5465,36.9987],[-97.5459,36.9987],[-97.5273,36.9988],[-97.4729,36.9987],[-97.4623,36.9987],[-97.4625,36.5936]]]}},{"type":"Feature","id":"40055","properties":{"name":"Greer","fips":"40055"},"geometry":{"type":"Polygon","coordinates":[[[-99.4093,35.1145],[-99.3278,35.0417],[-99.3062,34.8576],[-99.2465,34.8221],[-99.4058,34.813],[-99.4232,34.725],[-99.6668,34.7246],[-99.7201,34.7685],[-99.7311,34.9441],[-99.8884,34.9439],[-99.8886,35.0303],[-99.7829,35.0301],[-99.7827,35.1168],[-99.4093,35.1145]]]}},{"type":"Feature","id":"40057","properties":{"name":"Harmon","fips":"40057"},"geometry":{"type":"Polygon","coordinates":[[[-100.0004,34.7464],[-100.0004,34.7465],[-100.0004,35.0304],[-99.8886,35.0303],[-99.8884,34.9439],[-99.7311,34.9441],[-99.7201,34.7685],[-99.6668,34.7246],[-99.6665,34.5071],[-99.8464,34.505],[-99.8649,34.523],[-99.8724,34.5321],[-99.8744,34.5371],[-99.8848,34.547],[-99.9232,34.5746],[-99.9457,34.5793],[-99.9546,34.5782],[-99.9979,34.5615],[-100.0004,34.5605],[-100.0004,34.7464]]]}},{"type":"Feature","id":"40059","properties":{"name":"Harper","fips":"40059"},"geometry":{"type":"Polygon","coordinates":[[[-100.0026,37.0017],[-100.0013,37.0017],[-99.9952,37.0016],[-99.786,37.0009],[-99.7748,37.0008],[-99.7743,37.0008],[-99.6577,37.0002],[-99.6254,36.9997],[-99.5581,36.9995],[-99.5411,36.9996],[-99.5086,36.9997],[-99.5041,36.9996],[-99.5027,36.9996],[-99.5004,36.9996],[-99.5004,36.9996],[-99.4843,36.9996],[-99.4562,36.9995],[-99.373,36.8786],[-99.2952,36.8196],[-99.2953,36.5951],[-99.6056,36.5928],[-100.0032,36.5932],[-100.0029,37.0],[-100.0026,37.0017]]]}},{"type":"Feature","id":"40061","properties":{"name":"Haskell","fips":"40061"},"geometry":{"type":"Polygon","coordinates":[[[-95.3492,35.0585],[-95.3493,35.1603],[-95.455,35.1606],[-95.4513,35.296],[-95.3447,35.2931],[-95.2438,35.2616],[-95.1705,35.3101],[-95.0499,35.4589],[-94.9018,35.3979],[-94.9119,35.3467],[-94.8136,35.3233],[-94.8143,35.2023],[-94.9279,35.2026],[-94.9279,35.0583],[-95.3492,35.0585]]]}},{"type":"Feature","id":"40063","properties":{"name":"Hughes","fips":"40063"},"geometry":{"type":"Polygon","coordinates":[[[-96.4908,34.9106],[-96.4904,35.1159],[-96.4414,35.1158],[-96.4414,35.2901],[-95.9814,35.2899],[-95.9837,35.1516],[-96.0888,35.0499],[-96.092,34.7675],[-96.4065,34.7676],[-96.4062,34.9084],[-96.4908,34.9106]]]}},{"type":"Feature","id":"40065","properties":{"name":"Jackson","fips":"40065"},"geometry":{"type":"Polygon","coordinates":[[[-99.2114,34.3379],[-99.2613,34.4035],[-99.3567,34.4421],[-99.3986,34.3758],[-99.4072,34.3726],[-99.4408,34.3741],[-99.4535,34.3888],[-99.4742,34.3981],[-99.4999,34.4096],[-99.5154,34.4143],[-99.5744,34.4183],[-99.5801,34.4167],[-99.6168,34.3754],[-99.6639,34.3737],[-99.695,34.3783],[-99.7672,34.4305],[-99.7937,34.4539],[-99.8464,34.505],[-99.6665,34.5071],[-99.6668,34.7246],[-99.4232,34.725],[-99.4058,34.813],[-99.2465,34.8221],[-99.1473,34.8504],[-99.1491,34.7024],[-99.0525,34.7016],[-99.1031,34.6379],[-99.2207,34.4945],[-99.2114,34.3377],[-99.2114,34.3379]]]}},{"type":"Feature","id":"40067","properties":{"name":"Jefferson","fips":"40067"},"geometry":{"type":"Polygon","coordinates":[[[-97.9778,33.8899],[-97.9779,33.8899],[-97.9534,33.9364],[-97.9457,33.9898],[-97.9835,34.0016],[-98.0195,33.9938],[-98.0411,33.9935],[-98.0853,34.0033],[-98.0882,34.0055],[-98.1063,34.0337],[-98.1691,34.1142],[-98.1391,34.1419],[-98.1392,34.2898],[-97.5626,34.2892],[-97.5626,34.0829],[-97.5608,34.0711],[-97.5611,33.898],[-97.581,33.9004],[-97.5874,33.9025],[-97.5963,33.9138],[-97.5971,33.9179],[-97.5888,33.9519],[-97.5896,33.9536],[-97.6091,33.9681],[-97.6562,33.9895],[-97.6718,33.9914],[-97.688,33.9866],[-97.6931,33.9837],[-97.7005,33.9722],[-97.7337,33.9364],[-97.7853,33.8907],[-97.8343,33.8577],[-97.8658,33.8494],[-97.8774,33.8502],[-97.9667,33.8819],[-97.9778,33.8899]]]}},{"type":"Feature","id":"40069","properties":{"name":"Johnston","fips":"40069"},"geometry":{"type":"Polygon","coordinates":[[[-96.4073,34.4184],[-96.4076,34.1573],[-96.4538,34.1144],[-96.5854,34.1145],[-96.67,34.1723],[-96.9337,34.1726],[-96.9335,34.3327],[-96.881,34.333],[-96.8808,34.5061],[-96.8273,34.506],[-96.5139,34.5054],[-96.5138,34.4196],[-96.4073,34.4184]]]}},{"type":"Feature","id":"40071","properties":{"name":"Kay","fips":"40071"},"geometry":{"type":"Polygon","coordinates":[[[-96.7498,36.999],[-96.7524,36.7821],[-96.8895,36.7512],[-96.9319,36.6861],[-97.0641,36.6842],[-97.0574,36.5936],[-97.4616,36.5936],[-97.4625,36.5936],[-97.4623,36.9987],[-97.4623,36.9987],[-97.3849,36.9988],[-97.3724,36.9989],[-97.1477,36.9991],[-97.1226,36.999],[-97.1203,36.999],[-97.1043,36.999],[-97.1007,36.999],[-97.0398,36.999],[-97.0301,36.9989],[-96.9756,36.999],[-96.9674,36.9991],[-96.9346,36.9991],[-96.9219,36.9992],[-96.9171,36.9992],[-96.9035,36.9991],[-96.9021,36.9992],[-96.8763,36.9992],[-96.8675,36.9992],[-96.8228,36.9992],[-96.7952,36.9989],[-96.7921,36.9992],[-96.7498,36.999]]]}},{"type":"Feature","id":"40073","properties":{"name":"Kingfisher","fips":"40073"},"geometry":{"type":"Polygon","coordinates":[[[-98.1039,36.1649],[-97.6756,36.1647],[-97.674,35.726],[-98.2071,35.7251],[-98.2105,36.1649],[-98.1039,36.1649]]]}},{"type":"Feature","id":"40075","properties":{"name":"Kiowa","fips":"40075"},"geometry":{"type":"Polygon","coordinates":[[[-98.6211,35.0974],[-98.6198,34.855],[-98.8261,34.8555],[-98.826,34.5944],[-99.0011,34.5944],[-99.001,34.6379],[-99.1031,34.6379],[-99.0525,34.7016],[-99.1491,34.7024],[-99.1473,34.8504],[-99.2465,34.8221],[-99.3062,34.8576],[-99.3278,35.0417],[-99.4093,35.1145],[-99.4093,35.1165],[-99.3602,35.1167],[-98.7503,35.1163],[-98.6211,35.0974]]]}},{"type":"Feature","id":"40077","properties":{"name":"Latimer","fips":"40077"},"geometry":{"type":"Polygon","coordinates":[[[-94.9279,35.0583],[-94.9277,34.9422],[-94.9981,34.9422],[-94.9978,34.8551],[-95.0595,34.855],[-95.0596,34.6807],[-95.5145,34.6811],[-95.5077,35.0292],[-95.3494,35.0293],[-95.3492,35.0585],[-94.9279,35.0583]]]}},{"type":"Feature","id":"40079","properties":{"name":"Le Flore","fips":"40079"},"geometry":{"type":"Polygon","coordinates":[[[-94.4412,35.1197],[-94.4479,34.9339],[-94.4493,34.8959],[-94.4491,34.8942],[-94.4491,34.8906],[-94.4496,34.8753],[-94.4501,34.8613],[-94.4501,34.8587],[-94.4502,34.8554],[-94.4546,34.729],[-94.4575,34.643],[-94.4575,34.6349],[-94.4601,34.5479],[-94.4601,34.5453],[-94.4611,34.5075],[-94.9376,34.5068],[-94.9378,34.6809],[-95.0596,34.6807],[-95.0595,34.855],[-94.9978,34.8551],[-94.9981,34.9422],[-94.9277,34.9422],[-94.9279,35.0583],[-94.9279,35.2026],[-94.8143,35.2023],[-94.8136,35.3233],[-94.7502,35.357],[-94.6688,35.295],[-94.5948,35.328],[-94.4939,35.3012],[-94.4337,35.3865],[-94.4327,35.3808],[-94.4318,35.3629],[-94.4341,35.3065],[-94.4352,35.2915],[-94.4353,35.2875],[-94.4353,35.2759],[-94.4357,35.2743],[-94.4358,35.2713],[-94.4376,35.2422],[-94.4378,35.2393],[-94.4382,35.211],[-94.4385,35.2086],[-94.4391,35.1973],[-94.4391,35.1936],[-94.4395,35.1718],[-94.4395,35.169],[-94.4408,35.1288],[-94.4412,35.1197]]]}},{"type":"Feature","id":"40081","properties":{"name":"Lincoln","fips":"40081"},"geometry":{"type":"Polygon","coordinates":[[[-96.6206,35.639],[-96.6249,35.4627],[-97.1415,35.464],[-97.1411,35.7244],[-97.1406,35.942],[-96.6211,35.9415],[-96.6206,35.639]]]}},{"type":"Feature","id":"40083","properties":{"name":"Logan","fips":"40083"},"geometry":{"type":"Polygon","coordinates":[[[-97.1406,35.942],[-97.1411,35.7244],[-97.674,35.726],[-97.6756,36.1647],[-97.4608,36.1645],[-97.3539,36.1643],[-97.3541,36.1591],[-97.3539,35.9849],[-97.3236,36.0109],[-97.1406,35.942]]]}},{"type":"Feature","id":"40085","properties":{"name":"Love","fips":"40085"},"geometry":{"type":"Polygon","coordinates":[[[-96.9729,33.9357],[-96.9856,33.8865],[-97.0061,33.8619],[-97.048,33.8179],[-97.0924,33.7332],[-97.0972,33.7278],[-97.1072,33.7211],[-97.1211,33.7172],[-97.1375,33.7187],[-97.1513,33.7226],[-97.1628,33.7291],[-97.1631,33.7293],[-97.1722,33.7375],[-97.2048,33.7999],[-97.205,33.8189],[-97.1997,33.8273],[-97.1947,33.8312],[-97.1814,33.8314],[-97.1716,33.8353],[-97.1668,33.8404],[-97.1666,33.8473],[-97.1808,33.8952],[-97.1855,33.9007],[-97.2109,33.9161],[-97.2265,33.9146],[-97.3108,33.8725],[-97.3729,33.8195],[-97.4265,33.8194],[-97.4442,33.8238],[-97.4531,33.8285],[-97.4591,33.8346],[-97.4629,33.8418],[-97.4615,33.8496],[-97.4576,33.8551],[-97.4515,33.8709],[-97.451,33.8914],[-97.4581,33.9016],[-97.4841,33.9157],[-97.4865,33.917],[-97.501,33.9196],[-97.5192,33.9136],[-97.5455,33.9004],[-97.555,33.8973],[-97.5611,33.898],[-97.5608,34.0711],[-96.9696,34.071],[-96.9345,33.9537],[-96.9446,33.949],[-96.9729,33.9357]]]}},{"type":"Feature","id":"40093","properties":{"name":"Major","fips":"40093"},"geometry":{"type":"Polygon","coordinates":[[[-98.6369,36.1649],[-98.9558,36.1616],[-98.9603,36.5069],[-98.8436,36.5062],[-98.8078,36.4607],[-98.6254,36.3926],[-98.5336,36.3976],[-98.5336,36.4632],[-98.1044,36.4631],[-98.1039,36.1649],[-98.2105,36.1649],[-98.6012,36.1658],[-98.6369,36.1649]]]}},{"type":"Feature","id":"40095","properties":{"name":"Marshall","fips":"40095"},"geometry":{"type":"Polygon","coordinates":[[[-96.9221,33.9596],[-96.9345,33.9537],[-96.9696,34.071],[-96.9337,34.1726],[-96.67,34.1723],[-96.5854,34.1145],[-96.548,34.0633],[-96.6247,34.0054],[-96.577,33.9644],[-96.6135,33.8783],[-96.6154,33.8811],[-96.6222,33.886],[-96.6334,33.8894],[-96.647,33.8952],[-96.6586,33.9001],[-96.6723,33.8996],[-96.6786,33.8928],[-96.6825,33.8831],[-96.6854,33.8728],[-96.6893,33.8617],[-96.6946,33.85],[-96.701,33.8407],[-96.7073,33.8354],[-96.7124,33.8316],[-96.7616,33.8244],[-96.8561,33.8475],[-96.8664,33.8531],[-96.883,33.868],[-96.8957,33.8964],[-96.8994,33.9337],[-96.9074,33.95],[-96.9163,33.9578],[-96.9221,33.9596]]]}},{"type":"Feature","id":"40097","properties":{"name":"Mayes","fips":"40097"},"geometry":{"type":"Polygon","coordinates":[[[-95.44,36.0752],[-95.4356,36.5102],[-95.3282,36.5102],[-95.0057,36.5099],[-95.0113,36.1618],[-95.1185,36.1616],[-95.1184,36.0745],[-95.2079,36.0747],[-95.44,36.0752]]]}},{"type":"Feature","id":"40087","properties":{"name":"McClain","fips":"40087"},"geometry":{"type":"Polygon","coordinates":[[[-97.6716,35.3359],[-97.6715,35.3375],[-97.557,35.2884],[-97.5415,35.2142],[-97.3542,35.0767],[-97.3415,34.964],[-97.1423,34.9282],[-97.0159,34.9073],[-96.9306,34.9644],[-96.9309,34.8546],[-96.9325,34.8545],[-97.6681,34.8552],[-97.6716,35.3359]]]}},{"type":"Feature","id":"40089","properties":{"name":"McCurtain","fips":"40089"},"geometry":{"type":"Polygon","coordinates":[[[-94.7461,33.703],[-94.7606,33.7271],[-94.8225,33.7327],[-94.8693,33.7459],[-95.0395,33.8606],[-95.0623,33.9036],[-95.0635,33.914],[-95.0673,33.9174],[-95.1296,33.9367],[-95.156,33.944],[-95.1565,34.157],[-95.1512,34.2439],[-95.0466,34.2437],[-95.0467,34.5072],[-94.9376,34.5068],[-94.4611,34.5075],[-94.4637,34.4196],[-94.4638,34.4145],[-94.4642,34.4027],[-94.4654,34.3595],[-94.4658,34.3521],[-94.4703,34.1899],[-94.4749,34.0219],[-94.4749,34.0218],[-94.4749,34.0197],[-94.477,33.9574],[-94.477,33.9538],[-94.4773,33.9409],[-94.4774,33.9378],[-94.4788,33.8815],[-94.479,33.8812],[-94.48,33.8513],[-94.4806,33.8302],[-94.4814,33.8029],[-94.4814,33.8026],[-94.4815,33.7957],[-94.4818,33.789],[-94.4827,33.7563],[-94.4828,33.7536],[-94.4829,33.7508],[-94.4829,33.7506],[-94.4839,33.7167],[-94.4838,33.7113],[-94.4846,33.6916],[-94.4845,33.6879],[-94.4855,33.6634],[-94.4856,33.6533],[-94.4859,33.6379],[-94.4876,33.6285],[-94.4907,33.6256],[-94.5241,33.6158],[-94.5284,33.616],[-94.661,33.6603],[-94.7351,33.6913],[-94.7461,33.703]]]}},{"type":"Feature","id":"40091","properties":{"name":"McIntosh","fips":"40091"},"geometry":{"type":"Polygon","coordinates":[[[-95.9814,35.2899],[-95.9813,35.3553],[-95.9814,35.3751],[-95.9813,35.3768],[-95.8756,35.3767],[-95.8756,35.4636],[-95.8234,35.464],[-95.8224,35.5517],[-95.713,35.5518],[-95.345,35.5522],[-95.3447,35.2931],[-95.4513,35.296],[-95.5994,35.2217],[-95.6281,35.2468],[-95.756,35.1772],[-95.8707,35.186],[-95.9837,35.1516],[-95.9814,35.2899]]]}},{"type":"Feature","id":"40099","properties":{"name":"Murray","fips":"40099"},"geometry":{"type":"Polygon","coordinates":[[[-96.9335,34.3327],[-97.0365,34.3754],[-97.3522,34.3762],[-97.3521,34.5068],[-97.144,34.5065],[-97.2001,34.6228],[-96.9323,34.6368],[-96.9324,34.5933],[-96.8273,34.5932],[-96.8273,34.506],[-96.8808,34.5061],[-96.881,34.333],[-96.9335,34.3327]]]}},{"type":"Feature","id":"40101","properties":{"name":"Muskogee","fips":"40101"},"geometry":{"type":"Polygon","coordinates":[[[-95.7662,35.8564],[-95.6504,35.8568],[-95.6383,35.7876],[-95.2657,35.8133],[-95.1272,35.8128],[-95.1275,35.6389],[-95.1324,35.5262],[-95.0499,35.4589],[-95.1705,35.3101],[-95.2438,35.2616],[-95.3447,35.2931],[-95.345,35.5522],[-95.713,35.5518],[-95.7131,35.7258],[-95.7663,35.7257],[-95.7662,35.8564]]]}},{"type":"Feature","id":"40103","properties":{"name":"Noble","fips":"40103"},"geometry":{"type":"Polygon","coordinates":[[[-96.9251,36.2465],[-97.141,36.2464],[-97.1407,36.1592],[-97.3541,36.1591],[-97.3539,36.1643],[-97.4608,36.1645],[-97.4616,36.5936],[-97.0574,36.5936],[-96.9128,36.5989],[-96.9026,36.5514],[-97.0098,36.5069],[-97.0321,36.3334],[-96.9249,36.3333],[-96.9251,36.2465]]]}},{"type":"Feature","id":"40105","properties":{"name":"Nowata","fips":"40105"},"geometry":{"type":"Polygon","coordinates":[[[-95.6608,36.5975],[-95.8096,36.5975],[-95.8098,36.9419],[-95.7868,36.9993],[-95.7687,36.9992],[-95.7599,36.9993],[-95.7419,36.9992],[-95.7181,36.9993],[-95.7149,36.9993],[-95.7104,36.9994],[-95.6967,36.9992],[-95.6865,36.9993],[-95.6643,36.9993],[-95.6301,36.9993],[-95.6244,36.9994],[-95.6159,36.9994],[-95.6121,36.9993],[-95.5736,36.9993],[-95.5344,36.9993],[-95.5224,36.9993],[-95.5116,36.9992],[-95.4077,36.9992],[-95.4076,36.9992],[-95.4317,36.9428],[-95.4316,36.5975],[-95.6608,36.5975]]]}},{"type":"Feature","id":"40107","properties":{"name":"Okfuskee","fips":"40107"},"geometry":{"type":"Polygon","coordinates":[[[-96.6237,35.4007],[-96.6249,35.4627],[-96.6206,35.639],[-96.1926,35.6391],[-96.1928,35.5519],[-96.0878,35.5521],[-96.0875,35.3769],[-95.9813,35.3768],[-95.9814,35.3751],[-95.9813,35.3553],[-95.9814,35.2899],[-96.4414,35.2901],[-96.4413,35.4677],[-96.5367,35.3908],[-96.6237,35.4007]]]}},{"type":"Feature","id":"40109","properties":{"name":"Oklahoma","fips":"40109"},"geometry":{"type":"Polygon","coordinates":[[[-97.265,35.3774],[-97.4236,35.3773],[-97.6714,35.3772],[-97.6713,35.4643],[-97.674,35.726],[-97.1411,35.7244],[-97.1415,35.464],[-97.1421,35.3769],[-97.265,35.3774]]]}},{"type":"Feature","id":"40111","properties":{"name":"Okmulgee","fips":"40111"},"geometry":{"type":"Polygon","coordinates":[[[-96.1926,35.6391],[-96.1925,35.857],[-96.0331,35.8568],[-95.82,35.8559],[-95.8062,35.856],[-95.8056,35.8566],[-95.7662,35.8564],[-95.7663,35.7257],[-95.7131,35.7258],[-95.713,35.5518],[-95.8224,35.5517],[-95.8234,35.464],[-95.8756,35.4636],[-95.8756,35.3767],[-95.9813,35.3768],[-96.0875,35.3769],[-96.0878,35.5521],[-96.1928,35.5519],[-96.1926,35.6391]]]}},{"type":"Feature","id":"40113","properties":{"name":"Osage","fips":"40113"},"geometry":{"type":"Polygon","coordinates":[[[-96.2683,36.162],[-96.2433,36.2067],[-96.3267,36.2266],[-96.4338,36.2859],[-96.4577,36.3327],[-96.5152,36.2983],[-96.5735,36.3157],[-96.5187,36.3776],[-96.5757,36.3743],[-96.6357,36.4259],[-96.7108,36.4377],[-96.7536,36.5626],[-96.9402,36.4555],[-97.0098,36.5069],[-96.9026,36.5514],[-96.9128,36.5989],[-97.0574,36.5936],[-97.0641,36.6842],[-96.9319,36.6861],[-96.8895,36.7512],[-96.7524,36.7821],[-96.7498,36.999],[-96.7413,36.9992],[-96.7366,36.9993],[-96.7105,36.9993],[-96.7054,36.9992],[-96.5255,36.9991],[-96.4154,36.9991],[-96.3943,36.9992],[-96.2791,36.9993],[-96.2764,36.9993],[-96.2176,36.9991],[-96.2,36.999],[-96.1848,36.9992],[-96.154,36.9992],[-96.1524,36.9991],[-96.1497,36.999],[-96.1471,36.999],[-96.1432,36.9991],[-96.1412,36.999],[-96.0008,36.9989],[-96.0012,36.4237],[-96.0011,36.1613],[-96.2683,36.162]]]}},{"type":"Feature","id":"40115","properties":{"name":"Ottawa","fips":"40115"},"geometry":{"type":"Polygon","coordinates":[[[-95.0076,36.9995],[-94.9953,36.9995],[-94.8532,36.9989],[-94.8498,36.9989],[-94.8409,36.9988],[-94.8313,36.9988],[-94.7773,36.9988],[-94.7393,36.9987],[-94.7372,36.9987],[-94.7128,36.9988],[-94.7018,36.9988],[-94.6997,36.9988],[-94.6181,36.9981],[-94.618,36.9962],[-94.618,36.9947],[-94.618,36.9502],[-94.6181,36.9466],[-94.6182,36.9376],[-94.6183,36.9296],[-94.6182,36.9262],[-94.6183,36.9115],[-94.6182,36.897],[-94.6187,36.8801],[-94.6184,36.8473],[-94.6183,36.7666],[-94.6181,36.7014],[-94.618,36.6694],[-94.618,36.6679],[-94.9994,36.6706],[-95.0076,36.9995]]]}},{"type":"Feature","id":"40117","properties":{"name":"Pawnee","fips":"40117"},"geometry":{"type":"Polygon","coordinates":[[[-96.2683,36.162],[-96.2979,36.1623],[-96.6213,36.1636],[-96.6214,36.1599],[-96.819,36.1589],[-96.819,36.2465],[-96.9251,36.2465],[-96.9249,36.3333],[-97.0321,36.3334],[-97.0098,36.5069],[-96.9402,36.4555],[-96.7536,36.5626],[-96.7108,36.4377],[-96.6357,36.4259],[-96.5757,36.3743],[-96.5187,36.3776],[-96.5735,36.3157],[-96.5152,36.2983],[-96.4577,36.3327],[-96.4338,36.2859],[-96.3267,36.2266],[-96.2433,36.2067],[-96.2683,36.162]]]}},{"type":"Feature","id":"40119","properties":{"name":"Payne","fips":"40119"},"geometry":{"type":"Polygon","coordinates":[[[-97.1406,35.942],[-97.3236,36.0109],[-97.3539,35.9849],[-97.3541,36.1591],[-97.1407,36.1592],[-97.141,36.2464],[-96.9251,36.2465],[-96.819,36.2465],[-96.819,36.1589],[-96.6214,36.1599],[-96.6211,35.9415],[-97.1406,35.942]]]}},{"type":"Feature","id":"40121","properties":{"name":"Pittsburg","fips":"40121"},"geometry":{"type":"Polygon","coordinates":[[[-95.672,34.5939],[-95.882,34.5935],[-95.8821,34.6805],[-96.092,34.6806],[-96.092,34.7675],[-96.0888,35.0499],[-95.9837,35.1516],[-95.8707,35.186],[-95.756,35.1772],[-95.6281,35.2468],[-95.5994,35.2217],[-95.4513,35.296],[-95.455,35.1606],[-95.3493,35.1603],[-95.3492,35.0585],[-95.3494,35.0293],[-95.5077,35.0292],[-95.5145,34.6811],[-95.5143,34.5942],[-95.672,34.5939]]]}},{"type":"Feature","id":"40123","properties":{"name":"Pontotoc","fips":"40123"},"geometry":{"type":"Polygon","coordinates":[[[-96.9306,34.9644],[-96.8215,34.9461],[-96.7757,34.9],[-96.7229,34.8568],[-96.5569,34.9142],[-96.4908,34.9106],[-96.4062,34.9084],[-96.4065,34.7676],[-96.4064,34.68],[-96.5122,34.6801],[-96.5139,34.5054],[-96.8273,34.506],[-96.8273,34.5932],[-96.9324,34.5933],[-96.9323,34.6368],[-96.9325,34.8545],[-96.9309,34.8546],[-96.9306,34.9644]]]}},{"type":"Feature","id":"40125","properties":{"name":"Pottawatomie","fips":"40125"},"geometry":{"type":"Polygon","coordinates":[[[-96.6237,35.4007],[-96.7767,35.4114],[-96.7757,34.9],[-96.8215,34.9461],[-96.9306,34.9644],[-97.0159,34.9073],[-97.1423,34.9282],[-97.1421,35.3769],[-97.1415,35.464],[-96.6249,35.4627],[-96.6237,35.4007]]]}},{"type":"Feature","id":"40127","properties":{"name":"Pushmataha","fips":"40127"},"geometry":{"type":"Polygon","coordinates":[[[-95.7794,34.1567],[-95.7794,34.5066],[-95.6717,34.5068],[-95.672,34.5939],[-95.5143,34.5942],[-95.5145,34.6811],[-95.0596,34.6807],[-94.9378,34.6809],[-94.9376,34.5068],[-95.0467,34.5072],[-95.0466,34.2437],[-95.1512,34.2439],[-95.1565,34.157],[-95.7794,34.1567]]]}},{"type":"Feature","id":"40129","properties":{"name":"Roger Mills","fips":"40129"},"geometry":{"type":"Polygon","coordinates":[[[-100.0004,35.6191],[-100.0004,35.8809],[-99.9251,35.9137],[-99.8883,35.9878],[-99.8094,36.0],[-99.8014,35.9106],[-99.7171,35.8598],[-99.5585,35.866],[-99.4958,35.9787],[-99.381,36.0129],[-99.3758,35.8122],[-99.3641,35.5088],[-99.5756,35.5089],[-99.5758,35.4217],[-100.0004,35.4224],[-100.0004,35.6191]]]}},{"type":"Feature","id":"40131","properties":{"name":"Rogers","fips":"40131"},"geometry":{"type":"Polygon","coordinates":[[[-95.7264,36.1625],[-95.7303,36.1623],[-95.732,36.1625],[-95.744,36.1625],[-95.7451,36.1628],[-95.7478,36.1625],[-95.7515,36.1627],[-95.7617,36.1628],[-95.8154,36.1626],[-95.8127,36.4236],[-95.8124,36.5975],[-95.8096,36.5975],[-95.6608,36.5975],[-95.4316,36.5975],[-95.3284,36.5976],[-95.3282,36.5102],[-95.4356,36.5102],[-95.44,36.0752],[-95.5715,36.0753],[-95.6185,36.1625],[-95.7264,36.1625]]]}},{"type":"Feature","id":"40133","properties":{"name":"Seminole","fips":"40133"},"geometry":{"type":"Polygon","coordinates":[[[-96.6237,35.4007],[-96.5367,35.3908],[-96.4413,35.4677],[-96.4414,35.2901],[-96.4414,35.1158],[-96.4904,35.1159],[-96.4908,34.9106],[-96.5569,34.9142],[-96.7229,34.8568],[-96.7757,34.9],[-96.7767,35.4114],[-96.6237,35.4007]]]}},{"type":"Feature","id":"40135","properties":{"name":"Sequoyah","fips":"40135"},"geometry":{"type":"Polygon","coordinates":[[[-94.4633,35.5827],[-94.4318,35.3977],[-94.4312,35.3943],[-94.4339,35.3874],[-94.4337,35.3865],[-94.4939,35.3012],[-94.5948,35.328],[-94.6688,35.295],[-94.7502,35.357],[-94.8136,35.3233],[-94.9119,35.3467],[-94.9018,35.3979],[-95.0499,35.4589],[-95.1324,35.5262],[-95.1275,35.6389],[-94.8073,35.6386],[-94.4726,35.6386],[-94.4653,35.594],[-94.4645,35.5889],[-94.4641,35.5873],[-94.4633,35.5827]]]}},{"type":"Feature","id":"40137","properties":{"name":"Stephens","fips":"40137"},"geometry":{"type":"Polygon","coordinates":[[[-98.1421,34.507],[-98.1418,34.6812],[-98.0891,34.6811],[-98.0878,34.6813],[-97.6684,34.6813],[-97.5628,34.6811],[-97.5623,34.507],[-97.5626,34.2892],[-98.1392,34.2898],[-98.1392,34.507],[-98.1421,34.507]]]}},{"type":"Feature","id":"40139","properties":{"name":"Texas","fips":"40139"},"geometry":{"type":"Polygon","coordinates":[[[-100.9771,36.4996],[-101.0453,36.4995],[-101.0524,36.4996],[-101.0852,36.4992],[-101.6239,36.4995],[-101.65,36.4996],[-101.6537,36.4996],[-101.6987,36.4995],[-101.7093,36.4997],[-101.7794,36.4997],[-101.7806,36.4997],[-101.782,36.4997],[-101.7834,36.4997],[-101.7881,36.4997],[-101.8265,36.4995],[-101.8266,36.4997],[-102.0323,36.5001],[-102.0282,36.9931],[-102.0004,36.9933],[-102.0004,36.9932],[-101.9024,36.9937],[-101.6016,36.9951],[-101.6004,36.9952],[-101.5553,36.9954],[-101.5552,36.9954],[-101.5191,36.9955],[-101.4853,36.9956],[-101.415,36.996],[-101.4139,36.996],[-101.3782,36.9962],[-101.3597,36.9962],[-101.3578,36.9963],[-101.2129,36.997],[-101.2115,36.9971],[-101.0667,36.9979],[-101.0536,36.998],[-101.0126,36.9982],[-100.9965,36.998],[-100.9456,36.9982],[-100.9455,36.9982],[-100.9542,36.4996],[-100.9771,36.4996]]]}},{"type":"Feature","id":"40141","properties":{"name":"Tillman","fips":"40141"},"geometry":{"type":"Polygon","coordinates":[[[-98.9525,34.1956],[-98.9667,34.2012],[-99.0603,34.2048],[-99.1192,34.2017],[-99.1571,34.2074],[-99.1909,34.2153],[-99.2116,34.2922],[-99.2116,34.314],[-99.2097,34.3249],[-99.2114,34.3377],[-99.2207,34.4945],[-99.1031,34.6379],[-99.001,34.6379],[-99.0011,34.5944],[-98.826,34.5944],[-98.8261,34.5074],[-98.662,34.5075],[-98.662,34.4059],[-98.6097,34.3337],[-98.6101,34.161],[-98.6376,34.1623],[-98.6523,34.161],[-98.6658,34.1516],[-98.7002,34.136],[-98.7656,34.1364],[-98.8584,34.1527],[-98.92,34.1829],[-98.9525,34.1956]]]}},{"type":"Feature","id":"40143","properties":{"name":"Tulsa","fips":"40143"},"geometry":{"type":"Polygon","coordinates":[[[-96.0295,35.9884],[-96.0296,36.0754],[-96.2978,36.0758],[-96.2979,36.1623],[-96.2683,36.162],[-96.0011,36.1613],[-96.0012,36.4237],[-95.8127,36.4236],[-95.8154,36.1626],[-95.7617,36.1628],[-95.7617,35.9008],[-95.82,35.8559],[-96.0331,35.8568],[-96.0295,35.9884]]]}},{"type":"Feature","id":"40145","properties":{"name":"Wagoner","fips":"40145"},"geometry":{"type":"Polygon","coordinates":[[[-95.7264,36.1625],[-95.6185,36.1625],[-95.5715,36.0753],[-95.44,36.0752],[-95.2079,36.0747],[-95.2787,35.9641],[-95.2315,35.8512],[-95.2657,35.8133],[-95.6383,35.7876],[-95.6504,35.8568],[-95.7662,35.8564],[-95.8056,35.8566],[-95.8062,35.856],[-95.82,35.8559],[-95.7617,35.9008],[-95.7617,36.1628],[-95.7515,36.1627],[-95.7478,36.1625],[-95.7451,36.1628],[-95.744,36.1625],[-95.732,36.1625],[-95.7303,36.1623],[-95.7264,36.1625]]]}},{"type":"Feature","id":"40147","properties":{"name":"Washington","fips":"40147"},"geometry":{"type":"Polygon","coordinates":[[[-96.0012,36.4237],[-96.0008,36.9989],[-95.9643,36.9991],[-95.937,36.9993],[-95.9281,36.9992],[-95.9102,36.9993],[-95.8772,36.9993],[-95.8753,36.9993],[-95.8739,36.9993],[-95.8669,36.9993],[-95.808,36.9991],[-95.7868,36.9993],[-95.8098,36.9419],[-95.8096,36.5975],[-95.8124,36.5975],[-95.8127,36.4236],[-96.0012,36.4237]]]}},{"type":"Feature","id":"40149","properties":{"name":"Washita","fips":"40149"},"geometry":{"type":"Polygon","coordinates":[[[-98.6211,35.0974],[-98.7503,35.1163],[-99.3602,35.1167],[-99.3642,35.4653],[-98.6233,35.4642],[-98.6211,35.0974]]]}},{"type":"Feature","id":"40151","properties":{"name":"Woods","fips":"40151"},"geometry":{"type":"Polygon","coordinates":[[[-99.2952,36.8196],[-99.373,36.8786],[-99.4562,36.9995],[-99.2775,36.9996],[-99.2481,36.9996],[-99.1294,36.9994],[-99.1249,36.9994],[-99.0293,36.9996],[-99.0003,36.9995],[-98.9944,36.9995],[-98.8806,36.9993],[-98.88,36.9993],[-98.8694,36.9993],[-98.7975,36.9992],[-98.7937,36.9992],[-98.7919,36.9993],[-98.7616,36.9994],[-98.7185,36.9992],[-98.7145,36.9991],[-98.5449,36.999],[-98.5447,36.999],[-98.5336,36.4632],[-98.5336,36.3976],[-98.6254,36.3926],[-98.8078,36.4607],[-98.8436,36.5062],[-98.9603,36.5069],[-98.96,36.599],[-99.1399,36.783],[-99.2952,36.8196]]]}},{"type":"Feature","id":"40153","properties":{"name":"Woodward","fips":"40153"},"geometry":{"type":"Polygon","coordinates":[[[-99.6056,36.5928],[-99.2953,36.5951],[-99.2952,36.8196],[-99.1399,36.783],[-98.96,36.599],[-98.9603,36.5069],[-98.9558,36.1616],[-99.3821,36.1643],[-99.5961,36.1641],[-99.6056,36.5928]]]}}]}