{"type":"FeatureCollection","features":[{"type":"Feature","id":"41001","properties":{"name":"Baker","fips":"41001"},"geometry":{"type":"Polygon","coordinates":[[[-116.9315,44.7923],[-117.0162,44.7556],[-117.0383,44.7482],[-117.0442,44.7451],[-117.0623,44.7271],[-117.0959,44.6647],[-117.1159,44.6233],[-117.1442,44.5456],[-117.1492,44.5362],[-117.1565,44.5283],[-117.2085,44.4859],[-117.2149,44.4669],[-117.1898,44.3366],[-117.1915,44.3296],[-117.1948,44.3105],[-117.1966,44.3023],[-117.1975,44.2973],[-117.4862,44.3014],[-117.4859,44.3877],[-117.591,44.4445],[-117.9716,44.4433],[-118.1523,44.2996],[-118.2321,44.2561],[-118.4972,44.2551],[-118.469,44.3346],[-118.4097,44.3787],[-118.4085,44.4528],[-118.3062,44.589],[-118.373,44.6454],[-118.5043,44.6656],[-118.5193,44.7064],[-118.2852,44.7512],[-118.2962,44.8627],[-118.2367,44.8616],[-118.2448,44.9583],[-118.1303,45.0451],[-117.9692,44.9958],[-117.8434,45.0585],[-117.7775,44.9922],[-117.5637,44.9928],[-117.5631,45.0796],[-117.2666,45.0808],[-116.7839,45.079],[-116.8454,45.0171],[-116.8583,44.978],[-116.8507,44.9581],[-116.8447,44.9493],[-116.8357,44.9406],[-116.832,44.933],[-116.8524,44.8876],[-116.8915,44.8405],[-116.9315,44.7923]]]}},{"type":"Feature","id":"41003","properties":{"name":"Benton","fips":"41003"},"geometry":{"type":"Polygon","coordinates":[[[-123.6026,44.7212],[-123.5808,44.7194],[-123.3475,44.7201],[-123.1491,44.7203],[-123.0736,44.6573],[-123.1644,44.6375],[-123.2603,44.5554],[-123.2147,44.5077],[-123.2053,44.443],[-123.2436,44.3785],[-123.184,44.2837],[-123.7754,44.2836],[-123.8169,44.3448],[-123.7152,44.3606],[-123.7204,44.4331],[-123.5972,44.4329],[-123.6026,44.7212]]]}},{"type":"Feature","id":"41005","properties":{"name":"Clackamas","fips":"41005"},"geometry":{"type":"Polygon","coordinates":[[[-121.6968,45.258],[-121.681,45.2508],[-121.6826,45.229],[-121.7016,45.2302],[-121.746,45.1863],[-121.6594,45.0665],[-121.8051,45.0113],[-121.7342,44.8858],[-122.3953,44.8857],[-122.5084,44.9198],[-122.7884,45.1301],[-122.739,45.2595],[-122.8497,45.2597],[-122.8678,45.2596],[-122.868,45.3174],[-122.7437,45.332],[-122.7441,45.4333],[-122.6487,45.4327],[-122.6513,45.4365],[-122.6452,45.4416],[-122.6526,45.4457],[-122.661,45.4578],[-121.8204,45.4617],[-121.6969,45.3738],[-121.6968,45.258]]]}},{"type":"Feature","id":"41007","properties":{"name":"Clatsop","fips":"41007"},"geometry":{"type":"Polygon","coordinates":[[[-123.9693,45.7832],[-123.9615,45.8371],[-123.9627,45.87],[-123.9676,45.9078],[-123.9795,45.9304],[-123.993,45.9388],[-123.9937,45.9464],[-123.97,45.9691],[-123.9574,45.9745],[-123.9418,45.9757],[-123.9375,45.9773],[-123.9279,46.0096],[-123.9293,46.042],[-123.9334,46.0717],[-123.9475,46.1161],[-123.9592,46.1417],[-123.9741,46.1688],[-123.9968,46.204],[-124.0103,46.2235],[-124.0243,46.2293],[-124.0114,46.2362],[-124.002,46.2373],[-123.9981,46.2353],[-123.9884,46.2241],[-123.9901,46.2176],[-123.9872,46.2115],[-123.9821,46.2097],[-123.9617,46.2079],[-123.9501,46.2041],[-123.927,46.1916],[-123.9124,46.1795],[-123.9042,46.1693],[-123.8912,46.1648],[-123.8548,46.1573],[-123.8428,46.1605],[-123.8415,46.1698],[-123.8633,46.1823],[-123.8666,46.1877],[-123.8642,46.1895],[-123.8388,46.1922],[-123.8218,46.1903],[-123.7939,46.1963],[-123.76,46.2073],[-123.7367,46.2007],[-123.7128,46.1988],[-123.7067,46.1997],[-123.6754,46.2124],[-123.6738,46.2154],[-123.6668,46.2182],[-123.6554,46.218],[-123.6365,46.2144],[-123.6325,46.2167],[-123.6262,46.2264],[-123.6252,46.2339],[-123.6228,46.2366],[-123.6135,46.2392],[-123.6055,46.2393],[-123.6002,46.2348],[-123.5862,46.2287],[-123.5482,46.2482],[-123.5477,46.2591],[-123.4842,46.2695],[-123.4748,46.2678],[-123.4687,46.2645],[-123.4476,46.2498],[-123.4276,46.2293],[-123.4308,46.1818],[-123.3714,46.1464],[-123.3636,46.1462],[-123.361,45.7797],[-123.7193,45.7732],[-123.9693,45.7832]]]}},{"type":"Feature","id":"41009","properties":{"name":"Columbia","fips":"41009"},"geometry":{"type":"Polygon","coordinates":[[[-123.2131,46.1725],[-123.1664,46.189],[-123.1159,46.1853],[-122.9041,46.0837],[-122.8845,46.0603],[-122.814,45.961],[-122.785,45.8677],[-122.7855,45.8505],[-122.796,45.825],[-122.7956,45.81],[-122.7695,45.7806],[-122.7615,45.7592],[-122.7601,45.7344],[-122.7622,45.7286],[-122.929,45.7215],[-123.031,45.7792],[-123.361,45.7797],[-123.3636,46.1462],[-123.2802,46.1448],[-123.2131,46.1725]]]}},{"type":"Feature","id":"41011","properties":{"name":"Coos","fips":"41011"},"geometry":{"type":"Polygon","coordinates":[[[-123.8121,42.7894],[-124.133,42.6664],[-124.142,42.8493],[-124.2571,42.9548],[-124.4793,42.955],[-124.4626,42.9914],[-124.4569,43.0003],[-124.4362,43.0713],[-124.4322,43.0974],[-124.4345,43.116],[-124.4241,43.1269],[-124.4017,43.1849],[-124.3953,43.2111],[-124.3956,43.2239],[-124.3825,43.2702],[-124.3889,43.2905],[-124.394,43.2993],[-124.4004,43.3021],[-124.4028,43.3059],[-124.3876,43.326],[-124.373,43.339],[-124.3533,43.3427],[-124.3416,43.3513],[-124.315,43.3884],[-124.2869,43.4363],[-124.2556,43.5022],[-124.2335,43.5571],[-124.2189,43.6103],[-123.8754,43.6083],[-123.8755,43.5159],[-123.8168,43.516],[-123.8177,43.4312],[-123.764,43.4322],[-123.764,43.2579],[-123.7038,43.2578],[-123.702,43.0873],[-123.7606,43.0831],[-123.7621,42.996],[-123.8208,42.9959],[-123.8121,42.7894]]]}},{"type":"Feature","id":"41013","properties":{"name":"Crook","fips":"41013"},"geometry":{"type":"Polygon","coordinates":[[[-121.1073,44.3905],[-120.9885,44.39],[-120.9887,44.4764],[-120.8272,44.4766],[-120.8273,44.5628],[-120.3855,44.564],[-120.3858,44.4376],[-120.0218,44.4386],[-120.0207,44.3897],[-119.899,44.3895],[-119.8988,44.3067],[-119.6556,44.307],[-119.6576,43.9591],[-119.7757,43.9591],[-119.7775,43.6981],[-119.8982,43.6983],[-120.258,43.6988],[-120.2579,43.7853],[-120.3785,43.785],[-120.3789,43.872],[-120.7479,43.8713],[-120.7483,43.9571],[-120.9865,43.9609],[-120.9873,44.1338],[-121.1026,44.138],[-121.1073,44.3905]]]}},{"type":"Feature","id":"41015","properties":{"name":"Curry","fips":"41015"},"geometry":{"type":"Polygon","coordinates":[[[-124.4793,42.955],[-124.2571,42.9548],[-124.142,42.8493],[-124.133,42.6664],[-123.8121,42.7894],[-123.7773,42.799],[-123.7276,42.7801],[-123.7162,42.7842],[-123.8318,42.6326],[-123.8857,42.5042],[-124.0084,42.4964],[-124.042,42.3877],[-124.0259,42.3591],[-123.8922,42.3528],[-123.8397,42.3115],[-123.7912,42.2364],[-123.8568,42.1411],[-123.8215,41.9955],[-124.0867,41.9969],[-124.0878,41.9969],[-124.1002,41.9968],[-124.1009,41.997],[-124.2116,41.9985],[-124.2142,42.0059],[-124.2705,42.0456],[-124.2874,42.046],[-124.2996,42.0517],[-124.3143,42.0679],[-124.341,42.0929],[-124.3562,42.115],[-124.3571,42.118],[-124.3515,42.1298],[-124.3518,42.135],[-124.3557,42.142],[-124.3616,42.1438],[-124.366,42.1523],[-124.3668,42.1585],[-124.3634,42.1586],[-124.3603,42.1623],[-124.361,42.1808],[-124.3678,42.1883],[-124.3732,42.1902],[-124.3749,42.1931],[-124.3762,42.1964],[-124.3756,42.2088],[-124.3778,42.2188],[-124.3836,42.2272],[-124.411,42.2505],[-124.4115,42.2541],[-124.4085,42.2606],[-124.4051,42.2781],[-124.4106,42.3074],[-124.4293,42.3317],[-124.4272,42.3349],[-124.4256,42.3519],[-124.4241,42.3772],[-124.4249,42.3954],[-124.4281,42.4203],[-124.4349,42.4349],[-124.4351,42.4402],[-124.422,42.4612],[-124.4231,42.479],[-124.4214,42.4917],[-124.3991,42.5399],[-124.3907,42.5666],[-124.39,42.5748],[-124.4009,42.5975],[-124.3994,42.6181],[-124.4012,42.6272],[-124.4131,42.6579],[-124.4168,42.6616],[-124.4507,42.6758],[-124.4515,42.6778],[-124.4475,42.6847],[-124.4484,42.6899],[-124.4739,42.7327],[-124.4917,42.7418],[-124.4985,42.7411],[-124.4991,42.7386],[-124.51,42.7347],[-124.5134,42.7351],[-124.5147,42.7368],[-124.5162,42.7536],[-124.5244,42.7898],[-124.5361,42.8142],[-124.5442,42.823],[-124.5524,42.8406],[-124.5001,42.9175],[-124.4809,42.9515],[-124.4793,42.955]]]}},{"type":"Feature","id":"41017","properties":{"name":"Deschutes","fips":"41017"},"geometry":{"type":"Polygon","coordinates":[[[-121.7994,44.2581],[-121.8427,44.3924],[-121.1073,44.3905],[-121.1026,44.138],[-120.9873,44.1338],[-120.9865,43.9609],[-120.7483,43.9571],[-120.7479,43.8713],[-120.3789,43.872],[-120.3785,43.785],[-120.2579,43.7853],[-120.258,43.6988],[-119.8982,43.6983],[-119.8964,43.6103],[-120.368,43.6115],[-120.3782,43.6111],[-120.3782,43.6155],[-121.333,43.6166],[-122.0027,43.6152],[-121.9649,43.6268],[-121.9862,43.6616],[-121.9609,43.7638],[-121.9755,43.8569],[-121.9202,43.9138],[-121.8693,43.9119],[-121.7686,44.1014],[-121.7994,44.2581]]]}},{"type":"Feature","id":"41019","properties":{"name":"Douglas","fips":"41019"},"geometry":{"type":"Polygon","coordinates":[[[-124.2189,43.6103],[-124.203,43.6678],[-124.2049,43.674],[-124.1983,43.6895],[-124.1935,43.7061],[-124.1684,43.8089],[-124.1587,43.8635],[-123.9255,43.8656],[-123.9255,43.8992],[-123.8276,43.945],[-123.7035,43.9451],[-123.6193,43.9201],[-123.5797,43.8681],[-123.4705,43.8102],[-123.348,43.8092],[-123.3477,43.7802],[-123.1377,43.7797],[-123.1371,43.606],[-123.1075,43.54],[-122.7418,43.5446],[-122.7408,43.4371],[-122.132,43.4404],[-122.0102,43.3432],[-121.9738,43.2617],[-122.0378,43.2172],[-122.0915,43.0761],[-122.2822,43.0675],[-122.2819,42.9966],[-122.4005,42.9964],[-122.4601,42.9399],[-122.6772,42.8813],[-122.7948,42.7794],[-123.1514,42.7561],[-123.2299,42.7025],[-123.366,42.732],[-123.4442,42.7031],[-123.7151,42.7397],[-123.7162,42.7842],[-123.7276,42.7801],[-123.7773,42.799],[-123.8121,42.7894],[-123.8208,42.9959],[-123.7621,42.996],[-123.7606,43.0831],[-123.702,43.0873],[-123.7038,43.2578],[-123.764,43.2579],[-123.764,43.4322],[-123.8177,43.4312],[-123.8168,43.516],[-123.8755,43.5159],[-123.8754,43.6083],[-124.2189,43.6103]]]}},{"type":"Feature","id":"41021","properties":{"name":"Gilliam","fips":"41021"},"geometry":{"type":"Polygon","coordinates":[[[-120.6536,45.7372],[-120.635,45.7458],[-120.5912,45.7465],[-120.5595,45.7383],[-120.522,45.7098],[-120.5059,45.7],[-120.4824,45.6944],[-120.404,45.6992],[-120.2108,45.726],[-120.1705,45.762],[-120.1414,45.7732],[-120.0011,45.8119],[-119.9995,45.8122],[-120.0067,45.2575],[-119.882,45.256],[-119.883,45.1697],[-119.7601,45.1676],[-119.7904,45.0678],[-120.4952,45.0685],[-120.4945,45.0746],[-120.5035,45.0829],[-120.4625,45.1011],[-120.4813,45.1927],[-120.5403,45.217],[-120.5251,45.4052],[-120.4959,45.4653],[-120.3578,45.5339],[-120.6536,45.7372]]]}},{"type":"Feature","id":"41023","properties":{"name":"Grant","fips":"41023"},"geometry":{"type":"Polygon","coordinates":[[[-119.6556,44.307],[-119.6521,44.8232],[-119.672,44.9944],[-119.6667,44.9935],[-119.1639,44.9959],[-118.5191,44.996],[-118.2448,44.9583],[-118.2367,44.8616],[-118.2962,44.8627],[-118.2852,44.7512],[-118.5193,44.7064],[-118.5043,44.6656],[-118.373,44.6454],[-118.3062,44.589],[-118.4085,44.4528],[-118.4097,44.3787],[-118.469,44.3346],[-118.4972,44.2551],[-118.2321,44.2561],[-118.2274,44.04],[-118.5867,44.0401],[-118.8162,44.0477],[-118.8166,43.96],[-119.6576,43.9591],[-119.6556,44.307]]]}},{"type":"Feature","id":"41025","properties":{"name":"Harney","fips":"41025"},"geometry":{"type":"Polygon","coordinates":[[[-118.1972,41.997],[-118.7759,41.9927],[-118.7772,41.9927],[-119.3242,41.9943],[-119.3602,41.9944],[-119.3653,42.749],[-119.9439,42.7463],[-119.9324,43.179],[-119.8968,43.179],[-119.8964,43.6103],[-119.8982,43.6983],[-119.7775,43.6981],[-119.7757,43.9591],[-119.6576,43.9591],[-118.8166,43.96],[-118.8162,44.0477],[-118.5867,44.0401],[-118.2274,44.04],[-118.2319,43.779],[-118.2147,42.276],[-118.1954,42.2759],[-118.1972,41.997]]]}},{"type":"Feature","id":"41027","properties":{"name":"Hood River","fips":"41027"},"geometry":{"type":"Polygon","coordinates":[[[-121.9083,45.6544],[-121.9009,45.662],[-121.9019,45.6707],[-121.8672,45.6933],[-121.8201,45.7046],[-121.8113,45.7068],[-121.7351,45.694],[-121.7074,45.6948],[-121.6262,45.7059],[-121.5331,45.7265],[-121.5224,45.7247],[-121.4628,45.7014],[-121.441,45.6973],[-121.4406,45.5193],[-121.4825,45.5196],[-121.4815,45.2583],[-121.6968,45.258],[-121.6969,45.3738],[-121.8204,45.4617],[-121.9067,45.5205],[-121.9222,45.6485],[-121.9083,45.6544]]]}},{"type":"Feature","id":"41029","properties":{"name":"Jackson","fips":"41029"},"geometry":{"type":"Polygon","coordinates":[[[-123.23,42.2875],[-123.2299,42.5518],[-123.2299,42.7025],[-123.1514,42.7561],[-122.7948,42.7794],[-122.6772,42.8813],[-122.4601,42.9399],[-122.4005,42.9964],[-122.2819,42.9966],[-122.2874,42.1272],[-122.2904,42.1271],[-122.2897,42.1226],[-122.2895,42.0078],[-122.3782,42.0095],[-122.5011,42.0085],[-122.6347,42.0049],[-123.0012,42.003],[-123.0453,42.003],[-123.1549,42.008],[-123.2308,42.0038],[-123.2308,42.0038],[-123.23,42.2875]]]}},{"type":"Feature","id":"41031","properties":{"name":"Jefferson","fips":"41031"},"geometry":{"type":"Polygon","coordinates":[[[-121.7941,44.6839],[-121.7595,44.8256],[-120.3714,44.8216],[-120.3855,44.564],[-120.8273,44.5628],[-120.8272,44.4766],[-120.9887,44.4764],[-120.9885,44.39],[-121.1073,44.3905],[-121.8427,44.3924],[-121.7941,44.6839]]]}},{"type":"Feature","id":"41033","properties":{"name":"Josephine","fips":"41033"},"geometry":{"type":"Polygon","coordinates":[[[-123.23,42.2875],[-123.2308,42.0038],[-123.3476,41.9991],[-123.4988,42.0005],[-123.4989,42.0005],[-123.502,42.0005],[-123.5181,42.0004],[-123.6246,41.9998],[-123.8215,41.9955],[-123.8568,42.1411],[-123.7912,42.2364],[-123.8397,42.3115],[-123.8922,42.3528],[-124.0259,42.3591],[-124.042,42.3877],[-124.0084,42.4964],[-123.8857,42.5042],[-123.8318,42.6326],[-123.7162,42.7842],[-123.7151,42.7397],[-123.4442,42.7031],[-123.366,42.732],[-123.2299,42.7025],[-123.2299,42.5518],[-123.23,42.2875]]]}},{"type":"Feature","id":"41035","properties":{"name":"Klamath","fips":"41035"},"geometry":{"type":"Polygon","coordinates":[[[-122.132,43.4404],[-122.1309,43.5571],[-122.0027,43.6152],[-121.333,43.6166],[-121.3327,43.4386],[-121.3486,43.3567],[-121.3499,42.7467],[-120.8833,42.7439],[-120.8795,41.9938],[-121.0352,41.9933],[-121.1543,41.9964],[-121.3344,41.9967],[-121.3357,41.9965],[-121.3405,41.9962],[-121.3603,41.9967],[-121.3761,41.997],[-121.435,41.997],[-121.4396,41.9971],[-121.4475,41.9972],[-121.5203,41.998],[-121.5809,41.9987],[-121.6753,42.0004],[-121.6892,42.0006],[-121.705,42.0008],[-121.7082,42.0008],[-122.0011,42.004],[-122.1554,42.0074],[-122.1567,42.0074],[-122.1604,42.0076],[-122.1613,42.0076],[-122.2895,42.0078],[-122.2895,42.0078],[-122.2897,42.1226],[-122.2904,42.1271],[-122.2874,42.1272],[-122.2819,42.9966],[-122.2822,43.0675],[-122.0915,43.0761],[-122.0378,43.2172],[-121.9738,43.2617],[-122.0102,43.3432],[-122.132,43.4404]]]}},{"type":"Feature","id":"41037","properties":{"name":"Lake","fips":"41037"},"geometry":{"type":"Polygon","coordinates":[[[-121.333,43.6166],[-120.3782,43.6155],[-120.3782,43.6111],[-120.368,43.6115],[-119.8964,43.6103],[-119.8968,43.179],[-119.9324,43.179],[-119.9439,42.7463],[-119.3653,42.749],[-119.3602,41.9944],[-119.7901,41.9975],[-119.9867,41.9958],[-119.9992,41.9945],[-120.2864,41.9931],[-120.326,41.9931],[-120.6922,41.9937],[-120.6939,41.9937],[-120.8795,41.9938],[-120.8833,42.7439],[-121.3499,42.7467],[-121.3486,43.3567],[-121.3327,43.4386],[-121.333,43.6166]]]}},{"type":"Feature","id":"41039","properties":{"name":"Lane","fips":"41039"},"geometry":{"type":"Polygon","coordinates":[[[-122.132,43.4404],[-122.7408,43.4371],[-122.7418,43.5446],[-123.1075,43.54],[-123.1371,43.606],[-123.1377,43.7797],[-123.3477,43.7802],[-123.348,43.8092],[-123.4705,43.8102],[-123.5797,43.8681],[-123.6193,43.9201],[-123.7035,43.9451],[-123.8276,43.945],[-123.9255,43.8992],[-123.9255,43.8656],[-124.1587,43.8635],[-124.1503,43.9109],[-124.1427,43.9582],[-124.1335,44.0358],[-124.1224,44.1044],[-124.1258,44.1261],[-124.117,44.1719],[-124.1144,44.1982],[-124.1157,44.2066],[-124.1111,44.2351],[-124.1089,44.2655],[-124.1097,44.2706],[-124.1149,44.2727],[-124.116,44.2746],[-124.1158,44.2763],[-123.7754,44.2836],[-123.184,44.2837],[-123.1654,44.2],[-122.9056,44.2002],[-122.8646,44.2879],[-122.7605,44.2905],[-122.5771,44.2281],[-122.3862,44.2171],[-122.3266,44.2533],[-121.7994,44.2581],[-121.7686,44.1014],[-121.8693,43.9119],[-121.9202,43.9138],[-121.9755,43.8569],[-121.9609,43.7638],[-121.9862,43.6616],[-121.9649,43.6268],[-122.0027,43.6152],[-122.1309,43.5571],[-122.132,43.4404]]]}},{"type":"Feature","id":"41041","properties":{"name":"Lincoln","fips":"41041"},"geometry":{"type":"Polygon","coordinates":[[[-124.0046,45.045],[-123.7254,45.044],[-123.7249,44.7391],[-123.6026,44.7212],[-123.5972,44.4329],[-123.7204,44.4331],[-123.7152,44.3606],[-123.8169,44.3448],[-123.7754,44.2836],[-124.1158,44.2763],[-124.1152,44.2865],[-124.1091,44.3037],[-124.1081,44.3099],[-124.1096,44.3145],[-124.1006,44.3319],[-124.0921,44.3704],[-124.0844,44.4156],[-124.081,44.4197],[-124.0717,44.4237],[-124.0676,44.4286],[-124.0739,44.4345],[-124.0793,44.4309],[-124.0821,44.4415],[-124.0821,44.4782],[-124.0844,44.4869],[-124.0836,44.5011],[-124.0764,44.5312],[-124.0673,44.608],[-124.0691,44.613],[-124.0823,44.6089],[-124.0845,44.6111],[-124.0652,44.6224],[-124.065,44.6325],[-124.0583,44.6589],[-124.06,44.6694],[-124.0704,44.6835],[-124.0634,44.7032],[-124.0591,44.7377],[-124.0663,44.7627],[-124.0755,44.7714],[-124.0741,44.7981],[-124.0667,44.8312],[-124.0632,44.8353],[-124.0542,44.8382],[-124.0488,44.85],[-124.0323,44.9008],[-124.0251,44.9282],[-124.0257,44.9365],[-124.0238,44.9498],[-124.0152,44.9829],[-124.0046,45.045]]]}},{"type":"Feature","id":"41043","properties":{"name":"Linn","fips":"41043"},"geometry":{"type":"Polygon","coordinates":[[[-123.2603,44.5554],[-123.1644,44.6375],[-123.0736,44.6573],[-123.1491,44.7203],[-123.1504,44.7276],[-123.1335,44.7387],[-123.1436,44.7497],[-123.0615,44.748],[-123.0068,44.6869],[-122.7984,44.7916],[-122.6198,44.7889],[-122.4784,44.7556],[-122.2884,44.7531],[-122.2306,44.6979],[-122.154,44.7198],[-122.0332,44.6857],[-121.7941,44.6839],[-121.8427,44.3924],[-121.7994,44.2581],[-122.3266,44.2533],[-122.3862,44.2171],[-122.5771,44.2281],[-122.7605,44.2905],[-122.8646,44.2879],[-122.9056,44.2002],[-123.1654,44.2],[-123.184,44.2837],[-123.2436,44.3785],[-123.2053,44.443],[-123.2147,44.5077],[-123.2603,44.5554]]]}},{"type":"Feature","id":"41045","properties":{"name":"Malheur","fips":"41045"},"geometry":{"type":"Polygon","coordinates":[[[-116.9615,43.9184],[-116.9792,43.88],[-116.9825,43.8728],[-116.9965,43.8647],[-117.0266,43.8081],[-117.0267,43.7339],[-117.0268,43.7329],[-117.0267,43.7148],[-117.0268,43.7062],[-117.0266,43.683],[-117.0266,43.6809],[-117.0267,43.6755],[-117.0267,43.6644],[-117.0267,43.6317],[-117.0269,43.6249],[-117.027,43.621],[-117.0269,43.6176],[-117.0268,43.6107],[-117.0268,43.6019],[-117.0268,43.6004],[-117.0269,43.596],[-117.0269,43.5936],[-117.0268,43.5787],[-117.0267,43.5775],[-117.0267,43.0251],[-117.0267,43.0249],[-117.0263,42.8074],[-117.0263,42.8072],[-117.0263,42.807],[-117.0262,42.0003],[-118.1972,41.997],[-118.1954,42.2759],[-118.2147,42.276],[-118.2319,43.779],[-118.2274,44.04],[-118.2321,44.2561],[-118.1523,44.2996],[-117.9716,44.4433],[-117.591,44.4445],[-117.4859,44.3877],[-117.4862,44.3014],[-117.1975,44.2973],[-117.1978,44.2958],[-117.1966,44.2875],[-117.1901,44.274],[-117.1703,44.2589],[-117.0411,44.2437],[-117.0332,44.2482],[-117.0276,44.2489],[-116.9869,44.2455],[-116.9759,44.2428],[-116.9028,44.1795],[-116.8958,44.1713],[-116.8941,44.1602],[-116.8959,44.1543],[-116.8971,44.1525],[-116.9317,44.1025],[-116.9353,43.9886],[-116.9615,43.9184]]]}},{"type":"Feature","id":"41047","properties":{"name":"Marion","fips":"41047"},"geometry":{"type":"Polygon","coordinates":[[[-121.7342,44.8858],[-121.7338,44.8817],[-121.7456,44.8754],[-121.7532,44.8612],[-121.7511,44.857],[-121.7425,44.8531],[-121.7421,44.8453],[-121.7494,44.8335],[-121.7595,44.8256],[-121.7941,44.6839],[-122.0332,44.6857],[-122.154,44.7198],[-122.2306,44.6979],[-122.2884,44.7531],[-122.4784,44.7556],[-122.6198,44.7889],[-122.7984,44.7916],[-123.0068,44.6869],[-123.0615,44.748],[-123.1436,44.7497],[-123.0925,44.8135],[-123.1787,44.8336],[-123.1131,44.9286],[-123.0395,44.9517],[-123.07,45.0751],[-122.997,45.1198],[-123.0402,45.222],[-122.9627,45.2843],[-122.9004,45.2571],[-122.8497,45.2597],[-122.739,45.2595],[-122.7884,45.1301],[-122.5084,44.9198],[-122.3953,44.8857],[-121.7342,44.8858]]]}},{"type":"Feature","id":"41049","properties":{"name":"Morrow","fips":"41049"},"geometry":{"type":"Polygon","coordinates":[[[-119.8681,45.836],[-119.8027,45.8475],[-119.7729,45.8456],[-119.6699,45.8569],[-119.6234,45.9056],[-119.6005,45.9196],[-119.5716,45.9255],[-119.5246,45.9086],[-119.4878,45.9063],[-119.4321,45.9136],[-119.4346,45.6028],[-119.2482,45.6019],[-119.2483,45.5161],[-119.1454,45.5161],[-119.1464,45.083],[-119.1639,44.9959],[-119.6667,44.9935],[-119.672,44.9944],[-119.7911,44.9946],[-119.7904,45.0678],[-119.7601,45.1676],[-119.883,45.1697],[-119.882,45.256],[-120.0067,45.2575],[-119.9995,45.8122],[-119.8681,45.836]]]}},{"type":"Feature","id":"41051","properties":{"name":"Multnomah","fips":"41051"},"geometry":{"type":"Polygon","coordinates":[[[-122.249,45.5477],[-122.2017,45.5641],[-122.1837,45.5777],[-122.1407,45.5845],[-122.1295,45.5829],[-122.1295,45.583],[-122.1262,45.5826],[-122.1262,45.5826],[-122.1124,45.5814],[-122.1017,45.5835],[-121.983,45.6228],[-121.9222,45.6485],[-121.9067,45.5205],[-121.8204,45.4617],[-122.661,45.4578],[-122.6526,45.4457],[-122.6452,45.4416],[-122.6513,45.4365],[-122.6487,45.4327],[-122.7441,45.4333],[-122.7438,45.4404],[-122.7439,45.4428],[-122.7436,45.443],[-122.7436,45.4477],[-122.7438,45.4479],[-122.7438,45.452],[-122.7436,45.4549],[-122.7439,45.5195],[-122.7645,45.5297],[-122.9292,45.6339],[-122.929,45.7215],[-122.7622,45.7286],[-122.7725,45.6996],[-122.7745,45.6804],[-122.7638,45.6571],[-122.7381,45.6441],[-122.675,45.618],[-122.6439,45.6097],[-122.4923,45.5833],[-122.3803,45.5759],[-122.3528,45.5694],[-122.3315,45.5482],[-122.2949,45.5435],[-122.2667,45.5438],[-122.249,45.5477]]]}},{"type":"Feature","id":"41053","properties":{"name":"Polk","fips":"41053"},"geometry":{"type":"Polygon","coordinates":[[[-123.1491,44.7203],[-123.3475,44.7201],[-123.5808,44.7194],[-123.6026,44.7212],[-123.7249,44.7391],[-123.7254,45.044],[-123.7242,45.0761],[-123.07,45.0751],[-123.0395,44.9517],[-123.1131,44.9286],[-123.1787,44.8336],[-123.0925,44.8135],[-123.1436,44.7497],[-123.1335,44.7387],[-123.1504,44.7276],[-123.1491,44.7203]]]}},{"type":"Feature","id":"41055","properties":{"name":"Sherman","fips":"41055"},"geometry":{"type":"Polygon","coordinates":[[[-120.5035,45.0829],[-120.7298,45.0838],[-120.7236,45.1309],[-120.8894,45.2023],[-121.0241,45.2187],[-121.0312,45.2859],[-120.9565,45.3103],[-120.8686,45.4011],[-120.8253,45.5138],[-120.882,45.5276],[-120.9159,45.6413],[-120.87,45.6612],[-120.8557,45.6715],[-120.7889,45.6862],[-120.6894,45.7158],[-120.6689,45.7301],[-120.6536,45.7372],[-120.3578,45.5339],[-120.4959,45.4653],[-120.5251,45.4052],[-120.5403,45.217],[-120.4813,45.1927],[-120.4625,45.1011],[-120.5035,45.0829]]]}},{"type":"Feature","id":"41057","properties":{"name":"Tillamook","fips":"41057"},"geometry":{"type":"Polygon","coordinates":[[[-123.9693,45.7832],[-123.7193,45.7732],[-123.361,45.7797],[-123.3609,45.7087],[-123.4847,45.6793],[-123.2994,45.6073],[-123.4427,45.5212],[-123.4649,45.4338],[-123.4633,45.2163],[-123.7844,45.216],[-123.7848,45.0763],[-123.7242,45.0761],[-123.7254,45.044],[-124.0046,45.045],[-124.0044,45.0462],[-124.0047,45.0482],[-124.0098,45.0473],[-124.018,45.0498],[-124.0159,45.0648],[-124.0122,45.0769],[-124.0061,45.0847],[-124.0049,45.0842],[-123.9895,45.094],[-123.9754,45.1455],[-123.9682,45.2012],[-123.9729,45.2168],[-123.9629,45.2802],[-123.9642,45.317],[-123.9729,45.3369],[-123.9787,45.3389],[-124.0078,45.3368],[-124.0075,45.3397],[-123.9797,45.3477],[-123.9734,45.3548],[-123.9657,45.3862],[-123.9606,45.4308],[-123.9641,45.4491],[-123.973,45.4675],[-123.9765,45.4897],[-123.9708,45.4935],[-123.9663,45.4934],[-123.9576,45.5104],[-123.9476,45.5649],[-123.9567,45.5713],[-123.9512,45.5858],[-123.939,45.6619],[-123.9394,45.7088],[-123.9431,45.727],[-123.946,45.7332],[-123.9686,45.757],[-123.9826,45.7618],[-123.9819,45.7683],[-123.9695,45.7824],[-123.9693,45.7832]]]}},{"type":"Feature","id":"41059","properties":{"name":"Umatilla","fips":"41059"},"geometry":{"type":"Polygon","coordinates":[[[-117.9969,46.0008],[-117.9778,46.0007],[-117.9777,45.8606],[-117.9729,45.8606],[-117.9737,45.817],[-118.045,45.8171],[-118.0668,45.6884],[-118.1172,45.6885],[-118.1171,45.4708],[-118.1982,45.4705],[-118.198,45.4272],[-118.4285,45.429],[-118.4283,45.3552],[-118.6977,45.3452],[-118.6968,45.2577],[-118.6558,45.1969],[-118.5467,45.197],[-118.5486,45.0808],[-118.5191,44.996],[-119.1639,44.9959],[-119.1464,45.083],[-119.1454,45.5161],[-119.2483,45.5161],[-119.2482,45.6019],[-119.4346,45.6028],[-119.4321,45.9136],[-119.3761,45.921],[-119.3225,45.9332],[-119.2571,45.9399],[-119.2257,45.9327],[-119.1955,45.9279],[-119.1695,45.9276],[-119.1261,45.9329],[-119.0932,45.9427],[-119.0271,45.9691],[-119.0086,45.9793],[-118.9871,45.9999],[-118.6779,46.0009],[-118.6587,46.001],[-118.6393,46.001],[-118.6377,46.001],[-118.5799,46.0008],[-118.5757,46.0007],[-118.5694,46.0008],[-118.5371,46.0008],[-118.497,46.0006],[-118.4708,46.0006],[-118.3784,46.0006],[-118.3678,46.0006],[-118.315,46.0005],[-118.2564,46.0004],[-118.2525,46.0005],[-118.2366,46.0004],[-118.2289,46.0004],[-118.131,46.0003],[-118.1262,46.0003],[-117.9969,46.0008]]]}},{"type":"Feature","id":"41061","properties":{"name":"Union","fips":"41061"},"geometry":{"type":"Polygon","coordinates":[[[-118.5191,44.996],[-118.5486,45.0808],[-118.5467,45.197],[-118.6558,45.1969],[-118.6968,45.2577],[-118.6977,45.3452],[-118.4283,45.3552],[-118.4285,45.429],[-118.198,45.4272],[-118.1982,45.4705],[-118.1171,45.4708],[-118.1172,45.6885],[-118.0668,45.6884],[-118.045,45.8171],[-117.9737,45.817],[-117.9729,45.8606],[-117.7473,45.861],[-117.7471,45.7733],[-117.7882,45.7737],[-117.7876,45.6896],[-117.7271,45.6173],[-117.7273,45.5147],[-117.684,45.5151],[-117.6636,45.3658],[-117.583,45.3383],[-117.5219,45.2678],[-117.477,45.1653],[-117.2672,45.1659],[-117.2666,45.0808],[-117.5631,45.0796],[-117.5637,44.9928],[-117.7775,44.9922],[-117.8434,45.0585],[-117.9692,44.9958],[-118.1303,45.0451],[-118.2448,44.9583],[-118.5191,44.996]]]}},{"type":"Feature","id":"41063","properties":{"name":"Wallowa","fips":"41063"},"geometry":{"type":"Polygon","coordinates":[[[-117.6032,45.9989],[-117.5048,45.9983],[-117.4801,45.9979],[-117.4801,45.9979],[-117.4754,45.9979],[-117.4751,45.9979],[-117.2167,45.9984],[-117.2145,45.9983],[-117.2126,45.9983],[-116.916,45.9954],[-116.8751,45.9422],[-116.8665,45.917],[-116.8573,45.9042],[-116.7964,45.8538],[-116.7891,45.8477],[-116.6334,45.7847],[-116.5942,45.7791],[-116.5481,45.7524],[-116.5357,45.7342],[-116.538,45.7149],[-116.5354,45.6917],[-116.5283,45.6815],[-116.5109,45.6681],[-116.4891,45.6511],[-116.4715,45.6285],[-116.4635,45.6158],[-116.4636,45.6028],[-116.4812,45.5806],[-116.5535,45.4991],[-116.6738,45.3215],[-116.6912,45.2692],[-116.696,45.2547],[-116.7095,45.203],[-116.7296,45.1421],[-116.7839,45.079],[-117.2666,45.0808],[-117.2672,45.1659],[-117.477,45.1653],[-117.5219,45.2678],[-117.583,45.3383],[-117.6636,45.3658],[-117.684,45.5151],[-117.7273,45.5147],[-117.7271,45.6173],[-117.7876,45.6896],[-117.7882,45.7737],[-117.7471,45.7733],[-117.7473,45.861],[-117.9729,45.8606],[-117.9777,45.8606],[-117.9778,46.0007],[-117.6032,45.9989]]]}},{"type":"Feature","id":"41065","properties":{"name":"Wasco","fips":"41065"},"geometry":{"type":"Polygon","coordinates":[[[-121.7342,44.8858],[-121.8051,45.0113],[-121.6594,45.0665],[-121.746,45.1863],[-121.7016,45.2302],[-121.6826,45.229],[-121.681,45.2508],[-121.6968,45.258],[-121.4815,45.2583],[-121.4825,45.5196],[-121.4406,45.5193],[-121.441,45.6973],[-121.4236,45.694],[-121.4017,45.6929],[-121.3726,45.7031],[-121.3378,45.7049],[-121.3122,45.6999],[-121.2158,45.6712],[-121.2004,45.6498],[-121.1952,45.6295],[-121.0867,45.6467],[-121.0644,45.6525],[-120.944,45.6564],[-120.9159,45.6413],[-120.882,45.5276],[-120.8253,45.5138],[-120.8686,45.4011],[-120.9565,45.3103],[-121.0312,45.2859],[-121.0241,45.2187],[-120.8894,45.2023],[-120.7236,45.1309],[-120.7298,45.0838],[-120.5035,45.0829],[-120.4945,45.0746],[-120.4952,45.0685],[-120.4554,44.866],[-120.3714,44.8216],[-121.7595,44.8256],[-121.7494,44.8335],[-121.7421,44.8453],[-121.7425,44.8531],[-121.7511,44.857],[-121.7532,44.8612],[-121.7456,44.8754],[-121.7338,44.8817],[-121.7342,44.8858]]]}},{"type":"Feature","id":"41067","properties":{"name":"Washington","fips":"41067"},"geometry":{"type":"Polygon","coordinates":[[[-122.7645,45.5297],[-122.7439,45.5195],[-122.7436,45.4549],[-122.7438,45.452],[-122.7438,45.4479],[-122.7436,45.4477],[-122.7436,45.443],[-122.7439,45.4428],[-122.7438,45.4404],[-122.7441,45.4333],[-122.7437,45.332],[-122.868,45.3174],[-123.1353,45.4333],[-123.4649,45.4338],[-123.4427,45.5212],[-123.2994,45.6073],[-123.4847,45.6793],[-123.3609,45.7087],[-123.361,45.7797],[-123.031,45.7792],[-122.929,45.7215],[-122.9292,45.6339],[-122.7645,45.5297]]]}},{"type":"Feature","id":"41069","properties":{"name":"Wheeler","fips":"41069"},"geometry":{"type":"Polygon","coordinates":[[[-120.3714,44.8216],[-120.4554,44.866],[-120.4952,45.0685],[-119.7904,45.0678],[-119.7911,44.9946],[-119.672,44.9944],[-119.6521,44.8232],[-119.6556,44.307],[-119.8988,44.3067],[-119.899,44.3895],[-120.0207,44.3897],[-120.0218,44.4386],[-120.3858,44.4376],[-120.3855,44.564],[-120.3714,44.8216]]]}},{"type":"Feature","id":"41071","properties":{"name":"Yamhill","fips":"41071"},"geometry":{"type":"Polygon","coordinates":[[[-122.8497,45.2597],[-122.9004,45.2571],[-122.9627,45.2843],[-123.0402,45.222],[-122.997,45.1198],[-123.07,45.0751],[-123.7242,45.0761],[-123.7848,45.0763],[-123.7844,45.216],[-123.4633,45.2163],[-123.4649,45.4338],[-123.1353,45.4333],[-122.868,45.3174],[-122.8678,45.2596],[-122.8497,45.2597]]]}}]}