{"type":"FeatureCollection","features":[{"type":"Feature","id":"42001","properties":{"name":"Adams","fips":"42001"},"geometry":{"type":"Polygon","coordinates":[[[-77.2552,40.0208],[-77.1374,40.0699],[-77.0186,40.0139],[-76.9549,39.8569],[-76.9984,39.8321],[-76.9995,39.7201],[-77.0471,39.72],[-77.0582,39.7202],[-77.0589,39.7201],[-77.2168,39.72],[-77.217,39.72],[-77.2398,39.72],[-77.2433,39.72],[-77.4594,39.72],[-77.4711,39.9441],[-77.4038,39.9944],[-77.2552,40.0208]]]}},{"type":"Feature","id":"42003","properties":{"name":"Allegheny","fips":"42003"},"geometry":{"type":"Polygon","coordinates":[[[-79.7016,40.5254],[-79.702,40.5238],[-79.7021,40.4896],[-79.7038,40.4435],[-79.7047,40.4272],[-79.7222,40.4091],[-79.7837,40.3159],[-79.7879,40.2977],[-79.7751,40.2879],[-79.7818,40.2277],[-79.8706,40.1974],[-79.8819,40.1965],[-79.889,40.1948],[-79.8933,40.1944],[-79.9126,40.1978],[-79.9279,40.2068],[-79.9561,40.2136],[-79.9683,40.2238],[-79.9707,40.2318],[-79.9648,40.2377],[-79.9521,40.2409],[-80.0337,40.288],[-80.1831,40.3325],[-80.3609,40.4775],[-80.3608,40.4776],[-80.2286,40.5731],[-80.1449,40.6135],[-80.1485,40.6743],[-79.6929,40.6697],[-79.6926,40.6697],[-79.7654,40.5499],[-79.7016,40.5254]]]}},{"type":"Feature","id":"42005","properties":{"name":"Armstrong","fips":"42005"},"geometry":{"type":"Polygon","coordinates":[[[-79.2153,40.9113],[-79.2152,40.7759],[-79.2515,40.7378],[-79.4502,40.5301],[-79.5611,40.5641],[-79.6381,40.6656],[-79.6926,40.6697],[-79.6929,40.6697],[-79.6924,40.6729],[-79.6928,40.6746],[-79.6926,40.6888],[-79.6923,40.7167],[-79.69,40.7414],[-79.6907,41.1707],[-79.6184,40.9741],[-79.285,41.0093],[-79.2152,41.0505],[-79.2153,40.9113]]]}},{"type":"Feature","id":"42007","properties":{"name":"Beaver","fips":"42007"},"geometry":{"type":"Polygon","coordinates":[[[-80.5191,40.5179],[-80.5191,40.5179],[-80.5191,40.5902],[-80.5191,40.5902],[-80.5191,40.6164],[-80.519,40.6164],[-80.519,40.6388],[-80.5191,40.7923],[-80.519,40.8012],[-80.5191,40.8492],[-80.519,40.8501],[-80.519,40.8513],[-80.1585,40.8552],[-80.1488,40.6764],[-80.1485,40.6743],[-80.1449,40.6135],[-80.2286,40.5731],[-80.3608,40.4776],[-80.3609,40.4775],[-80.4481,40.4777],[-80.5187,40.4774],[-80.5191,40.5179]]]}},{"type":"Feature","id":"42009","properties":{"name":"Bedford","fips":"42009"},"geometry":{"type":"Polygon","coordinates":[[[-78.6204,40.327],[-78.4479,40.2444],[-78.4343,40.3023],[-78.2888,40.2421],[-78.2573,40.2979],[-78.2363,40.2246],[-78.1349,40.1651],[-78.299,39.8255],[-78.3806,39.7226],[-78.8084,39.7227],[-78.7572,39.8235],[-78.7632,40.057],[-78.6584,40.2429],[-78.6204,40.327]]]}},{"type":"Feature","id":"42011","properties":{"name":"Berks","fips":"42011"},"geometry":{"type":"Polygon","coordinates":[[[-75.7394,40.5799],[-75.738,40.5791],[-75.6943,40.5511],[-75.6822,40.5436],[-75.5297,40.447],[-75.696,40.2424],[-75.6968,40.2419],[-75.7299,40.2245],[-75.8734,40.1371],[-75.8752,40.1381],[-76.0918,40.2777],[-76.1495,40.3145],[-76.1512,40.316],[-76.152,40.3165],[-76.4402,40.496],[-76.1716,40.5349],[-76.0122,40.5777],[-75.9962,40.63],[-75.9932,40.6397],[-75.8915,40.6773],[-75.7667,40.597],[-75.7394,40.5799]]]}},{"type":"Feature","id":"42013","properties":{"name":"Blair","fips":"42013"},"geometry":{"type":"Polygon","coordinates":[[[-78.5423,40.4689],[-78.3504,40.7248],[-78.3599,40.7326],[-78.1318,40.743],[-78.1165,40.7391],[-78.222,40.6745],[-78.1971,40.5584],[-78.1301,40.482],[-78.2573,40.2979],[-78.2888,40.2421],[-78.4343,40.3023],[-78.4479,40.2444],[-78.6204,40.327],[-78.5641,40.3706],[-78.5423,40.4689]]]}},{"type":"Feature","id":"42015","properties":{"name":"Bradford","fips":"42015"},"geometry":{"type":"Polygon","coordinates":[[[-76.8747,41.5969],[-76.8787,41.6203],[-76.8835,41.6663],[-76.8932,41.7485],[-76.9271,42.0017],[-76.9219,42.0017],[-76.9208,42.0018],[-76.8351,42.0018],[-76.8159,42.0017],[-76.5581,42.0002],[-76.5576,42.0001],[-76.4665,41.999],[-76.4622,41.9989],[-76.3499,41.9984],[-76.3437,41.9983],[-76.1455,41.9989],[-76.1152,41.6518],[-76.198,41.6478],[-76.2201,41.5413],[-76.8137,41.59],[-76.8747,41.5969]]]}},{"type":"Feature","id":"42017","properties":{"name":"Bucks","fips":"42017"},"geometry":{"type":"Polygon","coordinates":[[[-75.1069,40.1923],[-75.2998,40.3078],[-75.4841,40.4185],[-75.4097,40.488],[-75.3679,40.5146],[-75.3666,40.5154],[-75.3386,40.5341],[-75.3335,40.5371],[-75.1968,40.6086],[-75.1909,40.5913],[-75.1902,40.5893],[-75.1474,40.5732],[-75.1354,40.5756],[-75.1173,40.5732],[-75.1003,40.5678],[-75.0686,40.5422],[-75.0673,40.5364],[-75.0651,40.5261],[-75.0659,40.5195],[-75.0706,40.4552],[-75.0615,40.4228],[-75.0588,40.4181],[-75.0355,40.4063],[-75.0248,40.4035],[-74.938,40.3406],[-74.8605,40.2846],[-74.7707,40.2149],[-74.7586,40.2013],[-74.7223,40.1606],[-74.7216,40.1538],[-74.7242,40.1473],[-74.7243,40.147],[-74.7406,40.1352],[-74.838,40.1009],[-74.9002,40.0771],[-74.9743,40.0489],[-74.9849,40.0573],[-74.9713,40.0737],[-74.9588,40.0825],[-74.9562,40.0957],[-74.9613,40.0975],[-74.965,40.1186],[-74.9819,40.1202],[-75.0059,40.1325],[-75.0085,40.134],[-75.0151,40.138],[-75.1049,40.1911],[-75.1069,40.1923]]]}},{"type":"Feature","id":"42019","properties":{"name":"Butler","fips":"42019"},"geometry":{"type":"Polygon","coordinates":[[[-80.16,40.8869],[-80.1653,41.0005],[-80.0969,41.0698],[-79.9998,41.1719],[-79.695,41.1729],[-79.6924,41.172],[-79.6907,41.1707],[-79.69,40.7414],[-79.6923,40.7167],[-79.6926,40.6888],[-79.6928,40.6746],[-79.6924,40.6729],[-79.6929,40.6697],[-80.1485,40.6743],[-80.1488,40.6764],[-80.1585,40.8552],[-80.16,40.8869]]]}},{"type":"Feature","id":"42021","properties":{"name":"Cambria","fips":"42021"},"geometry":{"type":"Polygon","coordinates":[[[-78.7686,40.2434],[-78.8849,40.2446],[-78.9276,40.285],[-79.056,40.2851],[-78.9746,40.396],[-78.9227,40.4838],[-78.8969,40.5332],[-78.8601,40.6047],[-78.8467,40.6356],[-78.8017,40.7245],[-78.7127,40.7244],[-78.5137,40.726],[-78.3504,40.7248],[-78.5423,40.4689],[-78.5641,40.3706],[-78.6204,40.327],[-78.6584,40.2429],[-78.7603,40.2432],[-78.7686,40.2434]]]}},{"type":"Feature","id":"42023","properties":{"name":"Cameron","fips":"42023"},"geometry":{"type":"Polygon","coordinates":[[[-78.0934,41.2169],[-78.2368,41.2305],[-78.254,41.4047],[-78.42,41.405],[-78.4191,41.6022],[-78.4193,41.6169],[-78.2034,41.6182],[-78.0504,41.4755],[-77.9892,41.4748],[-77.9888,41.3675],[-78.0934,41.2169]]]}},{"type":"Feature","id":"42025","properties":{"name":"Carbon","fips":"42025"},"geometry":{"type":"Polygon","coordinates":[[[-75.9973,40.913],[-75.7319,41.0082],[-75.772,41.0768],[-75.6496,41.1223],[-75.496,40.9872],[-75.5746,40.9513],[-75.4742,40.8147],[-75.609,40.7874],[-75.7578,40.7354],[-75.9973,40.913]]]}},{"type":"Feature","id":"42027","properties":{"name":"Centre","fips":"42027"},"geometry":{"type":"Polygon","coordinates":[[[-77.6678,40.7353],[-77.6813,40.7298],[-77.8245,40.7437],[-77.9442,40.6916],[-78.1165,40.7391],[-78.1318,40.743],[-78.3599,40.7326],[-78.3765,40.7544],[-78.2492,40.8554],[-78.1681,40.9609],[-78.0777,40.9588],[-78.0563,41.0042],[-78.1122,41.1142],[-78.0382,41.1536],[-77.8982,41.2528],[-77.8927,41.1783],[-77.7986,41.182],[-77.7419,41.1076],[-77.6218,41.0912],[-77.5086,40.9629],[-77.1442,41.0443],[-77.3642,40.8469],[-77.6678,40.7353]]]}},{"type":"Feature","id":"42029","properties":{"name":"Chester","fips":"42029"},"geometry":{"type":"Polygon","coordinates":[[[-75.3611,40.0655],[-75.415,40.0418],[-75.4358,39.9851],[-75.5625,39.9016],[-75.5948,39.8373],[-75.5958,39.8372],[-75.6347,39.8302],[-75.6415,39.8284],[-75.6628,39.8212],[-75.686,39.8111],[-75.717,39.792],[-75.7397,39.7726],[-75.7884,39.7218],[-75.7996,39.7219],[-75.8101,39.7219],[-76.0131,39.7219],[-76.0276,39.7218],[-76.1356,39.7216],[-76.0667,39.76],[-75.9916,39.8687],[-75.9851,39.9379],[-75.943,40.1093],[-75.8734,40.1371],[-75.7299,40.2245],[-75.6968,40.2419],[-75.5927,40.2255],[-75.5733,40.1953],[-75.5629,40.1974],[-75.5571,40.2072],[-75.5492,40.1895],[-75.5259,40.1486],[-75.3611,40.0655]]]}},{"type":"Feature","id":"42031","properties":{"name":"Clarion","fips":"42031"},"geometry":{"type":"Polygon","coordinates":[[[-79.6042,41.3215],[-79.4781,41.3357],[-79.4778,41.3865],[-79.4003,41.4361],[-79.2072,41.4309],[-79.2089,41.3319],[-79.2152,41.0505],[-79.285,41.0093],[-79.6184,40.9741],[-79.6907,41.1707],[-79.6924,41.172],[-79.695,41.1729],[-79.6042,41.3215]]]}},{"type":"Feature","id":"42033","properties":{"name":"Clearfield","fips":"42033"},"geometry":{"type":"Polygon","coordinates":[[[-78.5137,40.726],[-78.7127,40.7244],[-78.8017,40.7245],[-78.8064,40.845],[-78.8052,40.906],[-78.8045,41.1322],[-78.7102,41.2019],[-78.6467,41.2538],[-78.2368,41.2305],[-78.0934,41.2169],[-78.061,41.1745],[-78.0382,41.1536],[-78.1122,41.1142],[-78.0563,41.0042],[-78.0777,40.9588],[-78.1681,40.9609],[-78.2492,40.8554],[-78.3765,40.7544],[-78.3599,40.7326],[-78.3504,40.7248],[-78.5137,40.726]]]}},{"type":"Feature","id":"42035","properties":{"name":"Clinton","fips":"42035"},"geometry":{"type":"Polygon","coordinates":[[[-77.9892,41.4748],[-77.5981,41.4786],[-77.5265,41.3585],[-77.3209,41.2189],[-77.1441,41.0688],[-77.1437,41.0458],[-77.1442,41.0443],[-77.5086,40.9629],[-77.6218,41.0912],[-77.7419,41.1076],[-77.7986,41.182],[-77.8927,41.1783],[-77.8982,41.2528],[-78.0382,41.1536],[-78.061,41.1745],[-78.0934,41.2169],[-77.9888,41.3675],[-77.9892,41.4748]]]}},{"type":"Feature","id":"42037","properties":{"name":"Columbia","fips":"42037"},"geometry":{"type":"Polygon","coordinates":[[[-76.4635,41.2626],[-76.4608,41.2648],[-76.4476,41.2756],[-76.4079,41.3084],[-76.3101,41.3102],[-76.3179,41.2054],[-76.229,41.1385],[-76.2078,40.9497],[-76.2846,40.8836],[-76.3072,40.8018],[-76.3802,40.7755],[-76.4097,40.8336],[-76.5013,40.8248],[-76.528,40.8825],[-76.515,40.959],[-76.619,41.0638],[-76.6408,41.1557],[-76.5926,41.1578],[-76.4635,41.2626]]]}},{"type":"Feature","id":"42039","properties":{"name":"Crawford","fips":"42039"},"geometry":{"type":"Polygon","coordinates":[[[-79.6126,41.775],[-79.6129,41.6239],[-79.6129,41.6171],[-79.748,41.6177],[-79.8289,41.6221],[-79.9998,41.49],[-80.1253,41.4804],[-80.5192,41.489],[-80.5192,41.4999],[-80.5192,41.5288],[-80.5193,41.5393],[-80.5194,41.6698],[-80.5194,41.6712],[-80.5194,41.7015],[-80.5194,41.7394],[-80.5194,41.7525],[-80.5192,41.7651],[-80.5193,41.8496],[-79.6121,41.8501],[-79.6126,41.775]]]}},{"type":"Feature","id":"42041","properties":{"name":"Cumberland","fips":"42041"},"geometry":{"type":"Polygon","coordinates":[[[-77.1374,40.0699],[-77.2552,40.0208],[-77.4038,39.9944],[-77.4711,39.9441],[-77.6147,40.1985],[-77.366,40.3136],[-77.4198,40.2641],[-77.2805,40.2759],[-77.2701,40.2787],[-77.2417,40.2828],[-77.2292,40.2837],[-77.0839,40.3012],[-76.915,40.3285],[-76.859,40.2263],[-76.9059,40.1657],[-77.0289,40.1478],[-77.1374,40.0699]]]}},{"type":"Feature","id":"42043","properties":{"name":"Dauphin","fips":"42043"},"geometry":{"type":"Polygon","coordinates":[[[-76.915,40.3285],[-76.9173,40.3327],[-76.9262,40.341],[-76.9285,40.348],[-76.9336,40.356],[-77.0286,40.3912],[-76.9494,40.469],[-76.9919,40.5615],[-76.9837,40.5783],[-76.9574,40.5947],[-76.9494,40.6282],[-76.8909,40.6101],[-76.7016,40.6581],[-76.7016,40.658],[-76.7015,40.658],[-76.7009,40.6577],[-76.6989,40.6565],[-76.6982,40.6561],[-76.6969,40.6553],[-76.6931,40.6531],[-76.6919,40.6523],[-76.6916,40.6521],[-76.6907,40.6516],[-76.6906,40.6514],[-76.6905,40.6514],[-76.6904,40.6514],[-76.6904,40.6513],[-76.6903,40.6513],[-76.6902,40.6512],[-76.6902,40.6512],[-76.6899,40.6511],[-76.6899,40.651],[-76.6878,40.6497],[-76.685,40.6479],[-76.6817,40.6458],[-76.6797,40.6445],[-76.6784,40.6437],[-76.6743,40.6411],[-76.6731,40.6403],[-76.673,40.6403],[-76.673,40.6402],[-76.6729,40.6402],[-76.6728,40.6402],[-76.6715,40.6393],[-76.6688,40.6376],[-76.667,40.6365],[-76.6655,40.6356],[-76.6654,40.6355],[-76.6651,40.6354],[-76.6639,40.6346],[-76.6636,40.6344],[-76.6636,40.6344],[-76.6628,40.6339],[-76.6604,40.6325],[-76.6596,40.632],[-76.6582,40.6311],[-76.6558,40.6296],[-76.6538,40.6284],[-76.6524,40.6275],[-76.6502,40.6262],[-76.6483,40.6251],[-76.6437,40.6223],[-76.6416,40.621],[-76.6415,40.621],[-76.6414,40.6209],[-76.6413,40.6208],[-76.6412,40.6208],[-76.6412,40.6208],[-76.6411,40.6207],[-76.6411,40.6207],[-76.6408,40.6205],[-76.6399,40.6199],[-76.6397,40.6198],[-76.6396,40.6198],[-76.637,40.6182],[-76.6294,40.6134],[-76.6269,40.6118],[-76.6265,40.6116],[-76.6253,40.6108],[-76.6249,40.6106],[-76.6247,40.6104],[-76.6237,40.6098],[-76.6229,40.6093],[-76.62,40.6075],[-76.6187,40.6067],[-76.6184,40.6065],[-76.6172,40.6057],[-76.6168,40.6055],[-76.6168,40.6055],[-76.6167,40.6054],[-76.6165,40.6053],[-76.6154,40.6046],[-76.6151,40.6044],[-76.6146,40.6041],[-76.6145,40.604],[-76.6128,40.6028],[-76.6124,40.6026],[-76.6122,40.6025],[-76.6121,40.6024],[-76.612,40.6024],[-76.612,40.6024],[-76.6096,40.6009],[-76.6093,40.6007],[-76.6079,40.5999],[-76.6013,40.5957],[-76.6001,40.595],[-76.5986,40.5941],[-76.5983,40.5939],[-76.5975,40.5934],[-76.5972,40.5932],[-76.597,40.5931],[-76.5964,40.5927],[-76.5962,40.5926],[-76.5943,40.5913],[-76.5884,40.5876],[-76.5864,40.5863],[-76.5858,40.586],[-76.5845,40.5851],[-76.584,40.5848],[-76.5834,40.5845],[-76.5831,40.5843],[-76.5823,40.5838],[-76.582,40.5836],[-76.5817,40.5834],[-76.5808,40.5829],[-76.5805,40.5827],[-76.5798,40.5823],[-76.5778,40.5811],[-76.5771,40.5807],[-76.5771,40.5807],[-76.5756,40.5798],[-76.5752,40.5796],[-76.5718,40.5775],[-76.571,40.577],[-76.5695,40.5761],[-76.5694,40.5761],[-76.5687,40.5756],[-76.5664,40.5742],[-76.5656,40.5737],[-76.5655,40.5736],[-76.5651,40.5734],[-76.5649,40.5733],[-76.5644,40.573],[-76.5631,40.5721],[-76.5626,40.5719],[-76.5626,40.5719],[-76.5609,40.5708],[-76.5607,40.5707],[-76.5564,40.568],[-76.5551,40.5673],[-76.5533,40.5661],[-76.5523,40.5655],[-76.5494,40.5638],[-76.5485,40.5632],[-76.5481,40.563],[-76.5471,40.5623],[-76.5468,40.5621],[-76.5451,40.5611],[-76.5451,40.5611],[-76.5432,40.5599],[-76.5399,40.5579],[-76.5381,40.5569],[-76.5376,40.5565],[-76.536,40.5555],[-76.5354,40.5552],[-76.678,40.4747],[-76.5663,40.1966],[-76.7216,40.1201],[-76.859,40.2263],[-76.915,40.3285]]]}},{"type":"Feature","id":"42045","properties":{"name":"Delaware","fips":"42045"},"geometry":{"type":"Polygon","coordinates":[[[-75.5625,39.9016],[-75.4358,39.9851],[-75.415,40.0418],[-75.3611,40.0655],[-75.3565,40.0628],[-75.3495,40.0529],[-75.2765,39.977],[-75.2625,39.8766],[-75.2405,39.8724],[-75.2157,39.8761],[-75.211,39.8657],[-75.235,39.8566],[-75.2712,39.8494],[-75.3065,39.8498],[-75.3746,39.8258],[-75.3902,39.8165],[-75.415,39.8018],[-75.428,39.8092],[-75.4537,39.8203],[-75.4988,39.8333],[-75.5393,39.8382],[-75.5798,39.8385],[-75.5799,39.8385],[-75.5931,39.8375],[-75.5937,39.8375],[-75.5948,39.8373],[-75.5625,39.9016]]]}},{"type":"Feature","id":"42047","properties":{"name":"Elk","fips":"42047"},"geometry":{"type":"Polygon","coordinates":[[[-78.956,41.6234],[-78.9561,41.6239],[-78.4834,41.6299],[-78.4191,41.6022],[-78.42,41.405],[-78.254,41.4047],[-78.2368,41.2305],[-78.6467,41.2538],[-78.7102,41.2019],[-78.7353,41.2629],[-78.9745,41.3755],[-79.0951,41.3407],[-79.0635,41.4532],[-78.959,41.4371],[-78.956,41.6234]]]}},{"type":"Feature","id":"42049","properties":{"name":"Erie","fips":"42049"},"geometry":{"type":"Polygon","coordinates":[[[-79.6108,41.999],[-79.6121,41.8501],[-80.5193,41.8496],[-80.5193,41.9292],[-80.5193,41.944],[-80.5194,41.9762],[-80.5194,41.9775],[-80.5194,41.9775],[-80.4355,42.0056],[-80.4098,42.0116],[-80.3731,42.0241],[-80.3719,42.024],[-80.3633,42.028],[-80.3492,42.0302],[-80.33,42.0362],[-80.2968,42.0491],[-80.2305,42.078],[-80.1881,42.0943],[-80.1659,42.1059],[-80.1541,42.1148],[-80.1362,42.1499],[-80.1304,42.1563],[-80.1174,42.1663],[-80.0885,42.1732],[-80.0774,42.1713],[-80.0734,42.1687],[-80.08,42.1636],[-80.072,42.1554],[-80.0788,42.1515],[-80.0763,42.1479],[-80.072,42.1461],[-80.0611,42.1449],[-79.9892,42.1771],[-79.9313,42.2067],[-79.9239,42.2075],[-79.901,42.2167],[-79.8862,42.2249],[-79.868,42.231],[-79.8447,42.2355],[-79.7984,42.2559],[-79.762,42.2699],[-79.762,42.2514],[-79.7622,42.2431],[-79.7618,42.1836],[-79.7619,42.1797],[-79.7619,42.1733],[-79.7618,42.1627],[-79.7619,42.1507],[-79.7621,42.1312],[-79.7614,41.9991],[-79.6253,41.999],[-79.6253,41.9991],[-79.6108,41.999]]]}},{"type":"Feature","id":"42051","properties":{"name":"Fayette","fips":"42051"},"geometry":{"type":"Polygon","coordinates":[[[-79.4767,39.7211],[-79.6082,39.7212],[-79.6106,39.7212],[-79.7638,39.7208],[-79.8529,39.7207],[-79.8531,39.7207],[-79.9163,39.7208],[-79.9153,39.8803],[-79.998,39.9833],[-79.877,40.0368],[-79.8774,40.1268],[-79.7222,40.1211],[-79.6411,40.0883],[-79.5926,40.092],[-79.579,40.1055],[-79.5403,40.114],[-79.5052,40.1406],[-79.4794,40.1428],[-79.457,40.1351],[-79.2937,40.0404],[-79.2943,40.0394],[-79.2961,40.0367],[-79.3015,40.0299],[-79.3028,40.0285],[-79.3252,39.9999],[-79.3304,39.9928],[-79.3474,39.9695],[-79.4176,39.8538],[-79.3657,39.8205],[-79.3925,39.7213],[-79.4767,39.7211]]]}},{"type":"Feature","id":"42053","properties":{"name":"Forest","fips":"42053"},"geometry":{"type":"Polygon","coordinates":[[[-79.4027,41.626],[-78.956,41.6234],[-78.959,41.4371],[-79.0635,41.4532],[-79.0951,41.3407],[-79.2089,41.3319],[-79.2072,41.4309],[-79.4003,41.4361],[-79.4778,41.3865],[-79.5123,41.4652],[-79.5121,41.6246],[-79.4027,41.626]]]}},{"type":"Feature","id":"42055","properties":{"name":"Franklin","fips":"42055"},"geometry":{"type":"Polygon","coordinates":[[[-77.703,40.2636],[-77.6852,40.2763],[-77.6718,40.2898],[-77.6147,40.1985],[-77.4711,39.9441],[-77.4594,39.72],[-77.4691,39.72],[-77.5334,39.7202],[-77.5348,39.7201],[-77.6722,39.7208],[-77.6745,39.7208],[-77.7241,39.7209],[-77.7326,39.7211],[-77.7432,39.7212],[-77.7685,39.7214],[-78.0737,39.7223],[-78.0758,39.7223],[-78.0991,39.7223],[-78.0027,39.8266],[-77.921,40.0005],[-77.8645,40.0616],[-77.703,40.2636]]]}},{"type":"Feature","id":"42057","properties":{"name":"Fulton","fips":"42057"},"geometry":{"type":"Polygon","coordinates":[[[-78.3425,39.7225],[-78.3428,39.7225],[-78.3806,39.7226],[-78.299,39.8255],[-78.1349,40.1651],[-77.9259,40.1019],[-77.8645,40.0616],[-77.921,40.0005],[-78.0027,39.8266],[-78.0991,39.7223],[-78.2029,39.7224],[-78.2044,39.7225],[-78.2403,39.7225],[-78.2431,39.7225],[-78.2689,39.7226],[-78.269,39.7226],[-78.3307,39.7227],[-78.3371,39.7225],[-78.3395,39.7226],[-78.3405,39.7225],[-78.3425,39.7225]]]}},{"type":"Feature","id":"42059","properties":{"name":"Greene","fips":"42059"},"geometry":{"type":"Polygon","coordinates":[[[-79.9163,39.7208],[-80.3087,39.7213],[-80.3095,39.7213],[-80.4214,39.7212],[-80.5193,39.7214],[-80.5192,39.937],[-80.5191,39.9392],[-80.5192,39.9566],[-80.5192,39.9594],[-80.5192,39.9622],[-80.3795,39.9941],[-80.1573,39.9996],[-79.998,39.9833],[-79.9153,39.8803],[-79.9163,39.7208]]]}},{"type":"Feature","id":"42061","properties":{"name":"Huntingdon","fips":"42061"},"geometry":{"type":"Polygon","coordinates":[[[-78.1165,40.7391],[-77.9442,40.6916],[-77.8245,40.7437],[-77.6813,40.7298],[-77.6871,40.6767],[-77.8418,40.55],[-77.8165,40.5001],[-77.9138,40.3987],[-77.7521,40.3785],[-77.703,40.2636],[-77.8645,40.0616],[-77.9259,40.1019],[-78.1349,40.1651],[-78.2363,40.2246],[-78.2573,40.2979],[-78.1301,40.482],[-78.1971,40.5584],[-78.222,40.6745],[-78.1165,40.7391]]]}},{"type":"Feature","id":"42063","properties":{"name":"Indiana","fips":"42063"},"geometry":{"type":"Polygon","coordinates":[[[-78.8467,40.6356],[-78.8601,40.6047],[-78.8969,40.5332],[-78.9227,40.4838],[-78.9746,40.396],[-79.0585,40.3809],[-79.1927,40.4149],[-79.1992,40.4108],[-79.2065,40.415],[-79.2148,40.4245],[-79.2332,40.4307],[-79.2402,40.43],[-79.2476,40.4321],[-79.2506,40.4287],[-79.454,40.4855],[-79.4502,40.5301],[-79.2515,40.7378],[-79.2152,40.7759],[-79.2153,40.9113],[-78.8052,40.906],[-78.8064,40.845],[-78.8017,40.7245],[-78.8467,40.6356]]]}},{"type":"Feature","id":"42065","properties":{"name":"Jefferson","fips":"42065"},"geometry":{"type":"Polygon","coordinates":[[[-79.2089,41.3319],[-79.0951,41.3407],[-78.9745,41.3755],[-78.7353,41.2629],[-78.7102,41.2019],[-78.8045,41.1322],[-78.8052,40.906],[-79.2153,40.9113],[-79.2152,41.0505],[-79.2089,41.3319]]]}},{"type":"Feature","id":"42067","properties":{"name":"Juniata","fips":"42067"},"geometry":{"type":"Polygon","coordinates":[[[-77.7521,40.3785],[-77.6113,40.515],[-77.4978,40.6095],[-77.3607,40.67],[-77.3231,40.6831],[-77.2879,40.6936],[-77.1989,40.6825],[-77.0355,40.6769],[-76.9397,40.6384],[-76.9474,40.6295],[-76.9494,40.6282],[-77.1829,40.5821],[-77.17,40.5627],[-77.3381,40.4953],[-77.5401,40.3992],[-77.6718,40.2898],[-77.6852,40.2763],[-77.703,40.2636],[-77.7521,40.3785]]]}},{"type":"Feature","id":"42069","properties":{"name":"Lackawanna","fips":"42069"},"geometry":{"type":"Polygon","coordinates":[[[-75.6872,41.3392],[-75.7415,41.3482],[-75.7605,41.3609],[-75.7679,41.3658],[-75.7953,41.3781],[-75.8326,41.3999],[-75.8347,41.4272],[-75.7199,41.6423],[-75.4693,41.6414],[-75.4624,41.6416],[-75.4414,41.2601],[-75.5056,41.2325],[-75.6007,41.1615],[-75.6493,41.191],[-75.6872,41.3392]]]}},{"type":"Feature","id":"42071","properties":{"name":"Lancaster","fips":"42071"},"geometry":{"type":"Polygon","coordinates":[[[-76.0918,40.2777],[-75.8752,40.1381],[-75.8734,40.1371],[-75.943,40.1093],[-75.9851,39.9379],[-75.9916,39.8687],[-76.0667,39.76],[-76.1356,39.7216],[-76.2242,39.7213],[-76.2333,39.7213],[-76.2333,39.7213],[-76.2398,39.7213],[-76.4736,39.9474],[-76.5345,40.0513],[-76.6638,40.0632],[-76.7216,40.1201],[-76.5663,40.1966],[-76.3076,40.2551],[-76.1512,40.316],[-76.1495,40.3145],[-76.0918,40.2777]]]}},{"type":"Feature","id":"42073","properties":{"name":"Lawrence","fips":"42073"},"geometry":{"type":"Polygon","coordinates":[[[-80.0969,41.0698],[-80.1653,41.0005],[-80.16,40.8869],[-80.1585,40.8552],[-80.519,40.8513],[-80.5198,40.8999],[-80.5198,40.9008],[-80.5191,40.9211],[-80.519,40.9874],[-80.519,40.9954],[-80.5189,41.0154],[-80.519,41.0615],[-80.5189,41.071],[-80.519,41.0719],[-80.519,41.075],[-80.5191,41.0821],[-80.5191,41.0907],[-80.5191,41.1008],[-80.5192,41.1054],[-80.519,41.116],[-80.5191,41.1251],[-80.519,41.1251],[-80.519,41.1251],[-80.3851,41.1265],[-80.1472,41.1138],[-80.0969,41.0698]]]}},{"type":"Feature","id":"42075","properties":{"name":"Lebanon","fips":"42075"},"geometry":{"type":"Polygon","coordinates":[[[-76.152,40.3165],[-76.1512,40.316],[-76.3076,40.2551],[-76.5663,40.1966],[-76.678,40.4747],[-76.5354,40.5552],[-76.4402,40.496],[-76.152,40.3165]]]}},{"type":"Feature","id":"42077","properties":{"name":"Lehigh","fips":"42077"},"geometry":{"type":"Polygon","coordinates":[[[-75.6943,40.5511],[-75.738,40.5791],[-75.7394,40.5799],[-75.7667,40.597],[-75.8915,40.6773],[-75.7578,40.7354],[-75.609,40.7874],[-75.4815,40.6557],[-75.4304,40.6742],[-75.4044,40.5812],[-75.3335,40.5371],[-75.3386,40.5341],[-75.3666,40.5154],[-75.3679,40.5146],[-75.4097,40.488],[-75.4841,40.4185],[-75.5297,40.447],[-75.6822,40.5436],[-75.6943,40.5511]]]}},{"type":"Feature","id":"42079","properties":{"name":"Luzerne","fips":"42079"},"geometry":{"type":"Polygon","coordinates":[[[-76.2078,40.9497],[-76.229,41.1385],[-76.3179,41.2054],[-76.3101,41.3102],[-76.2849,41.3727],[-76.2831,41.3765],[-76.0051,41.3846],[-75.8347,41.4272],[-75.8326,41.3999],[-75.7953,41.3781],[-75.7679,41.3658],[-75.7605,41.3609],[-75.7415,41.3482],[-75.6872,41.3392],[-75.6493,41.191],[-75.6007,41.1615],[-75.603,41.1519],[-75.6156,41.15],[-75.635,41.1232],[-75.6496,41.1223],[-75.772,41.0768],[-75.7319,41.0082],[-75.9973,40.913],[-76.0281,40.902],[-76.2078,40.9497]]]}},{"type":"Feature","id":"42081","properties":{"name":"Lycoming","fips":"42081"},"geometry":{"type":"Polygon","coordinates":[[[-76.4635,41.2626],[-76.5926,41.1578],[-76.6408,41.1557],[-76.6788,41.1542],[-76.7327,41.172],[-76.7887,41.1758],[-76.881,41.158],[-76.8881,41.1538],[-76.8961,41.1391],[-76.9779,41.0879],[-77.1441,41.0688],[-77.3209,41.2189],[-77.5265,41.3585],[-77.5981,41.4786],[-77.5993,41.5423],[-77.0087,41.5499],[-76.8747,41.5969],[-76.8137,41.59],[-76.7495,41.4056],[-76.5925,41.3043],[-76.4476,41.2756],[-76.4608,41.2648],[-76.4635,41.2626]]]}},{"type":"Feature","id":"42083","properties":{"name":"McKean","fips":"42083"},"geometry":{"type":"Polygon","coordinates":[[[-78.4191,41.6022],[-78.4834,41.6299],[-78.9561,41.6239],[-78.9487,41.8305],[-78.9189,41.998],[-78.8748,41.9976],[-78.5966,41.9999],[-78.3081,41.9994],[-78.2066,42.0],[-78.2034,41.6182],[-78.4193,41.6169],[-78.4191,41.6022]]]}},{"type":"Feature","id":"42085","properties":{"name":"Mercer","fips":"42085"},"geometry":{"type":"Polygon","coordinates":[[[-79.9998,41.2742],[-79.9998,41.1719],[-80.0969,41.0698],[-80.1472,41.1138],[-80.3851,41.1265],[-80.519,41.1251],[-80.519,41.1251],[-80.5192,41.1333],[-80.5192,41.1334],[-80.5191,41.1455],[-80.5191,41.1712],[-80.5188,41.2092],[-80.5189,41.2194],[-80.5189,41.2194],[-80.5189,41.2326],[-80.5187,41.2489],[-80.5189,41.2652],[-80.519,41.2682],[-80.519,41.2683],[-80.5188,41.3055],[-80.5191,41.3124],[-80.5193,41.3335],[-80.5193,41.336],[-80.5193,41.3371],[-80.5193,41.3372],[-80.5193,41.3391],[-80.5193,41.3391],[-80.5193,41.3397],[-80.5193,41.3401],[-80.5193,41.3407],[-80.5193,41.3508],[-80.5192,41.361],[-80.5192,41.372],[-80.5192,41.3789],[-80.519,41.4164],[-80.519,41.4164],[-80.519,41.4355],[-80.5192,41.4626],[-80.5192,41.489],[-80.1253,41.4804],[-79.9998,41.49],[-79.9998,41.2742]]]}},{"type":"Feature","id":"42087","properties":{"name":"Mifflin","fips":"42087"},"geometry":{"type":"Polygon","coordinates":[[[-77.6678,40.7353],[-77.3642,40.8469],[-77.3571,40.8445],[-77.3566,40.8073],[-77.3541,40.7017],[-77.2879,40.6936],[-77.3231,40.6831],[-77.3607,40.67],[-77.4978,40.6095],[-77.6113,40.515],[-77.7521,40.3785],[-77.9138,40.3987],[-77.8165,40.5001],[-77.8418,40.55],[-77.6871,40.6767],[-77.6813,40.7298],[-77.6678,40.7353]]]}},{"type":"Feature","id":"42089","properties":{"name":"Monroe","fips":"42089"},"geometry":{"type":"Polygon","coordinates":[[[-75.6007,41.1615],[-75.5056,41.2325],[-75.3592,41.2392],[-75.1297,41.2521],[-75.1565,41.1503],[-74.9807,41.0782],[-75.026,41.0427],[-75.037,41.0347],[-75.0518,41.0271],[-75.0693,41.0193],[-75.0914,41.0123],[-75.1091,41.0041],[-75.1306,40.9911],[-75.1355,40.9738],[-75.1314,40.9693],[-75.1206,40.9683],[-75.3006,40.8596],[-75.4742,40.8147],[-75.5746,40.9513],[-75.496,40.9872],[-75.6496,41.1223],[-75.635,41.1232],[-75.6156,41.15],[-75.603,41.1519],[-75.6007,41.1615]]]}},{"type":"Feature","id":"42091","properties":{"name":"Montgomery","fips":"42091"},"geometry":{"type":"Polygon","coordinates":[[[-75.3611,40.0655],[-75.5259,40.1486],[-75.5492,40.1895],[-75.5571,40.2072],[-75.5629,40.1974],[-75.5733,40.1953],[-75.5927,40.2255],[-75.6968,40.2419],[-75.696,40.2424],[-75.5297,40.447],[-75.4841,40.4185],[-75.2998,40.3078],[-75.1069,40.1923],[-75.1049,40.1911],[-75.0151,40.138],[-75.0967,40.069],[-75.0874,40.0636],[-75.1094,40.0458],[-75.1249,40.0547],[-75.129,40.0571],[-75.1352,40.061],[-75.1516,40.0703],[-75.1764,40.0846],[-75.2644,40.0541],[-75.2492,39.9905],[-75.2561,39.9873],[-75.2637,39.9827],[-75.2765,39.977],[-75.3495,40.0529],[-75.3565,40.0628],[-75.3611,40.0655]]]}},{"type":"Feature","id":"42093","properties":{"name":"Montour","fips":"42093"},"geometry":{"type":"Polygon","coordinates":[[[-76.6408,41.1557],[-76.619,41.0638],[-76.515,40.959],[-76.528,40.8825],[-76.557,40.9386],[-76.6613,40.968],[-76.7929,40.9466],[-76.7327,41.172],[-76.6788,41.1542],[-76.6408,41.1557]]]}},{"type":"Feature","id":"42095","properties":{"name":"Northampton","fips":"42095"},"geometry":{"type":"Polygon","coordinates":[[[-75.4742,40.8147],[-75.3006,40.8596],[-75.1206,40.9683],[-75.1204,40.9683],[-75.1203,40.9626],[-75.1199,40.9616],[-75.1178,40.953],[-75.0525,40.8721],[-75.051,40.8657],[-75.0533,40.8599],[-75.1085,40.7911],[-75.1344,40.7738],[-75.1494,40.7748],[-75.1637,40.7784],[-75.1716,40.7777],[-75.1965,40.7516],[-75.2039,40.6915],[-75.2007,40.6184],[-75.1968,40.6086],[-75.3335,40.5371],[-75.4044,40.5812],[-75.4304,40.6742],[-75.4815,40.6557],[-75.609,40.7874],[-75.4742,40.8147]]]}},{"type":"Feature","id":"42097","properties":{"name":"Northumberland","fips":"42097"},"geometry":{"type":"Polygon","coordinates":[[[-76.8961,41.1391],[-76.8881,41.1538],[-76.881,41.158],[-76.7887,41.1758],[-76.7327,41.172],[-76.7929,40.9466],[-76.6613,40.968],[-76.557,40.9386],[-76.528,40.8825],[-76.5013,40.8248],[-76.4097,40.8336],[-76.3802,40.7755],[-76.7016,40.6581],[-76.8909,40.6101],[-76.9494,40.6282],[-76.9474,40.6295],[-76.9397,40.6384],[-76.8554,40.7288],[-76.8555,40.7371],[-76.856,40.7379],[-76.857,40.746],[-76.8567,40.7473],[-76.8575,40.7496],[-76.8564,40.7558],[-76.8572,40.7594],[-76.8577,40.7644],[-76.8575,40.766],[-76.8584,40.7695],[-76.8593,40.777],[-76.8585,40.7794],[-76.8587,40.7815],[-76.8563,40.7897],[-76.8561,40.7912],[-76.8522,40.8008],[-76.8489,40.806],[-76.8497,40.8082],[-76.8493,40.8098],[-76.8454,40.8152],[-76.8406,40.8213],[-76.8363,40.8258],[-76.8297,40.831],[-76.8256,40.8355],[-76.8209,40.8399],[-76.8175,40.8438],[-76.8127,40.8475],[-76.8122,40.8503],[-76.8112,40.8517],[-76.8084,40.8574],[-76.8062,40.8625],[-76.8016,40.8706],[-76.7995,40.8747],[-76.7989,40.8769],[-76.7987,40.8784],[-76.8002,40.882],[-76.8823,40.9713],[-76.8961,41.1391]]]}},{"type":"Feature","id":"42099","properties":{"name":"Perry","fips":"42099"},"geometry":{"type":"Polygon","coordinates":[[[-77.0839,40.3012],[-77.2292,40.2837],[-77.2417,40.2828],[-77.2701,40.2787],[-77.2805,40.2759],[-77.4198,40.2641],[-77.366,40.3136],[-77.6147,40.1985],[-77.6718,40.2898],[-77.5401,40.3992],[-77.3381,40.4953],[-77.17,40.5627],[-77.1829,40.5821],[-76.9494,40.6282],[-76.9574,40.5947],[-76.9837,40.5783],[-76.9919,40.5615],[-76.9494,40.469],[-77.0286,40.3912],[-76.9336,40.356],[-76.9285,40.348],[-76.9262,40.341],[-76.9173,40.3327],[-76.915,40.3285],[-77.0839,40.3012]]]}},{"type":"Feature","id":"42101","properties":{"name":"Philadelphia","fips":"42101"},"geometry":{"type":"Polygon","coordinates":[[[-75.2644,40.0541],[-75.1764,40.0846],[-75.1516,40.0703],[-75.1352,40.061],[-75.129,40.0571],[-75.1249,40.0547],[-75.1094,40.0458],[-75.0874,40.0636],[-75.0967,40.069],[-75.0151,40.138],[-75.0085,40.134],[-75.0059,40.1325],[-74.9819,40.1202],[-74.965,40.1186],[-74.9613,40.0975],[-74.9562,40.0957],[-74.9588,40.0825],[-74.9713,40.0737],[-74.9849,40.0573],[-74.9743,40.0489],[-74.9747,40.0487],[-75.0143,40.021],[-75.056,39.9918],[-75.072,39.9806],[-75.0858,39.9676],[-75.1332,39.9225],[-75.1539,39.9061],[-75.185,39.8816],[-75.2104,39.8659],[-75.211,39.8657],[-75.2157,39.8761],[-75.2405,39.8724],[-75.2625,39.8766],[-75.2765,39.977],[-75.2637,39.9827],[-75.2561,39.9873],[-75.2492,39.9905],[-75.2644,40.0541]]]}},{"type":"Feature","id":"42103","properties":{"name":"Pike","fips":"42103"},"geometry":{"type":"Polygon","coordinates":[[[-74.9668,41.0934],[-74.9684,41.0878],[-74.9807,41.0782],[-75.1565,41.1503],[-75.1297,41.2521],[-75.3592,41.2392],[-75.3111,41.3314],[-75.0501,41.6069],[-75.0405,41.5697],[-74.9842,41.5063],[-74.9398,41.4834],[-74.9125,41.4756],[-74.8919,41.4489],[-74.8767,41.4403],[-74.7992,41.4305],[-74.7559,41.4268],[-74.7526,41.4265],[-74.6911,41.3673],[-74.6898,41.3616],[-74.6949,41.3574],[-74.7617,41.3364],[-74.7958,41.319],[-74.8301,41.2872],[-74.8384,41.2773],[-74.8617,41.2416],[-74.8673,41.2289],[-74.8644,41.2249],[-74.8673,41.2088],[-74.8821,41.1808],[-74.9232,41.1381],[-74.9743,41.1039],[-74.9694,41.0961],[-74.9674,41.094],[-74.9668,41.0934]]]}},{"type":"Feature","id":"42105","properties":{"name":"Potter","fips":"42105"},"geometry":{"type":"Polygon","coordinates":[[[-77.5993,41.5423],[-77.5981,41.4786],[-77.9892,41.4748],[-78.0504,41.4755],[-78.2034,41.6182],[-78.2066,42.0],[-78.1247,42.0005],[-78.0312,41.9994],[-78.031,41.9994],[-77.832,41.9985],[-77.8228,41.9985],[-77.7499,41.9988],[-77.61,41.9995],[-77.5993,41.5423]]]}},{"type":"Feature","id":"42107","properties":{"name":"Schuylkill","fips":"42107"},"geometry":{"type":"Polygon","coordinates":[[[-75.9962,40.63],[-76.0122,40.5777],[-76.1716,40.5349],[-76.4402,40.496],[-76.5354,40.5552],[-76.536,40.5555],[-76.5376,40.5565],[-76.5381,40.5569],[-76.5399,40.5579],[-76.5432,40.5599],[-76.5451,40.5611],[-76.5451,40.5611],[-76.5468,40.5621],[-76.5471,40.5623],[-76.5481,40.563],[-76.5485,40.5632],[-76.5494,40.5638],[-76.5523,40.5655],[-76.5533,40.5661],[-76.5551,40.5673],[-76.5564,40.568],[-76.5607,40.5707],[-76.5609,40.5708],[-76.5626,40.5719],[-76.5626,40.5719],[-76.5631,40.5721],[-76.5644,40.573],[-76.5649,40.5733],[-76.5651,40.5734],[-76.5655,40.5736],[-76.5656,40.5737],[-76.5664,40.5742],[-76.5687,40.5756],[-76.5694,40.5761],[-76.5695,40.5761],[-76.571,40.577],[-76.5718,40.5775],[-76.5752,40.5796],[-76.5756,40.5798],[-76.5771,40.5807],[-76.5771,40.5807],[-76.5778,40.5811],[-76.5798,40.5823],[-76.5805,40.5827],[-76.5808,40.5829],[-76.5817,40.5834],[-76.582,40.5836],[-76.5823,40.5838],[-76.5831,40.5843],[-76.5834,40.5845],[-76.584,40.5848],[-76.5845,40.5851],[-76.5858,40.586],[-76.5864,40.5863],[-76.5884,40.5876],[-76.5943,40.5913],[-76.5962,40.5926],[-76.5964,40.5927],[-76.597,40.5931],[-76.5972,40.5932],[-76.5975,40.5934],[-76.5983,40.5939],[-76.5986,40.5941],[-76.6001,40.595],[-76.6013,40.5957],[-76.6079,40.5999],[-76.6093,40.6007],[-76.6096,40.6009],[-76.612,40.6024],[-76.612,40.6024],[-76.6121,40.6024],[-76.6122,40.6025],[-76.6124,40.6026],[-76.6128,40.6028],[-76.6145,40.604],[-76.6146,40.6041],[-76.6151,40.6044],[-76.6154,40.6046],[-76.6165,40.6053],[-76.6167,40.6054],[-76.6168,40.6055],[-76.6168,40.6055],[-76.6172,40.6057],[-76.6184,40.6065],[-76.6187,40.6067],[-76.62,40.6075],[-76.6229,40.6093],[-76.6237,40.6098],[-76.6247,40.6104],[-76.6249,40.6106],[-76.6253,40.6108],[-76.6265,40.6116],[-76.6269,40.6118],[-76.6294,40.6134],[-76.637,40.6182],[-76.6396,40.6198],[-76.6397,40.6198],[-76.6399,40.6199],[-76.6408,40.6205],[-76.6411,40.6207],[-76.6411,40.6207],[-76.6412,40.6208],[-76.6412,40.6208],[-76.6413,40.6208],[-76.6414,40.6209],[-76.6415,40.621],[-76.6416,40.621],[-76.6437,40.6223],[-76.6483,40.6251],[-76.6502,40.6262],[-76.6524,40.6275],[-76.6538,40.6284],[-76.6558,40.6296],[-76.6582,40.6311],[-76.6596,40.632],[-76.6604,40.6325],[-76.6628,40.6339],[-76.6636,40.6344],[-76.6636,40.6344],[-76.6639,40.6346],[-76.6651,40.6354],[-76.6654,40.6355],[-76.6655,40.6356],[-76.667,40.6365],[-76.6688,40.6376],[-76.6715,40.6393],[-76.6728,40.6402],[-76.6729,40.6402],[-76.673,40.6402],[-76.673,40.6403],[-76.6731,40.6403],[-76.6743,40.6411],[-76.6784,40.6437],[-76.6797,40.6445],[-76.6817,40.6458],[-76.685,40.6479],[-76.6878,40.6497],[-76.6899,40.651],[-76.6899,40.6511],[-76.6902,40.6512],[-76.6902,40.6512],[-76.6903,40.6513],[-76.6904,40.6513],[-76.6904,40.6514],[-76.6905,40.6514],[-76.6906,40.6514],[-76.6907,40.6516],[-76.6916,40.6521],[-76.6919,40.6523],[-76.6931,40.6531],[-76.6969,40.6553],[-76.6982,40.6561],[-76.6989,40.6565],[-76.7009,40.6577],[-76.7015,40.658],[-76.7016,40.658],[-76.7016,40.6581],[-76.3802,40.7755],[-76.3072,40.8018],[-76.2846,40.8836],[-76.2078,40.9497],[-76.0281,40.902],[-75.9973,40.913],[-75.7578,40.7354],[-75.8915,40.6773],[-75.9932,40.6397],[-75.9962,40.63]]]}},{"type":"Feature","id":"42109","properties":{"name":"Snyder","fips":"42109"},"geometry":{"type":"Polygon","coordinates":[[[-76.8002,40.882],[-76.7987,40.8784],[-76.7989,40.8769],[-76.7995,40.8747],[-76.8016,40.8706],[-76.8062,40.8625],[-76.8084,40.8574],[-76.8112,40.8517],[-76.8122,40.8503],[-76.8127,40.8475],[-76.8175,40.8438],[-76.8209,40.8399],[-76.8256,40.8355],[-76.8297,40.831],[-76.8363,40.8258],[-76.8406,40.8213],[-76.8454,40.8152],[-76.8493,40.8098],[-76.8497,40.8082],[-76.8489,40.806],[-76.8522,40.8008],[-76.8561,40.7912],[-76.8563,40.7897],[-76.8587,40.7815],[-76.8585,40.7794],[-76.8593,40.777],[-76.8584,40.7695],[-76.8575,40.766],[-76.8577,40.7644],[-76.8572,40.7594],[-76.8564,40.7558],[-76.8575,40.7496],[-76.8567,40.7473],[-76.857,40.746],[-76.856,40.7379],[-76.8555,40.7371],[-76.8554,40.7288],[-76.9397,40.6384],[-77.0355,40.6769],[-77.1989,40.6825],[-77.2879,40.6936],[-77.3541,40.7017],[-77.3566,40.8073],[-76.9407,40.888],[-76.8002,40.882]]]}},{"type":"Feature","id":"42111","properties":{"name":"Somerset","fips":"42111"},"geometry":{"type":"Polygon","coordinates":[[[-78.7686,40.2434],[-78.7603,40.2432],[-78.6584,40.2429],[-78.7632,40.057],[-78.7572,39.8235],[-78.8084,39.7227],[-78.9312,39.7228],[-78.9312,39.7228],[-79.3925,39.7213],[-79.3657,39.8205],[-79.4176,39.8538],[-79.3474,39.9695],[-79.3304,39.9928],[-79.3252,39.9999],[-79.3028,40.0285],[-79.3015,40.0299],[-79.2961,40.0367],[-79.2943,40.0394],[-79.2937,40.0404],[-79.1852,40.1098],[-79.0887,40.2413],[-79.0862,40.2427],[-79.0867,40.2453],[-79.0825,40.2501],[-79.0793,40.2512],[-79.0781,40.2548],[-79.0796,40.2579],[-79.0766,40.2603],[-79.0735,40.2667],[-79.068,40.2725],[-79.0594,40.2758],[-79.0566,40.2786],[-79.056,40.2851],[-78.9276,40.285],[-78.8849,40.2446],[-78.7686,40.2434]]]}},{"type":"Feature","id":"42113","properties":{"name":"Sullivan","fips":"42113"},"geometry":{"type":"Polygon","coordinates":[[[-76.4476,41.2756],[-76.5925,41.3043],[-76.7495,41.4056],[-76.8137,41.59],[-76.2201,41.5413],[-76.2239,41.5245],[-76.2831,41.3765],[-76.2849,41.3727],[-76.3101,41.3102],[-76.4079,41.3084],[-76.4476,41.2756]]]}},{"type":"Feature","id":"42115","properties":{"name":"Susquehanna","fips":"42115"},"geometry":{"type":"Polygon","coordinates":[[[-75.7199,41.6423],[-76.1152,41.6518],[-76.1455,41.9989],[-76.1312,41.999],[-76.1237,41.999],[-76.1058,41.9989],[-75.9831,41.999],[-75.9802,41.999],[-75.4837,41.9992],[-75.4831,41.9993],[-75.4624,41.6416],[-75.4693,41.6414],[-75.7199,41.6423]]]}},{"type":"Feature","id":"42117","properties":{"name":"Tioga","fips":"42117"},"geometry":{"type":"Polygon","coordinates":[[[-77.0087,41.5499],[-77.5993,41.5423],[-77.61,41.9995],[-77.5053,42.0001],[-77.1247,41.9994],[-77.0076,42.0008],[-77.0075,42.0008],[-76.9657,42.0013],[-76.9657,42.0013],[-76.9426,42.0016],[-76.9371,42.0017],[-76.9271,42.0017],[-76.8932,41.7485],[-76.8835,41.6663],[-76.8787,41.6203],[-76.8747,41.5969],[-77.0087,41.5499]]]}},{"type":"Feature","id":"42119","properties":{"name":"Union","fips":"42119"},"geometry":{"type":"Polygon","coordinates":[[[-77.3566,40.8073],[-77.3571,40.8445],[-77.3642,40.8469],[-77.1442,41.0443],[-77.1437,41.0458],[-77.1441,41.0688],[-76.9779,41.0879],[-76.8961,41.1391],[-76.8823,40.9713],[-76.8002,40.882],[-76.9407,40.888],[-77.3566,40.8073]]]}},{"type":"Feature","id":"42121","properties":{"name":"Venango","fips":"42121"},"geometry":{"type":"Polygon","coordinates":[[[-79.4778,41.3865],[-79.4781,41.3357],[-79.6042,41.3215],[-79.695,41.1729],[-79.9998,41.1719],[-79.9998,41.2742],[-79.9998,41.49],[-79.8289,41.6221],[-79.748,41.6177],[-79.6129,41.6171],[-79.6129,41.6239],[-79.5121,41.6246],[-79.5123,41.4652],[-79.4778,41.3865]]]}},{"type":"Feature","id":"42123","properties":{"name":"Warren","fips":"42123"},"geometry":{"type":"Polygon","coordinates":[[[-79.4027,41.626],[-79.5121,41.6246],[-79.6129,41.6239],[-79.6126,41.775],[-79.6121,41.8501],[-79.6108,41.999],[-79.5514,41.9987],[-79.5384,41.9985],[-79.0613,41.9993],[-79.0525,41.9992],[-78.9189,41.998],[-78.9487,41.8305],[-78.9561,41.6239],[-78.956,41.6234],[-79.4027,41.626]]]}},{"type":"Feature","id":"42125","properties":{"name":"Washington","fips":"42125"},"geometry":{"type":"Polygon","coordinates":[[[-80.5192,39.9622],[-80.5192,39.9624],[-80.5192,39.9634],[-80.5191,40.0164],[-80.519,40.077],[-80.519,40.0781],[-80.5191,40.1597],[-80.5191,40.1727],[-80.5191,40.1728],[-80.518,40.3989],[-80.518,40.3996],[-80.5187,40.4774],[-80.4481,40.4777],[-80.3609,40.4775],[-80.1831,40.3325],[-80.0337,40.288],[-79.9521,40.2409],[-79.9648,40.2377],[-79.9707,40.2318],[-79.9683,40.2238],[-79.9561,40.2136],[-79.9279,40.2068],[-79.9126,40.1978],[-79.8933,40.1944],[-79.889,40.1948],[-79.8819,40.1965],[-79.8706,40.1974],[-79.8774,40.1268],[-79.877,40.0368],[-79.998,39.9833],[-80.1573,39.9996],[-80.3795,39.9941],[-80.5192,39.9622]]]}},{"type":"Feature","id":"42127","properties":{"name":"Wayne","fips":"42127"},"geometry":{"type":"Polygon","coordinates":[[[-75.5056,41.2325],[-75.4414,41.2601],[-75.4624,41.6416],[-75.4831,41.9993],[-75.4771,41.9994],[-75.4362,41.9994],[-75.432,41.9994],[-75.3596,41.9994],[-75.3419,41.9933],[-75.2926,41.9539],[-75.2791,41.9389],[-75.263,41.8851],[-75.1464,41.8509],[-75.1402,41.8521],[-75.1144,41.8436],[-75.0908,41.812],[-75.0534,41.7525],[-75.0482,41.632],[-75.0531,41.6186],[-75.0501,41.6069],[-75.3111,41.3314],[-75.3592,41.2392],[-75.5056,41.2325]]]}},{"type":"Feature","id":"42129","properties":{"name":"Westmoreland","fips":"42129"},"geometry":{"type":"Polygon","coordinates":[[[-79.7038,40.4435],[-79.7021,40.4896],[-79.702,40.5238],[-79.7016,40.5254],[-79.7654,40.5499],[-79.6926,40.6697],[-79.6381,40.6656],[-79.5611,40.5641],[-79.4502,40.5301],[-79.454,40.4855],[-79.2506,40.4287],[-79.2476,40.4321],[-79.2402,40.43],[-79.2332,40.4307],[-79.2148,40.4245],[-79.2065,40.415],[-79.1992,40.4108],[-79.1927,40.4149],[-79.0585,40.3809],[-78.9746,40.396],[-79.056,40.2851],[-79.0566,40.2786],[-79.0594,40.2758],[-79.068,40.2725],[-79.0735,40.2667],[-79.0766,40.2603],[-79.0796,40.2579],[-79.0781,40.2548],[-79.0793,40.2512],[-79.0825,40.2501],[-79.0867,40.2453],[-79.0862,40.2427],[-79.0887,40.2413],[-79.1852,40.1098],[-79.2937,40.0404],[-79.457,40.1351],[-79.4794,40.1428],[-79.5052,40.1406],[-79.5403,40.114],[-79.579,40.1055],[-79.5926,40.092],[-79.6411,40.0883],[-79.7222,40.1211],[-79.8774,40.1268],[-79.8706,40.1974],[-79.7818,40.2277],[-79.7751,40.2879],[-79.7879,40.2977],[-79.7837,40.3159],[-79.7222,40.4091],[-79.7047,40.4272],[-79.7038,40.4435]]]}},{"type":"Feature","id":"42131","properties":{"name":"Wyoming","fips":"42131"},"geometry":{"type":"Polygon","coordinates":[[[-76.2831,41.3765],[-76.2239,41.5245],[-76.2201,41.5413],[-76.198,41.6478],[-76.1152,41.6518],[-75.7199,41.6423],[-75.8347,41.4272],[-76.0051,41.3846],[-76.2831,41.3765]]]}},{"type":"Feature","id":"42133","properties":{"name":"York","fips":"42133"},"geometry":{"type":"Polygon","coordinates":[[[-76.7216,40.1201],[-76.6638,40.0632],[-76.5345,40.0513],[-76.4736,39.9474],[-76.2398,39.7213],[-76.3801,39.7213],[-76.3806,39.7213],[-76.3956,39.7212],[-76.4187,39.7213],[-76.4188,39.7212],[-76.4919,39.7213],[-76.5171,39.7213],[-76.5694,39.7212],[-76.5695,39.7212],[-76.7119,39.7211],[-76.7156,39.7211],[-76.7871,39.7208],[-76.7871,39.7208],[-76.8064,39.7206],[-76.8092,39.7207],[-76.8901,39.7204],[-76.8976,39.7204],[-76.9995,39.7201],[-76.9984,39.8321],[-76.9549,39.8569],[-77.0186,40.0139],[-77.1374,40.0699],[-77.0289,40.1478],[-76.9059,40.1657],[-76.859,40.2263],[-76.7216,40.1201]]]}}]}