{"type":"FeatureCollection","features":[{"type":"Feature","geometry":{"type":"Polygon","coordinates":[[[-71.6067,42.0133],[-71.5746,41.8587],[-71.4955,41.869],[-71.4811,41.8511],[-71.4776,41.8382],[-71.4725,41.837],[-71.435,41.8618],[-71.4299,41.8613],[-71.4266,41.8531],[-71.4379,41.8533],[-71.4172,41.8365],[-71.4156,41.8293],[-71.4115,41.8314],[-71.4075,41.8182],[-71.4165,41.8177],[-71.407,41.8122],[-71.44,41.8113],[-71.4368,41.7887],[-71.3782,41.7844],[-71.3783,41.7553],[-71.3725,41.7447],[-71.3257,41.6932],[-71.331,41.687],[-71.3551,41.6775],[-71.3797,41.6565],[-71.3867,41.6316],[-71.3876,41.5918],[-71.3987,41.5568],[-71.4011,41.5177],[-71.413,41.4987],[-71.409,41.4683],[-71.4294,41.4376],[-71.46,41.3751],[-71.5094,41.3077],[-71.4948,41.3074],[-71.3745,41.339],[-71.1246,41.4115],[-71.0886,41.4313],[-71.1211,41.4928],[-71.1316,41.5937],[-71.142,41.6125],[-71.1353,41.6285],[-71.1326,41.6604],[-71.1955,41.6751],[-71.2611,41.7521],[-71.3285,41.7807],[-71.3295,41.7883],[-71.3405,41.797],[-71.3393,41.8085],[-71.3475,41.8232],[-71.3354,41.8356],[-71.3426,41.8447],[-71.334,41.8626],[-71.3409,41.8818],[-71.3388,41.8986],[-71.3815,41.8935],[-71.3814,42.0188],[-71.6067,42.0133]]]},"properties":{"name":"CD1","district_number":1,"fips":"44-01"}},{"type":"Feature","geometry":{"type":"MultiPolygon","coordinates":[[[[-71.9072,41.3045],[-71.791,41.1841],[-71.7915,41.2722],[-71.695,41.2826],[-71.5753,41.321],[-71.5094,41.3077],[-71.46,41.3751],[-71.4294,41.4376],[-71.4091,41.4682],[-71.413,41.4987],[-71.4011,41.5177],[-71.3987,41.5568],[-71.3876,41.5918],[-71.3867,41.6316],[-71.3797,41.6565],[-71.3551,41.6775],[-71.331,41.687],[-71.3257,41.6932],[-71.3725,41.7447],[-71.3783,41.7553],[-71.3782,41.7844],[-71.4368,41.7887],[-71.44,41.8113],[-71.407,41.8122],[-71.4165,41.8177],[-71.4075,41.8182],[-71.4115,41.8314],[-71.4156,41.8293],[-71.4172,41.8365],[-71.4379,41.8533],[-71.4266,41.8531],[-71.4299,41.8613],[-71.435,41.8618],[-71.4725,41.837],[-71.4776,41.8382],[-71.4811,41.8511],[-71.4955,41.869],[-71.5746,41.8587],[-71.6067,42.0133],[-71.7992,42.0081],[-71.7872,41.6561],[-71.7977,41.4167],[-71.8181,41.4199],[-71.8424,41.4103],[-71.8422,41.3954],[-71.8331,41.3878],[-71.8306,41.3788],[-71.8379,41.3601],[-71.8294,41.3424],[-71.8575,41.3208],[-71.8665,41.3192],[-71.8921,41.3301],[-71.9072,41.3045]]],[[[-71.6788,41.1589],[-71.6761,41.1415],[-71.6683,41.1283],[-71.6189,41.0991],[-71.5693,41.0972],[-71.5175,41.1071],[-71.4914,41.1251],[-71.477,41.1557],[-71.4786,41.1758],[-71.4898,41.1947],[-71.4846,41.2175],[-71.4893,41.2352],[-71.5164,41.2715],[-71.536,41.2862],[-71.5576,41.294],[-71.5916,41.2893],[-71.6245,41.2741],[-71.635,41.2637],[-71.643,41.2313],[-71.6705,41.1945],[-71.6788,41.1589]]]]},"properties":{"name":"CD2","district_number":2,"fips":"44-02"}}],"source":"U.S. Census Bureau TIGERweb, 120th Congressional Districts (January 1, 2026 vintage)"}