{"type":"FeatureCollection","features":[{"type":"Feature","id":"44001","properties":{"name":"Bristol","fips":"44001"},"geometry":{"type":"Polygon","coordinates":[[[-71.2248,41.7105],[-71.2279,41.7055],[-71.241,41.6977],[-71.2376,41.6816],[-71.2416,41.6672],[-71.2596,41.6426],[-71.2671,41.6449],[-71.2701,41.6524],[-71.2692,41.6549],[-71.2804,41.6726],[-71.2876,41.6725],[-71.2905,41.6624],[-71.2992,41.6495],[-71.3014,41.65],[-71.3037,41.6548],[-71.3061,41.6726],[-71.3026,41.6817],[-71.2989,41.6815],[-71.2931,41.6883],[-71.2912,41.7027],[-71.3058,41.7187],[-71.3148,41.7238],[-71.3428,41.7285],[-71.3501,41.7278],[-71.3532,41.7252],[-71.3551,41.727],[-71.3646,41.7349],[-71.3652,41.7356],[-71.357,41.7416],[-71.3539,41.7513],[-71.3178,41.7761],[-71.2614,41.7523],[-71.2248,41.7105]]]}},{"type":"Feature","id":"44003","properties":{"name":"Kent","fips":"44003"},"geometry":{"type":"Polygon","coordinates":[[[-71.7897,41.7246],[-71.4553,41.7324],[-71.3783,41.7553],[-71.3725,41.7447],[-71.3652,41.7356],[-71.3646,41.7349],[-71.3551,41.727],[-71.3532,41.7252],[-71.3537,41.7247],[-71.3657,41.7116],[-71.3657,41.6949],[-71.373,41.6726],[-71.3779,41.6666],[-71.382,41.6673],[-71.3899,41.6719],[-71.3908,41.6806],[-71.3894,41.6834],[-71.3906,41.6841],[-71.4181,41.6842],[-71.4413,41.6864],[-71.4431,41.6883],[-71.4419,41.69],[-71.4459,41.6911],[-71.4493,41.6874],[-71.4445,41.6644],[-71.43,41.6675],[-71.4255,41.6708],[-71.4093,41.6626],[-71.4086,41.6538],[-71.4844,41.6028],[-71.7894,41.5969],[-71.7894,41.5969],[-71.7895,41.64],[-71.7897,41.7246]]]}},{"type":"Feature","id":"44005","properties":{"name":"Newport","fips":"44005"},"geometry":{"type":"MultiPolygon","coordinates":[[[[-71.3836,41.4648],[-71.3893,41.4606],[-71.3903,41.455],[-71.3996,41.4486],[-71.4006,41.4609],[-71.3959,41.4922],[-71.3865,41.4931],[-71.3789,41.5049],[-71.391,41.5146],[-71.3921,41.5245],[-71.3845,41.5567],[-71.379,41.5678],[-71.3736,41.5732],[-71.3702,41.574],[-71.3636,41.5709],[-71.3599,41.5563],[-71.3633,41.502],[-71.3604,41.4831],[-71.3809,41.4746],[-71.3836,41.4648]]],[[[-71.3268,41.4913],[-71.3254,41.4876],[-71.3278,41.483],[-71.343,41.4956],[-71.3411,41.4986],[-71.3268,41.4913]]],[[[-71.3312,41.5803],[-71.3359,41.5859],[-71.337,41.5947],[-71.3338,41.6059],[-71.3296,41.6091],[-71.3266,41.6161],[-71.3259,41.624],[-71.3333,41.6295],[-71.3466,41.6322],[-71.3629,41.6515],[-71.3662,41.661],[-71.3484,41.6637],[-71.3387,41.6588],[-71.3362,41.648],[-71.337,41.6461],[-71.3425,41.6448],[-71.3437,41.6399],[-71.3307,41.633],[-71.3149,41.6304],[-71.3055,41.6225],[-71.3034,41.6066],[-71.3074,41.598],[-71.3175,41.5832],[-71.3261,41.5786],[-71.3312,41.5803]]],[[[-71.2816,41.6482],[-71.2782,41.6473],[-71.2743,41.6381],[-71.2838,41.6378],[-71.2868,41.6427],[-71.283,41.6444],[-71.2816,41.6482]]],[[[-71.1206,41.4974],[-71.1369,41.4939],[-71.1411,41.4899],[-71.1402,41.4859],[-71.1673,41.4714],[-71.1701,41.464],[-71.193,41.4579],[-71.195,41.459],[-71.1969,41.4611],[-71.1966,41.4648],[-71.19,41.4783],[-71.1902,41.4843],[-71.1994,41.4918],[-71.1997,41.4955],[-71.2064,41.4992],[-71.2008,41.5144],[-71.2136,41.5458],[-71.2087,41.571],[-71.2078,41.6007],[-71.2127,41.6101],[-71.2124,41.6183],[-71.212,41.623],[-71.2162,41.6255],[-71.2407,41.6192],[-71.2436,41.5875],[-71.2361,41.5748],[-71.2366,41.5359],[-71.2348,41.5325],[-71.228,41.5283],[-71.2294,41.5215],[-71.2331,41.5148],[-71.2331,41.5146],[-71.2334,41.514],[-71.2406,41.5006],[-71.2386,41.4868],[-71.2372,41.4865],[-71.2368,41.4834],[-71.2378,41.4812],[-71.2379,41.4809],[-71.2398,41.4768],[-71.24,41.4763],[-71.2407,41.4749],[-71.2467,41.472],[-71.2467,41.4723],[-71.2462,41.4789],[-71.246,41.4813],[-71.2527,41.4859],[-71.2648,41.4889],[-71.2676,41.4888],[-71.2823,41.488],[-71.2856,41.4878],[-71.2951,41.4843],[-71.2965,41.4798],[-71.3004,41.4672],[-71.3026,41.4603],[-71.3027,41.4598],[-71.3029,41.4593],[-71.3029,41.4592],[-71.3042,41.455],[-71.3044,41.4545],[-71.3046,41.4544],[-71.3059,41.4537],[-71.3104,41.4513],[-71.3105,41.4513],[-71.3113,41.4508],[-71.3114,41.4508],[-71.3114,41.4508],[-71.3127,41.4514],[-71.3127,41.4546],[-71.3214,41.4556],[-71.3374,41.449],[-71.3377,41.4489],[-71.3511,41.4508],[-71.3515,41.4511],[-71.3582,41.4566],[-71.3583,41.4567],[-71.3584,41.4568],[-71.3587,41.457],[-71.359,41.4573],[-71.3591,41.4574],[-71.3593,41.4575],[-71.3619,41.4596],[-71.3622,41.4599],[-71.3623,41.46],[-71.3627,41.4603],[-71.3627,41.4604],[-71.3627,41.4604],[-71.362,41.463],[-71.3618,41.464],[-71.3615,41.4648],[-71.3471,41.4712],[-71.336,41.4696],[-71.3165,41.4776],[-71.3174,41.4888],[-71.3231,41.5031],[-71.3278,41.5043],[-71.3307,41.5077],[-71.3308,41.5184],[-71.3131,41.5347],[-71.3105,41.5469],[-71.3037,41.5599],[-71.2944,41.5714],[-71.2884,41.5733],[-71.2851,41.5771],[-71.2734,41.607],[-71.2724,41.615],[-71.2752,41.6194],[-71.2719,41.624],[-71.2511,41.6388],[-71.2121,41.6419],[-71.1956,41.6751],[-71.1944,41.6748],[-71.1912,41.6742],[-71.1912,41.6743],[-71.1813,41.6725],[-71.176,41.6714],[-71.1761,41.6685],[-71.1761,41.6681],[-71.154,41.6641],[-71.1459,41.6628],[-71.1352,41.6605],[-71.1347,41.6605],[-71.1345,41.6413],[-71.1345,41.6412],[-71.1338,41.6341],[-71.1336,41.6322],[-71.1334,41.6295],[-71.1206,41.4974]]]]}},{"type":"Feature","id":"44007","properties":{"name":"Providence","fips":"44007"},"geometry":{"type":"Polygon","coordinates":[[[-71.7968,41.9286],[-71.7992,42.0081],[-71.5911,42.0137],[-71.5769,42.0141],[-71.5594,42.0143],[-71.5276,42.015],[-71.5273,42.0151],[-71.5009,42.0171],[-71.4999,42.0172],[-71.4983,42.0172],[-71.4581,42.0178],[-71.3814,42.0188],[-71.3815,41.985],[-71.3815,41.9667],[-71.3814,41.9648],[-71.3816,41.9229],[-71.3817,41.9227],[-71.3766,41.894],[-71.3738,41.8944],[-71.371,41.8946],[-71.3654,41.8953],[-71.3647,41.8954],[-71.3625,41.8956],[-71.3547,41.8965],[-71.3527,41.8967],[-71.3393,41.8936],[-71.3393,41.8934],[-71.3376,41.8337],[-71.3396,41.832],[-71.3393,41.8065],[-71.3279,41.7805],[-71.3178,41.7761],[-71.3178,41.7761],[-71.3539,41.7513],[-71.357,41.7416],[-71.3652,41.7356],[-71.3725,41.7447],[-71.3783,41.7553],[-71.4553,41.7324],[-71.7897,41.7246],[-71.7897,41.7247],[-71.7928,41.807],[-71.7928,41.8087],[-71.7942,41.8401],[-71.7942,41.8411],[-71.7961,41.9045],[-71.7968,41.9286]]]}},{"type":"Feature","id":"44009","properties":{"name":"Washington","fips":"44009"},"geometry":{"type":"MultiPolygon","coordinates":[[[[-71.5896,41.1966],[-71.5802,41.2048],[-71.5773,41.2147],[-71.5767,41.2244],[-71.5738,41.2284],[-71.5611,41.2242],[-71.555,41.2168],[-71.5541,41.213],[-71.5575,41.2045],[-71.5641,41.1954],[-71.5658,41.1844],[-71.561,41.1762],[-71.5502,41.1668],[-71.5444,41.1649],[-71.5439,41.1613],[-71.5471,41.1537],[-71.552,41.1517],[-71.5937,41.1463],[-71.6,41.1469],[-71.6117,41.1532],[-71.6131,41.1603],[-71.6056,41.1821],[-71.595,41.1884],[-71.5896,41.1966]]],[[[-71.4086,41.6538],[-71.4038,41.5893],[-71.4477,41.5804],[-71.4426,41.5651],[-71.4216,41.5379],[-71.4174,41.5345],[-71.4148,41.5231],[-71.4149,41.5163],[-71.4214,41.4986],[-71.42,41.4848],[-71.418,41.4821],[-71.4176,41.4779],[-71.4184,41.4727],[-71.4212,41.4699],[-71.423,41.4727],[-71.4307,41.4706],[-71.4309,41.4657],[-71.4279,41.4595],[-71.4287,41.4542],[-71.4336,41.445],[-71.4377,41.4413],[-71.4412,41.4416],[-71.4489,41.4385],[-71.4558,41.433],[-71.4554,41.408],[-71.4749,41.3861],[-71.4833,41.3717],[-71.5134,41.3747],[-71.5267,41.3766],[-71.5554,41.3733],[-71.6245,41.3609],[-71.6881,41.3428],[-71.7016,41.337],[-71.7207,41.3316],[-71.7292,41.331],[-71.7737,41.328],[-71.786,41.3257],[-71.8338,41.3156],[-71.8574,41.3063],[-71.8628,41.3098],[-71.8621,41.3166],[-71.8596,41.3224],[-71.8398,41.3347],[-71.8325,41.3412],[-71.8312,41.3446],[-71.8316,41.3709],[-71.8334,41.3845],[-71.8421,41.3954],[-71.8435,41.4058],[-71.8426,41.4099],[-71.8396,41.4121],[-71.8184,41.4196],[-71.7977,41.4167],[-71.7977,41.4169],[-71.7894,41.5969],[-71.4844,41.6028],[-71.4086,41.6538]]]]}}]}