{"type":"FeatureCollection","features":[{"type":"Feature","geometry":{"type":"Polygon","coordinates":[[[-71.3652,41.7356],[-71.3313,41.7029],[-71.332,41.7004],[-71.3257,41.6932],[-71.331,41.687],[-71.329,41.6799],[-71.2953,41.7073],[-71.2893,41.716],[-71.2873,41.7285],[-71.2898,41.7338],[-71.2866,41.7424],[-71.2844,41.762],[-71.3179,41.7762],[-71.3539,41.7513],[-71.357,41.7416],[-71.3652,41.7356]]]},"properties":{"name":"Barrington","fips":"4400105140"}},{"type":"Feature","geometry":{"type":"Polygon","coordinates":[[[-71.329,41.6799],[-71.3218,41.6571],[-71.3115,41.644],[-71.3003,41.6427],[-71.2917,41.6486],[-71.2757,41.6507],[-71.2672,41.639],[-71.2567,41.6381],[-71.2246,41.6661],[-71.2211,41.6704],[-71.2207,41.6753],[-71.2104,41.688],[-71.2432,41.6966],[-71.2515,41.7154],[-71.294,41.7103],[-71.329,41.6799]]]},"properties":{"name":"Bristol","fips":"4400109280"}},{"type":"Feature","geometry":{"type":"Polygon","coordinates":[[[-71.7992,42.0042],[-71.7978,41.9286],[-71.5903,41.9337],[-71.6067,42.0133],[-71.7716,42.0095],[-71.7992,42.0081],[-71.7992,42.0042]]]},"properties":{"name":"Burrillville","fips":"4400711800"}},{"type":"Feature","geometry":{"type":"Polygon","coordinates":[[[-71.4073,41.8916],[-71.4037,41.8811],[-71.3809,41.8841],[-71.3802,41.8879],[-71.3831,41.8899],[-71.3815,41.8935],[-71.3859,41.8996],[-71.4047,41.8948],[-71.4073,41.8916]]]},"properties":{"name":"Central Falls","fips":"4400714140"}},{"type":"Feature","geometry":{"type":"Polygon","coordinates":[[[-71.7313,41.3985],[-71.7292,41.2779],[-71.72,41.2811],[-71.695,41.2826],[-71.6726,41.2891],[-71.6596,41.2967],[-71.6515,41.2984],[-71.6256,41.3608],[-71.5951,41.4462],[-71.5982,41.4496],[-71.61,41.4526],[-71.6211,41.4459],[-71.6271,41.4453],[-71.6281,41.4478],[-71.6318,41.4471],[-71.6328,41.449],[-71.6402,41.446],[-71.6494,41.4489],[-71.6505,41.4545],[-71.6552,41.4591],[-71.6643,41.4584],[-71.6714,41.4612],[-71.677,41.4488],[-71.6853,41.4392],[-71.6853,41.4347],[-71.6971,41.433],[-71.6998,41.4303],[-71.7075,41.4354],[-71.7166,41.4342],[-71.7192,41.428],[-71.7262,41.4274],[-71.726,41.4223],[-71.73,41.4145],[-71.7236,41.4084],[-71.7236,41.4044],[-71.7275,41.4017],[-71.728,41.3966],[-71.7313,41.3985]]]},"properties":{"name":"Charlestown","fips":"4400914500"}},{"type":"Feature","geometry":{"type":"Polygon","coordinates":[[[-71.7897,41.7252],[-71.7872,41.6561],[-71.5334,41.6622],[-71.5343,41.7302],[-71.7897,41.7252]]]},"properties":{"name":"Coventry","fips":"4400318640"}},{"type":"Feature","geometry":{"type":"Polygon","coordinates":[[[-71.5593,41.7893],[-71.546,41.7301],[-71.4549,41.7324],[-71.4517,41.7395],[-71.4441,41.7406],[-71.4466,41.7499],[-71.4404,41.7524],[-71.4404,41.7581],[-71.4338,41.7614],[-71.4331,41.7593],[-71.4262,41.761],[-71.4213,41.7649],[-71.4187,41.7641],[-71.42,41.7617],[-71.4144,41.763],[-71.4072,41.7674],[-71.3961,41.7672],[-71.3945,41.7641],[-71.3885,41.7638],[-71.383,41.7562],[-71.3783,41.7553],[-71.3782,41.7844],[-71.4043,41.7858],[-71.4031,41.783],[-71.4051,41.7793],[-71.4088,41.7781],[-71.4119,41.7724],[-71.4149,41.7731],[-71.4238,41.7773],[-71.4206,41.7862],[-71.4342,41.7863],[-71.4368,41.7887],[-71.4422,41.8072],[-71.4637,41.805],[-71.4677,41.798],[-71.4811,41.7966],[-71.4898,41.7915],[-71.5031,41.7891],[-71.5182,41.7887],[-71.535,41.7933],[-71.5593,41.7893]]]},"properties":{"name":"Cranston","fips":"4400719180"}},{"type":"Feature","geometry":{"type":"Polygon","coordinates":[[[-71.4872,41.9792],[-71.4787,41.9771],[-71.4741,41.9726],[-71.4649,41.9691],[-71.4618,41.9574],[-71.4552,41.9556],[-71.4506,41.9496],[-71.4429,41.9477],[-71.4314,41.9354],[-71.4287,41.9238],[-71.4217,41.9221],[-71.4059,41.9112],[-71.3975,41.9114],[-71.4005,41.9014],[-71.3943,41.8977],[-71.3859,41.8996],[-71.3815,41.8935],[-71.3814,42.0188],[-71.4581,42.0178],[-71.4599,42.0076],[-71.4872,41.9792]]]},"properties":{"name":"Cumberland","fips":"4400720080"}},{"type":"Feature","geometry":{"type":"Polygon","coordinates":[[[-71.5471,41.6619],[-71.5448,41.602],[-71.4855,41.6026],[-71.4854,41.6129],[-71.4881,41.6162],[-71.4861,41.6198],[-71.4713,41.6291],[-71.4722,41.6327],[-71.4678,41.6342],[-71.4687,41.6386],[-71.4648,41.6389],[-71.4657,41.6431],[-71.4581,41.6498],[-71.4555,41.6474],[-71.4522,41.6485],[-71.4423,41.664],[-71.5471,41.6619]]]},"properties":{"name":"East Greenwich","fips":"4400322240"}},{"type":"Feature","geometry":{"type":"Polygon","coordinates":[[[-71.3953,41.8117],[-71.3935,41.8071],[-71.3852,41.8021],[-71.3705,41.7875],[-71.3697,41.7831],[-71.3782,41.7844],[-71.3783,41.7553],[-71.3652,41.7356],[-71.357,41.7416],[-71.3539,41.7513],[-71.3179,41.7762],[-71.3285,41.7807],[-71.3295,41.7883],[-71.3346,41.7948],[-71.3405,41.797],[-71.3393,41.8085],[-71.3475,41.8232],[-71.3354,41.8356],[-71.3426,41.8447],[-71.3347,41.8613],[-71.375,41.8574],[-71.3723,41.8505],[-71.3736,41.8325],[-71.3871,41.8164],[-71.3935,41.8148],[-71.3953,41.8117]]]},"properties":{"name":"East Providence","fips":"4400722960"}},{"type":"Feature","geometry":{"type":"Polygon","coordinates":[[[-71.7914,41.5464],[-71.6207,41.5643],[-71.6126,41.5248],[-71.5305,41.5038],[-71.5079,41.5001],[-71.5122,41.5153],[-71.5196,41.5299],[-71.5181,41.5922],[-71.5224,41.6026],[-71.7892,41.5968],[-71.7914,41.5464]]]},"properties":{"name":"Exeter","fips":"4400925300"}},{"type":"Feature","geometry":{"type":"Polygon","coordinates":[[[-71.7947,41.8544],[-71.7897,41.7252],[-71.6684,41.7275],[-71.691,41.8565],[-71.7947,41.8544]]]},"properties":{"name":"Foster","fips":"4400727460"}},{"type":"Feature","geometry":{"type":"Polygon","coordinates":[[[-71.7978,41.9286],[-71.7947,41.8544],[-71.5746,41.8587],[-71.5903,41.9337],[-71.7978,41.9286]]]},"properties":{"name":"Glocester","fips":"4400730340"}},{"type":"Feature","geometry":{"type":"Polygon","coordinates":[[[-71.8032,41.4043],[-71.7997,41.3986],[-71.7941,41.3973],[-71.7983,41.3965],[-71.7972,41.3932],[-71.7838,41.3897],[-71.7835,41.3865],[-71.7814,41.389],[-71.7796,41.3868],[-71.7811,41.3932],[-71.7737,41.395],[-71.7754,41.3941],[-71.7714,41.3972],[-71.7723,41.4007],[-71.7676,41.3998],[-71.7705,41.3982],[-71.7676,41.3949],[-71.7552,41.408],[-71.7482,41.4073],[-71.7481,41.4046],[-71.743,41.4014],[-71.7311,41.4008],[-71.7351,41.3994],[-71.7275,41.397],[-71.7275,41.4017],[-71.7238,41.404],[-71.7233,41.4077],[-71.7299,41.4139],[-71.7294,41.4172],[-71.726,41.4223],[-71.7262,41.4274],[-71.719,41.4282],[-71.7225,41.4379],[-71.7158,41.4437],[-71.7171,41.4497],[-71.711,41.4563],[-71.7143,41.4583],[-71.7124,41.46],[-71.7217,41.4608],[-71.7209,41.4661],[-71.7165,41.4702],[-71.719,41.472],[-71.7159,41.475],[-71.7168,41.4778],[-71.7136,41.4779],[-71.7148,41.4834],[-71.7122,41.4843],[-71.7178,41.486],[-71.7153,41.4918],[-71.7165,41.5031],[-71.7119,41.5048],[-71.7124,41.5079],[-71.7084,41.5092],[-71.7054,41.5152],[-71.6902,41.5232],[-71.6872,41.5276],[-71.6965,41.5301],[-71.6946,41.5329],[-71.6985,41.5389],[-71.696,41.5411],[-71.7004,41.5487],[-71.7092,41.5476],[-71.715,41.5542],[-71.7914,41.5461],[-71.7977,41.4169],[-71.796,41.4147],[-71.7986,41.4101],[-71.796,41.4073],[-71.8032,41.4043]]]},"properties":{"name":"Hopkinton","fips":"4400935380"}},{"type":"Feature","geometry":{"type":"Polygon","coordinates":[[[-71.4219,41.449],[-71.4062,41.4423],[-71.3944,41.442],[-71.3619,41.465],[-71.3593,41.465],[-71.3597,41.4623],[-71.3531,41.4695],[-71.3423,41.4755],[-71.3377,41.4811],[-71.3469,41.4946],[-71.3434,41.5001],[-71.3267,41.5219],[-71.3235,41.5232],[-71.3193,41.5195],[-71.3126,41.5214],[-71.3251,41.5322],[-71.3136,41.5686],[-71.3874,41.6037],[-71.3876,41.5918],[-71.3987,41.5568],[-71.4015,41.5161],[-71.4116,41.5045],[-71.413,41.4987],[-71.4078,41.4807],[-71.409,41.4683],[-71.4219,41.449]]]},"properties":{"name":"Jamestown","fips":"4400536820"}},{"type":"Feature","geometry":{"type":"Polygon","coordinates":[[[-71.5746,41.8587],[-71.5599,41.7894],[-71.535,41.7933],[-71.5182,41.7887],[-71.5031,41.7891],[-71.4898,41.7915],[-71.4811,41.7966],[-71.4677,41.798],[-71.4637,41.805],[-71.4692,41.8049],[-71.4668,41.8078],[-71.4687,41.8106],[-71.4666,41.8107],[-71.4718,41.8242],[-71.4624,41.8247],[-71.4625,41.8275],[-71.4649,41.8312],[-71.4724,41.8341],[-71.4732,41.8389],[-71.4775,41.8382],[-71.4811,41.8511],[-71.4856,41.8535],[-71.4883,41.8623],[-71.4955,41.869],[-71.5746,41.8587]]]},"properties":{"name":"Johnston","fips":"4400737720"}},{"type":"Feature","geometry":{"type":"Polygon","coordinates":[[[-71.4908,41.9432],[-71.4668,41.8728],[-71.4037,41.8811],[-71.4073,41.8916],[-71.4047,41.8948],[-71.3943,41.8977],[-71.4007,41.9017],[-71.3971,41.911],[-71.4059,41.9112],[-71.4217,41.9221],[-71.4287,41.9238],[-71.4314,41.9354],[-71.4429,41.9477],[-71.4506,41.9496],[-71.4552,41.9556],[-71.4618,41.9574],[-71.4649,41.9691],[-71.4741,41.9726],[-71.4787,41.9771],[-71.4878,41.9787],[-71.4873,41.9585],[-71.485,41.9561],[-71.4881,41.9548],[-71.4874,41.9471],[-71.484,41.9443],[-71.4849,41.9424],[-71.4881,41.9444],[-71.4908,41.9432]]]},"properties":{"name":"Lincoln","fips":"4400741500"}},{"type":"Feature","geometry":{"type":"Polygon","coordinates":[[[-71.2211,41.5433],[-71.2082,41.5146],[-71.2114,41.4979],[-71.2045,41.4925],[-71.2025,41.4842],[-71.2078,41.4728],[-71.2197,41.4596],[-71.1952,41.4519],[-71.1693,41.4584],[-71.1164,41.4846],[-71.1211,41.4928],[-71.1278,41.5632],[-71.2211,41.5433]]]},"properties":{"name":"Little Compton","fips":"4400542400"}},{"type":"Feature","geometry":{"type":"Polygon","coordinates":[[[-71.3233,41.5357],[-71.3251,41.5322],[-71.3131,41.522],[-71.3018,41.5061],[-71.2856,41.4889],[-71.2823,41.4882],[-71.2771,41.4801],[-71.2713,41.4817],[-71.2676,41.4887],[-71.264,41.489],[-71.2461,41.4816],[-71.2479,41.4719],[-71.2399,41.4764],[-71.2373,41.4861],[-71.2442,41.4858],[-71.2479,41.4908],[-71.2416,41.4992],[-71.2406,41.5058],[-71.2334,41.514],[-71.2657,41.5383],[-71.3136,41.5686],[-71.3233,41.5357]]]},"properties":{"name":"Middletown","fips":"4400545460"}},{"type":"Feature","geometry":{"type":"Polygon","coordinates":[[[-71.5752,41.3209],[-71.5266,41.3088],[-71.5094,41.3077],[-71.482,41.3485],[-71.46,41.3751],[-71.4294,41.4376],[-71.4091,41.4682],[-71.4078,41.4807],[-71.413,41.4987],[-71.4116,41.5045],[-71.4501,41.5018],[-71.4467,41.4891],[-71.4516,41.4532],[-71.4643,41.4435],[-71.4875,41.4333],[-71.4948,41.4273],[-71.4971,41.4175],[-71.5032,41.4176],[-71.5048,41.4075],[-71.5145,41.3849],[-71.5752,41.3209]]]},"properties":{"name":"Narragansett","fips":"4400948340"}},{"type":"Feature","geometry":{"type":"Polygon","coordinates":[[[-71.6788,41.1589],[-71.6761,41.1415],[-71.6683,41.1283],[-71.6403,41.1084],[-71.6189,41.0991],[-71.5935,41.0958],[-71.5693,41.0972],[-71.5282,41.1031],[-71.5175,41.1071],[-71.5019,41.1155],[-71.4914,41.1251],[-71.477,41.1557],[-71.4786,41.1758],[-71.4827,41.1863],[-71.4898,41.1947],[-71.4859,41.2047],[-71.4846,41.2175],[-71.4893,41.2352],[-71.5164,41.2715],[-71.536,41.2862],[-71.5576,41.294],[-71.5707,41.294],[-71.5916,41.2893],[-71.6245,41.2741],[-71.635,41.2637],[-71.6408,41.2501],[-71.643,41.2313],[-71.6638,41.2066],[-71.6705,41.1945],[-71.6788,41.1589]]]},"properties":{"name":"New Shoreham","fips":"4400950500"}},{"type":"Feature","geometry":{"type":"Polygon","coordinates":[[[-71.3634,41.4615],[-71.3622,41.4593],[-71.3589,41.4596],[-71.3555,41.449],[-71.3438,41.4544],[-71.3376,41.4518],[-71.3374,41.449],[-71.3079,41.4517],[-71.3043,41.4545],[-71.3027,41.4657],[-71.2964,41.469],[-71.2972,41.485],[-71.2859,41.4892],[-71.3126,41.5214],[-71.3194,41.5195],[-71.324,41.5231],[-71.3308,41.5181],[-71.3469,41.4946],[-71.3377,41.4811],[-71.3481,41.4706],[-71.3531,41.4695],[-71.3597,41.4623],[-71.3592,41.4649],[-71.3614,41.4649],[-71.3634,41.4615]]]},"properties":{"name":"Newport","fips":"4400549960"}},{"type":"Feature","geometry":{"type":"Polygon","coordinates":[[[-71.5221,41.6026],[-71.5181,41.5922],[-71.5196,41.5299],[-71.5122,41.5153],[-71.5079,41.5001],[-71.483,41.4976],[-71.458,41.4991],[-71.4481,41.5028],[-71.4116,41.5045],[-71.4011,41.5177],[-71.3987,41.5568],[-71.3876,41.5918],[-71.3852,41.6251],[-71.3867,41.6316],[-71.3819,41.639],[-71.3805,41.6503],[-71.4176,41.655],[-71.4289,41.6506],[-71.4328,41.6513],[-71.4426,41.6457],[-71.442,41.6433],[-71.4492,41.6368],[-71.4484,41.6333],[-71.4514,41.6295],[-71.4539,41.63],[-71.4556,41.6351],[-71.4624,41.6384],[-71.4721,41.6327],[-71.4713,41.6291],[-71.4825,41.6236],[-71.4881,41.6163],[-71.4854,41.6129],[-71.4844,41.6026],[-71.5221,41.6026]]]},"properties":{"name":"North Kingstown","fips":"4400951580"}},{"type":"Feature","geometry":{"type":"Polygon","coordinates":[[[-71.4955,41.869],[-71.4883,41.8623],[-71.4856,41.8535],[-71.4811,41.8511],[-71.4776,41.8382],[-71.4733,41.839],[-71.4725,41.837],[-71.435,41.8618],[-71.4174,41.8597],[-71.4219,41.8787],[-71.4955,41.869]]]},"properties":{"name":"North Providence","fips":"4400751760"}},{"type":"Feature","geometry":{"type":"Polygon","coordinates":[[[-71.6067,42.0133],[-71.5903,41.9337],[-71.4882,41.9444],[-71.4845,41.9427],[-71.4843,41.9459],[-71.4874,41.9471],[-71.4882,41.9547],[-71.485,41.9561],[-71.4873,41.9585],[-71.4864,41.9662],[-71.4883,41.9683],[-71.4867,41.9697],[-71.4891,41.9747],[-71.4874,41.9791],[-71.5172,41.9834],[-71.5317,41.9896],[-71.5401,42.0098],[-71.5298,42.0098],[-71.5289,42.0151],[-71.6067,42.0133]]]},"properties":{"name":"North Smithfield","fips":"4400752480"}},{"type":"Feature","geometry":{"type":"Polygon","coordinates":[[[-71.4219,41.8787],[-71.4174,41.8597],[-71.4109,41.8589],[-71.4093,41.8566],[-71.3735,41.8575],[-71.334,41.8626],[-71.3409,41.8818],[-71.3388,41.8986],[-71.3815,41.8935],[-71.3831,41.8899],[-71.3802,41.8879],[-71.3809,41.8841],[-71.4219,41.8787]]]},"properties":{"name":"Pawtucket","fips":"4400754640"}},{"type":"Feature","geometry":{"type":"Polygon","coordinates":[[[-71.3863,41.6102],[-71.3874,41.6037],[-71.3015,41.5627],[-71.2333,41.5137],[-71.211,41.5002],[-71.2082,41.5146],[-71.225,41.5561],[-71.2223,41.6007],[-71.2118,41.6557],[-71.2166,41.6632],[-71.2246,41.6661],[-71.2567,41.6381],[-71.2672,41.639],[-71.2748,41.6498],[-71.2777,41.6509],[-71.2917,41.6486],[-71.3003,41.6427],[-71.3071,41.6425],[-71.3155,41.6474],[-71.3218,41.6571],[-71.331,41.687],[-71.3541,41.6782],[-71.3615,41.6692],[-71.3748,41.6628],[-71.379,41.658],[-71.3819,41.639],[-71.3864,41.6339],[-71.3863,41.6102]]]},"properties":{"name":"Portsmouth","fips":"4400557880"}},{"type":"Feature","geometry":{"type":"Polygon","coordinates":[[[-71.4725,41.8344],[-71.4649,41.8312],[-71.4619,41.8251],[-71.4718,41.8242],[-71.4666,41.8107],[-71.4687,41.8106],[-71.4668,41.8078],[-71.4692,41.8049],[-71.4422,41.8072],[-71.4368,41.7887],[-71.4342,41.7863],[-71.4206,41.7862],[-71.4238,41.7773],[-71.4119,41.7724],[-71.4088,41.7781],[-71.4038,41.781],[-71.4043,41.7858],[-71.3894,41.7863],[-71.3697,41.7831],[-71.372,41.7899],[-71.3729,41.7883],[-71.3758,41.7936],[-71.3935,41.8071],[-71.3953,41.8117],[-71.3935,41.8148],[-71.3871,41.8164],[-71.3736,41.8325],[-71.3723,41.8505],[-71.375,41.8574],[-71.4093,41.8566],[-71.411,41.8589],[-71.435,41.8618],[-71.4725,41.837],[-71.4725,41.8344]]]},"properties":{"name":"Providence","fips":"4400759000"}},{"type":"Feature","geometry":{"type":"Polygon","coordinates":[[[-71.7226,41.4376],[-71.719,41.4283],[-71.7166,41.4342],[-71.7075,41.4354],[-71.6998,41.4303],[-71.6971,41.433],[-71.6858,41.4345],[-71.6853,41.4392],[-71.677,41.4488],[-71.6714,41.4612],[-71.6643,41.4584],[-71.655,41.459],[-71.6505,41.4545],[-71.6493,41.4488],[-71.6398,41.446],[-71.6328,41.449],[-71.6318,41.4471],[-71.6281,41.4478],[-71.627,41.4452],[-71.618,41.4468],[-71.6137,41.4513],[-71.6073,41.4525],[-71.5986,41.458],[-71.5976,41.4642],[-71.6059,41.4758],[-71.6012,41.4778],[-71.6008,41.4805],[-71.6044,41.4866],[-71.6089,41.4877],[-71.6072,41.4941],[-71.6095,41.4979],[-71.6074,41.5021],[-71.6207,41.5643],[-71.715,41.5542],[-71.7092,41.5476],[-71.7004,41.5487],[-71.696,41.5411],[-71.6985,41.5389],[-71.6946,41.5329],[-71.6965,41.5301],[-71.6871,41.528],[-71.6902,41.5232],[-71.7054,41.5152],[-71.7084,41.5092],[-71.7124,41.5079],[-71.7119,41.5048],[-71.7165,41.5031],[-71.7153,41.4918],[-71.7178,41.486],[-71.7122,41.4843],[-71.7148,41.4834],[-71.7136,41.4779],[-71.7168,41.4778],[-71.7159,41.475],[-71.719,41.472],[-71.7165,41.4702],[-71.7209,41.4661],[-71.7217,41.4608],[-71.7124,41.46],[-71.7143,41.4583],[-71.711,41.4563],[-71.7171,41.4497],[-71.7158,41.4437],[-71.7226,41.4376]]]},"properties":{"name":"Richmond","fips":"4400961160"}},{"type":"Feature","geometry":{"type":"Polygon","coordinates":[[[-71.691,41.8565],[-71.6684,41.7275],[-71.5474,41.73],[-71.5746,41.8587],[-71.691,41.8565]]]},"properties":{"name":"Scituate","fips":"4400764220"}},{"type":"Feature","geometry":{"type":"Polygon","coordinates":[[[-71.5903,41.9337],[-71.5746,41.8587],[-71.4668,41.8728],[-71.4908,41.9432],[-71.5903,41.9337]]]},"properties":{"name":"Smithfield","fips":"4400766200"}},{"type":"Feature","geometry":{"type":"Polygon","coordinates":[[[-71.6515,41.2984],[-71.5752,41.3209],[-71.5145,41.3849],[-71.5048,41.4075],[-71.5032,41.4176],[-71.4971,41.4175],[-71.4948,41.4273],[-71.4875,41.4333],[-71.4643,41.4435],[-71.4516,41.4532],[-71.4467,41.4891],[-71.4501,41.5018],[-71.458,41.4991],[-71.4919,41.4972],[-71.5305,41.5038],[-71.613,41.5251],[-71.6074,41.5021],[-71.6095,41.4979],[-71.6072,41.4941],[-71.6089,41.4877],[-71.6044,41.4866],[-71.6008,41.4805],[-71.6056,41.4742],[-71.5968,41.4618],[-71.5986,41.458],[-71.6089,41.4522],[-71.5982,41.4496],[-71.5951,41.4462],[-71.6256,41.3608],[-71.6515,41.2984]]]},"properties":{"name":"South Kingstown","fips":"4400967460"}},{"type":"Feature","geometry":{"type":"Polygon","coordinates":[[[-71.2248,41.5632],[-71.225,41.5561],[-71.2211,41.5433],[-71.1278,41.5632],[-71.1316,41.5937],[-71.1403,41.6048],[-71.142,41.6125],[-71.1402,41.6239],[-71.1353,41.6285],[-71.1326,41.6604],[-71.1761,41.6682],[-71.1758,41.6715],[-71.1955,41.6751],[-71.2084,41.6906],[-71.2207,41.6753],[-71.2211,41.6704],[-71.2246,41.6661],[-71.2151,41.6622],[-71.2118,41.6563],[-71.2223,41.6007],[-71.2248,41.5632]]]},"properties":{"name":"Tiverton","fips":"4400570880"}},{"type":"Feature","geometry":{"type":"Polygon","coordinates":[[[-71.294,41.7104],[-71.2515,41.7154],[-71.2432,41.6966],[-71.2104,41.688],[-71.2084,41.6906],[-71.2611,41.7521],[-71.2844,41.762],[-71.2866,41.7424],[-71.2898,41.7338],[-71.2875,41.7234],[-71.2893,41.716],[-71.294,41.7104]]]},"properties":{"name":"Warren","fips":"4400173760"}},{"type":"Feature","geometry":{"type":"Polygon","coordinates":[[[-71.5188,41.696],[-71.5017,41.6965],[-71.4992,41.6629],[-71.4423,41.664],[-71.4522,41.6485],[-71.4555,41.6474],[-71.4581,41.6498],[-71.4657,41.6431],[-71.4648,41.6389],[-71.4687,41.6386],[-71.4678,41.6342],[-71.4624,41.6384],[-71.4591,41.6379],[-71.4521,41.6294],[-71.4484,41.6333],[-71.4492,41.6369],[-71.442,41.6433],[-71.4426,41.6458],[-71.4328,41.6513],[-71.4289,41.6506],[-71.4176,41.655],[-71.3805,41.6503],[-71.3797,41.6565],[-71.3748,41.6628],[-71.3615,41.6692],[-71.3541,41.6782],[-71.331,41.687],[-71.3257,41.6932],[-71.3426,41.7156],[-71.3685,41.7394],[-71.3783,41.7553],[-71.3847,41.7576],[-71.3885,41.7638],[-71.3945,41.7641],[-71.3998,41.7683],[-71.4008,41.7665],[-71.4107,41.7666],[-71.4197,41.7616],[-71.4187,41.7641],[-71.4213,41.7649],[-71.4273,41.7607],[-71.4376,41.7598],[-71.4407,41.7578],[-71.4391,41.7564],[-71.4406,41.7522],[-71.4466,41.7499],[-71.4441,41.7406],[-71.4517,41.7395],[-71.4537,41.733],[-71.4839,41.7316],[-71.4855,41.7263],[-71.4902,41.7221],[-71.4901,41.7178],[-71.5126,41.7068],[-71.5188,41.696]]]},"properties":{"name":"Warwick","fips":"4400374300"}},{"type":"Feature","geometry":{"type":"Polygon","coordinates":[[[-71.7892,41.5982],[-71.6536,41.5987],[-71.644,41.601],[-71.545,41.6019],[-71.5471,41.6619],[-71.7872,41.6561],[-71.7892,41.5982]]]},"properties":{"name":"West Greenwich","fips":"4400377720"}},{"type":"Feature","geometry":{"type":"Polygon","coordinates":[[[-71.5343,41.7302],[-71.5334,41.6622],[-71.4992,41.6629],[-71.5017,41.6965],[-71.5189,41.6959],[-71.5126,41.7068],[-71.4901,41.7178],[-71.4902,41.7221],[-71.4855,41.7263],[-71.4839,41.7316],[-71.5343,41.7302]]]},"properties":{"name":"West Warwick","fips":"4400378440"}},{"type":"Feature","geometry":{"type":"Polygon","coordinates":[[[-71.9072,41.3045],[-71.791,41.1841],[-71.7915,41.2722],[-71.7784,41.2751],[-71.747,41.275],[-71.7292,41.2779],[-71.7309,41.3933],[-71.7313,41.3985],[-71.7351,41.3995],[-71.7309,41.4006],[-71.743,41.4014],[-71.7481,41.4046],[-71.7482,41.4073],[-71.7555,41.4079],[-71.7676,41.3949],[-71.7705,41.3982],[-71.7676,41.3998],[-71.7723,41.4007],[-71.7714,41.3972],[-71.7754,41.3941],[-71.7737,41.395],[-71.7811,41.3932],[-71.7796,41.3868],[-71.7814,41.389],[-71.7835,41.3865],[-71.7838,41.3897],[-71.7972,41.3932],[-71.7983,41.3965],[-71.7941,41.3973],[-71.7997,41.3986],[-71.8035,41.4041],[-71.796,41.4073],[-71.7986,41.4101],[-71.796,41.4147],[-71.7973,41.4169],[-71.8014,41.4155],[-71.8181,41.4199],[-71.8341,41.4116],[-71.8397,41.4122],[-71.8436,41.4053],[-71.8411,41.3997],[-71.8422,41.3954],[-71.8331,41.3878],[-71.8335,41.3823],[-71.8306,41.3788],[-71.8327,41.3758],[-71.8321,41.3699],[-71.8376,41.3655],[-71.8378,41.359],[-71.836,41.354],[-71.8313,41.3513],[-71.8294,41.3424],[-71.8575,41.3208],[-71.8665,41.3192],[-71.8921,41.3301],[-71.9072,41.3045]]]},"properties":{"name":"Westerly","fips":"4400977000"}},{"type":"Feature","geometry":{"type":"Polygon","coordinates":[[[-71.54,42.0098],[-71.5317,41.9896],[-71.5172,41.9834],[-71.4874,41.9791],[-71.4599,42.0076],[-71.4581,42.0178],[-71.5289,42.0151],[-71.5298,42.0098],[-71.54,42.0098]]]},"properties":{"name":"Woonsocket","fips":"4400780780"}}],"source":"U.S. Census Bureau TIGERweb, County Subdivisions"}