{"type":"FeatureCollection","features":[{"type":"Feature","id":"45001","properties":{"name":"Abbeville","fips":"45001"},"geometry":{"type":"Polygon","coordinates":[[[-82.3269,34.0641],[-82.5306,34.0719],[-82.5971,34.0124],[-82.6407,34.0883],[-82.6413,34.0889],[-82.6522,34.0997],[-82.654,34.1003],[-82.6586,34.1031],[-82.6591,34.1035],[-82.6681,34.1202],[-82.6773,34.1317],[-82.7041,34.141],[-82.7175,34.1505],[-82.7319,34.1784],[-82.7415,34.2087],[-82.314,34.484],[-82.2463,34.4097],[-82.3342,34.3426],[-82.2477,34.2196],[-82.2672,34.1084],[-82.3269,34.0641]]]}},{"type":"Feature","id":"45003","properties":{"name":"Aiken","fips":"45003"},"geometry":{"type":"Polygon","coordinates":[[[-81.5221,33.8255],[-81.4153,33.7322],[-81.1873,33.6529],[-81.3735,33.4905],[-81.3729,33.4904],[-81.3748,33.4897],[-81.5164,33.3822],[-81.757,33.1981],[-81.7723,33.1801],[-81.852,33.2474],[-81.8521,33.2475],[-81.9027,33.3312],[-81.9126,33.4088],[-81.9579,33.4686],[-81.967,33.4806],[-82.0071,33.5228],[-82.0076,33.5233],[-82.0143,33.5303],[-82.0125,33.5322],[-81.6518,33.8145],[-81.5715,33.8772],[-81.5691,33.8718],[-81.5637,33.8653],[-81.5607,33.8626],[-81.5545,33.8605],[-81.5516,33.8607],[-81.5469,33.8587],[-81.5409,33.8519],[-81.5423,33.8484],[-81.5409,33.8456],[-81.5387,33.8445],[-81.5383,33.8415],[-81.5344,33.8375],[-81.5336,33.8322],[-81.5271,33.8298],[-81.5229,33.827],[-81.5221,33.8255]]]}},{"type":"Feature","id":"45005","properties":{"name":"Allendale","fips":"45005"},"geometry":{"type":"Polygon","coordinates":[[[-81.0823,33.0266],[-81.237,32.9402],[-81.2617,32.8391],[-81.4051,32.745],[-81.4049,32.747],[-81.4238,32.8105],[-81.4998,32.9638],[-81.4947,32.979],[-81.4915,32.9986],[-81.4966,33.0102],[-81.5117,33.0245],[-81.5418,33.0457],[-81.6158,33.0925],[-81.5419,33.1583],[-81.3649,33.1081],[-81.1931,33.1187],[-81.0823,33.0266]]]}},{"type":"Feature","id":"45007","properties":{"name":"Anderson","fips":"45007"},"geometry":{"type":"Polygon","coordinates":[[[-82.4867,34.8195],[-82.4538,34.6251],[-82.4197,34.5571],[-82.314,34.484],[-82.7415,34.2087],[-82.7419,34.2101],[-82.7444,34.2249],[-82.7435,34.2273],[-82.742,34.2302],[-82.755,34.2761],[-82.7661,34.2935],[-82.8487,34.4238],[-82.8749,34.4689],[-82.8738,34.4715],[-82.8829,34.479],[-82.9027,34.4859],[-82.9391,34.4862],[-82.9796,34.4827],[-82.9922,34.4792],[-82.8403,34.6232],[-82.7887,34.672],[-82.4867,34.8195]]]}},{"type":"Feature","id":"45009","properties":{"name":"Bamberg","fips":"45009"},"geometry":{"type":"Polygon","coordinates":[[[-81.2201,33.4395],[-80.9488,33.308],[-80.7979,33.1769],[-81.0823,33.0266],[-81.1931,33.1187],[-81.2278,33.1607],[-81.2227,33.44],[-81.2215,33.439],[-81.2201,33.4395]]]}},{"type":"Feature","id":"45011","properties":{"name":"Barnwell","fips":"45011"},"geometry":{"type":"Polygon","coordinates":[[[-81.7723,33.1801],[-81.757,33.1981],[-81.5164,33.3822],[-81.3748,33.4897],[-81.3729,33.4904],[-81.2227,33.44],[-81.2278,33.1607],[-81.1931,33.1187],[-81.3649,33.1081],[-81.5419,33.1583],[-81.6158,33.0925],[-81.6203,33.0954],[-81.6969,33.1166],[-81.7723,33.1801]]]}},{"type":"Feature","id":"45013","properties":{"name":"Beaufort","fips":"45013"},"geometry":{"type":"Polygon","coordinates":[[[-80.8263,32.7043],[-80.6677,32.6655],[-80.6598,32.6127],[-80.5515,32.5658],[-80.4769,32.4854],[-80.4802,32.4774],[-80.4846,32.461],[-80.4802,32.447],[-80.4676,32.4253],[-80.4461,32.4237],[-80.433,32.4107],[-80.4299,32.4018],[-80.4293,32.3897],[-80.4343,32.3752],[-80.4455,32.3503],[-80.4568,32.3369],[-80.4552,32.3265],[-80.4663,32.3192],[-80.5179,32.2988],[-80.5394,32.287],[-80.5457,32.2821],[-80.5711,32.2733],[-80.5964,32.2735],[-80.6183,32.2602],[-80.6389,32.2556],[-80.6586,32.2486],[-80.6692,32.2168],[-80.6889,32.201],[-80.7215,32.1604],[-80.7491,32.1401],[-80.79,32.1225],[-80.8125,32.1097],[-80.8215,32.1086],[-80.8284,32.1132],[-80.8315,32.1127],[-80.8444,32.1097],[-80.8587,32.0996],[-80.8781,32.0798],[-81.0163,32.2419],[-81.0064,32.3062],[-80.9349,32.3004],[-80.8295,32.4118],[-80.8697,32.6609],[-80.837,32.7],[-80.8263,32.7043]]]}},{"type":"Feature","id":"45015","properties":{"name":"Berkeley","fips":"45015"},"geometry":{"type":"Polygon","coordinates":[[[-79.4467,33.2135],[-79.5188,33.1483],[-79.6433,33.1235],[-79.8551,32.8739],[-79.9283,32.824],[-79.9488,32.9081],[-80.0118,32.8999],[-80.0555,32.9995],[-80.1492,33.0216],[-80.2796,33.1192],[-80.2992,33.1303],[-80.3619,33.2574],[-80.2538,33.2993],[-80.2223,33.4437],[-80.1017,33.4969],[-79.972,33.5009],[-79.7562,33.3297],[-79.677,33.3049],[-79.4467,33.2135]]]}},{"type":"Feature","id":"45017","properties":{"name":"Calhoun","fips":"45017"},"geometry":{"type":"Polygon","coordinates":[[[-81.0123,33.8801],[-80.9173,33.8137],[-80.7473,33.7617],[-80.6201,33.7432],[-80.5341,33.6439],[-80.4963,33.5585],[-80.5523,33.5654],[-80.659,33.471],[-80.8076,33.6041],[-80.8795,33.6193],[-80.9398,33.6088],[-81.0429,33.7071],[-80.9263,33.7556],[-81.0585,33.7471],[-81.0123,33.8801]]]}},{"type":"Feature","id":"45019","properties":{"name":"Charleston","fips":"45019"},"geometry":{"type":"Polygon","coordinates":[[[-79.4467,33.2135],[-79.4384,33.2151],[-79.4136,33.1982],[-79.4049,33.1849],[-79.2688,33.136],[-79.2908,33.1101],[-79.2916,33.1098],[-79.3299,33.09],[-79.3372,33.0723],[-79.3353,33.0654],[-79.3393,33.0503],[-79.36,33.0067],[-79.4037,33.0039],[-79.4165,33.0068],[-79.4234,33.0151],[-79.461,33.0076],[-79.4835,33.0013],[-79.4887,33.0158],[-79.5069,33.0328],[-79.5224,33.0354],[-79.5576,33.0213],[-79.5807,33.0064],[-79.5866,32.9913],[-79.601,32.9793],[-79.6066,32.9722],[-79.6176,32.9527],[-79.6177,32.9449],[-79.6129,32.9348],[-79.6062,32.926],[-79.5859,32.9265],[-79.5817,32.9313],[-79.575,32.9345],[-79.5726,32.9339],[-79.5698,32.9267],[-79.576,32.9062],[-79.6311,32.8886],[-79.6554,32.8727],[-79.6951,32.8504],[-79.6995,32.84],[-79.703,32.8358],[-79.7199,32.8258],[-79.7168,32.8136],[-79.7264,32.806],[-79.811,32.777],[-79.8182,32.7664],[-79.8404,32.7568],[-79.8485,32.7552],[-79.8667,32.7574],[-79.8722,32.7521],[-79.8736,32.7457],[-79.8684,32.7348],[-79.8703,32.7278],[-79.888,32.6952],[-79.885,32.6844],[-79.9157,32.6649],[-79.9685,32.6397],[-79.9752,32.6395],[-79.9869,32.6264],[-79.9917,32.6164],[-79.9994,32.6119],[-80.0105,32.6089],[-80.0373,32.6102],[-80.077,32.6033],[-80.1214,32.5905],[-80.1484,32.5785],[-80.1673,32.5599],[-80.1718,32.5461],[-80.1884,32.5536],[-80.1937,32.5542],[-80.2052,32.5555],[-80.2464,32.5311],[-80.2496,32.5296],[-80.3528,32.5002],[-80.4166,32.5463],[-80.39,32.6479],[-80.4461,32.7275],[-80.4013,32.8585],[-80.1481,32.8189],[-80.1588,32.8301],[-80.1631,32.8413],[-80.1745,32.8457],[-80.079,32.9278],[-80.1492,33.0216],[-80.0555,32.9995],[-80.0118,32.8999],[-79.9488,32.9081],[-79.9283,32.824],[-79.8551,32.8739],[-79.6433,33.1235],[-79.5188,33.1483],[-79.4467,33.2135]]]}},{"type":"Feature","id":"45021","properties":{"name":"Cherokee","fips":"45021"},"geometry":{"type":"Polygon","coordinates":[[[-81.4573,34.8393],[-81.4816,34.8662],[-81.7117,34.9126],[-81.7549,34.9327],[-81.8744,35.1841],[-81.8578,35.1835],[-81.7681,35.1801],[-81.4943,35.1699],[-81.4934,35.17],[-81.4614,35.1687],[-81.4524,35.1683],[-81.3667,35.1649],[-81.3666,35.1649],[-81.4096,35.0464],[-81.4884,35.0295],[-81.4573,34.8393]]]}},{"type":"Feature","id":"45023","properties":{"name":"Chester","fips":"45023"},"geometry":{"type":"Polygon","coordinates":[[[-81.4785,34.8215],[-80.8982,34.8207],[-80.8603,34.6958],[-80.8964,34.6318],[-80.8775,34.5431],[-80.9498,34.5453],[-81.4227,34.572],[-81.4785,34.8215]]]}},{"type":"Feature","id":"45025","properties":{"name":"Chesterfield","fips":"45025"},"geometry":{"type":"Polygon","coordinates":[[[-80.2886,34.3662],[-80.3286,34.5013],[-80.4084,34.6148],[-80.5617,34.8175],[-80.5617,34.8175],[-80.4857,34.8167],[-80.4517,34.8164],[-80.4488,34.8163],[-80.4348,34.816],[-80.4259,34.8158],[-80.4196,34.8156],[-80.4184,34.8156],[-80.417,34.8155],[-80.3999,34.8151],[-80.3204,34.8138],[-80.099,34.8101],[-80.098,34.8101],[-80.0772,34.8097],[-80.0729,34.8097],[-80.0428,34.8091],[-80.0275,34.8087],[-79.9276,34.8066],[-79.872,34.6938],[-79.7782,34.6149],[-79.83,34.5319],[-79.8845,34.4912],[-80.0454,34.4926],[-80.2886,34.3662]]]}},{"type":"Feature","id":"45027","properties":{"name":"Clarendon","fips":"45027"},"geometry":{"type":"Polygon","coordinates":[[[-80.5341,33.6439],[-80.4787,33.7143],[-80.392,33.7156],[-80.3971,33.7678],[-80.2559,33.8037],[-79.9746,33.9465],[-79.9456,33.8857],[-79.8756,33.8852],[-79.9956,33.7679],[-79.9744,33.7216],[-80.1017,33.4969],[-80.2223,33.4437],[-80.3545,33.4304],[-80.4963,33.5585],[-80.5341,33.6439]]]}},{"type":"Feature","id":"45029","properties":{"name":"Colleton","fips":"45029"},"geometry":{"type":"Polygon","coordinates":[[[-80.4769,32.4854],[-80.5515,32.5658],[-80.6598,32.6127],[-80.6677,32.6655],[-80.8263,32.7043],[-80.9002,32.8328],[-81.0823,33.0266],[-80.7979,33.1769],[-80.7959,33.1769],[-80.7937,33.1786],[-80.793,33.1798],[-80.7917,33.1811],[-80.7903,33.1808],[-80.7097,33.1565],[-80.6221,33.0661],[-80.3905,33.0439],[-80.4013,32.8585],[-80.4461,32.7275],[-80.39,32.6479],[-80.4166,32.5463],[-80.3528,32.5002],[-80.2496,32.5296],[-80.2777,32.5162],[-80.3324,32.4781],[-80.3384,32.4787],[-80.3439,32.4908],[-80.364,32.4961],[-80.3807,32.4864],[-80.3868,32.4788],[-80.3926,32.4753],[-80.4135,32.4707],[-80.4159,32.4721],[-80.4179,32.4761],[-80.4185,32.4909],[-80.4235,32.498],[-80.4394,32.5035],[-80.4521,32.4973],[-80.4657,32.4953],[-80.4721,32.497],[-80.4769,32.4854]]]}},{"type":"Feature","id":"45031","properties":{"name":"Darlington","fips":"45031"},"geometry":{"type":"Polygon","coordinates":[[[-80.0728,34.086],[-80.1314,34.1287],[-80.1127,34.197],[-80.1772,34.3662],[-80.2887,34.3641],[-80.2869,34.3646],[-80.2869,34.3653],[-80.2886,34.3662],[-80.0454,34.4926],[-79.8845,34.4912],[-79.83,34.5319],[-79.7218,34.4854],[-79.7506,34.4368],[-79.6846,34.4005],[-79.6578,34.3052],[-79.8831,34.2041],[-79.9998,34.129],[-80.0728,34.086]]]}},{"type":"Feature","id":"45033","properties":{"name":"Dillon","fips":"45033"},"geometry":{"type":"Polygon","coordinates":[[[-79.5479,34.2309],[-79.6334,34.298],[-79.45,34.621],[-79.3583,34.5454],[-79.3313,34.5219],[-79.3249,34.5163],[-79.3232,34.5146],[-79.199,34.4067],[-79.192,34.401],[-79.1907,34.3998],[-79.1515,34.3668],[-79.1432,34.3598],[-79.0712,34.2992],[-79.1282,34.2537],[-79.3803,34.3006],[-79.4807,34.2881],[-79.5479,34.2309]]]}},{"type":"Feature","id":"45035","properties":{"name":"Dorchester","fips":"45035"},"geometry":{"type":"Polygon","coordinates":[[[-80.3619,33.2574],[-80.2992,33.1303],[-80.2796,33.1192],[-80.1492,33.0216],[-80.079,32.9278],[-80.1745,32.8457],[-80.1631,32.8413],[-80.1588,32.8301],[-80.1481,32.8189],[-80.4013,32.8585],[-80.3905,33.0439],[-80.6221,33.0661],[-80.7097,33.1565],[-80.7903,33.1808],[-80.5028,33.3345],[-80.4846,33.28],[-80.3619,33.2574]]]}},{"type":"Feature","id":"45037","properties":{"name":"Edgefield","fips":"45037"},"geometry":{"type":"Polygon","coordinates":[[[-81.6518,33.8145],[-82.0125,33.5322],[-82.0143,33.5303],[-82.0282,33.5449],[-82.0463,33.5638],[-82.069,33.5754],[-82.0988,33.5864],[-82.1166,33.5897],[-82.0955,33.6339],[-82.166,33.6903],[-82.1724,33.7657],[-82.1137,33.8299],[-82.1557,33.9293],[-82.047,33.9532],[-82.0083,33.9616],[-81.8946,33.9754],[-81.8368,33.8665],[-81.6518,33.8145]]]}},{"type":"Feature","id":"45039","properties":{"name":"Fairfield","fips":"45039"},"geometry":{"type":"Polygon","coordinates":[[[-80.8259,34.2688],[-81.0959,34.2139],[-81.1783,34.1746],[-81.3169,34.2395],[-81.4232,34.4944],[-81.4211,34.5032],[-81.4249,34.5241],[-81.4275,34.5295],[-81.4243,34.556],[-81.4198,34.5666],[-81.4227,34.572],[-80.9498,34.5453],[-80.8775,34.5431],[-80.8792,34.4578],[-80.7699,34.3771],[-80.8259,34.2688]]]}},{"type":"Feature","id":"45041","properties":{"name":"Florence","fips":"45041"},"geometry":{"type":"Polygon","coordinates":[[[-79.544,34.2197],[-79.569,34.1751],[-79.5153,34.0972],[-79.4825,33.9375],[-79.3243,33.7991],[-79.4965,33.7754],[-79.7984,33.8356],[-79.8756,33.8852],[-79.9456,33.8857],[-79.9746,33.9465],[-79.8935,33.988],[-80.0006,34.0479],[-80.0728,34.086],[-79.9998,34.129],[-79.8831,34.2041],[-79.6578,34.3052],[-79.6445,34.3012],[-79.6418,34.2998],[-79.6354,34.3013],[-79.6334,34.298],[-79.5479,34.2309],[-79.544,34.2252],[-79.544,34.2197]]]}},{"type":"Feature","id":"45043","properties":{"name":"Georgetown","fips":"45043"},"geometry":{"type":"Polygon","coordinates":[[[-79.2351,33.6942],[-79.209,33.7031],[-79.1952,33.7034],[-79.1994,33.7101],[-79.1903,33.7058],[-79.1007,33.5718],[-79.0021,33.5721],[-79.0074,33.5666],[-79.0285,33.5334],[-79.0411,33.5238],[-79.0846,33.4837],[-79.1014,33.461],[-79.1354,33.4039],[-79.1475,33.3782],[-79.152,33.3509],[-79.1584,33.3328],[-79.1623,33.3272],[-79.1803,33.2541],[-79.1806,33.238],[-79.1724,33.2066],[-79.1879,33.1737],[-79.1956,33.166],[-79.2155,33.1556],[-79.2383,33.1371],[-79.2461,33.1249],[-79.2908,33.1101],[-79.2688,33.136],[-79.4049,33.1849],[-79.4136,33.1982],[-79.4384,33.2151],[-79.4467,33.2135],[-79.677,33.3049],[-79.5381,33.4969],[-79.4357,33.5727],[-79.4093,33.6889],[-79.317,33.7799],[-79.3163,33.7786],[-79.3136,33.7758],[-79.3088,33.772],[-79.3067,33.7662],[-79.3047,33.7634],[-79.3006,33.7588],[-79.2987,33.757],[-79.2948,33.7543],[-79.2933,33.7523],[-79.2926,33.7502],[-79.2929,33.7471],[-79.2944,33.7438],[-79.294,33.7411],[-79.2904,33.7391],[-79.2862,33.7374],[-79.2862,33.7357],[-79.2894,33.7343],[-79.2914,33.7324],[-79.2916,33.729],[-79.2883,33.7235],[-79.2872,33.7188],[-79.2864,33.7176],[-79.283,33.716],[-79.2805,33.7163],[-79.2786,33.7182],[-79.2717,33.7219],[-79.2696,33.7199],[-79.2694,33.7178],[-79.2713,33.7157],[-79.2749,33.7143],[-79.2747,33.7111],[-79.2751,33.7089],[-79.2733,33.7081],[-79.2717,33.7086],[-79.2692,33.7109],[-79.2669,33.711],[-79.265,33.7103],[-79.2647,33.7074],[-79.2651,33.706],[-79.2679,33.7044],[-79.2676,33.7034],[-79.2615,33.7036],[-79.2581,33.7027],[-79.2498,33.7034],[-79.2449,33.7057],[-79.2433,33.7061],[-79.2415,33.7054],[-79.2403,33.7037],[-79.2406,33.7026],[-79.2421,33.7015],[-79.2473,33.7008],[-79.2496,33.6993],[-79.2493,33.697],[-79.2464,33.6953],[-79.2389,33.6944],[-79.2351,33.6942]]]}},{"type":"Feature","id":"45045","properties":{"name":"Greenville","fips":"45045"},"geometry":{"type":"Polygon","coordinates":[[[-82.193,34.6863],[-82.236,34.536],[-82.314,34.484],[-82.4197,34.5571],[-82.4538,34.6251],[-82.4867,34.8195],[-82.5379,35.0157],[-82.5886,35.074],[-82.7645,35.0682],[-82.6867,35.1198],[-82.6865,35.1218],[-82.5823,35.1423],[-82.5801,35.142],[-82.5744,35.1442],[-82.5365,35.1591],[-82.5358,35.1587],[-82.5173,35.1626],[-82.5169,35.163],[-82.4761,35.1755],[-82.384,35.2105],[-82.3524,35.2066],[-82.2885,35.1986],[-82.2575,35.1986],[-82.2309,35.1968],[-82.2305,35.1968],[-82.2162,35.196],[-82.2257,34.8502],[-82.1468,34.7856],[-82.193,34.6863]]]}},{"type":"Feature","id":"45047","properties":{"name":"Greenwood","fips":"45047"},"geometry":{"type":"Polygon","coordinates":[[[-81.8701,34.1354],[-82.0083,33.9616],[-82.047,33.9532],[-82.0451,33.9834],[-82.2003,33.9786],[-82.2451,34.0188],[-82.3062,33.9716],[-82.3269,34.0641],[-82.2672,34.1084],[-82.2477,34.2196],[-82.3342,34.3426],[-82.2463,34.4097],[-82.1693,34.3307],[-81.945,34.2031],[-81.8701,34.1354]]]}},{"type":"Feature","id":"45049","properties":{"name":"Hampton","fips":"45049"},"geometry":{"type":"Polygon","coordinates":[[[-80.8263,32.7043],[-80.837,32.7],[-80.8697,32.6609],[-80.9024,32.6216],[-81.0146,32.7531],[-81.2868,32.5448],[-81.3183,32.5597],[-81.3288,32.5612],[-81.3482,32.5693],[-81.3893,32.5954],[-81.3893,32.5954],[-81.4119,32.6184],[-81.4187,32.6294],[-81.4184,32.6347],[-81.4148,32.6374],[-81.4051,32.745],[-81.2617,32.8391],[-81.237,32.9402],[-81.0823,33.0266],[-80.9002,32.8328],[-80.8263,32.7043]]]}},{"type":"Feature","id":"45051","properties":{"name":"Horry","fips":"45051"},"geometry":{"type":"Polygon","coordinates":[[[-79.0021,33.5721],[-79.1007,33.5718],[-79.1903,33.7058],[-79.3391,33.9697],[-79.1267,34.2354],[-79.1351,34.2415],[-79.1282,34.2537],[-79.0712,34.2992],[-78.7122,33.9967],[-78.7101,33.9947],[-78.6505,33.944],[-78.5411,33.8511],[-78.5539,33.8478],[-78.5848,33.8443],[-78.6723,33.8176],[-78.7141,33.8001],[-78.7727,33.7685],[-78.8129,33.7435],[-78.8629,33.7057],[-78.9381,33.6398],[-79.0021,33.5721]]]}},{"type":"Feature","id":"45053","properties":{"name":"Jasper","fips":"45053"},"geometry":{"type":"Polygon","coordinates":[[[-80.8781,32.0798],[-80.9054,32.0519],[-80.8923,32.0438],[-80.8855,32.0346],[-81.0041,32.0722],[-81.0428,32.0845],[-81.0619,32.0879],[-81.1133,32.1132],[-81.1172,32.1176],[-81.122,32.1618],[-81.1255,32.2271],[-81.128,32.2763],[-81.1203,32.2858],[-81.1223,32.3054],[-81.1343,32.3417],[-81.1409,32.3494],[-81.168,32.3684],[-81.199,32.4673],[-81.2754,32.5395],[-81.2868,32.5448],[-81.0146,32.7531],[-80.9024,32.6216],[-80.8697,32.6609],[-80.8295,32.4118],[-80.9349,32.3004],[-81.0064,32.3062],[-81.0163,32.2419],[-80.8781,32.0798]]]}},{"type":"Feature","id":"45055","properties":{"name":"Kershaw","fips":"45055"},"geometry":{"type":"Polygon","coordinates":[[[-80.4799,34.1687],[-80.5781,34.1015],[-80.6044,34.1017],[-80.6185,34.1092],[-80.6162,34.0996],[-80.6356,34.0977],[-80.6395,34.0956],[-80.6467,34.094],[-80.6583,34.0888],[-80.659,34.0857],[-80.673,34.0837],[-80.6764,34.0846],[-80.6837,34.0816],[-80.693,34.0813],[-80.7193,34.069],[-80.8697,34.1824],[-80.8259,34.2688],[-80.7699,34.3771],[-80.8792,34.4578],[-80.7433,34.5399],[-80.74,34.48],[-80.5239,34.5098],[-80.5506,34.5601],[-80.4084,34.6148],[-80.3286,34.5013],[-80.2886,34.3662],[-80.2869,34.3653],[-80.2869,34.3646],[-80.2887,34.3641],[-80.4217,34.2943],[-80.4799,34.1687]]]}},{"type":"Feature","id":"45057","properties":{"name":"Lancaster","fips":"45057"},"geometry":{"type":"Polygon","coordinates":[[[-80.9064,35.0766],[-80.8405,35.0016],[-80.8068,34.9632],[-80.8065,34.9629],[-80.782,34.9358],[-80.7968,34.8253],[-80.7777,34.8197],[-80.7718,34.8196],[-80.6466,34.8186],[-80.6447,34.8186],[-80.6261,34.8182],[-80.626,34.8182],[-80.6212,34.8182],[-80.5617,34.8175],[-80.4084,34.6148],[-80.5506,34.5601],[-80.5239,34.5098],[-80.74,34.48],[-80.7433,34.5399],[-80.8792,34.4578],[-80.8775,34.5431],[-80.8964,34.6318],[-80.8603,34.6958],[-80.8982,34.8207],[-80.8687,34.9511],[-80.9064,35.0766]]]}},{"type":"Feature","id":"45059","properties":{"name":"Laurens","fips":"45059"},"geometry":{"type":"Polygon","coordinates":[[[-82.314,34.484],[-82.236,34.536],[-82.193,34.6863],[-82.1468,34.7856],[-82.0123,34.6686],[-81.854,34.5945],[-81.6436,34.5337],[-81.7826,34.3651],[-81.8957,34.2999],[-81.945,34.2031],[-82.1693,34.3307],[-82.2463,34.4097],[-82.314,34.484]]]}},{"type":"Feature","id":"45061","properties":{"name":"Lee","fips":"45061"},"geometry":{"type":"Polygon","coordinates":[[[-80.2691,34.0351],[-80.2785,34.0367],[-80.2788,34.0367],[-80.2793,34.0368],[-80.3217,34.0804],[-80.4813,34.1126],[-80.4799,34.1687],[-80.4217,34.2943],[-80.2887,34.3641],[-80.1772,34.3662],[-80.1127,34.197],[-80.1314,34.1287],[-80.0728,34.086],[-80.0006,34.0479],[-80.1804,33.952],[-80.2691,34.0351]]]}},{"type":"Feature","id":"45063","properties":{"name":"Lexington","fips":"45063"},"geometry":{"type":"Polygon","coordinates":[[[-81.339,34.1976],[-81.2758,34.0974],[-81.1536,34.078],[-81.0597,34.0053],[-81.0123,33.8801],[-81.0585,33.7471],[-80.9263,33.7556],[-81.0429,33.7071],[-81.0868,33.6953],[-81.1873,33.6529],[-81.4153,33.7322],[-81.5221,33.8255],[-81.5229,33.827],[-81.5271,33.8298],[-81.5336,33.8322],[-81.5344,33.8375],[-81.5383,33.8415],[-81.5387,33.8445],[-81.5409,33.8456],[-81.5423,33.8484],[-81.5409,33.8519],[-81.5469,33.8587],[-81.5516,33.8607],[-81.5545,33.8605],[-81.5607,33.8626],[-81.5637,33.8653],[-81.5691,33.8718],[-81.5715,33.8772],[-81.472,34.0766],[-81.3886,34.0802],[-81.4372,34.13],[-81.339,34.1976]]]}},{"type":"Feature","id":"45067","properties":{"name":"Marion","fips":"45067"},"geometry":{"type":"Polygon","coordinates":[[[-79.544,34.2197],[-79.544,34.2252],[-79.5479,34.2309],[-79.4807,34.2881],[-79.3803,34.3006],[-79.1282,34.2537],[-79.1351,34.2415],[-79.1267,34.2354],[-79.3391,33.9697],[-79.1903,33.7058],[-79.1994,33.7101],[-79.1952,33.7034],[-79.209,33.7031],[-79.2351,33.6942],[-79.2389,33.6944],[-79.2464,33.6953],[-79.2493,33.697],[-79.2496,33.6993],[-79.2473,33.7008],[-79.2421,33.7015],[-79.2406,33.7026],[-79.2403,33.7037],[-79.2415,33.7054],[-79.2433,33.7061],[-79.2449,33.7057],[-79.2498,33.7034],[-79.2581,33.7027],[-79.2615,33.7036],[-79.2676,33.7034],[-79.2679,33.7044],[-79.2651,33.706],[-79.2647,33.7074],[-79.265,33.7103],[-79.2669,33.711],[-79.2692,33.7109],[-79.2717,33.7086],[-79.2733,33.7081],[-79.2751,33.7089],[-79.2747,33.7111],[-79.2749,33.7143],[-79.2713,33.7157],[-79.2694,33.7178],[-79.2696,33.7199],[-79.2717,33.7219],[-79.2786,33.7182],[-79.2805,33.7163],[-79.283,33.716],[-79.2864,33.7176],[-79.2872,33.7188],[-79.2883,33.7235],[-79.2916,33.729],[-79.2914,33.7324],[-79.2894,33.7343],[-79.2862,33.7357],[-79.2862,33.7374],[-79.2904,33.7391],[-79.294,33.7411],[-79.2944,33.7438],[-79.2929,33.7471],[-79.2926,33.7502],[-79.2933,33.7523],[-79.2948,33.7543],[-79.2987,33.757],[-79.3006,33.7588],[-79.3047,33.7634],[-79.3067,33.7662],[-79.3088,33.772],[-79.3136,33.7758],[-79.3163,33.7786],[-79.317,33.7799],[-79.3197,33.7854],[-79.3231,33.7892],[-79.3204,33.7905],[-79.324,33.795],[-79.3243,33.7991],[-79.4825,33.9375],[-79.5153,34.0972],[-79.569,34.1751],[-79.544,34.2197]]]}},{"type":"Feature","id":"45069","properties":{"name":"Marlboro","fips":"45069"},"geometry":{"type":"Polygon","coordinates":[[[-79.7441,34.8057],[-79.6929,34.805],[-79.6902,34.8049],[-79.6881,34.8049],[-79.6342,34.771],[-79.6316,34.7688],[-79.5617,34.712],[-79.5545,34.7064],[-79.5203,34.6783],[-79.519,34.6773],[-79.4902,34.6538],[-79.4793,34.6446],[-79.4716,34.6372],[-79.4687,34.6353],[-79.4618,34.6304],[-79.4613,34.6301],[-79.4598,34.629],[-79.45,34.621],[-79.6334,34.298],[-79.6354,34.3013],[-79.6418,34.2998],[-79.6445,34.3012],[-79.6578,34.3052],[-79.6846,34.4005],[-79.7506,34.4368],[-79.7218,34.4854],[-79.83,34.5319],[-79.7782,34.6149],[-79.872,34.6938],[-79.9276,34.8066],[-79.7736,34.8059],[-79.7728,34.806],[-79.7449,34.8057],[-79.7441,34.8057]]]}},{"type":"Feature","id":"45065","properties":{"name":"McCormick","fips":"45065"},"geometry":{"type":"Polygon","coordinates":[[[-82.047,33.9532],[-82.1557,33.9293],[-82.1137,33.8299],[-82.1724,33.7657],[-82.166,33.6903],[-82.0955,33.6339],[-82.1166,33.5897],[-82.1248,33.5913],[-82.1291,33.5899],[-82.135,33.591],[-82.1799,33.6159],[-82.1966,33.6306],[-82.2186,33.6863],[-82.2475,33.7526],[-82.3015,33.8019],[-82.3245,33.82],[-82.4039,33.8655],[-82.4084,33.8663],[-82.4228,33.8638],[-82.4292,33.8658],[-82.5645,33.9557],[-82.5646,33.9558],[-82.5971,34.0124],[-82.5306,34.0719],[-82.3269,34.0641],[-82.3062,33.9716],[-82.2451,34.0188],[-82.2003,33.9786],[-82.0451,33.9834],[-82.047,33.9532]]]}},{"type":"Feature","id":"45071","properties":{"name":"Newberry","fips":"45071"},"geometry":{"type":"Polygon","coordinates":[[[-81.339,34.1976],[-81.4372,34.13],[-81.3886,34.0802],[-81.472,34.0766],[-81.5389,34.0817],[-81.7316,34.1876],[-81.8606,34.1793],[-81.8701,34.1354],[-81.945,34.2031],[-81.8957,34.2999],[-81.7826,34.3651],[-81.6436,34.5337],[-81.5404,34.445],[-81.4232,34.4944],[-81.3169,34.2395],[-81.3453,34.205],[-81.339,34.1976]]]}},{"type":"Feature","id":"45073","properties":{"name":"Oconee","fips":"45073"},"geometry":{"type":"Polygon","coordinates":[[[-82.8975,35.056],[-82.9158,34.9718],[-82.9001,34.7424],[-82.8403,34.6232],[-82.9922,34.4792],[-82.9927,34.4791],[-82.9953,34.4745],[-83.0068,34.4744],[-83.0347,34.4835],[-83.0522,34.4931],[-83.0727,34.5043],[-83.0872,34.5159],[-83.1069,34.5341],[-83.1703,34.5924],[-83.171,34.5988],[-83.1675,34.6004],[-83.2407,34.6243],[-83.2407,34.6245],[-83.2917,34.6534],[-83.3379,34.6877],[-83.3382,34.6879],[-83.3513,34.7017],[-83.351,34.7132],[-83.3514,34.7145],[-83.3525,34.716],[-83.3524,34.7161],[-83.3391,34.7413],[-83.3241,34.7887],[-83.2832,34.8213],[-83.2673,34.8327],[-83.243,34.8777],[-83.1433,34.9248],[-83.1085,35.0008],[-83.0084,35.027],[-82.8975,35.056]]]}},{"type":"Feature","id":"45075","properties":{"name":"Orangeburg","fips":"45075"},"geometry":{"type":"Polygon","coordinates":[[[-81.2201,33.4395],[-81.2215,33.439],[-81.2227,33.44],[-81.3729,33.4904],[-81.3735,33.4905],[-81.1873,33.6529],[-81.0868,33.6953],[-81.0429,33.7071],[-80.9398,33.6088],[-80.8795,33.6193],[-80.8076,33.6041],[-80.659,33.471],[-80.5523,33.5654],[-80.4963,33.5585],[-80.3545,33.4304],[-80.2223,33.4437],[-80.2538,33.2993],[-80.3619,33.2574],[-80.4846,33.28],[-80.5028,33.3345],[-80.7903,33.1808],[-80.7917,33.1811],[-80.793,33.1798],[-80.7937,33.1786],[-80.7959,33.1769],[-80.7979,33.1769],[-80.9488,33.308],[-81.2201,33.4395]]]}},{"type":"Feature","id":"45077","properties":{"name":"Pickens","fips":"45077"},"geometry":{"type":"Polygon","coordinates":[[[-82.7645,35.0682],[-82.5886,35.074],[-82.5379,35.0157],[-82.4867,34.8195],[-82.7887,34.672],[-82.8403,34.6232],[-82.9001,34.7424],[-82.9158,34.9718],[-82.8975,35.056],[-82.7811,35.0846],[-82.7811,35.0845],[-82.7774,35.0769],[-82.7791,35.0737],[-82.7805,35.069],[-82.782,35.0668],[-82.7645,35.0682]]]}},{"type":"Feature","id":"45079","properties":{"name":"Richland","fips":"45079"},"geometry":{"type":"Polygon","coordinates":[[[-80.7473,33.7617],[-80.9173,33.8137],[-81.0123,33.8801],[-81.0597,34.0053],[-81.1536,34.078],[-81.2758,34.0974],[-81.339,34.1976],[-81.3453,34.205],[-81.3169,34.2395],[-81.1783,34.1746],[-81.0959,34.2139],[-80.8259,34.2688],[-80.8697,34.1824],[-80.7193,34.069],[-80.693,34.0813],[-80.6837,34.0816],[-80.6764,34.0846],[-80.673,34.0837],[-80.659,34.0857],[-80.6583,34.0888],[-80.6467,34.094],[-80.6395,34.0956],[-80.6356,34.0977],[-80.6162,34.0996],[-80.6335,33.8527],[-80.6201,33.7432],[-80.7473,33.7617]]]}},{"type":"Feature","id":"45081","properties":{"name":"Saluda","fips":"45081"},"geometry":{"type":"Polygon","coordinates":[[[-81.5715,33.8772],[-81.6518,33.8145],[-81.8368,33.8665],[-81.8946,33.9754],[-82.0083,33.9616],[-81.8701,34.1354],[-81.8606,34.1793],[-81.7316,34.1876],[-81.5389,34.0817],[-81.472,34.0766],[-81.5715,33.8772]]]}},{"type":"Feature","id":"45083","properties":{"name":"Spartanburg","fips":"45083"},"geometry":{"type":"Polygon","coordinates":[[[-82.0123,34.6686],[-82.1468,34.7856],[-82.2257,34.8502],[-82.2162,35.196],[-82.1955,35.195],[-82.1855,35.1944],[-82.1769,35.1938],[-82.1677,35.1937],[-81.9693,35.1872],[-81.8744,35.1841],[-81.7549,34.9327],[-81.7117,34.9126],[-81.7834,34.8371],[-81.854,34.5945],[-82.0123,34.6686]]]}},{"type":"Feature","id":"45085","properties":{"name":"Sumter","fips":"45085"},"geometry":{"type":"Polygon","coordinates":[[[-80.2691,34.0351],[-80.1804,33.952],[-80.0006,34.0479],[-79.8935,33.988],[-79.9746,33.9465],[-80.2559,33.8037],[-80.3971,33.7678],[-80.392,33.7156],[-80.4787,33.7143],[-80.5341,33.6439],[-80.6201,33.7432],[-80.6335,33.8527],[-80.6162,34.0996],[-80.6185,34.1092],[-80.6044,34.1017],[-80.5781,34.1015],[-80.4799,34.1687],[-80.4813,34.1126],[-80.3217,34.0804],[-80.2793,34.0368],[-80.2788,34.0367],[-80.2785,34.0367],[-80.2691,34.0351]]]}},{"type":"Feature","id":"45087","properties":{"name":"Union","fips":"45087"},"geometry":{"type":"Polygon","coordinates":[[[-81.854,34.5945],[-81.7834,34.8371],[-81.7117,34.9126],[-81.4816,34.8662],[-81.4573,34.8393],[-81.4618,34.831],[-81.4785,34.8215],[-81.4227,34.572],[-81.4198,34.5666],[-81.4243,34.556],[-81.4275,34.5295],[-81.4249,34.5241],[-81.4211,34.5032],[-81.4232,34.4944],[-81.5404,34.445],[-81.6436,34.5337],[-81.854,34.5945]]]}},{"type":"Feature","id":"45089","properties":{"name":"Williamsburg","fips":"45089"},"geometry":{"type":"Polygon","coordinates":[[[-79.3243,33.7991],[-79.324,33.795],[-79.3204,33.7905],[-79.3231,33.7892],[-79.3197,33.7854],[-79.317,33.7799],[-79.4093,33.6889],[-79.4357,33.5727],[-79.5381,33.4969],[-79.677,33.3049],[-79.7562,33.3297],[-79.972,33.5009],[-80.1017,33.4969],[-79.9744,33.7216],[-79.9956,33.7679],[-79.8756,33.8852],[-79.7984,33.8356],[-79.4965,33.7754],[-79.3243,33.7991]]]}},{"type":"Feature","id":"45091","properties":{"name":"York","fips":"45091"},"geometry":{"type":"Polygon","coordinates":[[[-81.0325,35.1091],[-81.0362,35.1032],[-81.0465,35.1006],[-81.0521,35.0963],[-81.0572,35.0861],[-81.058,35.0732],[-81.0575,35.062],[-81.0415,35.0447],[-80.9579,35.0926],[-80.935,35.1074],[-80.9066,35.0768],[-80.9064,35.0766],[-80.8687,34.9511],[-80.8982,34.8207],[-81.4785,34.8215],[-81.4618,34.831],[-81.4573,34.8393],[-81.4884,35.0295],[-81.4096,35.0464],[-81.3666,35.1649],[-81.328,35.1634],[-81.2692,35.1611],[-81.2417,35.1601],[-81.2394,35.16],[-81.0902,35.1526],[-81.0434,35.1484],[-81.0428,35.146],[-81.0325,35.1091]]]}}]}