{"type":"FeatureCollection","features":[{"type":"Feature","id":"46003","properties":{"name":"Aurora","fips":"46003"},"geometry":{"type":"Polygon","coordinates":[[[-98.3315,43.9377],[-98.3315,43.851],[-98.3252,43.8511],[-98.3206,43.4987],[-98.7058,43.4993],[-98.7149,43.4991],[-98.7946,43.4992],[-98.8078,43.9352],[-98.3315,43.9377]]]}},{"type":"Feature","id":"46005","properties":{"name":"Beadle","fips":"46005"},"geometry":{"type":"Polygon","coordinates":[[[-98.7005,44.1967],[-98.7058,44.6342],[-97.9778,44.6316],[-97.8562,44.6312],[-97.853,44.5444],[-97.8532,44.5433],[-97.8537,44.1952],[-98.332,44.1966],[-98.7005,44.1967]]]}},{"type":"Feature","id":"46007","properties":{"name":"Bennett","fips":"46007"},"geometry":{"type":"Polygon","coordinates":[[[-101.2281,42.9979],[-101.2292,42.9979],[-101.2303,42.9979],[-101.6254,42.9962],[-101.8754,42.9993],[-102.0825,42.9994],[-102.1089,43.1293],[-102.1108,43.3899],[-101.2282,43.3892],[-101.2277,43.0021],[-101.2281,42.9979]]]}},{"type":"Feature","id":"46009","properties":{"name":"Bon Homme","fips":"46009"},"geometry":{"type":"Polygon","coordinates":[[[-98.0771,43.1683],[-97.6375,43.1688],[-97.6351,42.845],[-97.6865,42.8424],[-97.7745,42.8498],[-97.8144,42.8611],[-97.8285,42.8688],[-97.8453,42.8677],[-97.8657,42.8629],[-97.8753,42.8587],[-97.8799,42.8354],[-97.8886,42.8173],[-97.909,42.7949],[-97.9367,42.7758],[-97.9501,42.7696],[-98.0003,42.7633],[-98.0172,42.7624],[-98.035,42.7642],[-98.0566,42.7708],[-98.1574,42.8319],[-98.0928,42.9739],[-98.0771,43.1683]]]}},{"type":"Feature","id":"46011","properties":{"name":"Brookings","fips":"46011"},"geometry":{"type":"Polygon","coordinates":[[[-97.1297,44.1959],[-97.128,44.5431],[-96.8855,44.5438],[-96.452,44.5436],[-96.452,44.5435],[-96.4522,44.5269],[-96.452,44.5169],[-96.452,44.5068],[-96.4521,44.473],[-96.4522,44.4709],[-96.4518,44.4604],[-96.4519,44.4415],[-96.4521,44.3897],[-96.4521,44.3837],[-96.4522,44.3601],[-96.4523,44.3549],[-96.4523,44.3453],[-96.4522,44.3422],[-96.4522,44.3406],[-96.4523,44.3281],[-96.4524,44.326],[-96.4522,44.3134],[-96.4524,44.3121],[-96.4522,44.2987],[-96.4523,44.297],[-96.4525,44.2857],[-96.4526,44.2827],[-96.4524,44.272],[-96.4524,44.269],[-96.4524,44.2553],[-96.4527,44.2546],[-96.4528,44.1969],[-96.4528,44.1968],[-96.8892,44.1957],[-97.1297,44.1959]]]}},{"type":"Feature","id":"46013","properties":{"name":"Brown","fips":"46013"},"geometry":{"type":"Polygon","coordinates":[[[-97.9788,45.9359],[-97.9796,45.5885],[-97.9815,45.2404],[-98.7178,45.2437],[-98.7225,45.2438],[-98.7222,45.5912],[-98.725,45.5913],[-98.7244,45.9387],[-98.1856,45.9362],[-98.1846,45.9362],[-98.0705,45.9362],[-98.0082,45.9361],[-98.0081,45.9361],[-97.9869,45.936],[-97.9788,45.9359]]]}},{"type":"Feature","id":"46015","properties":{"name":"Brule","fips":"46015"},"geometry":{"type":"Polygon","coordinates":[[[-98.927,43.9351],[-98.8078,43.9352],[-98.7946,43.4992],[-99.2979,43.4999],[-99.3754,43.6569],[-99.4588,43.6558],[-99.4102,43.7746],[-99.3108,43.8552],[-99.3559,43.9344],[-99.3507,43.9338],[-98.927,43.9351]]]}},{"type":"Feature","id":"46017","properties":{"name":"Buffalo","fips":"46017"},"geometry":{"type":"Polygon","coordinates":[[[-99.5766,44.1924],[-99.3002,44.1948],[-98.926,44.1966],[-98.927,43.9351],[-99.3507,43.9338],[-99.3559,43.9344],[-99.3537,43.9953],[-99.5625,44.1015],[-99.5766,44.1924]]]}},{"type":"Feature","id":"46019","properties":{"name":"Butte","fips":"46019"},"geometry":{"type":"Polygon","coordinates":[[[-104.0559,44.571],[-104.0558,44.6913],[-104.0559,44.6939],[-104.0558,44.7005],[-104.0559,44.7234],[-104.0559,44.7237],[-104.056,44.768],[-104.056,44.7682],[-104.0577,44.9974],[-104.0401,45.0],[-104.0403,45.2129],[-102.9573,45.2129],[-102.9574,45.0396],[-102.9641,44.6043],[-103.5677,44.6041],[-103.8206,44.6048],[-104.0559,44.571]]]}},{"type":"Feature","id":"46021","properties":{"name":"Campbell","fips":"46021"},"geometry":{"type":"Polygon","coordinates":[[[-100.4301,45.5948],[-100.309,45.7078],[-100.387,45.8691],[-100.4994,45.9436],[-100.4628,45.9436],[-100.4306,45.9436],[-100.4244,45.9436],[-100.4202,45.9435],[-100.4104,45.9435],[-100.2941,45.9433],[-100.2853,45.9431],[-100.2841,45.943],[-100.2756,45.9429],[-100.2748,45.9429],[-100.1708,45.9425],[-100.1521,45.9425],[-100.1417,45.9425],[-100.1103,45.9424],[-100.1085,45.9424],[-100.0842,45.9423],[-100.069,45.9422],[-100.0055,45.9419],[-99.9658,45.9418],[-99.8803,45.9417],[-99.8801,45.9417],[-99.8387,45.9413],[-99.7504,45.9409],[-99.7495,45.941],[-99.7493,45.9409],[-99.7479,45.9409],[-99.7181,45.9409],[-99.7181,45.9409],[-99.7175,45.5934],[-100.4301,45.5948]]]}},{"type":"Feature","id":"46023","properties":{"name":"Charles Mix","fips":"46023"},"geometry":{"type":"Polygon","coordinates":[[[-98.4985,42.9986],[-98.5249,43.0393],[-98.6905,43.0766],[-98.7734,43.1459],[-98.8688,43.162],[-98.8968,43.2469],[-99.0693,43.3207],[-99.1529,43.4269],[-99.3043,43.4604],[-99.298,43.4997],[-99.2979,43.4999],[-98.7946,43.4992],[-98.7149,43.4991],[-98.7058,43.4993],[-98.6807,43.3732],[-98.1095,43.1968],[-98.069,43.1849],[-98.0771,43.1683],[-98.0928,42.9739],[-98.1574,42.8319],[-98.1658,42.837],[-98.2045,42.8468],[-98.3097,42.8812],[-98.3259,42.8865],[-98.447,42.9351],[-98.4674,42.9476],[-98.4905,42.9779],[-98.4957,42.988],[-98.4985,42.9986]]]}},{"type":"Feature","id":"46025","properties":{"name":"Clark","fips":"46025"},"geometry":{"type":"Polygon","coordinates":[[[-97.4913,44.804],[-97.4923,44.5439],[-97.853,44.5444],[-97.8562,44.6312],[-97.9778,44.6316],[-97.9818,45.1533],[-97.4943,45.1516],[-97.4913,44.804]]]}},{"type":"Feature","id":"46027","properties":{"name":"Clay","fips":"46027"},"geometry":{"type":"Polygon","coordinates":[[[-96.8057,43.0837],[-96.8062,42.7042],[-96.8066,42.7034],[-96.8131,42.7064],[-96.9068,42.7338],[-96.9205,42.7314],[-96.961,42.7381],[-97.0157,42.7587],[-97.0261,42.7626],[-97.0522,42.7702],[-97.1375,42.7823],[-97.1631,42.7934],[-97.1604,42.7997],[-97.1605,43.0831],[-96.9241,43.0837],[-96.8057,43.0837]]]}},{"type":"Feature","id":"46029","properties":{"name":"Codington","fips":"46029"},"geometry":{"type":"Polygon","coordinates":[[[-96.8823,44.9769],[-96.8846,44.8044],[-97.4913,44.804],[-97.4943,45.1516],[-97.2263,45.1518],[-96.8839,45.1502],[-96.8823,44.9769]]]}},{"type":"Feature","id":"46031","properties":{"name":"Corson","fips":"46031"},"geometry":{"type":"Polygon","coordinates":[[[-100.3419,45.4729],[-101.2618,45.4728],[-101.4702,45.4724],[-101.9998,45.4724],[-102.0007,45.9445],[-102.0007,45.9445],[-102.0004,45.9446],[-101.9987,45.9446],[-101.9986,45.9446],[-101.9922,45.9445],[-101.9895,45.9445],[-101.9737,45.9445],[-101.9574,45.9445],[-101.8868,45.9446],[-101.8526,45.9445],[-101.833,45.9445],[-101.7946,45.9444],[-101.7901,45.9444],[-101.7662,45.9443],[-101.7653,45.9444],[-101.7643,45.9444],[-101.7586,45.9445],[-101.7301,45.9444],[-101.7234,45.9442],[-101.7088,45.9443],[-101.6818,45.9444],[-101.6806,45.9443],[-101.6576,45.9444],[-101.6286,45.9443],[-101.5622,45.9442],[-101.5573,45.9441],[-101.3738,45.9443],[-101.3707,45.9442],[-101.3653,45.9441],[-101.3339,45.9442],[-101.3133,45.9442],[-101.2872,45.9441],[-101.2715,45.9442],[-101.224,45.944],[-101.2038,45.9439],[-101.1791,45.9439],[-101.1757,45.944],[-101.1711,45.944],[-101.1632,45.9439],[-101.1461,45.9438],[-101.1426,45.9438],[-101.1068,45.944],[-101.1013,45.9438],[-100.9807,45.9441],[-100.9766,45.9439],[-100.9644,45.9438],[-100.939,45.9438],[-100.9356,45.9438],[-100.8902,45.9439],[-100.7698,45.9438],[-100.7621,45.9438],[-100.7621,45.9438],[-100.7504,45.9436],[-100.7209,45.944],[-100.6508,45.9437],[-100.6277,45.9436],[-100.5119,45.9437],[-100.5118,45.9437],[-100.4994,45.9436],[-100.387,45.8691],[-100.309,45.7078],[-100.4301,45.5948],[-100.4866,45.5365],[-100.3419,45.4729]]]}},{"type":"Feature","id":"46033","properties":{"name":"Custer","fips":"46033"},"geometry":{"type":"Polygon","coordinates":[[[-104.0548,43.5033],[-104.055,43.5586],[-104.0548,43.5794],[-104.0549,43.5835],[-104.0549,43.5839],[-104.0551,43.7471],[-104.0551,43.7504],[-104.0551,43.8535],[-102.6872,43.8554],[-102.6955,43.7981],[-102.8171,43.6897],[-102.8104,43.6881],[-102.9025,43.6749],[-103.0011,43.6058],[-103.0008,43.4768],[-103.9354,43.4788],[-104.0548,43.4778],[-104.0548,43.5031],[-104.0548,43.5033]]]}},{"type":"Feature","id":"46035","properties":{"name":"Davison","fips":"46035"},"geometry":{"type":"Polygon","coordinates":[[[-97.965,43.499],[-98.1148,43.4983],[-98.3206,43.4987],[-98.3252,43.8511],[-97.9673,43.8507],[-97.9674,43.8493],[-97.965,43.499]]]}},{"type":"Feature","id":"46037","properties":{"name":"Day","fips":"46037"},"geometry":{"type":"Polygon","coordinates":[[[-97.9815,45.2404],[-97.9796,45.5885],[-97.3734,45.5876],[-97.2271,45.5582],[-97.2262,45.2976],[-97.2263,45.1518],[-97.4943,45.1516],[-97.9818,45.1533],[-97.9816,45.171],[-97.9815,45.1722],[-97.9815,45.2404]]]}},{"type":"Feature","id":"46039","properties":{"name":"Deuel","fips":"46039"},"geometry":{"type":"Polygon","coordinates":[[[-96.8823,44.9769],[-96.4521,44.9775],[-96.4521,44.9775],[-96.4523,44.9627],[-96.452,44.9107],[-96.4519,44.9067],[-96.452,44.8901],[-96.4516,44.8056],[-96.4516,44.8055],[-96.4518,44.7977],[-96.4519,44.7923],[-96.4518,44.7905],[-96.4516,44.7762],[-96.4514,44.7618],[-96.4516,44.7605],[-96.4515,44.7031],[-96.4518,44.6313],[-96.4518,44.6312],[-96.4517,44.6307],[-96.4519,44.5441],[-96.452,44.5436],[-96.8855,44.5438],[-96.8846,44.8044],[-96.8823,44.9769]]]}},{"type":"Feature","id":"46041","properties":{"name":"Dewey","fips":"46041"},"geometry":{"type":"Polygon","coordinates":[[[-100.3419,45.4729],[-100.2742,45.3818],[-100.3167,45.3179],[-100.2602,45.2468],[-100.3255,45.0993],[-100.2803,45.0184],[-100.3918,45.026],[-100.4048,44.8977],[-100.4187,44.8434],[-100.5435,44.7611],[-100.6764,44.8232],[-100.7176,44.7709],[-100.8298,44.7832],[-101.0226,44.7242],[-101.1368,44.7471],[-101.1362,44.9941],[-101.501,44.9936],[-101.4863,45.3856],[-101.4702,45.4724],[-101.2618,45.4728],[-100.3419,45.4729]]]}},{"type":"Feature","id":"46043","properties":{"name":"Douglas","fips":"46043"},"geometry":{"type":"Polygon","coordinates":[[[-98.7058,43.4993],[-98.3206,43.4987],[-98.1148,43.4983],[-98.1132,43.4844],[-98.1095,43.1968],[-98.6807,43.3732],[-98.7058,43.4993]]]}},{"type":"Feature","id":"46045","properties":{"name":"Edmunds","fips":"46045"},"geometry":{"type":"Polygon","coordinates":[[[-99.709,45.2459],[-99.7077,45.5934],[-98.725,45.5913],[-98.7222,45.5912],[-98.7225,45.2438],[-99.5734,45.2454],[-99.709,45.2459]]]}},{"type":"Feature","id":"46047","properties":{"name":"Fall River","fips":"46047"},"geometry":{"type":"Polygon","coordinates":[[[-104.0548,43.4778],[-103.9354,43.4788],[-103.0008,43.4768],[-103.0009,43.0005],[-103.1317,43.0008],[-103.133,43.0008],[-103.3408,43.0009],[-103.4046,43.0007],[-103.5051,43.0008],[-103.5052,43.0008],[-103.5062,43.0008],[-103.5066,43.0008],[-103.5763,43.0008],[-103.577,43.0007],[-103.8139,43.0014],[-103.8156,43.0013],[-104.0531,43.0006],[-104.0539,43.2898],[-104.0539,43.297],[-104.0542,43.3044],[-104.0544,43.3259],[-104.0546,43.3909],[-104.0548,43.4289],[-104.0548,43.4778]]]}},{"type":"Feature","id":"46049","properties":{"name":"Faulk","fips":"46049"},"geometry":{"type":"Polygon","coordinates":[[[-99.3118,44.8972],[-99.5727,44.8973],[-99.5734,45.2454],[-98.7225,45.2438],[-98.7178,45.2437],[-98.7165,44.8969],[-99.3118,44.8972]]]}},{"type":"Feature","id":"46051","properties":{"name":"Grant","fips":"46051"},"geometry":{"type":"Polygon","coordinates":[[[-96.4529,45.2691],[-96.4529,45.2689],[-96.4523,45.209],[-96.4522,45.2048],[-96.4522,45.2031],[-96.4523,45.1786],[-96.4524,45.1241],[-96.4524,45.1227],[-96.452,45.0951],[-96.4522,45.0938],[-96.4522,45.0516],[-96.4522,45.0502],[-96.4522,45.0423],[-96.4521,44.9775],[-96.8823,44.9769],[-96.8839,45.1502],[-97.2263,45.1518],[-97.2262,45.2976],[-97.0075,45.2969],[-96.9929,45.3269],[-96.47,45.3268],[-96.4541,45.3015],[-96.4531,45.2981],[-96.4528,45.2843],[-96.4529,45.2691]]]}},{"type":"Feature","id":"46053","properties":{"name":"Gregory","fips":"46053"},"geometry":{"type":"Polygon","coordinates":[[[-99.5345,43.4996],[-99.5291,43.4998],[-99.298,43.4997],[-99.3043,43.4604],[-99.1529,43.4269],[-99.0693,43.3207],[-98.8968,43.2469],[-98.8688,43.162],[-98.7734,43.1459],[-98.6905,43.0766],[-98.5249,43.0393],[-98.4985,42.9986],[-98.5651,42.9984],[-98.5689,42.9985],[-98.6637,42.9984],[-98.6656,42.9985],[-98.7424,42.9983],[-98.7644,42.9983],[-98.8013,42.9982],[-98.824,42.9983],[-98.8999,42.9981],[-98.9032,42.9983],[-98.9191,42.9982],[-98.9192,42.9982],[-98.9621,42.9983],[-99.0004,42.9983],[-99.0219,42.9984],[-99.0223,42.9982],[-99.08,42.9984],[-99.0819,42.9983],[-99.136,42.9983],[-99.139,42.9985],[-99.1511,42.9983],[-99.1614,42.9985],[-99.1952,42.9981],[-99.2345,42.9983],[-99.2543,42.9981],[-99.2545,42.9981],[-99.2627,42.9982],[-99.288,42.9982],[-99.3473,42.9982],[-99.3686,42.9981],[-99.3711,42.9981],[-99.3743,42.998],[-99.3956,42.9982],[-99.4714,42.998],[-99.4745,42.9981],[-99.4908,42.9981],[-99.4943,42.9981],[-99.534,42.998],[-99.5345,43.4996]]]}},{"type":"Feature","id":"46055","properties":{"name":"Haakon","fips":"46055"},"geometry":{"type":"Polygon","coordinates":[[[-101.1368,44.7471],[-101.1545,44.6899],[-101.1668,44.1681],[-101.0469,44.1685],[-101.0468,43.995],[-101.0641,43.9949],[-102.0073,43.9945],[-102.0011,44.5109],[-102.0008,44.5113],[-102.0004,44.5117],[-101.889,44.5385],[-101.8112,44.5224],[-101.715,44.5795],[-101.531,44.5679],[-101.3599,44.689],[-101.2351,44.6906],[-101.1368,44.7471]]]}},{"type":"Feature","id":"46057","properties":{"name":"Hamlin","fips":"46057"},"geometry":{"type":"Polygon","coordinates":[[[-97.4923,44.5439],[-97.4913,44.804],[-96.8846,44.8044],[-96.8855,44.5438],[-97.128,44.5431],[-97.4923,44.5439]]]}},{"type":"Feature","id":"46059","properties":{"name":"Hand","fips":"46059"},"geometry":{"type":"Polygon","coordinates":[[[-98.7058,44.6342],[-98.7005,44.1967],[-98.926,44.1966],[-99.3002,44.1948],[-99.3118,44.8972],[-98.7165,44.8969],[-98.7054,44.8969],[-98.7058,44.6342]]]}},{"type":"Feature","id":"46061","properties":{"name":"Hanson","fips":"46061"},"geometry":{"type":"Polygon","coordinates":[[[-97.6085,43.8491],[-97.607,43.4998],[-97.965,43.499],[-97.9674,43.8493],[-97.9673,43.8507],[-97.8511,43.8499],[-97.6085,43.8491]]]}},{"type":"Feature","id":"46063","properties":{"name":"Harding","fips":"46063"},"geometry":{"type":"Polygon","coordinates":[[[-102.9573,45.2129],[-104.0403,45.2129],[-104.0404,45.3359],[-104.0403,45.3454],[-104.0401,45.3742],[-104.0404,45.3935],[-104.0418,45.4908],[-104.0413,45.5],[-104.0411,45.5034],[-104.0417,45.5391],[-104.0416,45.5507],[-104.0419,45.5579],[-104.0438,45.8684],[-104.044,45.872],[-104.044,45.882],[-104.044,45.882],[-104.0454,45.9453],[-103.6685,45.9452],[-103.6608,45.9452],[-103.6608,45.9452],[-103.5771,45.9453],[-103.5587,45.9451],[-103.4349,45.9453],[-103.4324,45.9453],[-103.418,45.9452],[-103.4113,45.9453],[-103.2841,45.9452],[-103.2841,45.9451],[-103.2184,45.9452],[-103.2106,45.9452],[-103.1613,45.9453],[-103.1409,45.9453],[-103.0979,45.9453],[-103.0785,45.9453],[-103.0478,45.9453],[-103.0261,45.9453],[-102.9957,45.9452],[-102.9953,45.9452],[-102.9899,45.9452],[-102.9421,45.9451],[-102.9573,45.2129]]]}},{"type":"Feature","id":"46065","properties":{"name":"Hughes","fips":"46065"},"geometry":{"type":"Polygon","coordinates":[[[-99.6764,44.5481],[-99.6637,44.5481],[-99.6635,44.2175],[-99.6958,44.1724],[-99.6122,44.1037],[-99.8845,44.1296],[-99.9382,44.1952],[-99.8921,44.2419],[-100.0853,44.3085],[-100.3654,44.3555],[-100.3864,44.44],[-100.574,44.4555],[-100.5265,44.5474],[-99.6764,44.5481]]]}},{"type":"Feature","id":"46067","properties":{"name":"Hutchinson","fips":"46067"},"geometry":{"type":"Polygon","coordinates":[[[-98.0771,43.1683],[-98.069,43.1849],[-98.1095,43.1968],[-98.1132,43.4844],[-98.1148,43.4983],[-97.965,43.499],[-97.607,43.4998],[-97.4014,43.4998],[-97.3992,43.1694],[-97.6375,43.1688],[-98.0771,43.1683]]]}},{"type":"Feature","id":"46069","properties":{"name":"Hyde","fips":"46069"},"geometry":{"type":"Polygon","coordinates":[[[-99.6635,44.2175],[-99.6637,44.5481],[-99.6764,44.5481],[-99.6731,44.8975],[-99.5727,44.8973],[-99.3118,44.8972],[-99.3002,44.1948],[-99.5766,44.1924],[-99.5939,44.204],[-99.6324,44.2157],[-99.6635,44.2175]]]}},{"type":"Feature","id":"46071","properties":{"name":"Jackson","fips":"46071"},"geometry":{"type":"Polygon","coordinates":[[[-101.2282,43.3892],[-102.1108,43.3899],[-102.1391,43.4767],[-102.1392,43.7009],[-102.0189,43.7086],[-102.0073,43.9945],[-101.0641,43.9949],[-101.0643,43.8411],[-101.2283,43.7888],[-101.2282,43.3892]]]}},{"type":"Feature","id":"46073","properties":{"name":"Jerauld","fips":"46073"},"geometry":{"type":"Polygon","coordinates":[[[-98.3315,43.9377],[-98.8078,43.9352],[-98.927,43.9351],[-98.926,44.1966],[-98.7005,44.1967],[-98.332,44.1966],[-98.3315,43.9377]]]}},{"type":"Feature","id":"46075","properties":{"name":"Jones","fips":"46075"},"geometry":{"type":"Polygon","coordinates":[[[-100.3672,44.1687],[-100.3662,43.847],[-100.339,43.7169],[-100.4731,43.7209],[-100.5834,43.768],[-100.735,43.7076],[-100.7896,43.7254],[-100.7957,43.7541],[-101.0314,43.8579],[-101.0643,43.8411],[-101.0641,43.9949],[-101.0468,43.995],[-101.0469,44.1685],[-100.3672,44.1687]]]}},{"type":"Feature","id":"46077","properties":{"name":"Kingsbury","fips":"46077"},"geometry":{"type":"Polygon","coordinates":[[[-97.3701,44.195],[-97.8495,44.1952],[-97.8531,44.1952],[-97.8537,44.1952],[-97.8532,44.5433],[-97.853,44.5444],[-97.4923,44.5439],[-97.128,44.5431],[-97.1297,44.1959],[-97.3701,44.195]]]}},{"type":"Feature","id":"46079","properties":{"name":"Lake","fips":"46079"},"geometry":{"type":"Polygon","coordinates":[[[-97.3701,44.195],[-97.1297,44.1959],[-96.8892,44.1957],[-96.8887,43.8484],[-97.1291,43.848],[-97.3695,43.8485],[-97.3701,44.195]]]}},{"type":"Feature","id":"46081","properties":{"name":"Lawrence","fips":"46081"},"geometry":{"type":"Polygon","coordinates":[[[-104.0546,44.1411],[-104.0545,44.1804],[-104.0559,44.5177],[-104.0559,44.5433],[-104.0559,44.571],[-103.8206,44.6048],[-103.5677,44.6041],[-103.5744,44.2561],[-103.453,44.2566],[-103.4525,44.1408],[-104.0546,44.1411]]]}},{"type":"Feature","id":"46083","properties":{"name":"Lincoln","fips":"46083"},"geometry":{"type":"Polygon","coordinates":[[[-96.5841,43.2681],[-96.5725,43.2492],[-96.5571,43.2242],[-96.4853,43.2242],[-96.4756,43.2211],[-96.4366,43.1208],[-96.4393,43.1139],[-96.4551,43.0834],[-96.8057,43.0837],[-96.9241,43.0837],[-96.9248,43.5],[-96.5989,43.5005],[-96.5872,43.4847],[-96.5841,43.4689],[-96.6,43.4571],[-96.6029,43.4509],[-96.5943,43.4342],[-96.5576,43.4068],[-96.5375,43.3952],[-96.5312,43.3956],[-96.5292,43.3977],[-96.524,43.3948],[-96.5217,43.3869],[-96.5213,43.375],[-96.5256,43.3125],[-96.5304,43.3],[-96.5519,43.293],[-96.5691,43.2955],[-96.5863,43.2743],[-96.5841,43.2681]]]}},{"type":"Feature","id":"46085","properties":{"name":"Lyman","fips":"46085"},"geometry":{"type":"Polygon","coordinates":[[[-99.6635,44.2175],[-99.6324,44.2157],[-99.5939,44.204],[-99.5766,44.1924],[-99.5625,44.1015],[-99.3537,43.9953],[-99.3559,43.9344],[-99.3108,43.8552],[-99.4102,43.7746],[-99.4588,43.6558],[-99.3754,43.6569],[-99.2979,43.4999],[-99.298,43.4997],[-99.5291,43.4998],[-99.5345,43.4996],[-99.6236,43.4999],[-99.6236,43.7424],[-99.6562,43.7659],[-99.6676,43.7302],[-99.6881,43.7591],[-99.73,43.7188],[-99.8378,43.6891],[-99.9815,43.6871],[-100.0166,43.7067],[-100.1152,43.6854],[-100.2308,43.7139],[-100.339,43.7169],[-100.3662,43.847],[-100.3672,44.1687],[-100.3672,44.1946],[-99.9382,44.1952],[-99.8845,44.1296],[-99.6122,44.1037],[-99.6958,44.1724],[-99.6635,44.2175]]]}},{"type":"Feature","id":"46091","properties":{"name":"Marshall","fips":"46091"},"geometry":{"type":"Polygon","coordinates":[[[-97.9788,45.9359],[-97.9587,45.9359],[-97.7846,45.9353],[-97.777,45.9354],[-97.6967,45.9354],[-97.5426,45.9353],[-97.519,45.9353],[-97.5189,45.9353],[-97.4919,45.9351],[-97.482,45.9351],[-97.3189,45.9351],[-97.3122,45.9351],[-97.2283,45.9351],[-97.2283,45.9351],[-97.2271,45.5582],[-97.3734,45.5876],[-97.9796,45.5885],[-97.9788,45.9359]]]}},{"type":"Feature","id":"46087","properties":{"name":"McCook","fips":"46087"},"geometry":{"type":"Polygon","coordinates":[[[-97.3695,43.8485],[-97.1291,43.848],[-97.1295,43.4997],[-97.4014,43.4998],[-97.607,43.4998],[-97.6085,43.8491],[-97.3695,43.8485]]]}},{"type":"Feature","id":"46089","properties":{"name":"McPherson","fips":"46089"},"geometry":{"type":"Polygon","coordinates":[[[-99.7175,45.5934],[-99.7181,45.9409],[-99.693,45.9409],[-99.6719,45.9411],[-99.6112,45.9411],[-99.5888,45.9411],[-99.4931,45.9404],[-99.4903,45.9404],[-99.4013,45.9404],[-99.3856,45.9404],[-99.3785,45.9404],[-99.345,45.9403],[-99.3448,45.9403],[-99.3179,45.9403],[-99.2973,45.9402],[-99.284,45.9402],[-99.2763,45.9402],[-99.2577,45.9401],[-99.2223,45.9401],[-99.2217,45.9401],[-99.2136,45.9401],[-99.2126,45.9401],[-99.1024,45.9402],[-99.0929,45.9402],[-99.0058,45.9399],[-99.0056,45.9399],[-98.9055,45.9395],[-98.9044,45.9395],[-98.7244,45.9387],[-98.725,45.5913],[-99.7077,45.5934],[-99.7175,45.5934]]]}},{"type":"Feature","id":"46093","properties":{"name":"Meade","fips":"46093"},"geometry":{"type":"Polygon","coordinates":[[[-102.9574,45.0396],[-102.0,45.038],[-102.0004,44.5117],[-102.0008,44.5113],[-102.0011,44.5109],[-102.1642,44.4275],[-102.3062,44.4341],[-102.388,44.1402],[-103.4525,44.1408],[-103.453,44.2566],[-103.5744,44.2561],[-103.5677,44.6041],[-102.9641,44.6043],[-102.9574,45.0396]]]}},{"type":"Feature","id":"46095","properties":{"name":"Mellette","fips":"46095"},"geometry":{"type":"Polygon","coordinates":[[[-100.339,43.7169],[-100.2308,43.7139],[-100.2142,43.3903],[-101.2282,43.3892],[-101.2283,43.7888],[-101.0643,43.8411],[-101.0314,43.8579],[-100.7957,43.7541],[-100.7896,43.7254],[-100.735,43.7076],[-100.5834,43.768],[-100.4731,43.7209],[-100.339,43.7169]]]}},{"type":"Feature","id":"46097","properties":{"name":"Miner","fips":"46097"},"geometry":{"type":"Polygon","coordinates":[[[-97.3701,44.195],[-97.3695,43.8485],[-97.6085,43.8491],[-97.8511,43.8499],[-97.8495,44.1952],[-97.3701,44.195]]]}},{"type":"Feature","id":"46099","properties":{"name":"Minnehaha","fips":"46099"},"geometry":{"type":"Polygon","coordinates":[[[-97.1291,43.848],[-96.8887,43.8484],[-96.5086,43.8476],[-96.4533,43.8495],[-96.4531,43.8051],[-96.4533,43.7914],[-96.4534,43.6896],[-96.4534,43.675],[-96.4534,43.6099],[-96.4534,43.6075],[-96.4534,43.5882],[-96.4534,43.587],[-96.453,43.5004],[-96.5912,43.5005],[-96.5989,43.5005],[-96.9248,43.5],[-97.1295,43.4997],[-97.1291,43.848]]]}},{"type":"Feature","id":"46101","properties":{"name":"Moody","fips":"46101"},"geometry":{"type":"Polygon","coordinates":[[[-96.8887,43.8484],[-96.8892,44.1957],[-96.4528,44.1968],[-96.4532,44.0384],[-96.4533,44.0364],[-96.4534,44.0254],[-96.4534,44.0237],[-96.4531,44.0089],[-96.4531,44.0069],[-96.4533,43.9947],[-96.4533,43.9929],[-96.4533,43.9803],[-96.4534,43.9781],[-96.4533,43.9672],[-96.4532,43.9665],[-96.4533,43.9508],[-96.4534,43.9491],[-96.4532,43.8787],[-96.4533,43.8786],[-96.4533,43.877],[-96.4533,43.8496],[-96.4533,43.8495],[-96.4533,43.8495],[-96.5086,43.8476],[-96.8887,43.8484]]]}},{"type":"Feature","id":"46103","properties":{"name":"Pennington","fips":"46103"},"geometry":{"type":"Polygon","coordinates":[[[-104.0551,43.8535],[-104.0551,43.9365],[-104.055,43.9381],[-104.0546,44.1411],[-103.4525,44.1408],[-102.388,44.1402],[-102.3062,44.4341],[-102.1642,44.4275],[-102.0011,44.5109],[-102.0073,43.9945],[-102.0189,43.7086],[-102.1392,43.7009],[-102.1752,43.6878],[-102.8104,43.6881],[-102.8171,43.6897],[-102.6955,43.7981],[-102.6872,43.8554],[-104.0551,43.8535]]]}},{"type":"Feature","id":"46105","properties":{"name":"Perkins","fips":"46105"},"geometry":{"type":"Polygon","coordinates":[[[-102.9574,45.0396],[-102.9573,45.2129],[-102.9421,45.9451],[-102.9205,45.945],[-102.8803,45.9451],[-102.7049,45.9451],[-102.6741,45.9453],[-102.6725,45.9452],[-102.6667,45.9453],[-102.6516,45.9455],[-102.6426,45.9454],[-102.5586,45.9451],[-102.5509,45.945],[-102.476,45.9452],[-102.4676,45.9452],[-102.4596,45.9451],[-102.4464,45.9451],[-102.4254,45.945],[-102.4254,45.945],[-102.4202,45.9451],[-102.4103,45.9451],[-102.4062,45.945],[-102.3986,45.9449],[-102.3964,45.9449],[-102.3928,45.945],[-102.3927,45.945],[-102.3543,45.9449],[-102.3534,45.945],[-102.3282,45.9448],[-102.2179,45.9447],[-102.177,45.9446],[-102.1767,45.9446],[-102.1594,45.9446],[-102.158,45.9446],[-102.1564,45.9447],[-102.1454,45.9447],[-102.1353,45.9446],[-102.1254,45.9447],[-102.1246,45.9448],[-102.0876,45.9446],[-102.0851,45.9446],[-102.0609,45.9446],[-102.0007,45.9445],[-101.9998,45.4724],[-102.0,45.038],[-102.9574,45.0396]]]}},{"type":"Feature","id":"46107","properties":{"name":"Potter","fips":"46107"},"geometry":{"type":"Polygon","coordinates":[[[-99.6731,44.8975],[-100.4048,44.8977],[-100.3918,45.026],[-100.2803,45.0184],[-100.3255,45.0993],[-100.2602,45.2468],[-99.709,45.2459],[-99.5734,45.2454],[-99.5727,44.8973],[-99.6731,44.8975]]]}},{"type":"Feature","id":"46109","properties":{"name":"Roberts","fips":"46109"},"geometry":{"type":"Polygon","coordinates":[[[-97.2262,45.2976],[-97.2271,45.5582],[-97.2283,45.9351],[-97.2283,45.9351],[-97.145,45.9353],[-97.1181,45.9355],[-97.0196,45.9354],[-96.9987,45.9357],[-96.7915,45.9359],[-96.7013,45.9358],[-96.6806,45.9357],[-96.6599,45.9356],[-96.6391,45.9353],[-96.6183,45.9354],[-96.6071,45.9353],[-96.5974,45.9352],[-96.5769,45.9353],[-96.5633,45.9352],[-96.5645,45.9263],[-96.5643,45.9211],[-96.5691,45.9148],[-96.5694,45.9139],[-96.5693,45.9115],[-96.5689,45.9114],[-96.5683,45.9029],[-96.5681,45.8987],[-96.5683,45.8912],[-96.5688,45.8881],[-96.573,45.8616],[-96.5765,45.8399],[-96.5797,45.8258],[-96.5831,45.82],[-96.6522,45.7468],[-96.6727,45.7323],[-96.7112,45.7176],[-96.7451,45.7016],[-96.8358,45.6496],[-96.8407,45.6453],[-96.8442,45.6396],[-96.8578,45.606],[-96.8536,45.6023],[-96.8494,45.5989],[-96.8443,45.5944],[-96.844,45.594],[-96.8355,45.5861],[-96.7849,45.5413],[-96.7653,45.5214],[-96.7455,45.4887],[-96.7425,45.4787],[-96.7327,45.4587],[-96.6925,45.4173],[-96.6805,45.4105],[-96.6177,45.4081],[-96.5218,45.3756],[-96.4891,45.3571],[-96.47,45.3268],[-96.9929,45.3269],[-97.0075,45.2969],[-97.2262,45.2976]]]}},{"type":"Feature","id":"46111","properties":{"name":"Sanborn","fips":"46111"},"geometry":{"type":"Polygon","coordinates":[[[-97.8537,44.1952],[-97.8531,44.1952],[-97.8495,44.1952],[-97.8511,43.8499],[-97.9673,43.8507],[-98.3252,43.8511],[-98.3315,43.851],[-98.3315,43.9377],[-98.332,44.1966],[-97.8537,44.1952]]]}},{"type":"Feature","id":"46113","properties":{"name":"Shannon","fips":"46113"},"geometry":{"type":"Polygon","coordinates":[[[-103.0008,43.4768],[-103.0011,43.6058],[-102.9025,43.6749],[-102.8104,43.6881],[-102.1752,43.6878],[-102.1392,43.7009],[-102.1391,43.4767],[-102.1108,43.3899],[-102.1089,43.1293],[-102.0825,42.9994],[-102.0825,42.9994],[-102.4405,42.9996],[-102.4873,42.9996],[-102.7921,43.0],[-103.0009,43.0005],[-103.0008,43.4768]]]}},{"type":"Feature","id":"46115","properties":{"name":"Spink","fips":"46115"},"geometry":{"type":"Polygon","coordinates":[[[-97.9815,45.2404],[-97.9815,45.1722],[-97.9816,45.171],[-97.9818,45.1533],[-97.9778,44.6316],[-98.7058,44.6342],[-98.7054,44.8969],[-98.7165,44.8969],[-98.7178,45.2437],[-97.9815,45.2404]]]}},{"type":"Feature","id":"46117","properties":{"name":"Stanley","fips":"46117"},"geometry":{"type":"Polygon","coordinates":[[[-101.1368,44.7471],[-101.0226,44.7242],[-100.8298,44.7832],[-100.7176,44.7709],[-100.6138,44.7071],[-100.6401,44.5837],[-100.5265,44.5474],[-100.574,44.4555],[-100.3864,44.44],[-100.3654,44.3555],[-100.0853,44.3085],[-99.8921,44.2419],[-99.9382,44.1952],[-100.3672,44.1946],[-100.3672,44.1687],[-101.0469,44.1685],[-101.1668,44.1681],[-101.1545,44.6899],[-101.1368,44.7471]]]}},{"type":"Feature","id":"46119","properties":{"name":"Sully","fips":"46119"},"geometry":{"type":"Polygon","coordinates":[[[-99.6764,44.5481],[-100.5265,44.5474],[-100.6401,44.5837],[-100.6138,44.7071],[-100.7176,44.7709],[-100.6764,44.8232],[-100.5435,44.7611],[-100.4187,44.8434],[-100.4048,44.8977],[-99.6731,44.8975],[-99.6764,44.5481]]]}},{"type":"Feature","id":"46121","properties":{"name":"Todd","fips":"46121"},"geometry":{"type":"Polygon","coordinates":[[[-101.2281,42.9979],[-101.2277,43.0021],[-101.2282,43.3892],[-100.2142,43.3903],[-100.1984,42.9985],[-100.1984,42.9985],[-100.2778,42.9987],[-100.2837,42.9988],[-100.3495,42.9987],[-100.3554,42.9988],[-100.4727,42.9993],[-100.5343,42.999],[-100.544,42.9988],[-100.5531,42.9987],[-100.8879,42.9979],[-100.9067,42.9979],[-100.9584,42.9978],[-100.9642,42.9979],[-101.2265,42.9979],[-101.2269,42.9979],[-101.2281,42.9979]]]}},{"type":"Feature","id":"46123","properties":{"name":"Tripp","fips":"46123"},"geometry":{"type":"Polygon","coordinates":[[[-99.5345,43.4996],[-99.534,42.998],[-99.5354,42.998],[-99.5693,42.998],[-99.6992,42.9979],[-99.7014,42.998],[-99.7192,42.9979],[-99.7268,42.9979],[-99.7431,42.9979],[-99.7685,42.9981],[-99.7882,42.998],[-99.8003,42.998],[-99.8033,42.9981],[-99.8094,42.9982],[-99.8219,42.998],[-99.85,42.9982],[-99.8599,42.998],[-99.8699,42.9981],[-99.8777,42.9981],[-99.9184,42.9981],[-99.9276,42.9981],[-99.9504,42.9983],[-99.9509,42.9983],[-99.9612,42.9983],[-100.0048,42.9984],[-100.0278,42.9984],[-100.0344,42.9984],[-100.1193,42.9987],[-100.1264,42.9987],[-100.1269,42.9987],[-100.1984,42.9985],[-100.1984,42.9985],[-100.2142,43.3903],[-100.2308,43.7139],[-100.1152,43.6854],[-100.0166,43.7067],[-99.9815,43.6871],[-99.8378,43.6891],[-99.73,43.7188],[-99.6881,43.7591],[-99.6676,43.7302],[-99.6562,43.7659],[-99.6236,43.7424],[-99.6236,43.4999],[-99.5345,43.4996]]]}},{"type":"Feature","id":"46125","properties":{"name":"Turner","fips":"46125"},"geometry":{"type":"Polygon","coordinates":[[[-96.9248,43.5],[-96.9241,43.0837],[-97.1605,43.0831],[-97.1605,43.17],[-97.3992,43.1694],[-97.4014,43.4998],[-97.1295,43.4997],[-96.9248,43.5]]]}},{"type":"Feature","id":"46127","properties":{"name":"Union","fips":"46127"},"geometry":{"type":"Polygon","coordinates":[[[-96.8057,43.0837],[-96.4551,43.0834],[-96.466,43.0622],[-96.5131,43.0279],[-96.5095,42.9711],[-96.5107,42.9444],[-96.5233,42.9091],[-96.5415,42.8577],[-96.5495,42.8391],[-96.5521,42.8361],[-96.5631,42.8311],[-96.5778,42.8281],[-96.6321,42.7709],[-96.6332,42.7683],[-96.6397,42.7371],[-96.6306,42.7059],[-96.611,42.6948],[-96.6061,42.6947],[-96.602,42.6974],[-96.5753,42.6827],[-96.5424,42.6607],[-96.5163,42.6304],[-96.4797,42.5612],[-96.477,42.5561],[-96.4777,42.5356],[-96.4799,42.5242],[-96.4813,42.5166],[-96.4769,42.5087],[-96.4663,42.4977],[-96.4434,42.4895],[-96.4756,42.48],[-96.4875,42.4798],[-96.6115,42.5061],[-96.626,42.5136],[-96.636,42.5243],[-96.708,42.6016],[-96.7113,42.6104],[-96.7106,42.6196],[-96.7072,42.6313],[-96.7129,42.6481],[-96.724,42.666],[-96.8066,42.7034],[-96.8062,42.7042],[-96.8057,43.0837]]]}},{"type":"Feature","id":"46129","properties":{"name":"Walworth","fips":"46129"},"geometry":{"type":"Polygon","coordinates":[[[-100.2602,45.2468],[-100.3167,45.3179],[-100.2742,45.3818],[-100.3419,45.4729],[-100.4866,45.5365],[-100.4301,45.5948],[-99.7175,45.5934],[-99.7077,45.5934],[-99.709,45.2459],[-100.2602,45.2468]]]}},{"type":"Feature","id":"46135","properties":{"name":"Yankton","fips":"46135"},"geometry":{"type":"Polygon","coordinates":[[[-97.6375,43.1688],[-97.3992,43.1694],[-97.1605,43.17],[-97.1605,43.0831],[-97.1604,42.7997],[-97.1631,42.7934],[-97.1901,42.8051],[-97.2183,42.8296],[-97.2571,42.8539],[-97.3285,42.8595],[-97.4232,42.8612],[-97.4854,42.8548],[-97.5319,42.8501],[-97.6351,42.845],[-97.6375,43.1688]]]}},{"type":"Feature","id":"46137","properties":{"name":"Ziebach","fips":"46137"},"geometry":{"type":"Polygon","coordinates":[[[-101.9998,45.4724],[-101.4702,45.4724],[-101.4863,45.3856],[-101.501,44.9936],[-101.1362,44.9941],[-101.1368,44.7471],[-101.2351,44.6906],[-101.3599,44.689],[-101.531,44.5679],[-101.715,44.5795],[-101.8112,44.5224],[-101.889,44.5385],[-102.0004,44.5117],[-102.0,45.038],[-101.9998,45.4724]]]}}]}