{"type":"FeatureCollection","features":[{"type":"Feature","id":"47001","properties":{"name":"Anderson","fips":"47001"},"geometry":{"type":"Polygon","coordinates":[[[-84.2716,35.9102],[-84.3201,35.9916],[-84.325,36.0045],[-84.3402,36.045],[-84.3404,36.0457],[-84.3418,36.049],[-84.441,36.1635],[-84.3727,36.2168],[-84.2418,36.1776],[-84.2275,36.2449],[-84.0699,36.2304],[-84.0043,36.2704],[-83.9417,36.1864],[-84.094,36.0689],[-84.0586,36.0363],[-84.1952,35.993],[-84.2716,35.9102]]]}},{"type":"Feature","id":"47003","properties":{"name":"Bedford","fips":"47003"},"geometry":{"type":"Polygon","coordinates":[[[-86.2576,35.4125],[-86.4442,35.3207],[-86.5253,35.3547],[-86.5437,35.3632],[-86.5527,35.36],[-86.5829,35.371],[-86.5995,35.365],[-86.6582,35.4353],[-86.6394,35.6859],[-86.5431,35.6976],[-86.4033,35.6189],[-86.3419,35.6643],[-86.2452,35.6319],[-86.2576,35.4125]]]}},{"type":"Feature","id":"47005","properties":{"name":"Benton","fips":"47005"},"geometry":{"type":"Polygon","coordinates":[[[-87.9807,36.3533],[-87.9496,36.2432],[-87.919,36.13],[-88.0008,36.0281],[-88.0129,35.9466],[-87.9258,35.9304],[-87.9627,35.8409],[-87.969,35.8288],[-87.9707,35.8157],[-88.1779,35.8458],[-88.2174,35.8466],[-88.2126,36.1203],[-88.0832,36.2567],[-88.0877,36.3592],[-87.9909,36.3601],[-87.9886,36.3597],[-87.9827,36.3561],[-87.9807,36.3533]]]}},{"type":"Feature","id":"47007","properties":{"name":"Bledsoe","fips":"47007"},"geometry":{"type":"Polygon","coordinates":[[[-85.4238,35.5674],[-85.2654,35.7212],[-85.2541,35.7656],[-84.9161,35.7619],[-85.1078,35.5714],[-85.1352,35.4586],[-85.2259,35.3543],[-85.4033,35.4923],[-85.4238,35.5674]]]}},{"type":"Feature","id":"47009","properties":{"name":"Blount","fips":"47009"},"geometry":{"type":"Polygon","coordinates":[[[-83.7943,35.8871],[-83.7842,35.8792],[-83.7844,35.8687],[-83.7799,35.8602],[-83.6628,35.6906],[-83.663,35.5691],[-83.6763,35.5703],[-83.7569,35.5636],[-83.8801,35.5187],[-83.9339,35.4724],[-83.9527,35.4608],[-83.9529,35.4606],[-83.9611,35.4641],[-83.9611,35.4637],[-83.9938,35.55],[-84.0816,35.5412],[-84.1883,35.6105],[-84.1331,35.6607],[-84.1663,35.8051],[-83.9947,35.8837],[-83.8535,35.8411],[-83.7943,35.8871]]]}},{"type":"Feature","id":"47011","properties":{"name":"Bradley","fips":"47011"},"geometry":{"type":"Polygon","coordinates":[[[-84.7036,35.241],[-84.6999,35.171],[-84.7759,34.9878],[-84.8081,34.9876],[-84.8092,34.9876],[-84.8105,34.9876],[-84.8107,34.9876],[-84.8173,34.9878],[-84.8205,34.9879],[-84.824,34.9877],[-84.8318,34.988],[-84.858,34.9877],[-84.8613,34.9878],[-84.9393,34.9879],[-84.9444,34.9879],[-84.9556,34.9878],[-84.977,34.9877],[-85.024,35.1488],[-84.9463,35.2878],[-84.8602,35.3501],[-84.7036,35.241]]]}},{"type":"Feature","id":"47013","properties":{"name":"Campbell","fips":"47013"},"geometry":{"type":"Polygon","coordinates":[[[-84.0043,36.2704],[-84.0699,36.2304],[-84.2275,36.2449],[-84.2418,36.1776],[-84.3727,36.2168],[-84.3299,36.2851],[-84.3499,36.4663],[-84.2596,36.514],[-84.2613,36.592],[-84.2273,36.5917],[-83.9878,36.5896],[-83.9876,36.5896],[-83.9056,36.42],[-84.0043,36.2704]]]}},{"type":"Feature","id":"47015","properties":{"name":"Cannon","fips":"47015"},"geometry":{"type":"Polygon","coordinates":[[[-85.8852,35.8397],[-85.9849,35.7346],[-85.9851,35.6601],[-86.1437,35.6617],[-86.2071,35.7038],[-86.1532,35.9544],[-86.0148,35.9611],[-85.8852,35.8397]]]}},{"type":"Feature","id":"47017","properties":{"name":"Carroll","fips":"47017"},"geometry":{"type":"Polygon","coordinates":[[[-88.1792,35.8168],[-88.569,35.8248],[-88.6069,35.7894],[-88.7068,35.7911],[-88.6927,36.0627],[-88.6555,36.1173],[-88.5322,36.1154],[-88.5303,36.1516],[-88.2117,36.146],[-88.2126,36.1203],[-88.2174,35.8466],[-88.1779,35.8458],[-88.179,35.8189],[-88.1792,35.8168]]]}},{"type":"Feature","id":"47019","properties":{"name":"Carter","fips":"47019"},"geometry":{"type":"Polygon","coordinates":[[[-81.9838,36.5083],[-81.9498,36.4724],[-82.0589,36.3675],[-81.933,36.2649],[-81.9601,36.2281],[-82.0266,36.1302],[-82.0801,36.1057],[-82.0805,36.1057],[-82.1271,36.1044],[-82.1306,36.1064],[-82.138,36.1196],[-82.1365,36.1288],[-82.1479,36.1495],[-82.2113,36.159],[-82.2221,36.1569],[-82.2564,36.2332],[-82.3405,36.2528],[-82.2999,36.3965],[-82.1881,36.4006],[-81.9838,36.5083]]]}},{"type":"Feature","id":"47021","properties":{"name":"Cheatham","fips":"47021"},"geometry":{"type":"Polygon","coordinates":[[[-87.2865,36.3219],[-87.1773,36.4246],[-87.1713,36.4276],[-87.1632,36.4214],[-87.1627,36.4133],[-87.151,36.4166],[-87.1486,36.4228],[-87.1503,36.445],[-87.1204,36.4555],[-86.9888,36.3706],[-86.9132,36.3826],[-86.9977,36.1285],[-87.0541,36.0455],[-87.0853,36.0438],[-87.1061,36.0452],[-87.1423,36.048],[-87.1826,36.0497],[-87.1499,36.1769],[-87.1773,36.3141],[-87.2865,36.3219]],[[-87.152,36.289],[-87.1424,36.2907],[-87.1393,36.2924],[-87.1423,36.2946],[-87.1442,36.2921],[-87.1469,36.2933],[-87.152,36.289]]]}},{"type":"Feature","id":"47023","properties":{"name":"Chester","fips":"47023"},"geometry":{"type":"Polygon","coordinates":[[[-88.6136,35.5881],[-88.5054,35.512],[-88.364,35.4928],[-88.3608,35.419],[-88.3615,35.4089],[-88.3518,35.4067],[-88.3555,35.397],[-88.3619,35.397],[-88.3626,35.381],[-88.6409,35.361],[-88.7198,35.2475],[-88.7818,35.2476],[-88.8416,35.4278],[-88.6759,35.4892],[-88.6136,35.5881]]]}},{"type":"Feature","id":"47025","properties":{"name":"Claiborne","fips":"47025"},"geometry":{"type":"Polygon","coordinates":[[[-83.4721,36.5973],[-83.3983,36.5349],[-83.3868,36.4132],[-83.5325,36.3534],[-83.6674,36.3444],[-83.733,36.345],[-83.8055,36.4359],[-83.9056,36.42],[-83.9876,36.5896],[-83.9307,36.5882],[-83.6907,36.5826],[-83.6771,36.5966],[-83.6754,36.6008],[-83.6701,36.6008],[-83.6701,36.6008],[-83.4721,36.5973]]]}},{"type":"Feature","id":"47027","properties":{"name":"Clay","fips":"47027"},"geometry":{"type":"Polygon","coordinates":[[[-85.8139,36.4995],[-85.7886,36.6218],[-85.552,36.6158],[-85.5515,36.6157],[-85.5086,36.615],[-85.4713,36.6164],[-85.4364,36.6182],[-85.296,36.6255],[-85.2763,36.6265],[-85.2763,36.6265],[-85.2849,36.5313],[-85.4388,36.5011],[-85.4954,36.4031],[-85.7041,36.5224],[-85.8139,36.4995]]]}},{"type":"Feature","id":"47029","properties":{"name":"Cocke","fips":"47029"},"geometry":{"type":"Polygon","coordinates":[[[-83.2767,36.0077],[-83.2346,36.0851],[-83.1661,36.1809],[-82.8985,35.9451],[-82.9133,35.9241],[-82.898,35.8813],[-82.9184,35.8455],[-82.9628,35.7951],[-82.9641,35.7941],[-82.984,35.778],[-82.9958,35.7731],[-83.1002,35.7748],[-83.1003,35.7748],[-83.1002,35.7747],[-83.1649,35.76],[-83.2407,35.7268],[-83.2512,35.7199],[-83.2555,35.715],[-83.3108,35.8958],[-83.2767,36.0077]]]}},{"type":"Feature","id":"47031","properties":{"name":"Coffee","fips":"47031"},"geometry":{"type":"Polygon","coordinates":[[[-85.877,35.5241],[-85.9136,35.2892],[-86.158,35.3626],[-86.2615,35.3336],[-86.2576,35.4125],[-86.2452,35.6319],[-86.2071,35.7038],[-86.1437,35.6617],[-85.9851,35.6601],[-85.877,35.5241]]]}},{"type":"Feature","id":"47033","properties":{"name":"Crockett","fips":"47033"},"geometry":{"type":"Polygon","coordinates":[[[-89.0695,35.6927],[-89.2712,35.7549],[-89.356,35.8176],[-89.3428,35.8809],[-89.2802,35.8864],[-89.1888,35.9998],[-89.1096,35.8621],[-88.9162,35.7973],[-88.8929,35.7838],[-89.021,35.671],[-89.0695,35.6927]]]}},{"type":"Feature","id":"47035","properties":{"name":"Cumberland","fips":"47035"},"geometry":{"type":"Polygon","coordinates":[[[-84.6806,35.9085],[-84.7819,35.825],[-84.9161,35.7619],[-85.2541,35.7656],[-85.2478,35.7867],[-85.2604,35.7826],[-85.2733,35.7879],[-85.2694,35.7934],[-85.2131,35.9104],[-85.2642,35.9792],[-85.2464,36.1007],[-85.1002,36.1386],[-84.9078,36.1563],[-84.7207,35.9949],[-84.6806,35.9085]]]}},{"type":"Feature","id":"47037","properties":{"name":"Davidson","fips":"47037"},"geometry":{"type":"Polygon","coordinates":[[[-86.865,36.0447],[-86.9292,36.0527],[-87.0277,35.9894],[-87.0541,36.0455],[-86.9977,36.1285],[-86.9132,36.3826],[-86.8248,36.3499],[-86.7548,36.4055],[-86.7235,36.3477],[-86.5943,36.2451],[-86.5156,36.1006],[-86.6189,35.9682],[-86.6274,35.974],[-86.6483,35.9764],[-86.6819,35.9894],[-86.6862,35.9941],[-86.6877,35.9953],[-86.6919,35.9946],[-86.7872,36.036],[-86.865,36.0447]]]}},{"type":"Feature","id":"47041","properties":{"name":"DeKalb","fips":"47041"},"geometry":{"type":"Polygon","coordinates":[[[-85.8852,35.8397],[-86.0148,35.9611],[-86.0597,36.086],[-85.8074,36.1316],[-85.6446,36.0151],[-85.6373,35.8818],[-85.6821,35.8313],[-85.8852,35.8397]]]}},{"type":"Feature","id":"47039","properties":{"name":"Decatur","fips":"47039"},"geometry":{"type":"Polygon","coordinates":[[[-88.0077,35.4234],[-87.9752,35.4142],[-87.9846,35.3921],[-88.0247,35.3923],[-88.1996,35.3826],[-88.2417,35.4233],[-88.2431,35.5289],[-88.1905,35.6091],[-88.1792,35.8168],[-88.179,35.8189],[-88.1779,35.8458],[-87.9707,35.8157],[-88.0348,35.7173],[-88.0358,35.6218],[-87.9746,35.521],[-88.0423,35.4446],[-88.0077,35.4234]]]}},{"type":"Feature","id":"47043","properties":{"name":"Dickson","fips":"47043"},"geometry":{"type":"MultiPolygon","coordinates":[[[[-87.152,36.289],[-87.1469,36.2933],[-87.1442,36.2921],[-87.1423,36.2946],[-87.1393,36.2924],[-87.1424,36.2907],[-87.152,36.289]]],[[[-87.2042,35.9592],[-87.5345,35.9931],[-87.5668,36.1779],[-87.5135,36.3347],[-87.2865,36.3219],[-87.1773,36.3141],[-87.1499,36.1769],[-87.1826,36.0497],[-87.2042,35.9592]]]]}},{"type":"Feature","id":"47045","properties":{"name":"Dyer","fips":"47045"},"geometry":{"type":"Polygon","coordinates":[[[-89.483,36.2127],[-89.1545,36.2047],[-89.1634,36.026],[-89.1888,35.9998],[-89.2802,35.8864],[-89.3428,35.8809],[-89.407,35.9466],[-89.6879,35.9054],[-89.6869,35.9477],[-89.72,35.9746],[-89.7331,36.0006],[-89.7069,36.001],[-89.6903,36.0248],[-89.6873,36.034],[-89.6844,36.0517],[-89.6242,36.1086],[-89.6019,36.1195],[-89.594,36.1272],[-89.5916,36.1441],[-89.5944,36.1555],[-89.607,36.1712],[-89.6182,36.18],[-89.6295,36.1854],[-89.483,36.2127]]]}},{"type":"Feature","id":"47047","properties":{"name":"Fayette","fips":"47047"},"geometry":{"type":"Polygon","coordinates":[[[-89.6428,35.0449],[-89.6328,35.3758],[-89.4742,35.403],[-89.1839,35.3971],[-89.1983,34.9945],[-89.3527,34.9944],[-89.4937,34.9944],[-89.5112,34.9948],[-89.6443,34.9953],[-89.6437,35.0117],[-89.6438,35.0121],[-89.6428,35.0449]]]}},{"type":"Feature","id":"47049","properties":{"name":"Fentress","fips":"47049"},"geometry":{"type":"Polygon","coordinates":[[[-85.1204,36.4072],[-85.0439,36.5588],[-84.9431,36.5813],[-84.7318,36.5247],[-84.6591,36.3952],[-84.7008,36.3708],[-84.7979,36.2969],[-84.8786,36.2802],[-84.9078,36.1563],[-85.1002,36.1386],[-85.1196,36.1447],[-85.0825,36.1962],[-85.1222,36.3046],[-85.1204,36.4072]]]}},{"type":"Feature","id":"47051","properties":{"name":"Franklin","fips":"47051"},"geometry":{"type":"Polygon","coordinates":[[[-86.3188,34.9911],[-86.3203,35.0325],[-86.3182,35.127],[-86.2615,35.3336],[-86.158,35.3626],[-85.9136,35.2892],[-85.9081,35.2765],[-85.8934,35.2573],[-85.8868,35.2474],[-85.875,35.2273],[-85.873,35.2234],[-85.8639,34.9884],[-86.3113,34.9911],[-86.3188,34.9911]]]}},{"type":"Feature","id":"47053","properties":{"name":"Gibson","fips":"47053"},"geometry":{"type":"Polygon","coordinates":[[[-88.6927,36.0627],[-88.7068,35.7911],[-88.911,35.7973],[-88.9162,35.7973],[-89.1096,35.8621],[-89.1888,35.9998],[-89.1634,36.026],[-89.1545,36.2047],[-88.9612,36.2016],[-88.9598,36.2228],[-88.8409,36.1235],[-88.6927,36.0627]]]}},{"type":"Feature","id":"47055","properties":{"name":"Giles","fips":"47055"},"geometry":{"type":"Polygon","coordinates":[[[-86.8283,35.2637],[-86.8363,34.9918],[-86.8364,34.9918],[-86.8465,34.9919],[-86.8498,34.9919],[-86.8621,34.992],[-86.9671,34.9944],[-86.9702,34.9945],[-86.9726,34.9946],[-86.9744,34.9945],[-87.0,34.9951],[-87.0112,34.9952],[-87.2108,34.999],[-87.2167,34.9991],[-87.2241,34.9993],[-87.2066,35.4332],[-87.1209,35.4557],[-86.9608,35.417],[-86.9065,35.3141],[-86.8283,35.2637]]]}},{"type":"Feature","id":"47057","properties":{"name":"Grainger","fips":"47057"},"geometry":{"type":"Polygon","coordinates":[[[-83.6675,36.0806],[-83.7327,36.1646],[-83.6674,36.3444],[-83.5325,36.3534],[-83.3868,36.4132],[-83.2806,36.3947],[-83.2553,36.2891],[-83.3217,36.2946],[-83.4671,36.1747],[-83.5411,36.182],[-83.6747,36.1245],[-83.6745,36.1164],[-83.6594,36.0855],[-83.6675,36.0806]]]}},{"type":"Feature","id":"47059","properties":{"name":"Greene","fips":"47059"},"geometry":{"type":"Polygon","coordinates":[[[-82.5951,36.0962],[-82.5772,36.0784],[-82.6029,36.0398],[-82.6192,36.0566],[-82.6323,36.0657],[-82.6372,36.0658],[-82.6836,36.0461],[-82.7154,36.0243],[-82.7545,36.0043],[-82.7786,35.9748],[-82.8301,35.933],[-82.8526,35.9491],[-82.8742,35.9527],[-82.8985,35.9451],[-82.8985,35.9451],[-83.1661,36.1809],[-83.0823,36.2423],[-82.9366,36.3349],[-82.7026,36.4104],[-82.6296,36.4115],[-82.6478,36.1464],[-82.5951,36.0962]]]}},{"type":"Feature","id":"47061","properties":{"name":"Grundy","fips":"47061"},"geometry":{"type":"Polygon","coordinates":[[[-85.6073,35.5317],[-85.4856,35.4064],[-85.5586,35.3193],[-85.7094,35.2893],[-85.7401,35.2153],[-85.873,35.2234],[-85.875,35.2273],[-85.8868,35.2474],[-85.8934,35.2573],[-85.9081,35.2765],[-85.9136,35.2892],[-85.877,35.5241],[-85.6073,35.5317]]]}},{"type":"Feature","id":"47063","properties":{"name":"Hamblen","fips":"47063"},"geometry":{"type":"Polygon","coordinates":[[[-83.4577,36.1554],[-83.4587,36.1553],[-83.4671,36.1747],[-83.3217,36.2946],[-83.2553,36.2891],[-83.1626,36.3453],[-83.0823,36.2423],[-83.1661,36.1809],[-83.2346,36.0851],[-83.2937,36.1382],[-83.4577,36.1554]]]}},{"type":"Feature","id":"47065","properties":{"name":"Hamilton","fips":"47065"},"geometry":{"type":"Polygon","coordinates":[[[-85.1352,35.4586],[-85.0163,35.4093],[-84.9463,35.2878],[-85.024,35.1488],[-84.977,34.9877],[-84.9799,34.9876],[-85.0451,34.9869],[-85.0452,34.9869],[-85.1806,34.9861],[-85.1859,34.986],[-85.2166,34.9857],[-85.2179,34.9857],[-85.2206,34.9856],[-85.2219,34.9855],[-85.2304,34.9855],[-85.2356,34.9855],[-85.255,34.9852],[-85.2651,34.9851],[-85.2759,34.985],[-85.2776,34.985],[-85.2945,34.9847],[-85.3015,34.9845],[-85.3055,34.9845],[-85.3083,34.9844],[-85.3639,34.9834],[-85.4745,34.984],[-85.362,35.0878],[-85.3871,35.1472],[-85.246,35.3191],[-85.2259,35.3543],[-85.1352,35.4586]]]}},{"type":"Feature","id":"47067","properties":{"name":"Hancock","fips":"47067"},"geometry":{"type":"Polygon","coordinates":[[[-82.9851,36.5938],[-82.8304,36.5938],[-82.9505,36.543],[-83.0108,36.5637],[-83.2806,36.3947],[-83.3868,36.4132],[-83.3983,36.5349],[-83.4721,36.5973],[-83.2763,36.5982],[-83.2503,36.5939],[-83.2499,36.5939],[-83.2489,36.5938],[-83.0284,36.5939],[-83.0272,36.5938],[-82.9851,36.5938]]]}},{"type":"Feature","id":"47069","properties":{"name":"Hardeman","fips":"47069"},"geometry":{"type":"Polygon","coordinates":[[[-89.0171,34.9946],[-89.139,34.9943],[-89.1391,34.9943],[-89.1983,34.9945],[-89.1839,35.3971],[-89.1826,35.4328],[-89.0789,35.4314],[-88.8416,35.4278],[-88.7818,35.2476],[-88.7869,35.1158],[-88.7866,34.9953],[-88.823,34.9952],[-89.0171,34.9946]]]}},{"type":"Feature","id":"47071","properties":{"name":"Hardin","fips":"47071"},"geometry":{"type":"Polygon","coordinates":[[[-88.2581,34.9955],[-88.3635,34.9956],[-88.3805,34.9956],[-88.3626,35.381],[-88.3619,35.397],[-88.3555,35.397],[-88.3518,35.4067],[-88.3615,35.4089],[-88.3608,35.419],[-88.2417,35.4233],[-88.1996,35.3826],[-88.0247,35.3923],[-87.9816,35.2957],[-87.9849,35.0063],[-88.1825,35.0077],[-88.2001,34.9956],[-88.2538,34.9956],[-88.2581,34.9955]]]}},{"type":"Feature","id":"47073","properties":{"name":"Hawkins","fips":"47073"},"geometry":{"type":"Polygon","coordinates":[[[-82.8304,36.5938],[-82.6958,36.5937],[-82.6799,36.5937],[-82.6092,36.5941],[-82.6807,36.4318],[-82.6762,36.4234],[-82.7026,36.4104],[-82.9366,36.3349],[-83.0823,36.2423],[-83.1626,36.3453],[-83.2553,36.2891],[-83.2806,36.3947],[-83.0108,36.5637],[-82.9505,36.543],[-82.8304,36.5938]]]}},{"type":"Feature","id":"47075","properties":{"name":"Haywood","fips":"47075"},"geometry":{"type":"Polygon","coordinates":[[[-89.5021,35.5806],[-89.4018,35.8227],[-89.356,35.8176],[-89.2712,35.7549],[-89.0695,35.6927],[-89.0789,35.4314],[-89.1826,35.4328],[-89.1839,35.3971],[-89.4742,35.403],[-89.4699,35.5466],[-89.5021,35.5806]]]}},{"type":"Feature","id":"47077","properties":{"name":"Henderson","fips":"47077"},"geometry":{"type":"Polygon","coordinates":[[[-88.2417,35.4233],[-88.3608,35.419],[-88.364,35.4928],[-88.5054,35.512],[-88.6136,35.5881],[-88.6069,35.7894],[-88.569,35.8248],[-88.1792,35.8168],[-88.1905,35.6091],[-88.2431,35.5289],[-88.2417,35.4233]]]}},{"type":"Feature","id":"47079","properties":{"name":"Henry","fips":"47079"},"geometry":{"type":"Polygon","coordinates":[[[-87.9909,36.3601],[-88.0877,36.3592],[-88.0832,36.2567],[-88.2126,36.1203],[-88.2117,36.146],[-88.5303,36.1516],[-88.5163,36.5014],[-88.5123,36.5015],[-88.5119,36.5015],[-88.4892,36.5011],[-88.4891,36.5011],[-88.4726,36.501],[-88.4525,36.5009],[-88.4502,36.5011],[-88.4164,36.5008],[-88.3308,36.5005],[-88.3259,36.5005],[-88.3208,36.5004],[-88.0533,36.4971],[-88.0585,36.4392],[-87.9909,36.3601]]]}},{"type":"Feature","id":"47081","properties":{"name":"Hickman","fips":"47081"},"geometry":{"type":"Polygon","coordinates":[[[-87.7102,35.7086],[-87.7168,35.8387],[-87.707,35.9059],[-87.5345,35.9931],[-87.2042,35.9592],[-87.2057,35.941],[-87.2014,35.9406],[-87.2021,35.9361],[-87.2051,35.9146],[-87.2151,35.8507],[-87.2341,35.7247],[-87.3392,35.6591],[-87.4596,35.6151],[-87.5869,35.6533],[-87.6582,35.6093],[-87.7438,35.664],[-87.7102,35.7086]]]}},{"type":"Feature","id":"47083","properties":{"name":"Houston","fips":"47083"},"geometry":{"type":"Polygon","coordinates":[[[-87.9496,36.2432],[-87.9807,36.3533],[-87.8218,36.3287],[-87.7155,36.3682],[-87.5924,36.3677],[-87.587,36.3418],[-87.5135,36.3347],[-87.5668,36.1779],[-87.7985,36.2448],[-87.9496,36.2432]]]}},{"type":"Feature","id":"47085","properties":{"name":"Humphreys","fips":"47085"},"geometry":{"type":"Polygon","coordinates":[[[-87.5345,35.9931],[-87.707,35.9059],[-87.7168,35.8387],[-87.8481,35.8041],[-87.9627,35.8409],[-87.9258,35.9304],[-88.0129,35.9466],[-88.0008,36.0281],[-87.919,36.13],[-87.9496,36.2432],[-87.7985,36.2448],[-87.5668,36.1779],[-87.5345,35.9931]]]}},{"type":"Feature","id":"47087","properties":{"name":"Jackson","fips":"47087"},"geometry":{"type":"Polygon","coordinates":[[[-85.828,36.4118],[-85.8278,36.413],[-85.821,36.4554],[-85.8209,36.4559],[-85.8139,36.4995],[-85.7041,36.5224],[-85.4954,36.4031],[-85.4976,36.3751],[-85.4951,36.3023],[-85.5337,36.2426],[-85.7801,36.238],[-85.8465,36.2882],[-85.828,36.4118]]]}},{"type":"Feature","id":"47089","properties":{"name":"Jefferson","fips":"47089"},"geometry":{"type":"Polygon","coordinates":[[[-83.4577,36.1554],[-83.2937,36.1382],[-83.2346,36.0851],[-83.2767,36.0077],[-83.3108,35.8958],[-83.5231,35.9637],[-83.6733,36.0385],[-83.6675,36.0806],[-83.6594,36.0855],[-83.6745,36.1164],[-83.6747,36.1245],[-83.5411,36.182],[-83.4671,36.1747],[-83.4587,36.1553],[-83.4577,36.1554]]]}},{"type":"Feature","id":"47091","properties":{"name":"Johnson","fips":"47091"},"geometry":{"type":"Polygon","coordinates":[[[-81.6469,36.6119],[-81.6775,36.5881],[-81.7,36.5397],[-81.708,36.5362],[-81.7006,36.5152],[-81.7001,36.5142],[-81.6996,36.5129],[-81.6994,36.5115],[-81.6977,36.5084],[-81.6978,36.5075],[-81.6973,36.5049],[-81.698,36.5041],[-81.6999,36.5009],[-81.7002,36.5005],[-81.6999,36.498],[-81.6983,36.4972],[-81.6973,36.4961],[-81.6968,36.4934],[-81.6959,36.4916],[-81.6973,36.4847],[-81.7151,36.4534],[-81.7143,36.451],[-81.721,36.3875],[-81.7259,36.3404],[-81.731,36.3412],[-81.7478,36.3374],[-81.7649,36.3387],[-81.7897,36.3483],[-81.7937,36.3604],[-81.8008,36.3581],[-81.855,36.3373],[-81.9081,36.302],[-81.9181,36.2871],[-81.933,36.2649],[-82.0589,36.3675],[-81.9498,36.4724],[-81.9838,36.5083],[-81.8267,36.6142],[-81.6469,36.6119]]]}},{"type":"Feature","id":"47093","properties":{"name":"Knox","fips":"47093"},"geometry":{"type":"Polygon","coordinates":[[[-83.7327,36.1646],[-83.6675,36.0806],[-83.6733,36.0385],[-83.6546,35.9719],[-83.7943,35.8871],[-83.8535,35.8411],[-83.9947,35.8837],[-84.1663,35.8051],[-84.2634,35.8969],[-84.2684,35.9026],[-84.2716,35.9102],[-84.1952,35.993],[-84.0586,36.0363],[-84.094,36.0689],[-83.9417,36.1864],[-83.7327,36.1646]]]}},{"type":"Feature","id":"47095","properties":{"name":"Lake","fips":"47095"},"geometry":{"type":"Polygon","coordinates":[[[-89.3461,36.5032],[-89.3601,36.4093],[-89.4437,36.2366],[-89.483,36.2127],[-89.6295,36.1854],[-89.6998,36.2484],[-89.6913,36.2521],[-89.678,36.2483],[-89.6024,36.2381],[-89.5896,36.2391],[-89.5416,36.2479],[-89.5347,36.2526],[-89.5355,36.2705],[-89.5395,36.2774],[-89.5448,36.2805],[-89.5543,36.2778],[-89.5785,36.2883],[-89.6118,36.3091],[-89.6203,36.323],[-89.6198,36.3295],[-89.6158,36.3361],[-89.6107,36.3404],[-89.6057,36.3422],[-89.5816,36.3424],[-89.5604,36.3377],[-89.545,36.3368],[-89.5318,36.3392],[-89.519,36.3486],[-89.5132,36.3599],[-89.5096,36.3751],[-89.5195,36.4754],[-89.5227,36.4813],[-89.5391,36.4982],[-89.498,36.4979],[-89.4925,36.4978],[-89.4851,36.4977],[-89.4935,36.4787],[-89.4932,36.4701],[-89.4862,36.4616],[-89.4717,36.457],[-89.4604,36.4581],[-89.4485,36.4644],[-89.4293,36.4819],[-89.4173,36.499],[-89.4039,36.4991],[-89.3818,36.5001],[-89.3801,36.5004],[-89.3566,36.5022],[-89.3461,36.5032]]]}},{"type":"Feature","id":"47097","properties":{"name":"Lauderdale","fips":"47097"},"geometry":{"type":"Polygon","coordinates":[[[-89.5021,35.5806],[-89.6511,35.648],[-89.7581,35.6504],[-89.9098,35.5379],[-89.8849,35.6551],[-89.8905,35.6524],[-89.9061,35.6511],[-89.9227,35.6553],[-89.9374,35.6657],[-89.9558,35.6906],[-89.9589,35.7238],[-89.9563,35.7334],[-89.9503,35.7385],[-89.91,35.7594],[-89.9055,35.7591],[-89.889,35.7506],[-89.8656,35.7466],[-89.8212,35.7567],[-89.7039,35.8203],[-89.701,35.8282],[-89.7029,35.8342],[-89.7093,35.8389],[-89.7295,35.8476],[-89.7494,35.853],[-89.7694,35.8616],[-89.7725,35.8651],[-89.7736,35.8717],[-89.7717,35.8797],[-89.7657,35.8913],[-89.756,35.8968],[-89.7336,35.9047],[-89.7149,35.9062],[-89.6881,35.8969],[-89.6879,35.9054],[-89.407,35.9466],[-89.3428,35.8809],[-89.356,35.8176],[-89.4018,35.8227],[-89.5021,35.5806]]]}},{"type":"Feature","id":"47099","properties":{"name":"Lawrence","fips":"47099"},"geometry":{"type":"Polygon","coordinates":[[[-87.5754,35.3985],[-87.4488,35.4206],[-87.4485,35.4578],[-87.2945,35.4447],[-87.2952,35.4421],[-87.2279,35.4293],[-87.2263,35.4405],[-87.2066,35.4332],[-87.2241,34.9993],[-87.2305,34.9995],[-87.27,35.0004],[-87.2992,35.0009],[-87.3493,35.0017],[-87.3593,35.0018],[-87.3811,35.0021],[-87.3913,35.0024],[-87.4174,35.0027],[-87.4215,35.0027],[-87.4286,35.0028],[-87.606,35.0033],[-87.5888,35.0584],[-87.5754,35.3985]]]}},{"type":"Feature","id":"47101","properties":{"name":"Lewis","fips":"47101"},"geometry":{"type":"Polygon","coordinates":[[[-87.3392,35.6591],[-87.2899,35.548],[-87.2945,35.4447],[-87.4485,35.4578],[-87.4488,35.4206],[-87.5754,35.3985],[-87.7176,35.4833],[-87.6582,35.6093],[-87.5869,35.6533],[-87.4596,35.6151],[-87.3392,35.6591]]]}},{"type":"Feature","id":"47103","properties":{"name":"Lincoln","fips":"47103"},"geometry":{"type":"Polygon","coordinates":[[[-86.6776,34.9921],[-86.7836,34.9919],[-86.7836,34.9919],[-86.8207,34.9918],[-86.8363,34.9918],[-86.8283,35.2637],[-86.7469,35.2529],[-86.6026,35.327],[-86.5995,35.365],[-86.5829,35.371],[-86.5527,35.36],[-86.5437,35.3632],[-86.5253,35.3547],[-86.5273,35.3115],[-86.3922,35.2354],[-86.3662,35.1244],[-86.3182,35.127],[-86.3203,35.0325],[-86.3188,34.9911],[-86.3972,34.9917],[-86.4339,34.9911],[-86.4678,34.9907],[-86.5285,34.9907],[-86.5559,34.991],[-86.5712,34.991],[-86.589,34.9912],[-86.6,34.9912],[-86.6412,34.9917],[-86.6596,34.9918],[-86.6709,34.992],[-86.6744,34.992],[-86.6767,34.9921],[-86.6776,34.9921]]]}},{"type":"Feature","id":"47105","properties":{"name":"Loudon","fips":"47105"},"geometry":{"type":"Polygon","coordinates":[[[-84.1663,35.8051],[-84.1331,35.6607],[-84.1883,35.6105],[-84.4235,35.6717],[-84.5259,35.6242],[-84.526,35.6281],[-84.534,35.6296],[-84.5354,35.6337],[-84.5476,35.6413],[-84.5492,35.6369],[-84.5579,35.637],[-84.5579,35.6297],[-84.5669,35.6298],[-84.5669,35.6332],[-84.5843,35.6331],[-84.5845,35.6444],[-84.2634,35.8969],[-84.1663,35.8051]]]}},{"type":"Feature","id":"47111","properties":{"name":"Macon","fips":"47111"},"geometry":{"type":"Polygon","coordinates":[[[-85.7886,36.6218],[-85.7886,36.6218],[-85.8139,36.4995],[-85.8209,36.4559],[-85.821,36.4554],[-85.8278,36.413],[-85.828,36.4118],[-85.9789,36.4261],[-86.1683,36.4443],[-86.2284,36.4875],[-86.2055,36.6398],[-86.2049,36.6397],[-86.1976,36.6394],[-86.0819,36.6338],[-86.0807,36.6339],[-86.0384,36.6308],[-86.0331,36.6304],[-86.0328,36.6304],[-85.9764,36.6284],[-85.7886,36.6218]]]}},{"type":"Feature","id":"47113","properties":{"name":"Madison","fips":"47113"},"geometry":{"type":"Polygon","coordinates":[[[-88.6069,35.7894],[-88.6136,35.5881],[-88.6759,35.4892],[-88.8416,35.4278],[-89.0789,35.4314],[-89.0695,35.6927],[-89.021,35.671],[-88.8929,35.7838],[-88.9162,35.7973],[-88.911,35.7973],[-88.7068,35.7911],[-88.6069,35.7894]]]}},{"type":"Feature","id":"47115","properties":{"name":"Marion","fips":"47115"},"geometry":{"type":"Polygon","coordinates":[[[-85.5586,35.3193],[-85.4441,35.2626],[-85.3871,35.1472],[-85.362,35.0878],[-85.4745,34.984],[-85.6052,34.9847],[-85.8244,34.9881],[-85.8287,34.9882],[-85.8639,34.9884],[-85.873,35.2234],[-85.7401,35.2153],[-85.7094,35.2893],[-85.5586,35.3193]]]}},{"type":"Feature","id":"47117","properties":{"name":"Marshall","fips":"47117"},"geometry":{"type":"Polygon","coordinates":[[[-86.8283,35.2637],[-86.9065,35.3141],[-86.9608,35.417],[-86.8496,35.5255],[-86.782,35.7066],[-86.6862,35.7101],[-86.6826,35.7041],[-86.6737,35.7033],[-86.6743,35.697],[-86.642,35.689],[-86.6394,35.6859],[-86.6582,35.4353],[-86.5995,35.365],[-86.6026,35.327],[-86.7469,35.2529],[-86.8283,35.2637]]]}},{"type":"Feature","id":"47119","properties":{"name":"Maury","fips":"47119"},"geometry":{"type":"Polygon","coordinates":[[[-87.2151,35.8507],[-86.9536,35.7819],[-86.782,35.7066],[-86.8496,35.5255],[-86.9608,35.417],[-87.1209,35.4557],[-87.2066,35.4332],[-87.2263,35.4405],[-87.2279,35.4293],[-87.2952,35.4421],[-87.2945,35.4447],[-87.2899,35.548],[-87.3392,35.6591],[-87.2341,35.7247],[-87.2151,35.8507]]]}},{"type":"Feature","id":"47107","properties":{"name":"McMinn","fips":"47107"},"geometry":{"type":"Polygon","coordinates":[[[-84.5259,35.6242],[-84.4092,35.3984],[-84.401,35.3304],[-84.4955,35.2855],[-84.7036,35.241],[-84.8602,35.3501],[-84.8145,35.437],[-84.6199,35.6447],[-84.5845,35.6444],[-84.5843,35.6331],[-84.5669,35.6332],[-84.5669,35.6298],[-84.5579,35.6297],[-84.5579,35.637],[-84.5492,35.6369],[-84.5476,35.6413],[-84.5354,35.6337],[-84.534,35.6296],[-84.526,35.6281],[-84.5259,35.6242]]]}},{"type":"Feature","id":"47109","properties":{"name":"McNairy","fips":"47109"},"geometry":{"type":"Polygon","coordinates":[[[-88.7818,35.2476],[-88.7198,35.2475],[-88.6409,35.361],[-88.3626,35.381],[-88.3805,34.9956],[-88.4698,34.9961],[-88.4699,34.996],[-88.7866,34.9953],[-88.7869,35.1158],[-88.7818,35.2476]]]}},{"type":"Feature","id":"47121","properties":{"name":"Meigs","fips":"47121"},"geometry":{"type":"Polygon","coordinates":[[[-84.6259,35.6589],[-84.6199,35.6589],[-84.6199,35.6447],[-84.8145,35.437],[-84.8602,35.3501],[-84.9463,35.2878],[-85.0163,35.4093],[-84.969,35.4667],[-84.907,35.4479],[-84.874,35.5502],[-84.7949,35.5525],[-84.7818,35.6739],[-84.7239,35.7529],[-84.6259,35.6589]]]}},{"type":"Feature","id":"47123","properties":{"name":"Monroe","fips":"47123"},"geometry":{"type":"Polygon","coordinates":[[[-84.4955,35.2855],[-84.401,35.3304],[-84.4092,35.3984],[-84.5259,35.6242],[-84.4235,35.6717],[-84.1883,35.6105],[-84.0816,35.5412],[-83.9938,35.55],[-83.9611,35.4637],[-83.9611,35.4628],[-83.9614,35.4595],[-83.9999,35.4252],[-84.0023,35.4225],[-84.0248,35.3539],[-84.0353,35.3508],[-84.0375,35.3499],[-84.0381,35.3484],[-84.0324,35.3265],[-84.0325,35.3253],[-84.0214,35.3014],[-84.0235,35.2958],[-84.029,35.291],[-84.0557,35.2682],[-84.0975,35.2474],[-84.115,35.2498],[-84.1153,35.2504],[-84.1212,35.2506],[-84.1249,35.2498],[-84.2029,35.2558],[-84.2118,35.2661],[-84.2237,35.2691],[-84.2278,35.2679],[-84.2902,35.2256],[-84.2923,35.2067],[-84.4955,35.2855]]]}},{"type":"Feature","id":"47125","properties":{"name":"Montgomery","fips":"47125"},"geometry":{"type":"Polygon","coordinates":[[[-87.6026,36.419],[-87.6034,36.4259],[-87.6411,36.638],[-87.5649,36.6391],[-87.5631,36.6391],[-87.4365,36.6407],[-87.425,36.641],[-87.4143,36.641],[-87.3478,36.6414],[-87.3441,36.6415],[-87.336,36.6415],[-87.2815,36.6418],[-87.2784,36.6417],[-87.2477,36.6418],[-87.231,36.6419],[-87.2305,36.6419],[-87.115,36.6424],[-87.1204,36.4555],[-87.1503,36.445],[-87.1486,36.4228],[-87.151,36.4166],[-87.1627,36.4133],[-87.1632,36.4214],[-87.1713,36.4276],[-87.1773,36.4246],[-87.2865,36.3219],[-87.5135,36.3347],[-87.587,36.3418],[-87.5924,36.3677],[-87.6026,36.419]]]}},{"type":"Feature","id":"47127","properties":{"name":"Moore","fips":"47127"},"geometry":{"type":"Polygon","coordinates":[[[-86.5253,35.3547],[-86.4442,35.3207],[-86.2576,35.4125],[-86.2615,35.3336],[-86.3182,35.127],[-86.3662,35.1244],[-86.3922,35.2354],[-86.5273,35.3115],[-86.5253,35.3547]]]}},{"type":"Feature","id":"47129","properties":{"name":"Morgan","fips":"47129"},"geometry":{"type":"Polygon","coordinates":[[[-84.7008,36.3708],[-84.611,36.2704],[-84.441,36.1635],[-84.3418,36.049],[-84.4461,35.986],[-84.6067,35.9511],[-84.6806,35.9085],[-84.7207,35.9949],[-84.9078,36.1563],[-84.8786,36.2802],[-84.7979,36.2969],[-84.7008,36.3708]]]}},{"type":"Feature","id":"47131","properties":{"name":"Obion","fips":"47131"},"geometry":{"type":"Polygon","coordinates":[[[-89.3461,36.5032],[-89.3461,36.5032],[-89.2823,36.5068],[-89.2791,36.5065],[-89.2114,36.5056],[-89.1634,36.5045],[-89.1632,36.5045],[-89.1198,36.5036],[-89.1175,36.5036],[-89.0901,36.5034],[-89.0721,36.5032],[-89.0589,36.5032],[-89.0346,36.503],[-89.0104,36.5027],[-89.0068,36.5027],[-89.0001,36.5026],[-88.9645,36.5022],[-88.8747,36.5024],[-88.8349,36.5029],[-88.8346,36.5029],[-88.8273,36.5029],[-88.8164,36.4107],[-88.9502,36.4092],[-88.9598,36.2228],[-88.9612,36.2016],[-89.1545,36.2047],[-89.483,36.2127],[-89.4437,36.2366],[-89.3601,36.4093],[-89.3461,36.5032]]]}},{"type":"Feature","id":"47133","properties":{"name":"Overton","fips":"47133"},"geometry":{"type":"Polygon","coordinates":[[[-85.4951,36.3023],[-85.4976,36.3751],[-85.4954,36.4031],[-85.4388,36.5011],[-85.2849,36.5313],[-85.1854,36.4904],[-85.1204,36.4072],[-85.1222,36.3046],[-85.0825,36.1962],[-85.1196,36.1447],[-85.2042,36.1525],[-85.4194,36.2361],[-85.4951,36.3023]]]}},{"type":"Feature","id":"47135","properties":{"name":"Perry","fips":"47135"},"geometry":{"type":"Polygon","coordinates":[[[-87.7102,35.7086],[-87.7438,35.664],[-87.6582,35.6093],[-87.7176,35.4833],[-87.9732,35.46],[-88.0077,35.4234],[-88.0423,35.4446],[-87.9746,35.521],[-88.0358,35.6218],[-88.0348,35.7173],[-87.9707,35.8157],[-87.969,35.8288],[-87.9627,35.8409],[-87.8481,35.8041],[-87.7168,35.8387],[-87.7102,35.7086]]]}},{"type":"Feature","id":"47137","properties":{"name":"Pickett","fips":"47137"},"geometry":{"type":"Polygon","coordinates":[[[-85.2763,36.6265],[-85.0961,36.6225],[-85.0864,36.6219],[-84.9749,36.6143],[-84.8597,36.6065],[-84.8598,36.6064],[-84.7854,36.6034],[-84.7499,36.5535],[-84.7318,36.5247],[-84.9431,36.5813],[-85.0439,36.5588],[-85.1204,36.4072],[-85.1854,36.4904],[-85.2849,36.5313],[-85.2763,36.6265]]]}},{"type":"Feature","id":"47139","properties":{"name":"Polk","fips":"47139"},"geometry":{"type":"Polygon","coordinates":[[[-84.4955,35.2855],[-84.2923,35.2067],[-84.3084,35.0932],[-84.3086,35.0928],[-84.3219,34.9884],[-84.3939,34.9881],[-84.3949,34.988],[-84.5091,34.988],[-84.5099,34.988],[-84.6215,34.9883],[-84.7274,34.988],[-84.731,34.9881],[-84.7759,34.9878],[-84.6999,35.171],[-84.7036,35.241],[-84.4955,35.2855]]]}},{"type":"Feature","id":"47141","properties":{"name":"Putnam","fips":"47141"},"geometry":{"type":"Polygon","coordinates":[[[-85.7801,36.238],[-85.5337,36.2426],[-85.4951,36.3023],[-85.4194,36.2361],[-85.2042,36.1525],[-85.1196,36.1447],[-85.1002,36.1386],[-85.2464,36.1007],[-85.2642,35.9792],[-85.3094,36.0316],[-85.5093,36.0819],[-85.6446,36.0151],[-85.8074,36.1316],[-85.7801,36.238]]]}},{"type":"Feature","id":"47143","properties":{"name":"Rhea","fips":"47143"},"geometry":{"type":"Polygon","coordinates":[[[-84.7239,35.7529],[-84.7818,35.6739],[-84.7949,35.5525],[-84.874,35.5502],[-84.907,35.4479],[-84.969,35.4667],[-85.0163,35.4093],[-85.1352,35.4586],[-85.1078,35.5714],[-84.9161,35.7619],[-84.7819,35.825],[-84.7239,35.7529]]]}},{"type":"Feature","id":"47145","properties":{"name":"Roane","fips":"47145"},"geometry":{"type":"Polygon","coordinates":[[[-84.325,36.0045],[-84.3201,35.9916],[-84.2716,35.9102],[-84.2684,35.9026],[-84.2634,35.8969],[-84.5845,35.6444],[-84.6199,35.6447],[-84.6199,35.6589],[-84.6259,35.6589],[-84.7239,35.7529],[-84.7819,35.825],[-84.6806,35.9085],[-84.6067,35.9511],[-84.4461,35.986],[-84.3418,36.049],[-84.3404,36.0457],[-84.3402,36.045],[-84.325,36.0045]]]}},{"type":"Feature","id":"47147","properties":{"name":"Robertson","fips":"47147"},"geometry":{"type":"Polygon","coordinates":[[[-86.9132,36.3826],[-86.9888,36.3706],[-87.1204,36.4555],[-87.115,36.6424],[-87.115,36.6424],[-87.0608,36.6434],[-86.9066,36.6463],[-86.906,36.6463],[-86.8543,36.6469],[-86.8332,36.6472],[-86.8184,36.6476],[-86.8162,36.6477],[-86.813,36.6476],[-86.7633,36.6489],[-86.7589,36.649],[-86.6064,36.6521],[-86.605,36.6521],[-86.5643,36.6335],[-86.6988,36.4074],[-86.7548,36.4055],[-86.8248,36.3499],[-86.9132,36.3826]]]}},{"type":"Feature","id":"47149","properties":{"name":"Rutherford","fips":"47149"},"geometry":{"type":"Polygon","coordinates":[[[-86.4172,36.0415],[-86.3104,35.9786],[-86.1532,35.9544],[-86.2071,35.7038],[-86.2452,35.6319],[-86.3419,35.6643],[-86.4033,35.6189],[-86.5431,35.6976],[-86.6394,35.6859],[-86.642,35.689],[-86.6743,35.697],[-86.6737,35.7033],[-86.6826,35.7041],[-86.6862,35.7101],[-86.6133,35.7903],[-86.6189,35.9682],[-86.5156,36.1006],[-86.4172,36.0415]]]}},{"type":"Feature","id":"47151","properties":{"name":"Scott","fips":"47151"},"geometry":{"type":"Polygon","coordinates":[[[-84.7853,36.6034],[-84.7785,36.6032],[-84.2613,36.592],[-84.2596,36.514],[-84.3499,36.4663],[-84.3299,36.2851],[-84.3727,36.2168],[-84.441,36.1635],[-84.611,36.2704],[-84.7008,36.3708],[-84.6591,36.3952],[-84.7318,36.5247],[-84.7499,36.5535],[-84.7854,36.6034],[-84.7853,36.6034]]]}},{"type":"Feature","id":"47153","properties":{"name":"Sequatchie","fips":"47153"},"geometry":{"type":"Polygon","coordinates":[[[-85.5575,35.533],[-85.4238,35.5674],[-85.4033,35.4923],[-85.2259,35.3543],[-85.246,35.3191],[-85.3871,35.1472],[-85.4441,35.2626],[-85.5586,35.3193],[-85.4856,35.4064],[-85.6073,35.5317],[-85.5575,35.533]]]}},{"type":"Feature","id":"47155","properties":{"name":"Sevier","fips":"47155"},"geometry":{"type":"Polygon","coordinates":[[[-83.663,35.5691],[-83.6628,35.6906],[-83.7799,35.8602],[-83.7844,35.8687],[-83.7842,35.8792],[-83.7943,35.8871],[-83.6546,35.9719],[-83.6733,36.0385],[-83.5231,35.9637],[-83.3108,35.8958],[-83.2555,35.715],[-83.2507,35.7093],[-83.2542,35.6958],[-83.2972,35.6578],[-83.3669,35.6387],[-83.4458,35.6118],[-83.4791,35.5833],[-83.4785,35.5792],[-83.4806,35.5766],[-83.4855,35.5682],[-83.4983,35.563],[-83.6405,35.5661],[-83.663,35.5691]]]}},{"type":"Feature","id":"47157","properties":{"name":"Shelby","fips":"47157"},"geometry":{"type":"Polygon","coordinates":[[[-89.6428,35.0449],[-89.6438,35.0121],[-89.6437,35.0117],[-89.6443,34.9953],[-89.7243,34.9948],[-89.7952,34.9943],[-89.8485,34.9942],[-89.8834,34.9943],[-89.8934,34.9944],[-90.3093,34.9957],[-90.3099,35.0097],[-90.2956,35.0401],[-90.1939,35.0616],[-90.1746,35.1167],[-90.1601,35.1288],[-90.1428,35.1351],[-90.1094,35.1189],[-90.1006,35.1167],[-90.0906,35.1183],[-90.0834,35.1217],[-90.0654,35.1377],[-90.0646,35.1406],[-90.0734,35.211],[-90.0743,35.2183],[-90.0774,35.2255],[-90.0979,35.25],[-90.1051,35.2543],[-90.1165,35.2558],[-90.1404,35.2523],[-90.1521,35.256],[-90.1589,35.2626],[-90.1666,35.2746],[-90.1689,35.282],[-90.1638,35.2961],[-90.1589,35.3006],[-90.1534,35.3026],[-90.1149,35.3039],[-90.0867,35.3699],[-90.0896,35.3798],[-90.075,35.3842],[-90.0618,35.3862],[-90.0543,35.3893],[-89.9573,35.5287],[-89.9336,35.5333],[-90.0416,35.3966],[-89.8893,35.3909],[-89.7025,35.4086],[-89.6328,35.3758],[-89.6428,35.0449]]]}},{"type":"Feature","id":"47159","properties":{"name":"Smith","fips":"47159"},"geometry":{"type":"Polygon","coordinates":[[[-85.9789,36.4261],[-85.828,36.4118],[-85.8465,36.2882],[-85.7801,36.238],[-85.8074,36.1316],[-86.0597,36.086],[-86.1368,36.2959],[-85.9789,36.4261]]]}},{"type":"Feature","id":"47161","properties":{"name":"Stewart","fips":"47161"},"geometry":{"type":"Polygon","coordinates":[[[-87.6026,36.419],[-87.5924,36.3677],[-87.7155,36.3682],[-87.8218,36.3287],[-87.9807,36.3533],[-87.9827,36.3561],[-87.9886,36.3597],[-87.9909,36.3601],[-88.0585,36.4392],[-88.0533,36.4971],[-88.0532,36.4971],[-88.0395,36.5104],[-88.0378,36.5138],[-88.0325,36.5407],[-88.0356,36.5617],[-88.0451,36.6029],[-88.0556,36.6357],[-88.0682,36.6597],[-88.0705,36.6781],[-88.0118,36.677],[-87.8496,36.6637],[-87.8532,36.6332],[-87.6942,36.6368],[-87.6411,36.638],[-87.6411,36.638],[-87.6034,36.4259],[-87.6026,36.419]]]}},{"type":"Feature","id":"47163","properties":{"name":"Sullivan","fips":"47163"},"geometry":{"type":"Polygon","coordinates":[[[-82.6092,36.5941],[-82.5611,36.5948],[-82.5598,36.5948],[-82.5543,36.5949],[-82.2938,36.5956],[-82.2433,36.5957],[-82.2267,36.5957],[-82.2257,36.5957],[-82.2234,36.5957],[-82.2217,36.5958],[-82.211,36.5959],[-82.2105,36.5958],[-82.1885,36.5952],[-82.1807,36.5949],[-82.1772,36.5948],[-82.174,36.5946],[-82.1507,36.5947],[-82.1486,36.5947],[-82.1461,36.5947],[-81.9341,36.5942],[-81.9226,36.6162],[-81.8267,36.6142],[-81.9838,36.5083],[-82.1881,36.4006],[-82.2999,36.3965],[-82.4383,36.4457],[-82.6807,36.4318],[-82.6092,36.5941]]]}},{"type":"Feature","id":"47165","properties":{"name":"Sumner","fips":"47165"},"geometry":{"type":"Polygon","coordinates":[[[-86.2284,36.4875],[-86.2833,36.3475],[-86.2985,36.3136],[-86.4517,36.3356],[-86.5434,36.3206],[-86.5943,36.2451],[-86.7235,36.3477],[-86.7548,36.4055],[-86.6988,36.4074],[-86.5643,36.6335],[-86.5641,36.6335],[-86.4735,36.6517],[-86.4734,36.6517],[-86.4722,36.6518],[-86.4685,36.6518],[-86.4114,36.6506],[-86.3331,36.6488],[-86.2222,36.6409],[-86.2191,36.6408],[-86.2164,36.6406],[-86.2162,36.6405],[-86.2055,36.6398],[-86.2284,36.4875]]]}},{"type":"Feature","id":"47167","properties":{"name":"Tipton","fips":"47167"},"geometry":{"type":"MultiPolygon","coordinates":[[[[-89.9573,35.5287],[-90.0543,35.3893],[-90.0618,35.3862],[-90.075,35.3842],[-90.0896,35.3798],[-90.0936,35.3933],[-90.1355,35.3767],[-90.1436,35.3747],[-90.1662,35.3747],[-90.1783,35.3821],[-90.1793,35.3852],[-90.169,35.4219],[-90.1524,35.4368],[-90.1077,35.4769],[-90.0744,35.4725],[-90.0722,35.4708],[-90.0678,35.4662],[-90.0591,35.4579],[-90.0477,35.4593],[-90.034,35.4688],[-90.035,35.4807],[-90.0397,35.548],[-90.0329,35.5534],[-90.0286,35.5552],[-90.0173,35.556],[-89.9573,35.5287]]],[[[-89.6328,35.3758],[-89.7025,35.4086],[-89.8893,35.3909],[-90.0416,35.3966],[-89.9336,35.5333],[-89.9098,35.5379],[-89.7581,35.6504],[-89.6511,35.648],[-89.5021,35.5806],[-89.4699,35.5466],[-89.4742,35.403],[-89.6328,35.3758]]]]}},{"type":"Feature","id":"47169","properties":{"name":"Trousdale","fips":"47169"},"geometry":{"type":"Polygon","coordinates":[[[-86.1747,36.328],[-86.2833,36.3475],[-86.2284,36.4875],[-86.1683,36.4443],[-85.9789,36.4261],[-86.1368,36.2959],[-86.1447,36.3045],[-86.164,36.3209],[-86.1747,36.328]]]}},{"type":"Feature","id":"47171","properties":{"name":"Unicoi","fips":"47171"},"geometry":{"type":"Polygon","coordinates":[[[-82.463,36.0073],[-82.4874,35.9916],[-82.4875,35.9916],[-82.5059,35.9783],[-82.5071,35.9775],[-82.5126,35.9757],[-82.5575,35.9547],[-82.5968,35.965],[-82.6113,35.9732],[-82.6151,36.0003],[-82.6029,36.0398],[-82.5772,36.0784],[-82.5951,36.0962],[-82.5276,36.149],[-82.4373,36.1547],[-82.3405,36.2528],[-82.2564,36.2332],[-82.2221,36.1569],[-82.2348,36.1417],[-82.2355,36.1407],[-82.2364,36.1399],[-82.2377,36.1392],[-82.3252,36.1194],[-82.3292,36.1174],[-82.3484,36.1159],[-82.3609,36.1106],[-82.3666,36.1076],[-82.3714,36.1064],[-82.3756,36.1056],[-82.4095,36.0834],[-82.4169,36.0729],[-82.463,36.0073]]]}},{"type":"Feature","id":"47173","properties":{"name":"Union","fips":"47173"},"geometry":{"type":"Polygon","coordinates":[[[-83.6674,36.3444],[-83.7327,36.1646],[-83.9417,36.1864],[-84.0043,36.2704],[-83.9056,36.42],[-83.8055,36.4359],[-83.733,36.345],[-83.6674,36.3444]]]}},{"type":"Feature","id":"47175","properties":{"name":"Van Buren","fips":"47175"},"geometry":{"type":"Polygon","coordinates":[[[-85.4238,35.5674],[-85.5575,35.533],[-85.5946,35.6179],[-85.6029,35.795],[-85.4742,35.8227],[-85.2694,35.7934],[-85.2733,35.7879],[-85.2604,35.7826],[-85.2478,35.7867],[-85.2541,35.7656],[-85.2654,35.7212],[-85.4238,35.5674]]]}},{"type":"Feature","id":"47177","properties":{"name":"Warren","fips":"47177"},"geometry":{"type":"Polygon","coordinates":[[[-85.5575,35.533],[-85.6073,35.5317],[-85.877,35.5241],[-85.9851,35.6601],[-85.9849,35.7346],[-85.8852,35.8397],[-85.6821,35.8313],[-85.6826,35.8272],[-85.6714,35.8207],[-85.6531,35.8164],[-85.6417,35.8167],[-85.6348,35.8086],[-85.6222,35.8018],[-85.6076,35.8032],[-85.6029,35.795],[-85.5946,35.6179],[-85.5575,35.533]]]}},{"type":"Feature","id":"47179","properties":{"name":"Washington","fips":"47179"},"geometry":{"type":"Polygon","coordinates":[[[-82.3405,36.2528],[-82.4373,36.1547],[-82.5276,36.149],[-82.5951,36.0962],[-82.6478,36.1464],[-82.6296,36.4115],[-82.7026,36.4104],[-82.6762,36.4234],[-82.6807,36.4318],[-82.4383,36.4457],[-82.2999,36.3965],[-82.3405,36.2528]]]}},{"type":"Feature","id":"47181","properties":{"name":"Wayne","fips":"47181"},"geometry":{"type":"Polygon","coordinates":[[[-87.9849,35.0063],[-87.9816,35.2957],[-88.0247,35.3923],[-87.9846,35.3921],[-87.9752,35.4142],[-88.0077,35.4234],[-87.9732,35.46],[-87.7176,35.4833],[-87.5754,35.3985],[-87.5888,35.0584],[-87.606,35.0033],[-87.6641,35.0035],[-87.6714,35.0035],[-87.6968,35.0039],[-87.7005,35.004],[-87.7023,35.0039],[-87.7095,35.0041],[-87.7589,35.0047],[-87.7676,35.0048],[-87.7736,35.0049],[-87.8519,35.0057],[-87.8534,35.0056],[-87.8535,35.0055],[-87.8726,35.0056],[-87.8777,35.0055],[-87.878,35.0055],[-87.9849,35.0063]]]}},{"type":"Feature","id":"47183","properties":{"name":"Weakley","fips":"47183"},"geometry":{"type":"Polygon","coordinates":[[[-88.6927,36.0627],[-88.8409,36.1235],[-88.9598,36.2228],[-88.9502,36.4092],[-88.8164,36.4107],[-88.8273,36.5029],[-88.827,36.5029],[-88.8168,36.5028],[-88.7996,36.5028],[-88.7475,36.5028],[-88.7153,36.5027],[-88.6611,36.5022],[-88.5773,36.5019],[-88.5452,36.5018],[-88.5164,36.5014],[-88.5163,36.5014],[-88.5303,36.1516],[-88.5322,36.1154],[-88.6555,36.1173],[-88.6927,36.0627]]]}},{"type":"Feature","id":"47185","properties":{"name":"White","fips":"47185"},"geometry":{"type":"Polygon","coordinates":[[[-85.6029,35.795],[-85.6076,35.8032],[-85.6222,35.8018],[-85.6348,35.8086],[-85.6417,35.8167],[-85.6531,35.8164],[-85.6714,35.8207],[-85.6826,35.8272],[-85.6821,35.8313],[-85.6373,35.8818],[-85.6446,36.0151],[-85.5093,36.0819],[-85.3094,36.0316],[-85.2642,35.9792],[-85.2131,35.9104],[-85.2694,35.7934],[-85.4742,35.8227],[-85.6029,35.795]]]}},{"type":"Feature","id":"47187","properties":{"name":"Williamson","fips":"47187"},"geometry":{"type":"Polygon","coordinates":[[[-87.2051,35.9146],[-87.2021,35.9361],[-87.2014,35.9406],[-87.2057,35.941],[-87.2042,35.9592],[-87.1826,36.0497],[-87.1423,36.048],[-87.1061,36.0452],[-87.0853,36.0438],[-87.0541,36.0455],[-87.0277,35.9894],[-86.9292,36.0527],[-86.865,36.0447],[-86.7872,36.036],[-86.6919,35.9946],[-86.6877,35.9953],[-86.6862,35.9941],[-86.6819,35.9894],[-86.6483,35.9764],[-86.6274,35.974],[-86.6189,35.9682],[-86.6133,35.7903],[-86.6862,35.7101],[-86.782,35.7066],[-86.9536,35.7819],[-87.2151,35.8507],[-87.2051,35.9146]]]}},{"type":"Feature","id":"47189","properties":{"name":"Wilson","fips":"47189"},"geometry":{"type":"Polygon","coordinates":[[[-86.1532,35.9544],[-86.3104,35.9786],[-86.4172,36.0415],[-86.5156,36.1006],[-86.5943,36.2451],[-86.5434,36.3206],[-86.4517,36.3356],[-86.2985,36.3136],[-86.2833,36.3475],[-86.1747,36.328],[-86.164,36.3209],[-86.1447,36.3045],[-86.1368,36.2959],[-86.0597,36.086],[-86.0148,35.9611],[-86.1532,35.9544]]]}}]}