{"type":"FeatureCollection","features":[{"type":"Feature","id":"49001","properties":{"name":"Beaver","fips":"49001"},"geometry":{"type":"Polygon","coordinates":[[[-112.5185,38.5099],[-112.3354,38.333],[-112.3569,38.2248],[-112.4438,38.1499],[-112.4621,38.1499],[-112.4787,38.1473],[-113.4716,38.1487],[-114.0499,38.1486],[-114.0501,38.4045],[-114.0501,38.4047],[-114.0498,38.5438],[-114.0499,38.5478],[-114.0502,38.5729],[-112.9194,38.5765],[-112.9193,38.5747],[-112.5152,38.5737],[-112.5152,38.5723],[-112.5189,38.5674],[-112.5157,38.5566],[-112.5178,38.554],[-112.516,38.529],[-112.5224,38.519],[-112.5185,38.5099]]]}},{"type":"Feature","id":"49003","properties":{"name":"Box Elder","fips":"49003"},"geometry":{"type":"Polygon","coordinates":[[[-111.8855,41.4264],[-111.9591,41.4337],[-112.0284,41.3364],[-112.2379,41.3367],[-112.4934,41.0767],[-112.7993,41.0002],[-114.0421,40.9999],[-114.0399,41.742],[-114.0412,41.8506],[-114.0411,41.8506],[-114.0417,41.9937],[-113.8933,41.9881],[-113.7961,41.9891],[-113.7645,41.9895],[-113.4316,41.9938],[-113.4022,41.9942],[-113.3965,41.9943],[-113.0008,41.9982],[-113.0008,41.9982],[-112.9792,41.9983],[-112.9096,41.9988],[-112.8824,41.9989],[-112.8806,41.9989],[-112.8331,41.9993],[-112.8331,41.9993],[-112.7885,41.9997],[-112.7094,42.0003],[-112.648,42.0003],[-112.4508,42.001],[-112.4506,42.0011],[-112.3862,42.0011],[-112.2649,42.001],[-112.2391,42.0012],[-112.164,41.9967],[-112.0527,41.866],[-112.0518,41.6998],[-111.9821,41.534],[-111.9166,41.5386],[-111.8855,41.4264]]]}},{"type":"Feature","id":"49005","properties":{"name":"Cache","fips":"49005"},"geometry":{"type":"Polygon","coordinates":[[[-111.8855,41.4264],[-111.9166,41.5386],[-111.9821,41.534],[-112.0518,41.6998],[-112.0527,41.866],[-112.164,41.9967],[-112.1095,41.9971],[-111.9158,41.9985],[-111.9156,41.9985],[-111.8765,41.9985],[-111.5073,41.9995],[-111.4713,41.9282],[-111.4269,41.6779],[-111.4429,41.5314],[-111.5108,41.4231],[-111.6666,41.4288],[-111.7265,41.3758],[-111.8855,41.4264]]]}},{"type":"Feature","id":"49007","properties":{"name":"Carbon","fips":"49007"},"geometry":{"type":"Polygon","coordinates":[[[-109.9676,39.806],[-109.8847,39.8057],[-109.9937,39.7028],[-110.038,39.5667],[-110.0241,39.469],[-111.0812,39.4675],[-111.132,39.6138],[-111.1591,39.5959],[-111.2474,39.7046],[-111.2475,39.8133],[-110.8579,39.8124],[-109.9676,39.806]]]}},{"type":"Feature","id":"49009","properties":{"name":"Daggett","fips":"49009"},"geometry":{"type":"Polygon","coordinates":[[[-110.0007,40.9974],[-109.9998,40.9973],[-109.8553,40.9976],[-109.8543,40.9977],[-109.7154,40.9982],[-109.7139,40.9983],[-109.6764,40.9984],[-109.2074,41.0015],[-109.0501,41.0007],[-109.0483,40.6626],[-109.1611,40.6838],[-109.1636,40.7859],[-109.2024,40.7858],[-109.2033,40.8586],[-109.3945,40.8581],[-109.3944,40.7909],[-109.4803,40.7399],[-109.5255,40.8264],[-109.8702,40.7638],[-109.9775,40.8098],[-109.9876,40.8076],[-109.9937,40.8152],[-110.0007,40.8137],[-110.0007,40.9974]]]}},{"type":"Feature","id":"49011","properties":{"name":"Davis","fips":"49011"},"geometry":{"type":"Polygon","coordinates":[[[-111.7386,40.8611],[-111.9159,40.822],[-112.0066,40.9218],[-112.2635,40.7734],[-112.4934,41.0767],[-112.1896,41.1527],[-111.8563,41.1391],[-111.8152,40.9575],[-111.7386,40.8611]]]}},{"type":"Feature","id":"49013","properties":{"name":"Duchesne","fips":"49013"},"geometry":{"type":"Polygon","coordinates":[[[-110.8579,39.8124],[-110.8573,39.8989],[-110.8919,39.8991],[-110.9019,40.6782],[-110.8931,40.7273],[-110.375,40.7882],[-110.2943,40.8342],[-110.0007,40.8137],[-109.9937,40.8152],[-109.9876,40.8076],[-109.9775,40.8098],[-109.9737,40.0399],[-109.9676,39.806],[-110.8579,39.8124]]]}},{"type":"Feature","id":"49015","properties":{"name":"Emery","fips":"49015"},"geometry":{"type":"Polygon","coordinates":[[[-110.0254,38.5],[-111.3059,38.5],[-111.3058,38.5102],[-111.2994,39.0323],[-111.3012,39.4673],[-111.2473,39.4672],[-111.2474,39.7046],[-111.1591,39.5959],[-111.132,39.6138],[-111.0812,39.4675],[-110.0241,39.469],[-110.0248,39.4676],[-110.0241,39.4617],[-110.0106,39.4163],[-110.0773,39.2759],[-110.0546,39.2283],[-110.0988,39.1895],[-110.1505,38.9987],[-110.0977,39.0016],[-110.0056,38.9499],[-110.15,38.9807],[-110.1793,38.9072],[-110.0839,38.752],[-110.1135,38.7065],[-110.0363,38.6523],[-110.0559,38.605],[-109.9969,38.6088],[-110.0579,38.5837],[-109.9943,38.5271],[-110.0254,38.5]]]}},{"type":"Feature","id":"49017","properties":{"name":"Garfield","fips":"49017"},"geometry":{"type":"Polygon","coordinates":[[[-111.8428,38.1513],[-111.4144,38.1501],[-110.6874,38.1514],[-109.9279,38.1519],[-110.283,37.8662],[-110.305,37.8905],[-110.4046,37.8799],[-110.4281,37.779],[-110.4977,37.6522],[-110.6464,37.5411],[-111.8532,37.5356],[-112.3613,37.5364],[-112.3612,37.5431],[-112.6832,37.5432],[-112.6892,37.8058],[-112.5786,37.8045],[-112.5884,37.8904],[-112.4682,37.8905],[-112.4787,38.1473],[-112.4621,38.1499],[-112.4438,38.1499],[-111.8428,38.1513]]]}},{"type":"Feature","id":"49019","properties":{"name":"Grand","fips":"49019"},"geometry":{"type":"Polygon","coordinates":[[[-110.0254,38.5],[-109.9943,38.5271],[-110.0579,38.5837],[-109.9969,38.6088],[-110.0559,38.605],[-110.0363,38.6523],[-110.1135,38.7065],[-110.0839,38.752],[-110.1793,38.9072],[-110.15,38.9807],[-110.0056,38.9499],[-110.0977,39.0016],[-110.1505,38.9987],[-110.0988,39.1895],[-110.0546,39.2283],[-110.0773,39.2759],[-110.0106,39.4163],[-110.0241,39.4617],[-109.107,39.462],[-109.0514,39.4977],[-109.0514,39.3667],[-109.0515,39.125],[-109.0533,38.9429],[-109.0532,38.9425],[-109.0538,38.9053],[-109.0539,38.9044],[-109.0595,38.7199],[-109.06,38.5],[-110.0254,38.5]]]}},{"type":"Feature","id":"49021","properties":{"name":"Iron","fips":"49021"},"geometry":{"type":"Polygon","coordinates":[[[-112.6832,37.5432],[-112.9012,37.5434],[-112.901,37.4997],[-113.037,37.4986],[-113.0369,37.4746],[-113.1463,37.4741],[-113.2537,37.4822],[-113.2532,37.5289],[-113.4744,37.529],[-113.475,37.6183],[-114.0525,37.6048],[-114.0517,37.746],[-114.0518,37.7462],[-114.0517,37.747],[-114.0511,37.7563],[-114.0485,37.8099],[-114.0504,38.0],[-114.0499,38.1486],[-113.4716,38.1487],[-112.4787,38.1473],[-112.4682,37.8905],[-112.5884,37.8904],[-112.5786,37.8045],[-112.6892,37.8058],[-112.6832,37.5432]]]}},{"type":"Feature","id":"49023","properties":{"name":"Juab","fips":"49023"},"geometry":{"type":"Polygon","coordinates":[[[-112.1797,40.0116],[-112.0534,39.8932],[-112.0713,39.7779],[-111.972,39.8067],[-111.9094,39.8945],[-111.7948,39.9312],[-111.7342,39.8539],[-111.7662,39.8106],[-111.6406,39.813],[-111.5851,39.7401],[-111.7186,39.6946],[-111.7132,39.4601],[-111.7471,39.3828],[-111.9225,39.3815],[-112.0157,39.3145],[-112.1956,39.3296],[-112.2204,39.5541],[-112.3543,39.5539],[-112.4621,39.5524],[-113.8156,39.5526],[-113.8157,39.5441],[-114.0477,39.5427],[-114.0471,39.906],[-112.3419,39.9042],[-112.3318,39.9527],[-112.2699,39.9389],[-112.1797,40.0116]]]}},{"type":"Feature","id":"49025","properties":{"name":"Kane","fips":"49025"},"geometry":{"type":"Polygon","coordinates":[[[-110.6464,37.5411],[-110.6391,37.4871],[-110.7192,37.4814],[-110.6992,37.4307],[-110.7361,37.3452],[-110.7778,37.323],[-110.8698,37.3487],[-110.8995,37.1762],[-110.9583,37.1244],[-111.0577,37.0994],[-111.1783,37.1026],[-111.2475,37.0216],[-111.2688,37.0542],[-111.3149,37.0121],[-111.4128,37.0015],[-112.3577,37.001],[-112.3689,37.0011],[-112.5345,37.0007],[-112.5386,37.0007],[-112.5404,37.0007],[-112.5451,37.0007],[-112.559,37.0007],[-112.6098,37.0008],[-112.8994,37.0003],[-112.901,37.4997],[-112.9012,37.5434],[-112.6832,37.5432],[-112.3612,37.5431],[-112.3613,37.5364],[-111.8532,37.5356],[-110.6464,37.5411]]]}},{"type":"Feature","id":"49027","properties":{"name":"Millard","fips":"49027"},"geometry":{"type":"Polygon","coordinates":[[[-112.3543,39.5539],[-112.2204,39.5541],[-112.1956,39.3296],[-112.0157,39.3145],[-112.0142,39.0454],[-112.0653,38.9577],[-112.1322,38.9567],[-112.2248,38.8651],[-112.2187,38.7277],[-112.3098,38.6762],[-112.4478,38.6812],[-112.5152,38.5723],[-112.5152,38.5737],[-112.9193,38.5747],[-112.9194,38.5765],[-114.0502,38.5729],[-114.0499,38.6774],[-114.0477,39.5427],[-113.8157,39.5441],[-113.8156,39.5526],[-112.4621,39.5524],[-112.3543,39.5539]]]}},{"type":"Feature","id":"49029","properties":{"name":"Morgan","fips":"49029"},"geometry":{"type":"Polygon","coordinates":[[[-111.2648,41.1443],[-111.5086,41.0628],[-111.593,40.993],[-111.4796,40.8584],[-111.5196,40.7918],[-111.641,40.7991],[-111.7386,40.8611],[-111.8152,40.9575],[-111.8563,41.1391],[-111.8584,41.1974],[-111.6782,41.181],[-111.5959,41.2391],[-111.4966,41.2269],[-111.4206,41.3614],[-111.3317,41.3574],[-111.2214,41.2129],[-111.2648,41.1443]]]}},{"type":"Feature","id":"49031","properties":{"name":"Piute","fips":"49031"},"geometry":{"type":"Polygon","coordinates":[[[-112.5185,38.5099],[-111.7667,38.502],[-111.8489,38.425],[-111.8428,38.1513],[-112.4438,38.1499],[-112.3569,38.2248],[-112.3354,38.333],[-112.5185,38.5099]]]}},{"type":"Feature","id":"49033","properties":{"name":"Rich","fips":"49033"},"geometry":{"type":"Polygon","coordinates":[[[-111.0467,42.0016],[-111.0464,41.5798],[-111.0463,41.3777],[-111.0466,41.3607],[-111.0466,41.2517],[-111.2648,41.1443],[-111.2214,41.2129],[-111.3317,41.3574],[-111.4206,41.3614],[-111.5108,41.4231],[-111.4429,41.5314],[-111.4269,41.6779],[-111.4713,41.9282],[-111.5073,41.9995],[-111.4255,42.0008],[-111.4209,42.0008],[-111.4159,42.0007],[-111.0467,42.0016]]]}},{"type":"Feature","id":"49035","properties":{"name":"Salt Lake","fips":"49035"},"geometry":{"type":"Polygon","coordinates":[[[-111.9138,40.4525],[-111.9191,40.4432],[-111.9316,40.4335],[-111.9782,40.4173],[-112.1732,40.4669],[-112.1755,40.6045],[-112.2227,40.7221],[-112.2274,40.7252],[-112.2635,40.7734],[-112.0066,40.9218],[-111.9159,40.822],[-111.7386,40.8611],[-111.641,40.7991],[-111.5531,40.6094],[-111.5645,40.5848],[-111.5939,40.5771],[-111.9138,40.4525]]]}},{"type":"Feature","id":"49037","properties":{"name":"San Juan","fips":"49037"},"geometry":{"type":"Polygon","coordinates":[[[-109.0431,37.9743],[-109.0421,37.8812],[-109.0417,37.8421],[-109.0418,37.8358],[-109.0418,37.7132],[-109.0417,37.7112],[-109.0421,37.6238],[-109.0421,37.6177],[-109.0418,37.6042],[-109.0419,37.5307],[-109.0419,37.5307],[-109.0431,37.4852],[-109.0458,37.375],[-109.0452,37.1121],[-109.0452,37.112],[-109.0452,37.1095],[-109.0452,37.0963],[-109.045,37.0864],[-109.0451,37.0747],[-109.0452,37.0727],[-109.0452,36.9991],[-109.1812,36.9993],[-109.2338,36.9993],[-109.2469,36.9993],[-109.2634,36.9993],[-109.2682,36.9992],[-109.2701,36.9993],[-109.378,36.9991],[-109.3812,36.9991],[-110.0007,36.998],[-110.3311,36.9982],[-110.4953,37.0039],[-110.7507,37.0032],[-111.1899,37.001],[-111.4055,37.0015],[-111.4059,37.0015],[-111.4128,37.0015],[-111.3149,37.0121],[-111.2688,37.0542],[-111.2475,37.0216],[-111.1783,37.1026],[-111.0577,37.0994],[-110.9583,37.1244],[-110.8995,37.1762],[-110.8698,37.3487],[-110.7778,37.323],[-110.7361,37.3452],[-110.6992,37.4307],[-110.7192,37.4814],[-110.6391,37.4871],[-110.6464,37.5411],[-110.4977,37.6522],[-110.4281,37.779],[-110.4046,37.8799],[-110.305,37.8905],[-110.283,37.8662],[-109.9279,38.1519],[-109.8873,38.1902],[-110.0151,38.3646],[-110.0254,38.5],[-109.06,38.5],[-109.0601,38.2755],[-109.0421,38.1555],[-109.0421,38.153],[-109.0428,37.9993],[-109.0428,37.9971],[-109.0431,37.9743]]]}},{"type":"Feature","id":"49039","properties":{"name":"Sanpete","fips":"49039"},"geometry":{"type":"Polygon","coordinates":[[[-112.0142,39.0454],[-112.0157,39.3145],[-111.9225,39.3815],[-111.7471,39.3828],[-111.7132,39.4601],[-111.7186,39.6946],[-111.5851,39.7401],[-111.6406,39.813],[-111.2475,39.8133],[-111.2474,39.7046],[-111.2473,39.4672],[-111.3012,39.4673],[-111.2994,39.0323],[-111.8535,39.033],[-112.0142,39.0454]]]}},{"type":"Feature","id":"49041","properties":{"name":"Sevier","fips":"49041"},"geometry":{"type":"Polygon","coordinates":[[[-111.3058,38.5102],[-111.7562,38.51],[-111.7667,38.502],[-112.5185,38.5099],[-112.5224,38.519],[-112.516,38.529],[-112.5178,38.554],[-112.5157,38.5566],[-112.5189,38.5674],[-112.5152,38.5723],[-112.4478,38.6812],[-112.3098,38.6762],[-112.2187,38.7277],[-112.2248,38.8651],[-112.1322,38.9567],[-112.0653,38.9577],[-112.0142,39.0454],[-111.8535,39.033],[-111.2994,39.0323],[-111.3058,38.5102]]]}},{"type":"Feature","id":"49043","properties":{"name":"Summit","fips":"49043"},"geometry":{"type":"Polygon","coordinates":[[[-111.0466,41.2517],[-111.0467,40.998],[-110.5007,40.9947],[-110.0485,40.9971],[-110.0007,40.9974],[-110.0007,40.8137],[-110.2943,40.8342],[-110.375,40.7882],[-110.8931,40.7273],[-110.9019,40.6782],[-111.0244,40.5775],[-111.1514,40.5484],[-111.3749,40.6327],[-111.3937,40.6904],[-111.4896,40.5992],[-111.5531,40.6094],[-111.641,40.7991],[-111.5196,40.7918],[-111.4796,40.8584],[-111.593,40.993],[-111.5086,41.0628],[-111.2648,41.1443],[-111.0466,41.2517]]]}},{"type":"Feature","id":"49045","properties":{"name":"Tooele","fips":"49045"},"geometry":{"type":"Polygon","coordinates":[[[-112.2227,40.7221],[-112.1755,40.6045],[-112.1732,40.4669],[-112.2122,40.4592],[-112.1796,40.2321],[-112.1452,40.1712],[-112.1797,40.0116],[-112.2699,39.9389],[-112.3318,39.9527],[-112.3419,39.9042],[-114.0471,39.906],[-114.0466,40.1169],[-114.0455,40.4945],[-114.0456,40.4958],[-114.0453,40.5066],[-114.0435,40.7263],[-114.0438,40.7587],[-114.0438,40.7592],[-114.0421,40.9999],[-112.7993,41.0002],[-112.4934,41.0767],[-112.2635,40.7734],[-112.2274,40.7252],[-112.2227,40.7221]]]}},{"type":"Feature","id":"49047","properties":{"name":"Uintah","fips":"49047"},"geometry":{"type":"Polygon","coordinates":[[[-110.0241,39.4617],[-110.0248,39.4676],[-110.0241,39.469],[-110.038,39.5667],[-109.9937,39.7028],[-109.8847,39.8057],[-109.9676,39.806],[-109.9737,40.0399],[-109.9775,40.8098],[-109.8702,40.7638],[-109.5255,40.8264],[-109.4803,40.7399],[-109.3944,40.7909],[-109.3945,40.8581],[-109.2033,40.8586],[-109.2024,40.7858],[-109.1636,40.7859],[-109.1611,40.6838],[-109.0483,40.6626],[-109.0482,40.6536],[-109.0501,40.5404],[-109.05,40.5399],[-109.0509,40.2227],[-109.051,40.1808],[-109.0509,40.1807],[-109.0508,40.0596],[-109.0509,40.0589],[-109.0512,39.6605],[-109.0514,39.4977],[-109.107,39.462],[-110.0241,39.4617]]]}},{"type":"Feature","id":"49049","properties":{"name":"Utah","fips":"49049"},"geometry":{"type":"Polygon","coordinates":[[[-111.9138,40.4525],[-111.5939,40.5771],[-111.6117,40.4315],[-111.5552,40.3627],[-111.4803,40.3622],[-111.4265,40.2869],[-111.3148,40.2876],[-111.2788,40.2587],[-111.2255,40.1673],[-111.2462,40.0475],[-111.2058,40.0474],[-111.0831,39.9432],[-111.0825,39.9002],[-110.8919,39.8991],[-110.8573,39.8989],[-110.8579,39.8124],[-111.2475,39.8133],[-111.6406,39.813],[-111.7662,39.8106],[-111.7342,39.8539],[-111.7948,39.9312],[-111.9094,39.8945],[-111.972,39.8067],[-112.0713,39.7779],[-112.0534,39.8932],[-112.1797,40.0116],[-112.1452,40.1712],[-112.1796,40.2321],[-112.2122,40.4592],[-112.1732,40.4669],[-111.9782,40.4173],[-111.9316,40.4335],[-111.9191,40.4432],[-111.9138,40.4525]]]}},{"type":"Feature","id":"49051","properties":{"name":"Wasatch","fips":"49051"},"geometry":{"type":"Polygon","coordinates":[[[-111.6117,40.4315],[-111.5939,40.5771],[-111.5645,40.5848],[-111.5531,40.6094],[-111.4896,40.5992],[-111.3937,40.6904],[-111.3749,40.6327],[-111.1514,40.5484],[-111.0244,40.5775],[-110.9019,40.6782],[-110.8919,39.8991],[-111.0825,39.9002],[-111.0831,39.9432],[-111.2058,40.0474],[-111.2462,40.0475],[-111.2255,40.1673],[-111.2788,40.2587],[-111.3148,40.2876],[-111.4265,40.2869],[-111.4803,40.3622],[-111.5552,40.3627],[-111.6117,40.4315]]]}},{"type":"Feature","id":"49053","properties":{"name":"Washington","fips":"49053"},"geometry":{"type":"Polygon","coordinates":[[[-112.8994,37.0003],[-112.9665,37.0002],[-113.9659,37.0],[-113.9659,37.0],[-114.0506,37.0004],[-114.0517,37.0884],[-114.0518,37.091],[-114.052,37.2838],[-114.052,37.2845],[-114.0518,37.293],[-114.0518,37.2935],[-114.0519,37.3705],[-114.0519,37.3707],[-114.0527,37.492],[-114.0527,37.5025],[-114.0527,37.5173],[-114.0527,37.5179],[-114.0525,37.6048],[-113.475,37.6183],[-113.4744,37.529],[-113.2532,37.5289],[-113.2537,37.4822],[-113.1463,37.4741],[-113.0369,37.4746],[-113.037,37.4986],[-112.901,37.4997],[-112.8994,37.0003]]]}},{"type":"Feature","id":"49055","properties":{"name":"Wayne","fips":"49055"},"geometry":{"type":"Polygon","coordinates":[[[-109.9279,38.1519],[-110.6874,38.1514],[-111.4144,38.1501],[-111.8428,38.1513],[-111.8489,38.425],[-111.7667,38.502],[-111.7562,38.51],[-111.3058,38.5102],[-111.3059,38.5],[-110.0254,38.5],[-110.0151,38.3646],[-109.8873,38.1902],[-109.9279,38.1519]]]}},{"type":"Feature","id":"49057","properties":{"name":"Weber","fips":"49057"},"geometry":{"type":"Polygon","coordinates":[[[-111.8855,41.4264],[-111.7265,41.3758],[-111.6666,41.4288],[-111.5108,41.4231],[-111.4206,41.3614],[-111.4966,41.2269],[-111.5959,41.2391],[-111.6782,41.181],[-111.8584,41.1974],[-111.8563,41.1391],[-112.1896,41.1527],[-112.4934,41.0767],[-112.2379,41.3367],[-112.0284,41.3364],[-111.9591,41.4337],[-111.8855,41.4264]]]}}]}