{"type":"FeatureCollection","features":[{"type":"Feature","id":"50001","properties":{"name":"Addison","fips":"50001"},"geometry":{"type":"Polygon","coordinates":[[[-72.9589,43.8265],[-72.9894,43.8146],[-73.0168,43.805],[-73.0268,43.8421],[-73.0321,43.8447],[-73.0299,43.8467],[-73.1562,43.8423],[-73.1557,43.8397],[-73.2314,43.7645],[-73.3607,43.7533],[-73.3504,43.7714],[-73.3575,43.7859],[-73.3793,43.8084],[-73.3793,43.8085],[-73.3884,43.8324],[-73.3973,43.9057],[-73.4077,43.9299],[-73.4055,43.9488],[-73.406,44.0162],[-73.4108,44.0269],[-73.4369,44.0426],[-73.4374,44.0469],[-73.4292,44.0794],[-73.4037,44.1531],[-73.3906,44.1909],[-73.3508,44.2259],[-73.3247,44.2436],[-73.3233,44.2648],[-72.9733,44.2934],[-72.9522,44.1613],[-72.9168,44.0719],[-72.7423,44.0297],[-72.754,44.0122],[-72.7913,43.9619],[-72.9802,43.8826],[-72.9589,43.8265]]]}},{"type":"Feature","id":"50003","properties":{"name":"Bennington","fips":"50003"},"geometry":{"type":"Polygon","coordinates":[[[-73.2743,42.9437],[-73.2695,43.0307],[-73.2592,43.2168],[-73.2548,43.3147],[-72.8679,43.3007],[-72.8199,43.2992],[-72.8194,43.2555],[-72.8687,43.1132],[-72.9969,43.1191],[-73.0028,43.023],[-73.0081,42.9301],[-72.9214,42.9268],[-72.9248,42.8562],[-73.0151,42.8321],[-73.0186,42.741],[-73.0229,42.7411],[-73.1425,42.7435],[-73.265,42.7459],[-73.2764,42.746],[-73.2909,42.8019],[-73.2854,42.8341],[-73.2787,42.8334],[-73.2745,42.9404],[-73.2744,42.9425],[-73.2743,42.9437]]]}},{"type":"Feature","id":"50005","properties":{"name":"Caledonia","fips":"50005"},"geometry":{"type":"Polygon","coordinates":[[[-72.0421,44.1576],[-72.1703,44.1921],[-72.305,44.1831],[-72.3684,44.2041],[-72.2237,44.4246],[-72.4343,44.5061],[-72.3748,44.5841],[-72.263,44.5423],[-72.1145,44.7496],[-72.0125,44.6988],[-71.9399,44.769],[-71.8373,44.7166],[-71.9103,44.647],[-71.8427,44.6112],[-71.9087,44.5471],[-71.8566,44.4962],[-71.9333,44.4412],[-71.8495,44.3593],[-72.0023,44.3249],[-72.0122,44.3214],[-72.0589,44.2862],[-72.0654,44.2772],[-72.0678,44.271],[-72.0643,44.1879],[-72.053,44.1679],[-72.0421,44.1576]]]}},{"type":"Feature","id":"50007","properties":{"name":"Chittenden","fips":"50007"},"geometry":{"type":"Polygon","coordinates":[[[-72.9241,44.6331],[-72.8093,44.5479],[-72.805,44.4517],[-72.8261,44.3592],[-72.8556,44.3656],[-72.9114,44.2818],[-72.896,44.2763],[-72.9522,44.1613],[-72.9733,44.2934],[-73.3233,44.2648],[-73.315,44.3885],[-73.296,44.4283],[-73.2936,44.4389],[-73.2999,44.4767],[-73.3067,44.5003],[-73.3386,44.5468],[-73.3386,44.5468],[-73.3568,44.5579],[-73.362,44.5631],[-73.2332,44.6498],[-73.2289,44.7229],[-73.038,44.6512],[-72.9241,44.6331]]]}},{"type":"Feature","id":"50009","properties":{"name":"Essex","fips":"50009"},"geometry":{"type":"Polygon","coordinates":[[[-71.9399,44.769],[-71.9743,44.7865],[-71.8744,44.8764],[-71.9285,44.9073],[-71.8976,45.0092],[-71.7675,45.0114],[-71.5025,45.0134],[-71.4646,45.0136],[-71.4686,45.0102],[-71.4865,45.007],[-71.505,45.0082],[-71.5301,44.9997],[-71.537,44.9942],[-71.5386,44.9882],[-71.5378,44.9843],[-71.5168,44.9476],[-71.494,44.9113],[-71.4958,44.905],[-71.5725,44.8101],[-71.6239,44.7551],[-71.6274,44.7475],[-71.6253,44.7297],[-71.5987,44.698],[-71.5532,44.6266],[-71.5363,44.5879],[-71.5803,44.5065],[-71.5995,44.4865],[-71.68,44.4279],[-71.7089,44.4116],[-71.745,44.4014],[-71.7561,44.4064],[-71.762,44.407],[-71.7645,44.4064],[-71.7939,44.3993],[-71.8144,44.3819],[-71.8161,44.3668],[-71.8495,44.3593],[-71.9333,44.4412],[-71.8566,44.4962],[-71.9087,44.5471],[-71.8427,44.6112],[-71.9103,44.647],[-71.8373,44.7166],[-71.9399,44.769]]]}},{"type":"Feature","id":"50011","properties":{"name":"Franklin","fips":"50011"},"geometry":{"type":"Polygon","coordinates":[[[-72.5782,44.7816],[-72.7474,44.7862],[-72.7861,44.7277],[-72.794,44.6994],[-72.7955,44.6922],[-72.8511,44.7111],[-72.9241,44.6331],[-73.038,44.6512],[-73.2289,44.7229],[-73.2563,44.7594],[-73.194,44.8868],[-73.1913,44.9048],[-73.2263,44.9195],[-73.2308,44.9274],[-73.1919,45.0136],[-73.086,45.0155],[-73.0155,45.0151],[-73.0148,45.015],[-72.8456,45.0167],[-72.6748,45.0155],[-72.5543,45.0118],[-72.5326,44.8333],[-72.5782,44.7816]]]}},{"type":"Feature","id":"50013","properties":{"name":"Grand Isle","fips":"50013"},"geometry":{"type":"Polygon","coordinates":[[[-73.2308,44.9274],[-73.2263,44.9195],[-73.1913,44.9048],[-73.194,44.8868],[-73.2563,44.7594],[-73.2289,44.7229],[-73.2332,44.6498],[-73.362,44.5631],[-73.3744,44.5755],[-73.3902,44.6184],[-73.3653,44.7033],[-73.34,44.7789],[-73.3696,44.8291],[-73.3594,44.9157],[-73.3502,44.9943],[-73.3431,45.0108],[-73.1919,45.0136],[-73.2308,44.9274]]]}},{"type":"Feature","id":"50015","properties":{"name":"Lamoille","fips":"50015"},"geometry":{"type":"Polygon","coordinates":[[[-72.7861,44.7277],[-72.7474,44.7862],[-72.5782,44.7816],[-72.4173,44.7229],[-72.4823,44.6339],[-72.3748,44.5841],[-72.4343,44.5061],[-72.4905,44.4257],[-72.5968,44.4793],[-72.6544,44.3982],[-72.7659,44.4426],[-72.805,44.4517],[-72.8093,44.5479],[-72.9241,44.6331],[-72.8511,44.7111],[-72.7955,44.6922],[-72.794,44.6994],[-72.7861,44.7277]]]}},{"type":"Feature","id":"50017","properties":{"name":"Orange","fips":"50017"},"geometry":{"type":"Polygon","coordinates":[[[-72.4601,43.8383],[-72.499,43.8502],[-72.4995,43.8504],[-72.5744,43.8733],[-72.7832,43.929],[-72.7913,43.9619],[-72.754,44.0122],[-72.7423,44.0297],[-72.6838,44.0129],[-72.6348,44.0894],[-72.6289,44.0886],[-72.5893,44.1603],[-72.443,44.1287],[-72.4197,44.221],[-72.3684,44.2041],[-72.305,44.1831],[-72.1703,44.1921],[-72.0421,44.1576],[-72.0401,44.1557],[-72.0401,44.1557],[-72.0547,44.1121],[-72.0907,44.0352],[-72.1128,43.988],[-72.1131,43.9728],[-72.107,43.9695],[-72.1056,43.959],[-72.1044,43.9505],[-72.121,43.919],[-72.1672,43.8861],[-72.1822,43.834],[-72.1837,43.8066],[-72.2048,43.7719],[-72.2057,43.7711],[-72.2073,43.7718],[-72.4601,43.8383]]]}},{"type":"Feature","id":"50019","properties":{"name":"Orleans","fips":"50019"},"geometry":{"type":"Polygon","coordinates":[[[-72.5782,44.7816],[-72.5326,44.8333],[-72.5543,45.0118],[-72.3425,45.0054],[-72.1031,45.0056],[-71.8976,45.0092],[-71.9285,44.9073],[-71.8744,44.8764],[-71.9743,44.7865],[-71.9399,44.769],[-72.0125,44.6988],[-72.1145,44.7496],[-72.263,44.5423],[-72.3748,44.5841],[-72.4823,44.6339],[-72.4173,44.7229],[-72.5782,44.7816]]]}},{"type":"Feature","id":"50021","properties":{"name":"Rutland","fips":"50021"},"geometry":{"type":"Polygon","coordinates":[[[-72.7715,43.4779],[-72.7272,43.4687],[-72.7598,43.3541],[-72.8534,43.3711],[-72.8679,43.3007],[-73.2548,43.3147],[-73.2531,43.3547],[-73.2528,43.3635],[-73.2527,43.3703],[-73.2526,43.371],[-73.2471,43.5149],[-73.242,43.5349],[-73.2456,43.5403],[-73.3026,43.6257],[-73.3062,43.628],[-73.3665,43.6235],[-73.3756,43.6133],[-73.4003,43.5689],[-73.4286,43.584],[-73.4312,43.5883],[-73.4216,43.6466],[-73.4087,43.674],[-73.4035,43.685],[-73.3707,43.7356],[-73.3607,43.7533],[-73.2314,43.7645],[-73.1557,43.8397],[-73.1562,43.8423],[-73.0299,43.8467],[-73.0321,43.8447],[-73.0268,43.8421],[-73.0168,43.805],[-72.9894,43.8146],[-72.9589,43.8265],[-72.8746,43.8581],[-72.8372,43.7199],[-72.7009,43.6828],[-72.7911,43.495],[-72.7715,43.4779]]]}},{"type":"Feature","id":"50023","properties":{"name":"Washington","fips":"50023"},"geometry":{"type":"Polygon","coordinates":[[[-72.8261,44.3592],[-72.805,44.4517],[-72.7659,44.4426],[-72.6544,44.3982],[-72.5968,44.4793],[-72.4905,44.4257],[-72.4343,44.5061],[-72.2237,44.4246],[-72.3684,44.2041],[-72.4197,44.221],[-72.443,44.1287],[-72.5893,44.1603],[-72.6289,44.0886],[-72.6348,44.0894],[-72.6838,44.0129],[-72.7423,44.0297],[-72.9168,44.0719],[-72.9522,44.1613],[-72.896,44.2763],[-72.9114,44.2818],[-72.8556,44.3656],[-72.8261,44.3592]]]}},{"type":"Feature","id":"50025","properties":{"name":"Windham","fips":"50025"},"geometry":{"type":"Polygon","coordinates":[[[-72.8642,42.7371],[-72.9273,42.7387],[-72.9303,42.7388],[-73.0186,42.741],[-73.0151,42.8321],[-72.9248,42.8562],[-72.9214,42.9268],[-73.0081,42.9301],[-73.0028,43.023],[-72.9969,43.1191],[-72.8687,43.1132],[-72.8194,43.2555],[-72.6856,43.2225],[-72.4312,43.2318],[-72.4394,43.2113],[-72.4521,43.1614],[-72.4419,43.1366],[-72.4331,43.12],[-72.4327,43.1141],[-72.4438,43.0062],[-72.5562,42.867],[-72.5561,42.8663],[-72.5558,42.8582],[-72.5557,42.8564],[-72.5428,42.8085],[-72.5095,42.7812],[-72.4911,42.7725],[-72.4785,42.7623],[-72.4602,42.7321],[-72.4585,42.7269],[-72.8642,42.7371]]]}},{"type":"Feature","id":"50027","properties":{"name":"Windsor","fips":"50027"},"geometry":{"type":"Polygon","coordinates":[[[-72.7715,43.4779],[-72.7911,43.495],[-72.7009,43.6828],[-72.8372,43.7199],[-72.8746,43.8581],[-72.9589,43.8265],[-72.9802,43.8826],[-72.7913,43.9619],[-72.7832,43.929],[-72.5744,43.8733],[-72.4995,43.8504],[-72.499,43.8502],[-72.4601,43.8383],[-72.2073,43.7718],[-72.2057,43.7711],[-72.2327,43.7483],[-72.2642,43.7342],[-72.2712,43.7341],[-72.3029,43.7027],[-72.3297,43.6346],[-72.3344,43.6193],[-72.3347,43.6145],[-72.3296,43.6002],[-72.3958,43.5206],[-72.3876,43.5025],[-72.3879,43.4716],[-72.3969,43.429],[-72.3969,43.4289],[-72.4053,43.39],[-72.4039,43.3581],[-72.4005,43.3371],[-72.3971,43.3165],[-72.4312,43.2318],[-72.6856,43.2225],[-72.8194,43.2555],[-72.8199,43.2992],[-72.8679,43.3007],[-72.8534,43.3711],[-72.7598,43.3541],[-72.7272,43.4687],[-72.7715,43.4779]]]}}]}