{"type":"FeatureCollection","features":[{"type":"Feature","id":"53001","properties":{"name":"Adams","fips":"53001"},"geometry":{"type":"Polygon","coordinates":[[[-119.1361,46.9122],[-118.9825,46.9113],[-118.9795,47.2617],[-118.8383,47.261],[-117.9601,47.2604],[-117.9589,46.9149],[-118.0126,46.7905],[-118.2098,46.7389],[-119.0816,46.738],[-119.3694,46.7377],[-119.3687,46.9126],[-119.1361,46.9122]]]}},{"type":"Feature","id":"53003","properties":{"name":"Asotin","fips":"53003"},"geometry":{"type":"Polygon","coordinates":[[[-117.0398,46.4254],[-117.0469,46.3796],[-117.061,46.3677],[-117.0475,46.3429],[-116.9879,46.298],[-116.9853,46.2946],[-116.9588,46.2423],[-116.9256,46.1589],[-116.9435,46.0622],[-116.916,45.9954],[-117.2126,45.9983],[-117.2145,45.9983],[-117.2167,45.9984],[-117.4751,45.9979],[-117.4754,45.9979],[-117.4801,45.9979],[-117.4801,45.9979],[-117.48,46.122],[-117.4196,46.1219],[-117.4197,46.3833],[-117.2288,46.4113],[-117.2289,46.4623],[-117.199,46.4198],[-117.0398,46.4254]]]}},{"type":"Feature","id":"53005","properties":{"name":"Benton","fips":"53005"},"geometry":{"type":"Polygon","coordinates":[[[-119.8681,45.836],[-119.8663,46.0407],[-119.8741,46.6286],[-119.6261,46.645],[-119.5157,46.7274],[-119.4532,46.6792],[-119.2583,46.4895],[-119.2689,46.278],[-119.0414,46.1929],[-118.9809,46.1463],[-118.9411,46.0293],[-118.9871,45.9999],[-119.0086,45.9793],[-119.0271,45.9691],[-119.0932,45.9427],[-119.1261,45.9329],[-119.1695,45.9276],[-119.1955,45.9279],[-119.2257,45.9327],[-119.2571,45.9399],[-119.3225,45.9332],[-119.3761,45.921],[-119.4321,45.9136],[-119.4878,45.9063],[-119.5246,45.9086],[-119.5716,45.9255],[-119.6005,45.9196],[-119.6234,45.9056],[-119.6699,45.8569],[-119.7729,45.8456],[-119.8027,45.8475],[-119.8681,45.836]]]}},{"type":"Feature","id":"53007","properties":{"name":"Chelan","fips":"53007"},"geometry":{"type":"Polygon","coordinates":[[[-121.119,47.7799],[-121.0707,47.826],[-121.1802,47.8971],[-121.1181,47.9977],[-121.1535,48.0409],[-121.0154,48.0751],[-120.9064,48.1633],[-121.0014,48.2955],[-121.0699,48.3165],[-121.0358,48.4947],[-120.824,48.5452],[-120.7016,48.5316],[-120.6517,48.5366],[-120.6502,48.3976],[-120.5597,48.3607],[-120.3919,48.243],[-120.3625,48.1688],[-120.2135,48.0791],[-120.1433,48.0651],[-120.0666,47.9664],[-119.8703,47.9603],[-119.995,47.7814],[-120.1309,47.7766],[-120.2094,47.7484],[-120.199,47.6823],[-120.2336,47.5976],[-120.2928,47.5382],[-120.3181,47.4577],[-120.2865,47.3931],[-120.1296,47.3663],[-120.0833,47.3337],[-120.0945,47.2622],[-120.389,47.2609],[-120.5251,47.3332],[-120.9161,47.4285],[-121.1136,47.5971],[-121.0684,47.7062],[-121.119,47.7799]]]}},{"type":"Feature","id":"53009","properties":{"name":"Clallam","fips":"53009"},"geometry":{"type":"Polygon","coordinates":[[[-123.1314,48.1527],[-123.1248,48.1535],[-123.1165,48.1502],[-123.0852,48.1271],[-123.0662,48.1205],[-123.0504,48.1028],[-123.0387,48.0811],[-123.0167,48.0854],[-123.0041,48.0905],[-122.9794,48.0959],[-122.9461,48.0986],[-122.9291,48.0962],[-122.9179,48.0915],[-122.9209,48.0882],[-122.9266,48.0741],[-122.928,48.0667],[-122.9271,48.0651],[-122.9491,48.0652],[-122.9492,47.8668],[-123.5059,47.8669],[-123.5059,47.8811],[-124.6108,47.8806],[-124.6255,47.888],[-124.6302,47.8925],[-124.6297,47.897],[-124.6454,47.9353],[-124.652,47.9432],[-124.6623,47.9515],[-124.6724,47.9644],[-124.6708,47.9824],[-124.679,48.0157],[-124.6822,48.036],[-124.6854,48.0492],[-124.6884,48.0549],[-124.6937,48.0587],[-124.6965,48.0693],[-124.6951,48.0871],[-124.6886,48.0925],[-124.6871,48.0987],[-124.6951,48.1149],[-124.7217,48.1532],[-124.7317,48.1604],[-124.7332,48.1634],[-124.7317,48.17],[-124.7042,48.1844],[-124.6961,48.1986],[-124.6909,48.2126],[-124.6904,48.2197],[-124.705,48.2388],[-124.7059,48.2399],[-124.6997,48.2458],[-124.6847,48.2552],[-124.6809,48.2653],[-124.6763,48.2951],[-124.6693,48.2964],[-124.6659,48.2993],[-124.6621,48.3105],[-124.6589,48.3311],[-124.6701,48.3413],[-124.6967,48.3497],[-124.7138,48.3663],[-124.727,48.3711],[-124.7309,48.3762],[-124.7318,48.3812],[-124.7258,48.386],[-124.7169,48.3898],[-124.6945,48.389],[-124.6532,48.3907],[-124.6394,48.3855],[-124.6311,48.3765],[-124.6118,48.3782],[-124.5993,48.381],[-124.5973,48.3819],[-124.5907,48.3736],[-124.5729,48.3662],[-124.5648,48.3679],[-124.5463,48.3536],[-124.5388,48.3499],[-124.5255,48.349],[-124.5106,48.3432],[-124.414,48.3009],[-124.3956,48.2888],[-124.3809,48.2847],[-124.3614,48.2876],[-124.3424,48.2777],[-124.2991,48.2682],[-124.2956,48.263],[-124.2969,48.2618],[-124.2976,48.2607],[-124.2957,48.2593],[-124.272,48.2544],[-124.2658,48.2548],[-124.2551,48.259],[-124.2523,48.261],[-124.2509,48.2648],[-124.2386,48.2625],[-124.2179,48.2533],[-124.1927,48.2463],[-124.1413,48.2274],[-124.111,48.2206],[-124.1018,48.2169],[-124.1072,48.2001],[-124.0907,48.1965],[-124.0721,48.1899],[-124.0507,48.1777],[-123.981,48.1648],[-123.9553,48.1655],[-123.9349,48.1608],[-123.9156,48.1594],[-123.8801,48.1606],[-123.8667,48.1548],[-123.8588,48.1543],[-123.8316,48.1579],[-123.7781,48.1555],[-123.7564,48.1611],[-123.7287,48.1628],[-123.7283,48.1609],[-123.7254,48.1592],[-123.7184,48.1587],[-123.7062,48.1634],[-123.7064,48.1658],[-123.7027,48.1668],[-123.6724,48.1627],[-123.6514,48.157],[-123.637,48.1503],[-123.6411,48.1461],[-123.6288,48.1393],[-123.5908,48.1349],[-123.5742,48.1408],[-123.5606,48.1507],[-123.5511,48.1514],[-123.5349,48.1458],[-123.5223,48.1355],[-123.5072,48.1318],[-123.4734,48.1341],[-123.4555,48.14],[-123.4401,48.142],[-123.4391,48.1413],[-123.442,48.1243],[-123.4247,48.1181],[-123.395,48.1142],[-123.3609,48.1159],[-123.3327,48.113],[-123.3146,48.1137],[-123.2883,48.121],[-123.2802,48.1173],[-123.2689,48.1161],[-123.2486,48.1157],[-123.2391,48.1182],[-123.2172,48.1272],[-123.1915,48.1438],[-123.1644,48.1659],[-123.1448,48.1759],[-123.1334,48.1773],[-123.1324,48.1747],[-123.1393,48.1665],[-123.1432,48.1566],[-123.1314,48.1527]]]}},{"type":"Feature","id":"53011","properties":{"name":"Clark","fips":"53011"},"geometry":{"type":"Polygon","coordinates":[[[-122.2456,46.0539],[-122.249,45.5477],[-122.2667,45.5438],[-122.2949,45.5435],[-122.3315,45.5482],[-122.3528,45.5694],[-122.3803,45.5759],[-122.4923,45.5833],[-122.6439,45.6097],[-122.675,45.618],[-122.7381,45.6441],[-122.7638,45.6571],[-122.7745,45.6804],[-122.7725,45.6996],[-122.7622,45.7286],[-122.7601,45.7344],[-122.7615,45.7592],[-122.7695,45.7806],[-122.7956,45.81],[-122.796,45.825],[-122.7855,45.8505],[-122.739,45.9153],[-122.4771,45.9881],[-122.3578,45.9569],[-122.2456,46.0539]]]}},{"type":"Feature","id":"53013","properties":{"name":"Columbia","fips":"53013"},"geometry":{"type":"Polygon","coordinates":[[[-118.2289,46.5936],[-118.2245,46.591],[-118.2157,46.5889],[-118.1726,46.5569],[-117.8518,46.6248],[-117.8633,46.4709],[-117.7373,46.4714],[-117.6751,46.3376],[-117.6118,46.3385],[-117.6032,45.9989],[-117.9778,46.0007],[-117.9969,46.0008],[-117.9913,46.2078],[-118.1165,46.2079],[-118.1161,46.2955],[-118.2416,46.2951],[-118.2289,46.5936]]]}},{"type":"Feature","id":"53015","properties":{"name":"Cowlitz","fips":"53015"},"geometry":{"type":"Polygon","coordinates":[[[-123.2178,46.3851],[-123.0913,46.3879],[-122.2417,46.3853],[-122.24,46.3842],[-122.2456,46.0539],[-122.3578,45.9569],[-122.4771,45.9881],[-122.739,45.9153],[-122.7855,45.8505],[-122.785,45.8677],[-122.814,45.961],[-122.8845,46.0603],[-122.9041,46.0837],[-123.1159,46.1853],[-123.1664,46.189],[-123.2131,46.1725],[-123.2178,46.3851]]]}},{"type":"Feature","id":"53017","properties":{"name":"Douglas","fips":"53017"},"geometry":{"type":"Polygon","coordinates":[[[-120.0071,47.2201],[-120.0747,47.2252],[-120.0945,47.2622],[-120.0833,47.3337],[-120.1296,47.3663],[-120.2865,47.3931],[-120.3181,47.4577],[-120.2928,47.5382],[-120.2336,47.5976],[-120.199,47.6823],[-120.2094,47.7484],[-120.1309,47.7766],[-119.995,47.7814],[-119.8703,47.9603],[-119.8917,48.0551],[-119.7713,48.1047],[-119.6702,48.0698],[-119.6936,48.0326],[-119.6298,47.9962],[-119.5024,48.0821],[-119.341,48.0495],[-119.3254,48.0996],[-119.1261,48.1505],[-119.0622,48.1384],[-119.0061,48.0461],[-118.9555,48.0232],[-118.9824,47.962],[-119.104,47.9618],[-119.1257,47.9173],[-119.2121,47.8876],[-119.2125,47.8007],[-119.2987,47.7283],[-119.3417,47.6123],[-119.4052,47.6125],[-119.5329,47.5276],[-119.5336,47.4413],[-119.8758,47.4374],[-120.0048,47.3201],[-120.0071,47.2201]]]}},{"type":"Feature","id":"53019","properties":{"name":"Ferry","fips":"53019"},"geometry":{"type":"Polygon","coordinates":[[[-118.8368,49.0002],[-118.1969,49.0001],[-118.2217,48.9371],[-118.1955,48.8407],[-118.131,48.7777],[-118.105,48.6535],[-118.1497,48.5206],[-118.2065,48.4703],[-118.1756,48.3195],[-118.1415,48.26],[-118.1945,48.2129],[-118.1913,48.1599],[-118.2486,48.1343],[-118.2382,48.0582],[-118.4024,48.0264],[-118.3409,47.8944],[-118.3571,47.8416],[-118.5441,47.884],[-118.5704,47.9323],[-118.7117,47.9033],[-118.852,47.9577],[-118.8458,47.9635],[-118.8434,48.4817],[-118.8695,48.4819],[-118.8697,48.6536],[-118.8354,48.6542],[-118.8368,49.0002]]]}},{"type":"Feature","id":"53021","properties":{"name":"Franklin","fips":"53021"},"geometry":{"type":"Polygon","coordinates":[[[-119.0816,46.738],[-118.2098,46.7389],[-118.2491,46.7341],[-118.2157,46.5889],[-118.2245,46.591],[-118.2289,46.5936],[-118.4526,46.597],[-118.6156,46.5045],[-118.6338,46.414],[-118.7462,46.3595],[-118.7772,46.2902],[-118.9728,46.2387],[-119.0414,46.1929],[-119.2689,46.278],[-119.2583,46.4895],[-119.4532,46.6792],[-119.3689,46.6782],[-119.3694,46.7377],[-119.0816,46.738]]]}},{"type":"Feature","id":"53023","properties":{"name":"Garfield","fips":"53023"},"geometry":{"type":"Polygon","coordinates":[[[-117.6032,45.9989],[-117.6118,46.3385],[-117.6751,46.3376],[-117.7373,46.4714],[-117.8633,46.4709],[-117.8518,46.6248],[-117.751,46.69],[-117.6012,46.6727],[-117.4753,46.7003],[-117.2539,46.5451],[-117.2289,46.4623],[-117.2288,46.4113],[-117.4197,46.3833],[-117.4196,46.1219],[-117.48,46.122],[-117.4801,45.9979],[-117.5048,45.9983],[-117.6032,45.9989]]]}},{"type":"Feature","id":"53025","properties":{"name":"Grant","fips":"53025"},"geometry":{"type":"Polygon","coordinates":[[[-118.9795,47.2617],[-118.9825,46.9113],[-119.1361,46.9122],[-119.3687,46.9126],[-119.3694,46.7377],[-119.3689,46.6782],[-119.4532,46.6792],[-119.5157,46.7274],[-119.6261,46.645],[-119.8741,46.6286],[-119.973,46.7372],[-119.9275,46.8171],[-120.0429,47.0735],[-120.0071,47.2201],[-120.0048,47.3201],[-119.8758,47.4374],[-119.5336,47.4413],[-119.5329,47.5276],[-119.4052,47.6125],[-119.3417,47.6123],[-119.2987,47.7283],[-119.2125,47.8007],[-119.2121,47.8876],[-119.1257,47.9173],[-119.104,47.9618],[-118.9824,47.962],[-118.9828,47.9498],[-118.9735,47.9436],[-118.9765,47.659],[-118.9795,47.2617]]]}},{"type":"Feature","id":"53027","properties":{"name":"Grays Harbor","fips":"53027"},"geometry":{"type":"Polygon","coordinates":[[[-124.0984,46.7942],[-124.1012,46.8107],[-124.1081,46.8364],[-124.123,46.8798],[-124.1382,46.9055],[-124.1177,46.9124],[-124.1106,46.9125],[-124.0934,46.9012],[-124.0904,46.8955],[-124.0893,46.8677],[-124.0731,46.8615],[-124.0663,46.8635],[-124.0611,46.8651],[-124.0551,46.8704],[-124.0493,46.8913],[-124.0463,46.894],[-124.0362,46.8985],[-124.0137,46.9036],[-124.0095,46.9103],[-123.9851,46.9219],[-123.9794,46.923],[-123.9575,46.9213],[-123.9153,46.933],[-123.8829,46.9399],[-123.8602,46.9486],[-123.8761,46.9611],[-123.8894,46.9689],[-123.8982,46.9719],[-123.9216,46.9719],[-123.9392,46.9697],[-123.948,46.9718],[-123.9592,46.9818],[-123.9916,46.9802],[-124.0122,46.9852],[-124.0197,46.9912],[-124.0101,46.9979],[-124.0052,47.0039],[-124.017,47.0117],[-124.017,47.0148],[-124.0263,47.0302],[-124.0659,47.0411],[-124.1064,47.0426],[-124.1221,47.0416],[-124.1415,47.0351],[-124.149,47.0293],[-124.1513,47.0211],[-124.1397,46.9884],[-124.138,46.971],[-124.1244,46.9439],[-124.1413,46.9403],[-124.1586,46.9294],[-124.1801,46.9264],[-124.1745,46.9416],[-124.1712,46.9584],[-124.1691,46.9945],[-124.1735,47.0664],[-124.1767,47.093],[-124.1838,47.1248],[-124.1828,47.134],[-124.1858,47.136],[-124.1897,47.1468],[-124.1959,47.174],[-124.209,47.2182],[-124.2363,47.2873],[-124.2422,47.2951],[-124.2536,47.3025],[-124.2575,47.3041],[-124.2712,47.305],[-124.2864,47.3252],[-124.2933,47.3393],[-124.2999,47.3484],[-124.3075,47.3523],[-124.3194,47.3556],[-124.3241,47.3676],[-124.3267,47.3888],[-124.3367,47.416],[-124.3452,47.489],[-124.3537,47.5336],[-124.0471,47.5181],[-123.5044,47.5176],[-123.489,47.0827],[-123.2021,47.0849],[-123.1584,46.9962],[-123.1606,46.7934],[-123.2028,46.7944],[-123.3708,46.7924],[-124.0984,46.7942]]]}},{"type":"Feature","id":"53029","properties":{"name":"Island","fips":"53029"},"geometry":{"type":"MultiPolygon","coordinates":[[[[-122.3973,47.9124],[-122.4193,47.9121],[-122.431,47.9147],[-122.4455,47.9302],[-122.4458,47.9362],[-122.4408,47.9466],[-122.4408,47.9518],[-122.4467,47.9632],[-122.4727,47.9884],[-122.4875,47.9907],[-122.5013,47.9871],[-122.5148,47.9812],[-122.5178,47.9749],[-122.5212,47.973],[-122.5468,47.9672],[-122.5521,47.9736],[-122.551,47.9773],[-122.5431,47.986],[-122.5416,47.993],[-122.5429,47.9964],[-122.56,48.0065],[-122.5818,48.0104],[-122.6073,48.031],[-122.5968,48.0388],[-122.5936,48.0472],[-122.5949,48.0563],[-122.614,48.0728],[-122.6132,48.0795],[-122.6073,48.088],[-122.5983,48.1106],[-122.6021,48.1352],[-122.6096,48.1519],[-122.6175,48.1591],[-122.6332,48.1633],[-122.656,48.1625],[-122.6712,48.1573],[-122.6773,48.1546],[-122.6796,48.1551],[-122.6866,48.1747],[-122.6931,48.1815],[-122.7115,48.1936],[-122.735,48.2],[-122.7446,48.2097],[-122.763,48.2153],[-122.77,48.2244],[-122.7699,48.2275],[-122.7526,48.2601],[-122.732,48.2794],[-122.7226,48.3043],[-122.7071,48.3153],[-122.6737,48.3547],[-122.6649,48.3748],[-122.6647,48.4015],[-122.6448,48.4055],[-122.635,48.4042],[-122.6326,48.4011],[-122.634,48.3989],[-122.6373,48.398],[-122.6379,48.3957],[-122.6358,48.3951],[-122.6278,48.3972],[-122.6172,48.4071],[-122.6097,48.4116],[-122.602,48.4099],[-122.5967,48.4056],[-122.5954,48.3972],[-122.585,48.3952],[-122.5889,48.363],[-122.5852,48.3533],[-122.5655,48.3482],[-122.5513,48.3421],[-122.516,48.3204],[-122.5066,48.31],[-122.5047,48.3004],[-122.5058,48.2977],[-122.5195,48.2883],[-122.5228,48.2855],[-122.531,48.2824],[-122.5518,48.2815],[-122.5583,48.2821],[-122.5749,48.2949],[-122.5841,48.298],[-122.5995,48.2983],[-122.6185,48.2942],[-122.6268,48.289],[-122.6207,48.283],[-122.6238,48.2694],[-122.6526,48.2651],[-122.6534,48.2593],[-122.6692,48.2406],[-122.6684,48.224],[-122.6313,48.2207],[-122.6284,48.2225],[-122.6064,48.2083],[-122.5881,48.1859],[-122.5858,48.1824],[-122.5826,48.1704],[-122.5749,48.1556],[-122.5679,48.1486],[-122.5582,48.1196],[-122.5599,48.1142],[-122.5716,48.1051],[-122.5719,48.1021],[-122.5546,48.0774],[-122.5451,48.0525],[-122.539,48.0502],[-122.5163,48.0572],[-122.514,48.0591],[-122.5111,48.0753],[-122.5169,48.0811],[-122.5254,48.0965],[-122.5133,48.0975],[-122.4911,48.0942],[-122.4616,48.0685],[-122.4484,48.0543],[-122.4313,48.045],[-122.4006,48.0366],[-122.3874,48.034],[-122.3763,48.0345],[-122.3733,48.0008],[-122.3692,47.9953],[-122.3536,47.9814],[-122.3503,47.9694],[-122.3496,47.9588],[-122.3507,47.9532],[-122.3588,47.9374],[-122.3679,47.9324],[-122.3768,47.9237],[-122.3758,47.9103],[-122.3773,47.9059],[-122.3805,47.904],[-122.3904,47.9057],[-122.3973,47.9124]]],[[[-122.4058,48.2522],[-122.3987,48.2417],[-122.3929,48.2386],[-122.3955,48.2286],[-122.3961,48.2292],[-122.4256,48.2329],[-122.4306,48.2362],[-122.4338,48.2366],[-122.4496,48.2326],[-122.4537,48.2289],[-122.4536,48.2268],[-122.4495,48.2147],[-122.4445,48.2145],[-122.4417,48.2118],[-122.4421,48.2094],[-122.4549,48.1966],[-122.4619,48.1931],[-122.4648,48.1948],[-122.4702,48.194],[-122.4785,48.1881],[-122.479,48.1757],[-122.4758,48.1668],[-122.4424,48.1308],[-122.4116,48.1132],[-122.3795,48.0874],[-122.3603,48.0615],[-122.3584,48.0561],[-122.3631,48.0545],[-122.3771,48.0576],[-122.3877,48.0652],[-122.3908,48.0695],[-122.3934,48.0785],[-122.4007,48.0853],[-122.4237,48.1029],[-122.4497,48.114],[-122.4675,48.1304],[-122.478,48.129],[-122.4867,48.121],[-122.49,48.1206],[-122.512,48.1339],[-122.5226,48.1617],[-122.5372,48.1837],[-122.5389,48.2097],[-122.5344,48.223],[-122.5352,48.2402],[-122.531,48.2498],[-122.5038,48.257],[-122.4996,48.2566],[-122.4977,48.2534],[-122.4934,48.252],[-122.4809,48.2517],[-122.4745,48.2552],[-122.4668,48.2696],[-122.464,48.2705],[-122.4065,48.2518],[-122.4058,48.2522]]]]}},{"type":"Feature","id":"53031","properties":{"name":"Jefferson","fips":"53031"},"geometry":{"type":"Polygon","coordinates":[[[-122.9271,48.0651],[-122.9269,48.0646],[-122.9186,48.0582],[-122.8776,48.047],[-122.8493,48.0538],[-122.8577,48.0658],[-122.8783,48.0761],[-122.882,48.1008],[-122.8763,48.1109],[-122.8332,48.1344],[-122.7841,48.143],[-122.7604,48.1432],[-122.7489,48.117],[-122.7732,48.1069],[-122.7785,48.1061],[-122.7929,48.0972],[-122.7985,48.0925],[-122.8014,48.0876],[-122.7706,48.0534],[-122.7705,48.0479],[-122.7666,48.0443],[-122.7423,48.0493],[-122.74,48.0541],[-122.7393,48.0692],[-122.7412,48.071],[-122.7474,48.0708],[-122.7483,48.0721],[-122.7333,48.0912],[-122.7186,48.0976],[-122.6985,48.1031],[-122.6872,48.1017],[-122.6916,48.0967],[-122.6922,48.0871],[-122.6823,48.0427],[-122.6772,48.0363],[-122.6689,48.032],[-122.6699,48.0172],[-122.6869,48.0083],[-122.6901,48.0084],[-122.6972,48.015],[-122.7018,48.0161],[-122.7234,48.0081],[-122.7181,47.9877],[-122.7013,47.973],[-122.6832,47.9722],[-122.6788,47.9679],[-122.6762,47.9587],[-122.6847,47.944],[-122.6844,47.9396],[-122.6819,47.9364],[-122.6624,47.9307],[-122.6577,47.9312],[-122.6511,47.921],[-122.654,47.9159],[-122.6551,47.9051],[-122.6465,47.8948],[-122.6374,47.8899],[-122.6189,47.8902],[-122.6103,47.8873],[-122.6319,47.8748],[-122.6339,47.8684],[-122.6364,47.8662],[-122.6501,47.8639],[-122.6664,47.8675],[-122.6938,47.868],[-122.691,47.8601],[-122.6816,47.8504],[-122.6837,47.8388],[-122.6886,47.8314],[-122.7196,47.813],[-122.732,47.8097],[-122.7481,47.8005],[-122.7505,47.774],[-122.7579,47.7577],[-122.7585,47.746],[-122.7492,47.7411],[-122.7832,47.6728],[-122.9505,47.6063],[-123.5044,47.607],[-123.5044,47.5176],[-124.0471,47.5181],[-124.3537,47.5336],[-124.356,47.5457],[-124.359,47.5476],[-124.3662,47.5824],[-124.3717,47.5996],[-124.3749,47.6039],[-124.3822,47.6323],[-124.396,47.6655],[-124.4121,47.6912],[-124.4202,47.7253],[-124.4252,47.7384],[-124.4305,47.7462],[-124.4539,47.7653],[-124.4717,47.7669],[-124.4766,47.7697],[-124.4822,47.7975],[-124.4897,47.817],[-124.498,47.8226],[-124.5067,47.8239],[-124.5128,47.8225],[-124.5399,47.837],[-124.5583,47.856],[-124.559,47.8631],[-124.5624,47.8662],[-124.5882,47.8779],[-124.6095,47.88],[-124.6108,47.8806],[-123.5059,47.8811],[-123.5059,47.8669],[-122.9492,47.8668],[-122.9491,48.0652],[-122.9271,48.0651]]]}},{"type":"Feature","id":"53033","properties":{"name":"King","fips":"53033"},"geometry":{"type":"MultiPolygon","coordinates":[[[[-122.485,47.5127],[-122.4678,47.51],[-122.4524,47.5035],[-122.4605,47.4948],[-122.46,47.4869],[-122.4334,47.4664],[-122.4398,47.4581],[-122.4401,47.4176],[-122.4377,47.4074],[-122.4273,47.4021],[-122.3951,47.3993],[-122.3736,47.3887],[-122.3785,47.3853],[-122.4018,47.3813],[-122.4378,47.3656],[-122.4484,47.355],[-122.454,47.3433],[-122.4575,47.3426],[-122.4697,47.3446],[-122.4912,47.3352],[-122.4911,47.3324],[-122.4931,47.3303],[-122.5049,47.3307],[-122.5189,47.3333],[-122.5242,47.3384],[-122.5281,47.3455],[-122.526,47.3589],[-122.5379,47.3592],[-122.5284,47.3782],[-122.5384,47.3908],[-122.5367,47.403],[-122.485,47.5127]]],[[[-122.4183,47.3206],[-122.3642,47.336],[-122.3369,47.3414],[-122.3248,47.3485],[-122.3257,47.3915],[-122.3284,47.4006],[-122.3352,47.4084],[-122.348,47.4159],[-122.3551,47.4419],[-122.367,47.4476],[-122.3831,47.4505],[-122.368,47.4592],[-122.3631,47.4757],[-122.3613,47.4814],[-122.3652,47.4884],[-122.3866,47.5022],[-122.3965,47.5152],[-122.3939,47.5248],[-122.3983,47.5501],[-122.4098,47.5689],[-122.4211,47.576],[-122.4018,47.5839],[-122.3871,47.5957],[-122.3754,47.5852],[-122.3702,47.5831],[-122.3582,47.5848],[-122.3429,47.5912],[-122.3395,47.5991],[-122.3449,47.6091],[-122.3678,47.6242],[-122.386,47.6317],[-122.3937,47.631],[-122.4042,47.6339],[-122.4146,47.6398],[-122.4298,47.6589],[-122.4078,47.6801],[-122.4038,47.6894],[-122.3932,47.7016],[-122.3804,47.7091],[-122.3764,47.7165],[-122.3756,47.7197],[-122.3731,47.7292],[-122.3826,47.7491],[-122.3802,47.7585],[-122.3944,47.7722],[-122.3964,47.7779],[-122.0004,47.7753],[-122.0004,47.7753],[-121.9281,47.777],[-121.5845,47.7767],[-121.581,47.7775],[-121.119,47.7799],[-121.0684,47.7062],[-121.1136,47.5971],[-121.2432,47.5403],[-121.311,47.4793],[-121.4254,47.4224],[-121.4327,47.2936],[-121.298,47.1482],[-121.3797,47.0868],[-121.7967,47.1731],[-121.8391,47.1434],[-122.0479,47.1716],[-122.144,47.2573],[-122.2292,47.2575],[-122.2295,47.2575],[-122.3349,47.2576],[-122.4183,47.3206]]]]}},{"type":"Feature","id":"53035","properties":{"name":"Kitsap","fips":"53035"},"geometry":{"type":"Polygon","coordinates":[[[-122.7492,47.7411],[-122.7402,47.7362],[-122.733,47.7376],[-122.7227,47.7488],[-122.7197,47.761],[-122.7148,47.7682],[-122.6906,47.7784],[-122.6841,47.7986],[-122.682,47.8009],[-122.6481,47.8251],[-122.6232,47.8362],[-122.6146,47.8508],[-122.6081,47.8567],[-122.5737,47.8576],[-122.5731,47.8741],[-122.5863,47.902],[-122.5882,47.9129],[-122.5962,47.9202],[-122.6167,47.9251],[-122.6203,47.9316],[-122.617,47.939],[-122.612,47.9408],[-122.6039,47.9405],[-122.6015,47.9317],[-122.5922,47.9225],[-122.5818,47.9203],[-122.5491,47.9191],[-122.5276,47.9059],[-122.514,47.8808],[-122.5128,47.8639],[-122.5061,47.8317],[-122.5022,47.8264],[-122.4825,47.8155],[-122.4824,47.8093],[-122.4852,47.8041],[-122.4953,47.797],[-122.4955,47.7867],[-122.4714,47.766],[-122.4703,47.7571],[-122.4718,47.7498],[-122.4773,47.746],[-122.4885,47.7436],[-122.5076,47.743],[-122.5152,47.7439],[-122.5193,47.7462],[-122.5373,47.7471],[-122.5545,47.7457],[-122.5432,47.7109],[-122.5309,47.7048],[-122.5259,47.7051],[-122.524,47.708],[-122.5112,47.7087],[-122.5046,47.6991],[-122.5045,47.6859],[-122.5087,47.6708],[-122.5183,47.6513],[-122.5021,47.6391],[-122.4932,47.6351],[-122.4928,47.6296],[-122.4945,47.6236],[-122.5004,47.6178],[-122.4982,47.5982],[-122.4939,47.589],[-122.4838,47.5867],[-122.4791,47.5837],[-122.5037,47.5752],[-122.5184,47.5741],[-122.5299,47.5684],[-122.5347,47.5661],[-122.5431,47.5563],[-122.5424,47.5378],[-122.5472,47.5283],[-122.5466,47.5236],[-122.5329,47.5222],[-122.523,47.524],[-122.5005,47.5153],[-122.4949,47.5103],[-122.485,47.5127],[-122.5367,47.403],[-122.8015,47.404],[-122.8002,47.5202],[-122.8722,47.5215],[-123.0378,47.5202],[-122.9505,47.6063],[-122.7832,47.6728],[-122.7492,47.7411]]]}},{"type":"Feature","id":"53037","properties":{"name":"Kittitas","fips":"53037"},"geometry":{"type":"Polygon","coordinates":[[[-121.2432,47.5403],[-121.1136,47.5971],[-120.9161,47.4285],[-120.5251,47.3332],[-120.389,47.2609],[-120.0945,47.2622],[-120.0747,47.2252],[-120.0071,47.2201],[-120.0429,47.0735],[-119.9275,46.8171],[-119.973,46.7372],[-120.5096,46.7381],[-120.5092,46.8245],[-120.6344,46.8258],[-120.6349,46.912],[-121.0265,46.9113],[-121.0898,46.991],[-121.282,47.089],[-121.3797,47.0868],[-121.298,47.1482],[-121.4327,47.2936],[-121.4254,47.4224],[-121.311,47.4793],[-121.2432,47.5403]]]}},{"type":"Feature","id":"53039","properties":{"name":"Klickitat","fips":"53039"},"geometry":{"type":"Polygon","coordinates":[[[-121.6086,45.8582],[-121.6125,46.0438],[-121.5239,46.044],[-121.0705,46.0426],[-119.8663,46.0407],[-119.8681,45.836],[-119.9995,45.8122],[-120.0011,45.8119],[-120.1414,45.7732],[-120.1705,45.762],[-120.2108,45.726],[-120.404,45.6992],[-120.4824,45.6944],[-120.5059,45.7],[-120.522,45.7098],[-120.5595,45.7383],[-120.5912,45.7465],[-120.635,45.7458],[-120.6536,45.7372],[-120.6689,45.7301],[-120.6894,45.7158],[-120.7889,45.6862],[-120.8557,45.6715],[-120.87,45.6612],[-120.9159,45.6413],[-120.944,45.6564],[-121.0644,45.6525],[-121.0867,45.6467],[-121.1952,45.6295],[-121.2004,45.6498],[-121.2158,45.6712],[-121.3122,45.6999],[-121.3378,45.7049],[-121.3726,45.7031],[-121.4017,45.6929],[-121.4236,45.694],[-121.441,45.6973],[-121.4628,45.7014],[-121.5224,45.7247],[-121.6089,45.7826],[-121.6086,45.8582]]]}},{"type":"Feature","id":"53041","properties":{"name":"Lewis","fips":"53041"},"geometry":{"type":"Polygon","coordinates":[[[-121.5236,46.3882],[-122.241,46.3864],[-122.2417,46.3853],[-123.0913,46.3879],[-123.2178,46.3851],[-123.3582,46.3842],[-123.3708,46.7924],[-123.2028,46.7944],[-123.1606,46.7934],[-123.1609,46.7643],[-122.2027,46.7626],[-121.8326,46.7297],[-121.7589,46.7837],[-121.4564,46.7837],[-121.3523,46.7124],[-121.4512,46.5335],[-121.3866,46.4106],[-121.5236,46.3882]]]}},{"type":"Feature","id":"53043","properties":{"name":"Lincoln","fips":"53043"},"geometry":{"type":"Polygon","coordinates":[[[-117.8208,47.8252],[-117.8237,47.2604],[-117.9601,47.2604],[-118.8383,47.261],[-118.9795,47.2617],[-118.9765,47.659],[-118.9735,47.9436],[-118.9543,47.9408],[-118.852,47.9577],[-118.7117,47.9033],[-118.5704,47.9323],[-118.5441,47.884],[-118.3571,47.8416],[-118.3409,47.8944],[-118.213,47.9453],[-118.0782,47.8002],[-117.8821,47.8472],[-117.8208,47.8252]]]}},{"type":"Feature","id":"53045","properties":{"name":"Mason","fips":"53045"},"geometry":{"type":"Polygon","coordinates":[[[-122.9057,47.1556],[-122.9367,47.1902],[-123.0751,47.0845],[-123.2021,47.0849],[-123.489,47.0827],[-123.5044,47.5176],[-123.5044,47.607],[-122.9505,47.6063],[-123.0378,47.5202],[-122.8722,47.5215],[-122.8002,47.5202],[-122.8015,47.404],[-122.85,47.2729],[-122.8214,47.1942],[-122.8817,47.1563],[-122.9057,47.1556]]]}},{"type":"Feature","id":"53047","properties":{"name":"Okanogan","fips":"53047"},"geometry":{"type":"Polygon","coordinates":[[[-120.8512,49.0012],[-119.702,49.0003],[-119.7012,49.0003],[-119.4577,49.0003],[-119.4287,49.0003],[-119.1373,49.0003],[-119.1321,49.0003],[-118.8368,49.0002],[-118.8354,48.6542],[-118.8697,48.6536],[-118.8695,48.4819],[-118.8434,48.4817],[-118.8458,47.9635],[-118.852,47.9577],[-118.9543,47.9408],[-118.9735,47.9436],[-118.9828,47.9498],[-118.9824,47.962],[-118.9555,48.0232],[-119.0061,48.0461],[-119.0622,48.1384],[-119.1261,48.1505],[-119.3254,48.0996],[-119.341,48.0495],[-119.5024,48.0821],[-119.6298,47.9962],[-119.6936,48.0326],[-119.6702,48.0698],[-119.7713,48.1047],[-119.8917,48.0551],[-119.8703,47.9603],[-120.0666,47.9664],[-120.1433,48.0651],[-120.2135,48.0791],[-120.3625,48.1688],[-120.3919,48.243],[-120.5597,48.3607],[-120.6502,48.3976],[-120.6517,48.5366],[-120.7016,48.5316],[-120.752,48.6575],[-120.6547,48.7242],[-120.7337,48.7829],[-120.7675,48.9544],[-120.8512,49.0012]]]}},{"type":"Feature","id":"53049","properties":{"name":"Pacific","fips":"53049"},"geometry":{"type":"Polygon","coordinates":[[[-123.3582,46.3842],[-123.7261,46.3856],[-123.7279,46.2897],[-123.7286,46.2887],[-123.7415,46.2903],[-123.7596,46.2751],[-123.7667,46.2735],[-123.7751,46.2746],[-123.7827,46.2802],[-123.7956,46.2845],[-123.8061,46.2836],[-123.8755,46.2398],[-123.9093,46.2455],[-123.9196,46.2512],[-123.9544,46.277],[-123.9694,46.2914],[-123.9709,46.2939],[-123.9704,46.2994],[-123.9745,46.3031],[-123.9852,46.309],[-124.0013,46.3133],[-124.0206,46.3157],[-124.0299,46.3083],[-124.0356,46.2968],[-124.0388,46.2837],[-124.044,46.2759],[-124.061,46.2788],[-124.0807,46.2672],[-124.0822,46.2692],[-124.0817,46.2747],[-124.0763,46.2965],[-124.0714,46.3055],[-124.0646,46.3269],[-124.0584,46.3865],[-124.0574,46.4093],[-124.057,46.4933],[-124.062,46.5562],[-124.0684,46.6014],[-124.0696,46.6307],[-124.0687,46.6349],[-124.0627,46.6426],[-124.0565,46.6456],[-124.0484,46.6458],[-124.0359,46.6308],[-124.0527,46.6228],[-124.0508,46.6174],[-124.0288,46.591],[-124.0236,46.5826],[-124.0231,46.5641],[-124.026,46.5316],[-124.0317,46.4964],[-124.026,46.463],[-124.0013,46.46],[-123.9906,46.463],[-123.9909,46.4657],[-123.9942,46.4689],[-123.9927,46.4886],[-123.9884,46.497],[-123.9837,46.4985],[-123.9791,46.4974],[-123.9792,46.4899],[-123.9708,46.4754],[-123.968,46.4735],[-123.9437,46.4772],[-123.9212,46.5077],[-123.8967,46.5227],[-123.8972,46.5285],[-123.8943,46.537],[-123.9033,46.5519],[-123.9169,46.5626],[-123.9202,46.5673],[-123.9223,46.5771],[-123.9289,46.5889],[-123.9391,46.5963],[-123.9556,46.6036],[-123.9592,46.6136],[-123.9606,46.6364],[-123.9406,46.6409],[-123.9219,46.6503],[-123.9209,46.6536],[-123.9233,46.6727],[-123.9156,46.6786],[-123.8956,46.6837],[-123.8649,46.6987],[-123.8514,46.7026],[-123.8462,46.7168],[-123.8487,46.7199],[-123.8621,46.7277],[-123.8708,46.7283],[-123.8767,46.7307],[-123.8931,46.7502],[-123.8986,46.7502],[-123.9107,46.7467],[-123.9164,46.7413],[-123.9158,46.7373],[-123.9129,46.7306],[-123.9169,46.7267],[-123.9291,46.7253],[-123.9487,46.7254],[-123.9686,46.7361],[-123.975,46.7334],[-123.9797,46.7247],[-123.9752,46.714],[-123.9669,46.7052],[-123.9737,46.7034],[-123.9875,46.7075],[-123.9942,46.7079],[-124.0035,46.7023],[-124.0224,46.709],[-124.0425,46.72],[-124.0421,46.7228],[-124.0464,46.7257],[-124.0631,46.7337],[-124.081,46.735],[-124.0922,46.7416],[-124.0965,46.7462],[-124.095,46.7568],[-124.0967,46.7844],[-124.0984,46.7942],[-123.3708,46.7924],[-123.3582,46.3842]]]}},{"type":"Feature","id":"53051","properties":{"name":"Pend Oreille","fips":"53051"},"geometry":{"type":"Polygon","coordinates":[[[-117.4295,49.0],[-117.2682,48.9999],[-117.2682,48.9998],[-117.0324,48.9992],[-117.0332,48.8466],[-117.0344,48.6285],[-117.0345,48.6208],[-117.0353,48.4301],[-117.0353,48.4298],[-117.0353,48.4231],[-117.0353,48.4227],[-117.0352,48.3712],[-117.0352,48.3709],[-117.0396,48.1844],[-117.0396,48.184],[-117.0396,48.1811],[-117.0396,48.1809],[-117.0396,48.1803],[-117.0396,48.1781],[-117.0394,48.1773],[-117.0396,48.174],[-117.0414,48.0855],[-117.0417,48.0456],[-117.4369,48.0472],[-117.4375,48.1346],[-117.5023,48.1349],[-117.4997,48.6562],[-117.6292,48.6558],[-117.6295,48.7427],[-117.5635,48.7425],[-117.5636,48.8367],[-117.4986,48.8368],[-117.4989,48.9228],[-117.4302,48.9231],[-117.4295,49.0]]]}},{"type":"Feature","id":"53053","properties":{"name":"Pierce","fips":"53053"},"geometry":{"type":"Polygon","coordinates":[[[-122.4442,47.2667],[-122.4377,47.268],[-122.4296,47.2697],[-122.4181,47.2818],[-122.4092,47.2886],[-122.4137,47.2939],[-122.4242,47.2975],[-122.4323,47.296],[-122.4446,47.3004],[-122.443,47.3063],[-122.4235,47.3191],[-122.4183,47.3206],[-122.3349,47.2576],[-122.2295,47.2575],[-122.2292,47.2575],[-122.144,47.2573],[-122.0479,47.1716],[-121.8391,47.1434],[-121.7967,47.1731],[-121.3797,47.0868],[-121.4565,46.9227],[-121.5233,46.8733],[-121.4564,46.7837],[-121.7589,46.7837],[-121.8326,46.7297],[-122.2027,46.7626],[-122.373,46.845],[-122.4915,46.8679],[-122.6374,46.9771],[-122.7595,47.1412],[-122.776,47.1552],[-122.7924,47.1742],[-122.8214,47.1942],[-122.85,47.2729],[-122.8015,47.404],[-122.5367,47.403],[-122.5384,47.3908],[-122.5284,47.3782],[-122.5379,47.3592],[-122.5515,47.3595],[-122.5558,47.3475],[-122.5713,47.3272],[-122.576,47.3264],[-122.5737,47.3184],[-122.5712,47.3156],[-122.5477,47.3164],[-122.5474,47.3177],[-122.5402,47.3185],[-122.5333,47.3166],[-122.4717,47.2773],[-122.4442,47.2667]]]}},{"type":"Feature","id":"53055","properties":{"name":"San Juan","fips":"53055"},"geometry":{"type":"MultiPolygon","coordinates":[[[[-122.8002,48.6017],[-122.8049,48.5959],[-122.8011,48.5854],[-122.7866,48.5767],[-122.7712,48.5624],[-122.7703,48.5581],[-122.7724,48.5521],[-122.7826,48.5452],[-122.7885,48.5304],[-122.7873,48.523],[-122.7775,48.5178],[-122.7791,48.5089],[-122.8004,48.4945],[-122.8163,48.4878],[-122.8179,48.4839],[-122.8197,48.4588],[-122.8131,48.4529],[-122.8077,48.4441],[-122.8025,48.4331],[-122.8035,48.4287],[-122.8122,48.4223],[-122.8258,48.4241],[-122.8741,48.4182],[-122.8838,48.4188],[-122.8936,48.4227],[-122.889,48.4359],[-122.9032,48.437],[-122.9139,48.4432],[-122.9178,48.4398],[-122.928,48.44],[-122.9165,48.4533],[-122.9201,48.4584],[-122.9269,48.4609],[-122.9379,48.4562],[-122.962,48.4512],[-123.0392,48.46],[-123.0582,48.4715],[-123.0677,48.4795],[-123.1195,48.4926],[-123.1415,48.5053],[-123.1511,48.514],[-123.1632,48.5295],[-123.1641,48.5356],[-123.1619,48.5393],[-123.1615,48.5476],[-123.1724,48.5565],[-123.1763,48.5621],[-123.1759,48.5685],[-123.172,48.5723],[-123.1731,48.5791],[-123.1849,48.587],[-123.1978,48.5862],[-123.2027,48.5902],[-123.203,48.5962],[-123.1957,48.6071],[-123.1784,48.6221],[-123.1516,48.6237],[-123.1397,48.6228],[-123.1356,48.6202],[-123.1074,48.6225],[-123.0985,48.6128],[-123.0983,48.6101],[-123.1021,48.604],[-123.1016,48.5978],[-123.0746,48.5918],[-123.06,48.5821],[-123.0484,48.5692],[-123.0337,48.5634],[-123.015,48.5608],[-122.9873,48.5619],[-122.9861,48.57],[-122.9896,48.5747],[-122.995,48.5782],[-123.0048,48.5808],[-123.0166,48.5802],[-123.0341,48.5918],[-123.0249,48.5945],[-123.0234,48.5995],[-123.0412,48.6119],[-123.0465,48.6115],[-123.0487,48.621],[-123.0235,48.634],[-123.0156,48.6426],[-123.0148,48.6475],[-123.0099,48.6551],[-122.9889,48.6672],[-122.9849,48.6727],[-122.9491,48.6934],[-122.9413,48.7029],[-122.9424,48.7067],[-122.9183,48.7135],[-122.8946,48.715],[-122.8759,48.7121],[-122.8331,48.6982],[-122.8025,48.6827],[-122.8003,48.6796],[-122.743,48.662],[-122.7421,48.6607],[-122.755,48.6495],[-122.7839,48.6354],[-122.7921,48.6335],[-122.8096,48.619],[-122.8089,48.6153],[-122.799,48.6047],[-122.7988,48.6024],[-122.8002,48.6017]]],[[[-123.198,48.6847],[-123.1861,48.6849],[-123.1721,48.6799],[-123.148,48.668],[-123.131,48.6568],[-123.122,48.6471],[-123.1062,48.6335],[-123.1197,48.633],[-123.135,48.6372],[-123.2159,48.6694],[-123.2371,48.6835],[-123.2366,48.6889],[-123.2129,48.6897],[-123.198,48.6847]]],[[[-123.0255,48.718],[-123.0197,48.7213],[-123.0098,48.7223],[-123.0075,48.7189],[-123.0051,48.6943],[-123.0144,48.685],[-123.0212,48.6814],[-123.0423,48.6757],[-123.0416,48.6786],[-123.0357,48.6853],[-123.0364,48.6901],[-123.0471,48.6958],[-123.0704,48.7],[-123.0402,48.7173],[-123.0255,48.718]]]]}},{"type":"Feature","id":"53057","properties":{"name":"Skagit","fips":"53057"},"geometry":{"type":"MultiPolygon","coordinates":[[[[-122.6494,48.5885],[-122.6426,48.5883],[-122.6293,48.5722],[-122.6108,48.5611],[-122.5929,48.5536],[-122.584,48.5515],[-122.5789,48.5481],[-122.573,48.529],[-122.5836,48.5323],[-122.5902,48.5363],[-122.5999,48.5369],[-122.6199,48.5292],[-122.6357,48.526],[-122.6404,48.5259],[-122.6493,48.5288],[-122.652,48.5313],[-122.6543,48.538],[-122.6536,48.549],[-122.6508,48.554],[-122.6524,48.5834],[-122.6494,48.5885]]],[[[-122.7145,48.6088],[-122.6947,48.5966],[-122.6917,48.5906],[-122.6706,48.5688],[-122.6894,48.5439],[-122.7173,48.5397],[-122.7224,48.5406],[-122.724,48.5499],[-122.7305,48.5656],[-122.7362,48.569],[-122.7394,48.5739],[-122.7399,48.5839],[-122.7249,48.6033],[-122.7145,48.6088]]],[[[-122.6993,48.6211],[-122.6981,48.6231],[-122.6742,48.6299],[-122.657,48.6099],[-122.6661,48.6081],[-122.6768,48.6101],[-122.6861,48.6133],[-122.6993,48.6211]]],[[[-122.3782,48.2976],[-122.3843,48.3041],[-122.4087,48.3264],[-122.4241,48.3343],[-122.4427,48.3379],[-122.4755,48.3599],[-122.4824,48.3617],[-122.4977,48.3618],[-122.5074,48.3647],[-122.5335,48.3834],[-122.5394,48.3972],[-122.5475,48.3999],[-122.5545,48.406],[-122.5584,48.4268],[-122.5512,48.4395],[-122.5573,48.4444],[-122.5683,48.445],[-122.5753,48.4433],[-122.5816,48.4292],[-122.6145,48.4149],[-122.6498,48.4085],[-122.6653,48.4165],[-122.6742,48.4247],[-122.6789,48.4395],[-122.6771,48.4441],[-122.6742,48.4433],[-122.6741,48.442],[-122.6672,48.4425],[-122.6548,48.4541],[-122.6578,48.4729],[-122.6646,48.4781],[-122.6891,48.4768],[-122.6957,48.4648],[-122.6956,48.4606],[-122.7006,48.4576],[-122.7104,48.4616],[-122.7123,48.4641],[-122.713,48.4788],[-122.7016,48.4976],[-122.6845,48.5091],[-122.6791,48.5078],[-122.6769,48.5045],[-122.6714,48.504],[-122.6152,48.5214],[-122.607,48.5222],[-122.6,48.5209],[-122.5985,48.5122],[-122.5681,48.5082],[-122.5568,48.4988],[-122.5374,48.4667],[-122.5328,48.4661],[-122.5269,48.468],[-122.5151,48.4656],[-122.5113,48.4618],[-122.5007,48.4609],[-122.4718,48.4707],[-122.4696,48.4722],[-122.4697,48.475],[-122.4738,48.4798],[-122.4789,48.4817],[-122.4835,48.4924],[-122.485,48.5096],[-122.4839,48.5219],[-122.4853,48.5281],[-122.4985,48.5562],[-122.5044,48.5648],[-122.5254,48.5673],[-122.532,48.5686],[-122.5347,48.5742],[-122.5348,48.576],[-122.5124,48.5781],[-122.4959,48.5759],[-122.4884,48.5647],[-122.4824,48.5597],[-122.4784,48.5593],[-122.4446,48.5701],[-122.4331,48.5816],[-122.4253,48.5995],[-122.4487,48.6226],[-122.4643,48.6257],[-122.4869,48.6431],[-122.4888,48.6454],[-121.2512,48.641],[-120.9105,48.6409],[-120.752,48.6575],[-120.7016,48.5316],[-120.824,48.5452],[-121.0358,48.4947],[-121.0699,48.3165],[-121.0014,48.2955],[-122.3782,48.2976]]]]}},{"type":"Feature","id":"53059","properties":{"name":"Skamania","fips":"53059"},"geometry":{"type":"Polygon","coordinates":[[[-121.8201,45.7046],[-121.8672,45.6933],[-121.9019,45.6707],[-121.9009,45.662],[-121.9083,45.6544],[-121.9222,45.6485],[-121.983,45.6228],[-122.1017,45.5835],[-122.1124,45.5814],[-122.1262,45.5826],[-122.1262,45.5826],[-122.1295,45.583],[-122.1295,45.5829],[-122.1407,45.5845],[-122.1837,45.5777],[-122.2017,45.5641],[-122.249,45.5477],[-122.2456,46.0539],[-122.24,46.3842],[-122.2417,46.3853],[-122.241,46.3864],[-121.5236,46.3882],[-121.5239,46.044],[-121.6125,46.0438],[-121.6086,45.8582],[-121.6089,45.7826],[-121.5224,45.7247],[-121.5331,45.7265],[-121.6262,45.7059],[-121.7074,45.6948],[-121.7351,45.694],[-121.8113,45.7068],[-121.8201,45.7046]]]}},{"type":"Feature","id":"53061","properties":{"name":"Snohomish","fips":"53061"},"geometry":{"type":"MultiPolygon","coordinates":[[[[-122.3217,48.02],[-122.3035,48.0056],[-122.3066,48.0044],[-122.3261,48.0103],[-122.3345,48.0189],[-122.3283,48.0213],[-122.3217,48.02]]],[[[-121.5845,47.7767],[-121.9281,47.777],[-122.0004,47.7753],[-122.0004,47.7753],[-122.3964,47.7779],[-122.397,47.7797],[-122.3949,47.8033],[-122.392,47.8077],[-122.3532,47.8406],[-122.3465,47.8424],[-122.3399,47.8467],[-122.3359,47.8523],[-122.3295,47.8694],[-122.3301,47.8753],[-122.3335,47.8802],[-122.3285,47.8979],[-122.3218,47.9118],[-122.3119,47.9237],[-122.3107,47.9251],[-122.3097,47.9291],[-122.3111,47.9367],[-122.307,47.9491],[-122.278,47.9565],[-122.249,47.9595],[-122.23,47.9709],[-122.2263,47.9764],[-122.2324,47.9877],[-122.2302,48.0072],[-122.2288,48.0125],[-122.225,48.0166],[-122.2318,48.0299],[-122.2811,48.0498],[-122.3058,48.0734],[-122.3217,48.0855],[-122.3261,48.0929],[-122.3432,48.0976],[-122.3638,48.1239],[-122.3651,48.1258],[-122.3638,48.1428],[-122.3647,48.1513],[-122.3703,48.1648],[-122.3635,48.1744],[-122.362,48.1876],[-122.3725,48.193],[-122.3821,48.2071],[-122.3857,48.2178],[-122.3955,48.2286],[-122.3929,48.2386],[-122.3987,48.2417],[-122.4058,48.2522],[-122.3953,48.2572],[-122.3921,48.2696],[-122.3717,48.2878],[-122.3768,48.2961],[-122.3782,48.2976],[-121.0014,48.2955],[-120.9064,48.1633],[-121.0154,48.0751],[-121.1535,48.0409],[-121.1181,47.9977],[-121.1802,47.8971],[-121.0707,47.826],[-121.119,47.7799],[-121.581,47.7775],[-121.5845,47.7767]]]]}},{"type":"Feature","id":"53063","properties":{"name":"Spokane","fips":"53063"},"geometry":{"type":"Polygon","coordinates":[[[-117.0425,47.7665],[-117.0425,47.7649],[-117.0426,47.7612],[-117.0427,47.7609],[-117.0421,47.7451],[-117.0421,47.7441],[-117.0417,47.7227],[-117.0416,47.7064],[-117.0415,47.6832],[-117.0414,47.68],[-117.0414,47.6782],[-117.0414,47.6781],[-117.0412,47.5585],[-117.0413,47.5582],[-117.0407,47.5329],[-117.0405,47.5276],[-117.0405,47.5224],[-117.0399,47.4778],[-117.04,47.4633],[-117.0399,47.4349],[-117.04,47.4124],[-117.0399,47.3991],[-117.0399,47.3661],[-117.0398,47.3472],[-117.04,47.2593],[-117.8237,47.2604],[-117.8208,47.8252],[-117.6991,47.8561],[-117.5357,47.7951],[-117.535,48.0479],[-117.4369,48.0472],[-117.0417,48.0456],[-117.0419,47.9774],[-117.0425,47.7665]]]}},{"type":"Feature","id":"53065","properties":{"name":"Stevens","fips":"53065"},"geometry":{"type":"Polygon","coordinates":[[[-118.1969,49.0001],[-117.4295,49.0],[-117.4302,48.9231],[-117.4989,48.9228],[-117.4986,48.8368],[-117.5636,48.8367],[-117.5635,48.7425],[-117.6295,48.7427],[-117.6292,48.6558],[-117.4997,48.6562],[-117.5023,48.1349],[-117.4375,48.1346],[-117.4369,48.0472],[-117.535,48.0479],[-117.5357,47.7951],[-117.6991,47.8561],[-117.8208,47.8252],[-117.8821,47.8472],[-118.0782,47.8002],[-118.213,47.9453],[-118.3409,47.8944],[-118.4024,48.0264],[-118.2382,48.0582],[-118.2486,48.1343],[-118.1913,48.1599],[-118.1945,48.2129],[-118.1415,48.26],[-118.1756,48.3195],[-118.2065,48.4703],[-118.1497,48.5206],[-118.105,48.6535],[-118.131,48.7777],[-118.1955,48.8407],[-118.2217,48.9371],[-118.1969,49.0001]]]}},{"type":"Feature","id":"53067","properties":{"name":"Thurston","fips":"53067"},"geometry":{"type":"Polygon","coordinates":[[[-122.8214,47.1942],[-122.7924,47.1742],[-122.776,47.1552],[-122.7595,47.1412],[-122.6374,46.9771],[-122.4915,46.8679],[-122.373,46.845],[-122.2027,46.7626],[-123.1609,46.7643],[-123.1606,46.7934],[-123.1584,46.9962],[-123.2021,47.0849],[-123.0751,47.0845],[-122.9367,47.1902],[-122.9057,47.1556],[-122.8817,47.1563],[-122.8214,47.1942]]]}},{"type":"Feature","id":"53069","properties":{"name":"Wahkiakum","fips":"53069"},"geometry":{"type":"Polygon","coordinates":[[[-123.3636,46.1462],[-123.3714,46.1464],[-123.4308,46.1818],[-123.4276,46.2293],[-123.4476,46.2498],[-123.4687,46.2645],[-123.4748,46.2678],[-123.4842,46.2695],[-123.5477,46.2591],[-123.5476,46.2656],[-123.5599,46.2651],[-123.5644,46.2622],[-123.5816,46.2605],[-123.6135,46.26],[-123.6695,46.2668],[-123.6791,46.2725],[-123.6801,46.2779],[-123.6781,46.2865],[-123.6788,46.2907],[-123.6806,46.296],[-123.6878,46.2992],[-123.7008,46.3053],[-123.7243,46.3012],[-123.724,46.2951],[-123.7279,46.2897],[-123.7261,46.3856],[-123.3582,46.3842],[-123.2178,46.3851],[-123.2131,46.1725],[-123.2802,46.1448],[-123.3636,46.1462]]]}},{"type":"Feature","id":"53071","properties":{"name":"Walla Walla","fips":"53071"},"geometry":{"type":"Polygon","coordinates":[[[-118.2289,46.5936],[-118.2416,46.2951],[-118.1161,46.2955],[-118.1165,46.2079],[-117.9913,46.2078],[-117.9969,46.0008],[-118.1262,46.0003],[-118.131,46.0003],[-118.2289,46.0004],[-118.2366,46.0004],[-118.2525,46.0005],[-118.2564,46.0004],[-118.315,46.0005],[-118.3678,46.0006],[-118.3784,46.0006],[-118.4708,46.0006],[-118.497,46.0006],[-118.5371,46.0008],[-118.5694,46.0008],[-118.5757,46.0007],[-118.5799,46.0008],[-118.6377,46.001],[-118.6393,46.001],[-118.6587,46.001],[-118.6779,46.0009],[-118.9871,45.9999],[-118.9411,46.0293],[-118.9809,46.1463],[-119.0414,46.1929],[-118.9728,46.2387],[-118.7772,46.2902],[-118.7462,46.3595],[-118.6338,46.414],[-118.6156,46.5045],[-118.4526,46.597],[-118.2289,46.5936]]]}},{"type":"Feature","id":"53073","properties":{"name":"Whatcom","fips":"53073"},"geometry":{"type":"MultiPolygon","coordinates":[[[[-120.752,48.6575],[-120.9105,48.6409],[-121.2512,48.641],[-122.4888,48.6454],[-122.494,48.6516],[-122.5003,48.6562],[-122.5067,48.6697],[-122.5192,48.7131],[-122.5155,48.721],[-122.5057,48.7245],[-122.4953,48.7373],[-122.4904,48.7511],[-122.5109,48.7577],[-122.5282,48.7684],[-122.5358,48.7761],[-122.5675,48.7792],[-122.5968,48.7715],[-122.598,48.7695],[-122.6068,48.7591],[-122.6278,48.7447],[-122.6371,48.7357],[-122.6381,48.7325],[-122.6263,48.7209],[-122.6126,48.7149],[-122.6057,48.7011],[-122.6061,48.6986],[-122.6152,48.6938],[-122.6203,48.6937],[-122.6304,48.6966],[-122.6463,48.708],[-122.6735,48.7331],[-122.667,48.7484],[-122.6611,48.754],[-122.6474,48.774],[-122.6457,48.7815],[-122.6468,48.785],[-122.6565,48.785],[-122.6597,48.7865],[-122.6802,48.8028],[-122.6937,48.8045],[-122.6972,48.8028],[-122.6987,48.8005],[-122.6995,48.7949],[-122.6993,48.7891],[-122.7031,48.7863],[-122.7098,48.7862],[-122.7112,48.7915],[-122.7092,48.8178],[-122.7118,48.8324],[-122.7171,48.8472],[-122.7227,48.8529],[-122.7857,48.8851],[-122.7932,48.8929],[-122.7926,48.8947],[-122.7837,48.8946],[-122.7513,48.9112],[-122.7475,48.9156],[-122.7454,48.9212],[-122.7466,48.9307],[-122.7556,48.9387],[-122.7661,48.942],[-122.7704,48.9425],[-122.7875,48.9317],[-122.8182,48.9391],[-122.8216,48.9414],[-122.8225,48.9449],[-122.8172,48.956],[-122.7969,48.975],[-122.7743,48.991],[-122.7663,48.9917],[-122.7563,48.9969],[-122.756,48.9995],[-122.758,49.0024],[-122.4078,49.0022],[-122.406,49.0022],[-122.0984,49.0021],[-121.7513,48.9974],[-121.1262,49.0014],[-120.8512,49.0012],[-120.7675,48.9544],[-120.7337,48.7829],[-120.6547,48.7242],[-120.752,48.6575]]],[[[-123.0354,49.0022],[-123.0215,48.9773],[-123.0281,48.9739],[-123.041,48.9773],[-123.0607,48.9754],[-123.0838,48.9761],[-123.0845,48.9865],[-123.0905,49.002],[-123.0354,49.0022]]],[[[-122.6959,48.7373],[-122.6689,48.7066],[-122.6633,48.6971],[-122.6449,48.6914],[-122.6182,48.6707],[-122.6096,48.645],[-122.617,48.6456],[-122.6353,48.6518],[-122.6735,48.6808],[-122.6918,48.7115],[-122.7022,48.717],[-122.7188,48.7168],[-122.722,48.7234],[-122.7223,48.7316],[-122.7157,48.7487],[-122.7031,48.7436],[-122.6959,48.7373]]]]}},{"type":"Feature","id":"53075","properties":{"name":"Whitman","fips":"53075"},"geometry":{"type":"Polygon","coordinates":[[[-118.2098,46.7389],[-118.0126,46.7905],[-117.9589,46.9149],[-117.9601,47.2604],[-117.8237,47.2604],[-117.04,47.2593],[-117.0399,47.2255],[-117.0399,47.2033],[-117.0399,47.1819],[-117.0398,47.1547],[-117.0398,47.1273],[-117.0397,46.8258],[-117.0398,46.8154],[-117.0398,46.5418],[-117.0398,46.4718],[-117.0398,46.4696],[-117.0397,46.4627],[-117.0398,46.4254],[-117.199,46.4198],[-117.2289,46.4623],[-117.2539,46.5451],[-117.4753,46.7003],[-117.6012,46.6727],[-117.751,46.69],[-117.8518,46.6248],[-118.1726,46.5569],[-118.2157,46.5889],[-118.2491,46.7341],[-118.2098,46.7389]]]}},{"type":"Feature","id":"53077","properties":{"name":"Yakima","fips":"53077"},"geometry":{"type":"Polygon","coordinates":[[[-121.5239,46.044],[-121.5236,46.3882],[-121.3866,46.4106],[-121.4512,46.5335],[-121.3523,46.7124],[-121.4564,46.7837],[-121.5233,46.8733],[-121.4565,46.9227],[-121.3797,47.0868],[-121.282,47.089],[-121.0898,46.991],[-121.0265,46.9113],[-120.6349,46.912],[-120.6344,46.8258],[-120.5092,46.8245],[-120.5096,46.7381],[-119.973,46.7372],[-119.8741,46.6286],[-119.8663,46.0407],[-121.0705,46.0426],[-121.5239,46.044]]]}}]}