{"type":"FeatureCollection","features":[{"type":"Feature","id":"55001","properties":{"name":"Adams","fips":"55001"},"geometry":{"type":"Polygon","coordinates":[[[-89.9026,44.2495],[-89.7262,44.2479],[-89.7247,44.2477],[-89.598,44.2457],[-89.5979,43.9821],[-89.5995,43.6445],[-89.6,43.6426],[-89.7858,43.641],[-89.8655,43.7832],[-89.9581,43.8599],[-89.9689,43.9941],[-90.0288,44.0902],[-89.9033,44.1787],[-89.9258,44.1927],[-89.9026,44.2495]]]}},{"type":"Feature","id":"55003","properties":{"name":"Ashland","fips":"55003"},"geometry":{"type":"MultiPolygon","coordinates":[[[[-90.4567,47.0167],[-90.4553,47.0237],[-90.4553,47.024],[-90.456,47.0321],[-90.4564,47.0361],[-90.4571,47.0435],[-90.4571,47.0441],[-90.4555,47.0513],[-90.4551,47.0531],[-90.455,47.0535],[-90.4496,47.065],[-90.4491,47.066],[-90.4491,47.066],[-90.449,47.066],[-90.4484,47.0664],[-90.442,47.0705],[-90.4387,47.0726],[-90.4373,47.0735],[-90.4354,47.0739],[-90.4348,47.074],[-90.4345,47.074],[-90.4284,47.0753],[-90.4271,47.0756],[-90.4253,47.0759],[-90.4173,47.0776],[-90.4002,47.0773],[-90.3989,47.0772],[-90.3954,47.0772],[-90.3952,47.077],[-90.3949,47.0768],[-90.3938,47.076],[-90.3938,47.0759],[-90.3937,47.0749],[-90.3931,47.0687],[-90.3931,47.0686],[-90.3931,47.0683],[-90.393,47.0679],[-90.3932,47.0668],[-90.3933,47.0666],[-90.3933,47.0662],[-90.3934,47.0662],[-90.3935,47.0653],[-90.3942,47.0615],[-90.3943,47.0609],[-90.396,47.057],[-90.3962,47.0565],[-90.3963,47.0563],[-90.4001,47.0474],[-90.4002,47.047],[-90.4004,47.0467],[-90.4004,47.0466],[-90.4004,47.0465],[-90.4033,47.0267],[-90.4033,47.0266],[-90.4035,47.0254],[-90.4039,47.0249],[-90.405,47.0235],[-90.4094,47.0181],[-90.412,47.015],[-90.4129,47.0138],[-90.4131,47.0135],[-90.4134,47.0132],[-90.4254,47.0075],[-90.4273,47.0066],[-90.4283,47.0061],[-90.4284,47.0061],[-90.4294,47.0056],[-90.4295,47.0056],[-90.4489,46.9995],[-90.4536,46.9979],[-90.4574,46.9967],[-90.4641,46.9946],[-90.4641,46.9947],[-90.4655,47.0026],[-90.4653,47.0028],[-90.4577,47.0125],[-90.4575,47.0128],[-90.4573,47.0135],[-90.4573,47.0137],[-90.4567,47.0167]]],[[[-90.6367,46.8613],[-90.6364,46.8617],[-90.634,46.8644],[-90.622,46.8729],[-90.6165,46.8745],[-90.6026,46.8727],[-90.6026,46.8727],[-90.6019,46.8721],[-90.5939,46.8643],[-90.5882,46.8588],[-90.5874,46.8581],[-90.5873,46.858],[-90.57,46.8497],[-90.5699,46.8494],[-90.5689,46.8474],[-90.5689,46.8473],[-90.5691,46.8471],[-90.5707,46.8462],[-90.5783,46.8417],[-90.5784,46.8416],[-90.5823,46.8405],[-90.5845,46.8398],[-90.585,46.8398],[-90.5899,46.8395],[-90.6013,46.8387],[-90.6033,46.8386],[-90.6095,46.8382],[-90.6103,46.8382],[-90.6136,46.838],[-90.6138,46.8379],[-90.6142,46.8378],[-90.6255,46.8344],[-90.658,46.8245],[-90.6738,46.8197],[-90.6761,46.819],[-90.6834,46.8133],[-90.6858,46.805],[-90.6704,46.7996],[-90.67,46.7995],[-90.6654,46.7994],[-90.6553,46.7992],[-90.6549,46.7989],[-90.6546,46.7987],[-90.6529,46.7978],[-90.6529,46.7977],[-90.6523,46.7951],[-90.6522,46.7946],[-90.6522,46.7945],[-90.6526,46.7941],[-90.6534,46.7931],[-90.6541,46.7923],[-90.6553,46.7909],[-90.6554,46.7909],[-90.6555,46.7908],[-90.6556,46.7906],[-90.6557,46.7905],[-90.6564,46.7897],[-90.6572,46.7888],[-90.6589,46.7885],[-90.6605,46.7882],[-90.6612,46.7881],[-90.6615,46.7881],[-90.6633,46.7878],[-90.6795,46.785],[-90.6876,46.7836],[-90.6886,46.7834],[-90.6893,46.7833],[-90.6915,46.7829],[-90.693,46.7826],[-90.6965,46.782],[-90.6969,46.7821],[-90.7066,46.7838],[-90.7165,46.7854],[-90.7239,46.7817],[-90.7349,46.772],[-90.7388,46.7685],[-90.7394,46.768],[-90.758,46.758],[-90.7625,46.7555],[-90.7636,46.7549],[-90.7652,46.7545],[-90.7666,46.7542],[-90.7712,46.753],[-90.7744,46.7531],[-90.7878,46.7533],[-90.7878,46.7533],[-90.7883,46.7533],[-90.7885,46.7533],[-90.7884,46.7536],[-90.7883,46.7541],[-90.7876,46.7568],[-90.7854,46.7645],[-90.7831,46.7729],[-90.7889,46.7792],[-90.7892,46.7795],[-90.791,46.7814],[-90.791,46.7815],[-90.7911,46.7821],[-90.7914,46.7838],[-90.7914,46.784],[-90.7915,46.7847],[-90.7916,46.785],[-90.7902,46.7861],[-90.7817,46.7888],[-90.7591,46.796],[-90.7586,46.7962],[-90.7457,46.7982],[-90.7406,46.799],[-90.7366,46.7997],[-90.7332,46.8002],[-90.733,46.8002],[-90.7328,46.8004],[-90.7296,46.8034],[-90.7285,46.8044],[-90.7284,46.8057],[-90.728,46.8093],[-90.7278,46.8104],[-90.7209,46.8159],[-90.7124,46.8207],[-90.7046,46.8235],[-90.6945,46.8271],[-90.683,46.8312],[-90.6754,46.8339],[-90.6729,46.8352],[-90.6569,46.8435],[-90.6561,46.8441],[-90.6559,46.8443],[-90.6557,46.8444],[-90.6545,46.8453],[-90.6545,46.8453],[-90.6518,46.8474],[-90.6512,46.8478],[-90.6509,46.848],[-90.6475,46.8506],[-90.647,46.851],[-90.6432,46.8538],[-90.6379,46.86],[-90.6371,46.8609],[-90.6367,46.8613]]],[[[-90.5796,46.9182],[-90.5929,46.9156],[-90.6235,46.9094],[-90.6246,46.9092],[-90.6257,46.909],[-90.6371,46.9067],[-90.6441,46.9084],[-90.6441,46.9084],[-90.6442,46.9085],[-90.6548,46.9192],[-90.6548,46.9193],[-90.6548,46.9193],[-90.6518,46.9253],[-90.651,46.9261],[-90.6464,46.9309],[-90.6453,46.9319],[-90.6448,46.9325],[-90.644,46.9333],[-90.6433,46.9339],[-90.6345,46.9429],[-90.6339,46.9431],[-90.6019,46.9523],[-90.6012,46.9525],[-90.5724,46.9588],[-90.5306,46.9681],[-90.5288,46.9685],[-90.5282,46.9684],[-90.5249,46.9679],[-90.5233,46.9676],[-90.5218,46.9668],[-90.5148,46.9631],[-90.5146,46.963],[-90.5133,46.9623],[-90.5129,46.9621],[-90.5122,46.9617],[-90.5116,46.9614],[-90.5099,46.9591],[-90.5094,46.9584],[-90.5082,46.9568],[-90.5111,46.9529],[-90.524,46.9357],[-90.5241,46.9357],[-90.5327,46.9325],[-90.5354,46.9315],[-90.5399,46.9278],[-90.5436,46.923],[-90.5439,46.9183],[-90.5451,46.9173],[-90.5459,46.9167],[-90.5491,46.9155],[-90.5504,46.9158],[-90.5533,46.9167],[-90.5573,46.9187],[-90.5692,46.9203],[-90.5796,46.9182]]],[[[-90.9274,46.5851],[-90.9236,46.5843],[-90.9234,46.5842],[-90.9215,46.5838],[-90.9204,46.5836],[-90.9201,46.5835],[-90.9199,46.5834],[-90.9184,46.5831],[-90.9184,46.5831],[-90.9183,46.5831],[-90.917,46.583],[-90.9098,46.5827],[-90.9061,46.5834],[-90.9056,46.5835],[-90.9019,46.5855],[-90.9017,46.5856],[-90.8919,46.591],[-90.8862,46.5941],[-90.8851,46.5947],[-90.885,46.5948],[-90.8732,46.6012],[-90.8671,46.6019],[-90.8643,46.603],[-90.8587,46.605],[-90.8568,46.6057],[-90.8562,46.606],[-90.8561,46.606],[-90.8546,46.6066],[-90.8534,46.607],[-90.8522,46.6075],[-90.8519,46.6076],[-90.8497,46.6084],[-90.8432,46.6108],[-90.8432,46.6108],[-90.8421,46.6112],[-90.8417,46.6114],[-90.8373,46.613],[-90.8343,46.6141],[-90.8319,46.615],[-90.8312,46.6153],[-90.83,46.6157],[-90.8291,46.6161],[-90.829,46.6161],[-90.7948,46.6249],[-90.7926,46.6259],[-90.7725,46.6351],[-90.7702,46.6361],[-90.7684,46.6374],[-90.7554,46.6462],[-90.7553,46.6463],[-90.7553,46.6463],[-90.7563,46.6618],[-90.7565,46.6646],[-90.7481,46.6698],[-90.748,46.67],[-90.7396,46.6899],[-90.7395,46.69],[-90.7373,46.6923],[-90.7249,46.6842],[-90.7054,46.6714],[-90.6947,46.6644],[-90.6545,46.64],[-90.6509,46.6378],[-90.6279,46.6238],[-90.6076,46.6122],[-90.6067,46.6117],[-90.6062,46.6113],[-90.5996,46.6076],[-90.5994,46.6074],[-90.5958,46.6054],[-90.5956,46.6052],[-90.5919,46.6031],[-90.5908,46.6025],[-90.5907,46.6024],[-90.5862,46.5999],[-90.5814,46.5975],[-90.5802,46.597],[-90.5794,46.5966],[-90.5637,46.589],[-90.562,46.5882],[-90.5611,46.5878],[-90.5581,46.5864],[-90.5562,46.5859],[-90.5496,46.5841],[-90.5522,46.2409],[-90.426,46.2405],[-90.4263,46.154],[-90.3031,46.1548],[-90.3021,45.9813],[-90.677,45.9816],[-90.9252,45.9811],[-90.9246,46.1546],[-90.9274,46.5851]]]]}},{"type":"Feature","id":"55005","properties":{"name":"Barron","fips":"55005"},"geometry":{"type":"Polygon","coordinates":[[[-91.6656,45.208],[-92.1565,45.2096],[-92.1549,45.6397],[-92.0314,45.6399],[-91.5403,45.6376],[-91.5413,45.292],[-91.5422,45.2065],[-91.6656,45.208]]]}},{"type":"Feature","id":"55007","properties":{"name":"Bayfield","fips":"55007"},"geometry":{"type":"Polygon","coordinates":[[[-90.8331,46.9547],[-90.805,46.938],[-90.7866,46.927],[-90.7865,46.927],[-90.786,46.9267],[-90.7856,46.9264],[-90.7601,46.9033],[-90.7594,46.9026],[-90.7556,46.8992],[-90.7546,46.8983],[-90.7544,46.898],[-90.7527,46.8957],[-90.7513,46.8937],[-90.751,46.8933],[-90.7509,46.893],[-90.7509,46.8926],[-90.7509,46.8921],[-90.751,46.8903],[-90.751,46.888],[-90.7512,46.8879],[-90.7547,46.8849],[-90.7547,46.8849],[-90.7548,46.8849],[-90.7613,46.8832],[-90.7616,46.8832],[-90.7702,46.8763],[-90.7702,46.8762],[-90.781,46.859],[-90.781,46.8589],[-90.788,46.8449],[-90.792,46.8369],[-90.7937,46.8336],[-90.7957,46.8296],[-90.796,46.8291],[-90.7964,46.8281],[-90.7974,46.8262],[-90.7985,46.8239],[-90.7989,46.8231],[-90.801,46.8216],[-90.8014,46.8214],[-90.8093,46.8157],[-90.822,46.8065],[-90.8257,46.8039],[-90.8263,46.8021],[-90.8273,46.7993],[-90.8281,46.7974],[-90.829,46.7964],[-90.8299,46.7955],[-90.8301,46.7953],[-90.8316,46.7938],[-90.835,46.7904],[-90.835,46.7903],[-90.8353,46.7901],[-90.8356,46.7898],[-90.8472,46.7893],[-90.8549,46.789],[-90.8555,46.7889],[-90.8557,46.7889],[-90.8563,46.7889],[-90.8565,46.7889],[-90.8567,46.7887],[-90.86,46.7848],[-90.8635,46.7806],[-90.8597,46.7744],[-90.8594,46.774],[-90.8609,46.7711],[-90.8623,46.7681],[-90.8663,46.7646],[-90.8666,46.7644],[-90.8667,46.7644],[-90.8746,46.7609],[-90.8759,46.7603],[-90.885,46.7563],[-90.8834,46.7473],[-90.8834,46.747],[-90.8821,46.7446],[-90.8816,46.7438],[-90.8788,46.7386],[-90.8783,46.7378],[-90.8765,46.7345],[-90.8764,46.7343],[-90.8763,46.7341],[-90.876,46.7336],[-90.8758,46.7332],[-90.8716,46.7255],[-90.8706,46.7236],[-90.8704,46.7233],[-90.8695,46.722],[-90.8686,46.7209],[-90.8685,46.7208],[-90.8683,46.7204],[-90.868,46.7201],[-90.8639,46.7145],[-90.8614,46.7112],[-90.8609,46.7106],[-90.8598,46.7091],[-90.8596,46.7088],[-90.8532,46.7003],[-90.8529,46.6999],[-90.8527,46.6996],[-90.8527,46.6994],[-90.8536,46.6945],[-90.8538,46.6936],[-90.8538,46.6935],[-90.8539,46.6934],[-90.8545,46.6928],[-90.8547,46.6927],[-90.8655,46.683],[-90.8657,46.6828],[-90.8674,46.6813],[-90.8678,46.681],[-90.868,46.6808],[-90.8684,46.6805],[-90.8685,46.6804],[-90.8701,46.6794],[-90.8705,46.6792],[-90.8707,46.6791],[-90.871,46.6789],[-90.8859,46.6704],[-90.8859,46.6704],[-90.8965,46.6673],[-90.9053,46.6648],[-90.9056,46.6647],[-90.9092,46.6637],[-90.9097,46.6635],[-90.9113,46.6631],[-90.9114,46.663],[-90.9146,46.6591],[-90.9152,46.6584],[-90.9154,46.6576],[-90.9208,46.6374],[-90.9208,46.6374],[-90.9209,46.6365],[-90.9209,46.6355],[-90.9209,46.6316],[-90.9209,46.6316],[-90.9245,46.6254],[-90.9245,46.6254],[-90.9267,46.6227],[-90.9316,46.6168],[-90.9321,46.6162],[-90.9332,46.6149],[-90.9383,46.6088],[-90.9386,46.6084],[-90.9387,46.6083],[-90.9495,46.603],[-90.9496,46.603],[-90.9502,46.6022],[-90.9505,46.6018],[-90.9514,46.6008],[-90.9515,46.6006],[-90.9515,46.5998],[-90.9515,46.597],[-90.9476,46.5935],[-90.9473,46.5933],[-90.9472,46.5931],[-90.9421,46.5886],[-90.9419,46.5884],[-90.9414,46.5883],[-90.9411,46.5882],[-90.9274,46.5851],[-90.9246,46.1546],[-91.5513,46.157],[-91.5514,46.7557],[-91.5431,46.7552],[-91.5376,46.7548],[-91.5371,46.7548],[-91.5358,46.7549],[-91.5248,46.7561],[-91.5177,46.7568],[-91.5111,46.7575],[-91.5106,46.7576],[-91.5078,46.7585],[-91.5076,46.7586],[-91.5072,46.7588],[-91.5,46.7611],[-91.4997,46.7612],[-91.4936,46.7658],[-91.493,46.7662],[-91.4925,46.7666],[-91.4924,46.7667],[-91.4917,46.7667],[-91.4891,46.767],[-91.4882,46.7671],[-91.4721,46.7687],[-91.4702,46.7689],[-91.4701,46.7689],[-91.4672,46.7695],[-91.4628,46.7705],[-91.4496,46.7733],[-91.4493,46.7733],[-91.437,46.7776],[-91.4285,46.7805],[-91.4265,46.7812],[-91.4237,46.7822],[-91.4118,46.7896],[-91.3983,46.7912],[-91.3971,46.791],[-91.397,46.791],[-91.3963,46.7909],[-91.3948,46.7907],[-91.3915,46.7902],[-91.3908,46.7903],[-91.3862,46.7911],[-91.3806,46.792],[-91.3694,46.7937],[-91.3688,46.7938],[-91.3675,46.7945],[-91.3669,46.7949],[-91.366,46.7954],[-91.3655,46.7956],[-91.3653,46.7957],[-91.3636,46.7966],[-91.3608,46.7981],[-91.3594,46.7996],[-91.3553,46.804],[-91.3522,46.8074],[-91.3383,46.8177],[-91.3376,46.818],[-91.3305,46.8207],[-91.3304,46.8207],[-91.3288,46.8214],[-91.326,46.8225],[-91.3222,46.824],[-91.321,46.8244],[-91.3151,46.8267],[-91.3148,46.8268],[-91.3071,46.829],[-91.3055,46.8294],[-91.3045,46.8297],[-91.3036,46.83],[-91.3023,46.8303],[-91.3019,46.8304],[-91.2895,46.8316],[-91.2786,46.8327],[-91.2664,46.8339],[-91.2659,46.8339],[-91.2658,46.834],[-91.2637,46.8346],[-91.2634,46.8347],[-91.2569,46.8368],[-91.2567,46.8369],[-91.2566,46.837],[-91.2508,46.8411],[-91.2495,46.8425],[-91.2377,46.8548],[-91.2353,46.8574],[-91.2327,46.86],[-91.2268,46.8636],[-91.2149,46.8661],[-91.2116,46.8668],[-91.2111,46.8667],[-91.2075,46.8658],[-91.2048,46.8597],[-91.2044,46.8588],[-91.2001,46.854],[-91.1783,46.8443],[-91.1683,46.8447],[-91.1676,46.8448],[-91.1561,46.8554],[-91.148,46.8629],[-91.1478,46.8631],[-91.1443,46.8703],[-91.1439,46.8706],[-91.1439,46.8706],[-91.1403,46.8731],[-91.1402,46.8732],[-91.1398,46.8731],[-91.1347,46.8725],[-91.1338,46.871],[-91.1333,46.8703],[-91.1337,46.8693],[-91.1342,46.8678],[-91.1347,46.8663],[-91.1349,46.8658],[-91.1365,46.861],[-91.135,46.859],[-91.1349,46.859],[-91.1347,46.8589],[-91.1235,46.8563],[-91.1231,46.8562],[-91.1185,46.8565],[-91.1073,46.8575],[-91.1055,46.8576],[-91.0988,46.8606],[-91.0983,46.8608],[-91.0981,46.8608],[-91.0975,46.8611],[-91.0966,46.8615],[-91.0963,46.863],[-91.096,46.865],[-91.0951,46.8712],[-91.0948,46.8727],[-91.0947,46.8734],[-91.0946,46.874],[-91.0945,46.8748],[-91.0941,46.8774],[-91.0937,46.8799],[-91.0909,46.8827],[-91.0887,46.8829],[-91.0851,46.8832],[-91.081,46.8836],[-91.0726,46.8801],[-91.0693,46.8788],[-91.0682,46.8783],[-91.0662,46.8787],[-91.0563,46.8807],[-91.053,46.8813],[-91.0502,46.883],[-91.0492,46.8836],[-91.0492,46.8836],[-91.043,46.8874],[-91.0399,46.8892],[-91.0366,46.8936],[-91.0362,46.8955],[-91.0359,46.8967],[-91.0345,46.9031],[-91.0334,46.9036],[-91.0325,46.9042],[-91.0306,46.9052],[-91.024,46.9088],[-91.024,46.9088],[-91.0215,46.9102],[-91.0197,46.9112],[-91.0191,46.9115],[-91.018,46.9119],[-91.018,46.9119],[-91.0162,46.9125],[-91.0162,46.9125],[-91.0107,46.9144],[-91.008,46.9153],[-91.0059,46.916],[-91.0052,46.9162],[-91.0049,46.9162],[-91.0048,46.9162],[-90.9988,46.916],[-90.9979,46.9164],[-90.9968,46.9169],[-90.9951,46.9176],[-90.987,46.9238],[-90.9858,46.9247],[-90.9846,46.9256],[-90.9832,46.9277],[-90.9802,46.9319],[-90.9738,46.9413],[-90.9684,46.9439],[-90.9649,46.9438],[-90.9641,46.9434],[-90.9546,46.9385],[-90.9545,46.9384],[-90.9539,46.9383],[-90.9537,46.9382],[-90.9406,46.9354],[-90.922,46.9314],[-90.9218,46.9313],[-90.9214,46.9314],[-90.914,46.9333],[-90.9138,46.9334],[-90.9087,46.9412],[-90.9086,46.9413],[-90.8804,46.9577],[-90.8796,46.9581],[-90.8773,46.9589],[-90.8772,46.959],[-90.8771,46.959],[-90.8768,46.9591],[-90.8765,46.9592],[-90.8762,46.9593],[-90.8762,46.9593],[-90.876,46.9594],[-90.876,46.9594],[-90.8756,46.9595],[-90.8711,46.9611],[-90.8559,46.9622],[-90.8552,46.962],[-90.8388,46.9577],[-90.838,46.9575],[-90.8377,46.9574],[-90.8376,46.9574],[-90.8331,46.9547]]]}},{"type":"Feature","id":"55009","properties":{"name":"Brown","fips":"55009"},"geometry":{"type":"Polygon","coordinates":[[[-87.9899,44.6776],[-87.9901,44.6698],[-87.9901,44.6685],[-87.999,44.6652],[-88.0003,44.6647],[-88.0021,44.664],[-88.0023,44.6634],[-88.0027,44.662],[-88.0033,44.6596],[-88.0073,44.6458],[-88.0098,44.6371],[-88.0095,44.6317],[-88.0095,44.6309],[-88.0095,44.6306],[-88.0095,44.6304],[-88.0087,44.6289],[-88.0075,44.6265],[-88.0072,44.6259],[-88.007,44.6256],[-88.0069,44.6253],[-88.0064,44.6244],[-88.0012,44.6141],[-87.9988,44.6095],[-87.9987,44.6093],[-88.0019,44.6039],[-88.0124,44.6024],[-88.0147,44.5964],[-88.0151,44.5955],[-88.0164,44.5922],[-88.0164,44.5921],[-88.0195,44.5883],[-88.0229,44.5842],[-88.0271,44.579],[-88.0281,44.5787],[-88.0345,44.5772],[-88.0361,44.5768],[-88.0361,44.5768],[-88.0391,44.5743],[-88.0395,44.574],[-88.0412,44.5726],[-88.0412,44.5726],[-88.0414,44.5718],[-88.0415,44.5712],[-88.0416,44.5708],[-88.0417,44.5703],[-88.0418,44.5697],[-88.0423,44.5673],[-88.0424,44.5666],[-88.0372,44.5627],[-88.0207,44.5505],[-88.0167,44.5475],[-88.0055,44.5392],[-88.0001,44.5378],[-87.999,44.5375],[-87.9985,44.5374],[-87.991,44.5355],[-87.9905,44.5354],[-87.9861,44.5342],[-87.9828,44.5334],[-87.9779,44.5321],[-87.9707,44.5303],[-87.9438,44.5297],[-87.94,44.5313],[-87.9357,44.5331],[-87.929,44.536],[-87.924,44.541],[-87.9175,44.5476],[-87.917,44.5481],[-87.9158,44.5496],[-87.9012,44.5689],[-87.9012,44.5689],[-87.9012,44.5689],[-87.9007,44.5701],[-87.8994,44.573],[-87.8989,44.5741],[-87.8989,44.5741],[-87.8992,44.5746],[-87.9002,44.5761],[-87.9006,44.5767],[-87.9011,44.5774],[-87.9012,44.5776],[-87.9037,44.5813],[-87.9023,44.5831],[-87.9012,44.5845],[-87.8964,44.5868],[-87.8944,44.5877],[-87.8917,44.589],[-87.8917,44.589],[-87.8909,44.5896],[-87.8874,44.5924],[-87.8679,44.6076],[-87.8669,44.6084],[-87.8422,44.6188],[-87.8374,44.6208],[-87.8361,44.6214],[-87.8308,44.6236],[-87.8292,44.6245],[-87.8234,44.6279],[-87.8201,44.6298],[-87.8091,44.6362],[-87.8088,44.6363],[-87.8084,44.6364],[-87.7882,44.6381],[-87.7752,44.6393],[-87.7658,44.642],[-87.7629,44.6441],[-87.7624,44.6445],[-87.7662,44.3272],[-87.8875,44.3276],[-87.8881,44.2405],[-88.0432,44.241],[-88.1926,44.2419],[-88.1906,44.5868],[-88.2452,44.5847],[-88.2427,44.6796],[-87.9899,44.6776]]]}},{"type":"Feature","id":"55011","properties":{"name":"Buffalo","fips":"55011"},"geometry":{"type":"Polygon","coordinates":[[[-91.5291,44.5962],[-91.5297,44.2468],[-91.613,44.1726],[-91.5342,44.096],[-91.5592,44.024],[-91.58,44.0269],[-91.5921,44.0314],[-91.6725,44.0913],[-91.7216,44.1303],[-91.7409,44.1339],[-91.8081,44.1593],[-91.8629,44.193],[-91.8752,44.2006],[-91.8927,44.2311],[-91.893,44.2351],[-91.8879,44.2464],[-91.8872,44.2525],[-91.9186,44.3227],[-91.9256,44.3335],[-91.9636,44.3621],[-91.9725,44.3668],[-92.0463,44.3944],[-92.0839,44.4062],[-92.0292,44.5863],[-91.6502,44.5966],[-91.5291,44.5962]]]}},{"type":"Feature","id":"55013","properties":{"name":"Burnett","fips":"55013"},"geometry":{"type":"Polygon","coordinates":[[[-92.8857,45.6441],[-92.884,45.6549],[-92.8692,45.7176],[-92.8637,45.7218],[-92.8411,45.73],[-92.804,45.7498],[-92.7846,45.7642],[-92.7684,45.798],[-92.7625,45.8192],[-92.734,45.8681],[-92.7211,45.8838],[-92.7077,45.8949],[-92.6561,45.9244],[-92.4433,46.0146],[-92.3269,46.0666],[-92.3068,46.0724],[-92.294,46.0744],[-92.2941,46.0783],[-92.2935,46.1138],[-92.2937,46.1573],[-92.0496,46.1576],[-92.0334,45.9839],[-92.0314,45.6399],[-92.1549,45.6397],[-92.1544,45.7256],[-92.5282,45.7287],[-92.5291,45.6422],[-92.8857,45.6441]]]}},{"type":"Feature","id":"55015","properties":{"name":"Calumet","fips":"55015"},"geometry":{"type":"Polygon","coordinates":[[[-88.4041,44.2441],[-88.3545,44.2439],[-88.3513,44.2438],[-88.3463,44.2437],[-88.304,44.2433],[-88.1926,44.2419],[-88.0432,44.241],[-88.0418,43.8917],[-88.1623,43.8915],[-88.1617,43.9377],[-88.3149,43.9377],[-88.4042,43.9382],[-88.4044,44.2093],[-88.404,44.2269],[-88.4041,44.2441]]]}},{"type":"Feature","id":"55017","properties":{"name":"Chippewa","fips":"55017"},"geometry":{"type":"Polygon","coordinates":[[[-90.9234,45.0311],[-90.9228,45.0],[-90.9234,44.9955],[-90.9224,44.9548],[-90.9227,44.9445],[-90.9222,44.8573],[-91.6505,44.856],[-91.6656,45.208],[-91.5422,45.2065],[-91.5413,45.292],[-90.9252,45.292],[-90.9234,45.0311]]]}},{"type":"Feature","id":"55019","properties":{"name":"Clark","fips":"55019"},"geometry":{"type":"Polygon","coordinates":[[[-90.3159,44.8442],[-90.3162,44.8408],[-90.3163,44.6852],[-90.3161,44.4247],[-90.8019,44.4223],[-90.8019,44.5096],[-90.9231,44.5098],[-90.9223,44.5963],[-90.9222,44.8573],[-90.9227,44.9445],[-90.9224,44.9548],[-90.9234,44.9955],[-90.9228,45.0],[-90.9234,45.0311],[-90.315,45.0338],[-90.3159,44.8442]]]}},{"type":"Feature","id":"55021","properties":{"name":"Columbia","fips":"55021"},"geometry":{"type":"Polygon","coordinates":[[[-89.7203,43.2929],[-89.7272,43.3013],[-89.7168,43.3218],[-89.6007,43.38],[-89.5994,43.558],[-89.7322,43.5718],[-89.7858,43.641],[-89.6,43.6426],[-89.2454,43.6431],[-89.0068,43.633],[-89.0091,43.2848],[-89.7203,43.2929]]]}},{"type":"Feature","id":"55023","properties":{"name":"Crawford","fips":"55023"},"geometry":{"type":"Polygon","coordinates":[[[-90.6668,43.1718],[-90.8457,43.0776],[-91.0653,42.9921],[-91.1631,42.9868],[-91.1752,43.0413],[-91.1781,43.062],[-91.1772,43.0802],[-91.1783,43.125],[-91.1753,43.1347],[-91.1562,43.1429],[-91.1462,43.1524],[-91.0626,43.2432],[-91.0579,43.2554],[-91.0857,43.2919],[-91.1072,43.3136],[-91.2102,43.3721],[-91.2056,43.4229],[-90.6686,43.423],[-90.6668,43.1718]]]}},{"type":"Feature","id":"55025","properties":{"name":"Dane","fips":"55025"},"geometry":{"type":"Polygon","coordinates":[[[-89.3691,42.845],[-89.3691,42.8565],[-89.8382,42.8574],[-89.8381,43.2061],[-89.7203,43.2929],[-89.0091,43.2848],[-89.0089,43.1977],[-89.0135,42.8473],[-89.3691,42.845]]]}},{"type":"Feature","id":"55027","properties":{"name":"Dodge","fips":"55027"},"geometry":{"type":"Polygon","coordinates":[[[-88.8321,43.1979],[-89.0089,43.1977],[-89.0091,43.2848],[-89.0068,43.633],[-88.8861,43.6335],[-88.401,43.6309],[-88.4004,43.5435],[-88.418,43.1947],[-88.5358,43.196],[-88.8321,43.1979]]]}},{"type":"Feature","id":"55029","properties":{"name":"Door","fips":"55029"},"geometry":{"type":"MultiPolygon","coordinates":[[[[-86.946,45.4077],[-86.943,45.4153],[-86.9429,45.4154],[-86.9412,45.4171],[-86.9374,45.421],[-86.9362,45.421],[-86.9347,45.4211],[-86.9343,45.4211],[-86.9341,45.421],[-86.9305,45.4175],[-86.929,45.4138],[-86.9282,45.4118],[-86.928,45.4113],[-86.9278,45.4112],[-86.9177,45.4079],[-86.914,45.4081],[-86.9097,45.4082],[-86.9027,45.4085],[-86.898,45.4088],[-86.8929,45.409],[-86.8834,45.4121],[-86.8806,45.413],[-86.8775,45.414],[-86.865,45.4125],[-86.8622,45.4122],[-86.8615,45.4121],[-86.8613,45.4119],[-86.8599,45.4109],[-86.856,45.4078],[-86.8531,45.4055],[-86.8531,45.4056],[-86.8304,45.4109],[-86.8303,45.411],[-86.8297,45.4137],[-86.8294,45.4155],[-86.8291,45.4165],[-86.8299,45.4206],[-86.8301,45.4218],[-86.8302,45.4221],[-86.8309,45.426],[-86.8308,45.4262],[-86.8287,45.4285],[-86.8287,45.4285],[-86.8281,45.4285],[-86.8218,45.4276],[-86.8171,45.427],[-86.8167,45.4268],[-86.8155,45.426],[-86.8101,45.4226],[-86.8099,45.4223],[-86.806,45.4132],[-86.8059,45.4129],[-86.8058,45.4126],[-86.8058,45.4117],[-86.8057,45.4102],[-86.8054,45.4073],[-86.8083,45.4061],[-86.8087,45.4061],[-86.815,45.4075],[-86.8159,45.4077],[-86.8171,45.4079],[-86.8181,45.4081],[-86.8195,45.4077],[-86.8221,45.4069],[-86.8244,45.4061],[-86.8247,45.4058],[-86.8375,45.3934],[-86.8414,45.3896],[-86.8531,45.3709],[-86.8532,45.3708],[-86.8573,45.3685],[-86.8584,45.3678],[-86.8634,45.365],[-86.8636,45.3649],[-86.8636,45.3648],[-86.8637,45.3645],[-86.8637,45.3644],[-86.8643,45.3628],[-86.8677,45.3531],[-86.8677,45.3529],[-86.8662,45.345],[-86.8661,45.3444],[-86.8655,45.3411],[-86.8655,45.341],[-86.8656,45.3407],[-86.8661,45.3398],[-86.869,45.3332],[-86.869,45.3332],[-86.8695,45.333],[-86.8723,45.332],[-86.8747,45.331],[-86.8748,45.331],[-86.8751,45.3309],[-86.8794,45.3313],[-86.8806,45.3315],[-86.8878,45.3323],[-86.8951,45.329],[-86.8995,45.3226],[-86.8967,45.3073],[-86.8969,45.2985],[-86.8969,45.2983],[-86.8999,45.2952],[-86.9006,45.2954],[-86.9016,45.2957],[-86.9044,45.2967],[-86.9049,45.2968],[-86.914,45.3121],[-86.9257,45.3242],[-86.9374,45.3331],[-86.9407,45.3338],[-86.9411,45.3338],[-86.9468,45.335],[-86.9469,45.3351],[-86.9481,45.3353],[-86.9515,45.3383],[-86.955,45.3413],[-86.9555,45.3417],[-86.9556,45.3418],[-86.9557,45.3419],[-86.9561,45.3422],[-86.9561,45.3423],[-86.9561,45.3438],[-86.9562,45.3512],[-86.9562,45.352],[-86.9544,45.3537],[-86.9534,45.3547],[-86.9534,45.3547],[-86.9483,45.3557],[-86.9463,45.3587],[-86.9465,45.3598],[-86.9465,45.36],[-86.9468,45.3618],[-86.9471,45.3641],[-86.9475,45.3664],[-86.9476,45.3666],[-86.9477,45.3668],[-86.9487,45.3692],[-86.9487,45.3692],[-86.9488,45.3693],[-86.955,45.3832],[-86.9552,45.3837],[-86.9543,45.386],[-86.9538,45.3874],[-86.9519,45.3924],[-86.9512,45.3942],[-86.9473,45.4041],[-86.9471,45.4048],[-86.9468,45.4054],[-86.946,45.4077]]],[[[-87.7361,44.677],[-87.7337,44.6789],[-87.7298,44.682],[-87.7198,44.6932],[-87.7184,44.7078],[-87.7184,44.7078],[-87.7184,44.7079],[-87.7202,44.7138],[-87.7206,44.715],[-87.7218,44.719],[-87.7213,44.7224],[-87.7211,44.7235],[-87.7209,44.7245],[-87.7203,44.7251],[-87.7144,44.7304],[-87.7059,44.7382],[-87.7057,44.7384],[-87.7047,44.7396],[-87.7036,44.7409],[-87.701,44.7439],[-87.7008,44.7442],[-87.7005,44.7444],[-87.6987,44.7467],[-87.6986,44.7467],[-87.6982,44.7471],[-87.6982,44.7472],[-87.6882,44.7589],[-87.6875,44.7596],[-87.6797,44.767],[-87.6784,44.7682],[-87.678,44.7686],[-87.6621,44.7838],[-87.6478,44.7973],[-87.6463,44.7987],[-87.6452,44.8005],[-87.6446,44.8014],[-87.6446,44.8014],[-87.6445,44.8016],[-87.6371,44.8136],[-87.6354,44.8151],[-87.6353,44.8153],[-87.6345,44.816],[-87.6344,44.8161],[-87.6344,44.8161],[-87.6341,44.8164],[-87.6334,44.817],[-87.633,44.8174],[-87.6329,44.8174],[-87.6327,44.8176],[-87.622,44.8274],[-87.6164,44.8326],[-87.6162,44.8327],[-87.6119,44.8367],[-87.6111,44.8374],[-87.6102,44.8382],[-87.6101,44.8384],[-87.61,44.8384],[-87.6098,44.8385],[-87.5816,44.8516],[-87.5813,44.8518],[-87.5732,44.8531],[-87.5709,44.8529],[-87.5602,44.8521],[-87.5503,44.8513],[-87.55,44.8514],[-87.5347,44.8563],[-87.531,44.8574],[-87.5308,44.8576],[-87.5151,44.8696],[-87.5146,44.8694],[-87.5138,44.8691],[-87.5134,44.8689],[-87.5121,44.8684],[-87.5049,44.8656],[-87.5044,44.8654],[-87.5043,44.8654],[-87.5024,44.8646],[-87.5016,44.8643],[-87.4991,44.8642],[-87.4785,44.8636],[-87.4726,44.8677],[-87.4567,44.8789],[-87.4413,44.8897],[-87.4371,44.8927],[-87.4331,44.8927],[-87.433,44.8927],[-87.4281,44.8907],[-87.421,44.8879],[-87.4203,44.8876],[-87.4191,44.8854],[-87.4191,44.8853],[-87.4191,44.8851],[-87.42,44.8759],[-87.4193,44.875],[-87.4109,44.8633],[-87.41,44.862],[-87.4088,44.8615],[-87.4057,44.8601],[-87.4055,44.86],[-87.3848,44.8655],[-87.3846,44.8693],[-87.3839,44.8811],[-87.3838,44.8817],[-87.3838,44.8818],[-87.3837,44.8845],[-87.3837,44.8847],[-87.3836,44.8851],[-87.3854,44.89],[-87.3861,44.8907],[-87.3864,44.891],[-87.3864,44.891],[-87.3865,44.8911],[-87.3906,44.8953],[-87.3907,44.8954],[-87.3908,44.8955],[-87.3911,44.8958],[-87.392,44.8967],[-87.3923,44.897],[-87.3934,44.8982],[-87.397,44.9],[-87.3972,44.9001],[-87.3974,44.9001],[-87.4005,44.9017],[-87.4019,44.9024],[-87.4062,44.9045],[-87.4054,44.9096],[-87.405,44.9118],[-87.3984,44.9252],[-87.3938,44.9338],[-87.3937,44.9339],[-87.3934,44.9344],[-87.3931,44.9347],[-87.389,44.938],[-87.3873,44.9394],[-87.3851,44.9424],[-87.3847,44.943],[-87.3824,44.9461],[-87.3748,44.9566],[-87.373,44.9604],[-87.3726,44.9613],[-87.3726,44.9614],[-87.3719,44.9629],[-87.3701,44.9667],[-87.3635,44.9808],[-87.3603,44.9876],[-87.3515,44.9972],[-87.3451,45.0042],[-87.3365,45.0134],[-87.3365,45.0135],[-87.3221,45.0342],[-87.322,45.0343],[-87.3159,45.0401],[-87.3074,45.0481],[-87.3035,45.0518],[-87.3034,45.0519],[-87.3031,45.0521],[-87.3028,45.0524],[-87.3025,45.0527],[-87.3009,45.0536],[-87.3007,45.0537],[-87.3001,45.0541],[-87.2843,45.0637],[-87.2842,45.0638],[-87.2692,45.0774],[-87.2687,45.0778],[-87.2687,45.0779],[-87.2649,45.0814],[-87.2606,45.0924],[-87.2605,45.0926],[-87.2606,45.106],[-87.2574,45.1216],[-87.2541,45.1263],[-87.2505,45.1313],[-87.2408,45.1376],[-87.2403,45.1379],[-87.2423,45.1468],[-87.2429,45.1494],[-87.2384,45.1665],[-87.2382,45.1672],[-87.2382,45.1673],[-87.2382,45.1673],[-87.2319,45.1723],[-87.2312,45.1729],[-87.2241,45.1746],[-87.2223,45.175],[-87.222,45.175],[-87.2217,45.1747],[-87.2209,45.1738],[-87.2144,45.1657],[-87.2135,45.1656],[-87.208,45.1649],[-87.2004,45.1638],[-87.1959,45.1632],[-87.1952,45.1631],[-87.1752,45.173],[-87.1751,45.1731],[-87.1737,45.1748],[-87.1713,45.1781],[-87.1712,45.1782],[-87.1703,45.1795],[-87.1701,45.1797],[-87.1683,45.1821],[-87.1683,45.1822],[-87.1672,45.1836],[-87.1632,45.1853],[-87.1477,45.1907],[-87.1477,45.1907],[-87.1427,45.1914],[-87.133,45.1928],[-87.1329,45.1928],[-87.1298,45.1918],[-87.1286,45.1914],[-87.1245,45.1902],[-87.1237,45.1899],[-87.12,45.1911],[-87.12,45.1911],[-87.12,45.1912],[-87.1199,45.1923],[-87.1199,45.1924],[-87.1199,45.1931],[-87.1199,45.1932],[-87.1199,45.1935],[-87.1199,45.1936],[-87.1199,45.1937],[-87.1199,45.1938],[-87.1198,45.1948],[-87.1198,45.1949],[-87.1198,45.1959],[-87.1198,45.196],[-87.1198,45.1963],[-87.1195,45.2022],[-87.1195,45.2025],[-87.1195,45.2028],[-87.1194,45.2052],[-87.1194,45.2054],[-87.1195,45.2055],[-87.1197,45.2059],[-87.1215,45.2096],[-87.1216,45.2097],[-87.1216,45.2098],[-87.1221,45.2151],[-87.1222,45.2162],[-87.1222,45.2165],[-87.1222,45.2168],[-87.1224,45.218],[-87.1227,45.2218],[-87.1228,45.223],[-87.1217,45.2263],[-87.1213,45.2274],[-87.1213,45.2275],[-87.1174,45.2387],[-87.1165,45.2415],[-87.1164,45.2415],[-87.1095,45.2554],[-87.109,45.2565],[-87.1087,45.257],[-87.1084,45.2571],[-87.1017,45.259],[-87.0783,45.2657],[-87.071,45.2804],[-87.0708,45.2805],[-87.0576,45.2928],[-87.0534,45.2879],[-87.0529,45.2873],[-87.0529,45.2873],[-87.052,45.2862],[-87.0517,45.2859],[-87.0508,45.2858],[-87.0487,45.2855],[-87.0439,45.2848],[-87.0437,45.2848],[-87.0435,45.2849],[-87.0431,45.285],[-87.0415,45.2855],[-87.0342,45.2878],[-87.0341,45.2878],[-87.0211,45.2965],[-87.017,45.2993],[-87.0158,45.2992],[-86.9941,45.2981],[-86.9935,45.2979],[-86.9932,45.2978],[-86.9842,45.2956],[-86.9839,45.2955],[-86.9834,45.2954],[-86.9832,45.2953],[-86.9801,45.2926],[-86.9778,45.2907],[-86.9777,45.2906],[-86.9704,45.2785],[-86.9728,45.2746],[-86.9732,45.2739],[-86.9743,45.2721],[-86.9745,45.2718],[-86.9746,45.2718],[-86.9774,45.2697],[-86.9836,45.265],[-86.9844,45.2644],[-86.9845,45.2634],[-86.9849,45.259],[-86.985,45.2587],[-86.9842,45.2553],[-86.9831,45.2508],[-86.9827,45.2491],[-86.9824,45.249],[-86.9767,45.2461],[-86.9733,45.2464],[-86.973,45.2464],[-86.9735,45.245],[-86.9735,45.2449],[-86.9735,45.2449],[-86.9737,45.2443],[-86.9741,45.2429],[-86.9787,45.2275],[-86.9788,45.2273],[-86.9811,45.2236],[-86.982,45.2223],[-86.983,45.2206],[-86.9837,45.2195],[-86.986,45.2159],[-86.9881,45.2154],[-86.9958,45.2135],[-86.9973,45.2131],[-87.0001,45.2124],[-87.0028,45.2118],[-87.0052,45.2136],[-87.0054,45.2137],[-87.0055,45.2141],[-87.0075,45.2221],[-87.0076,45.2221],[-87.0325,45.2223],[-87.0325,45.2223],[-87.0326,45.2222],[-87.0345,45.2197],[-87.0409,45.2115],[-87.0409,45.2114],[-87.0411,45.2104],[-87.0411,45.2103],[-87.0411,45.2101],[-87.0459,45.1739],[-87.0459,45.1735],[-87.0457,45.1694],[-87.0457,45.169],[-87.0457,45.1689],[-87.0457,45.1684],[-87.0455,45.1643],[-87.0452,45.1588],[-87.0452,45.1584],[-87.0442,45.1576],[-87.0411,45.1554],[-87.0385,45.1534],[-87.0367,45.1521],[-87.0341,45.1502],[-87.0302,45.1474],[-87.0292,45.1466],[-87.029,45.1465],[-87.0288,45.1464],[-87.029,45.1463],[-87.0301,45.145],[-87.0301,45.145],[-87.0312,45.1439],[-87.0313,45.1437],[-87.0322,45.1427],[-87.0323,45.1426],[-87.0325,45.1425],[-87.0329,45.142],[-87.0331,45.1418],[-87.0331,45.1418],[-87.0335,45.1415],[-87.0336,45.1415],[-87.0346,45.1409],[-87.0347,45.1409],[-87.0355,45.1405],[-87.0358,45.1403],[-87.0402,45.138],[-87.0416,45.1372],[-87.0421,45.1369],[-87.0423,45.1368],[-87.0457,45.135],[-87.0543,45.1201],[-87.0543,45.12],[-87.051,45.1162],[-87.0507,45.1151],[-87.0493,45.1101],[-87.0493,45.1098],[-87.0492,45.1097],[-87.049,45.1087],[-87.0489,45.1077],[-87.0484,45.0943],[-87.0483,45.0926],[-87.0482,45.0891],[-87.0484,45.0891],[-87.0508,45.0887],[-87.0574,45.0875],[-87.0574,45.0875],[-87.0583,45.0863],[-87.062,45.081],[-87.0631,45.0794],[-87.0632,45.0793],[-87.0634,45.0792],[-87.0649,45.0784],[-87.0796,45.0708],[-87.0796,45.0708],[-87.0803,45.0672],[-87.0808,45.0647],[-87.0819,45.0591],[-87.0824,45.0589],[-87.0864,45.0573],[-87.0908,45.0555],[-87.0916,45.0551],[-87.0918,45.0552],[-87.0922,45.0552],[-87.0964,45.0557],[-87.0975,45.0558],[-87.1212,45.0583],[-87.1247,45.0529],[-87.1247,45.0508],[-87.1247,45.0503],[-87.1247,45.0493],[-87.1247,45.0486],[-87.1248,45.0441],[-87.1248,45.0433],[-87.1248,45.0422],[-87.1323,45.0269],[-87.1344,45.0228],[-87.138,45.0153],[-87.1394,45.0126],[-87.141,45.0122],[-87.1541,45.0091],[-87.1635,45.0049],[-87.1635,45.0049],[-87.1636,45.0048],[-87.1675,44.9997],[-87.168,44.9991],[-87.1695,44.9971],[-87.1697,44.9969],[-87.1697,44.9968],[-87.1814,44.9815],[-87.1819,44.9809],[-87.1829,44.9792],[-87.1876,44.9716],[-87.1891,44.9691],[-87.1894,44.9686],[-87.1894,44.9685],[-87.1894,44.9682],[-87.1886,44.9522],[-87.1884,44.9486],[-87.1884,44.9481],[-87.1881,44.9479],[-87.18,44.9428],[-87.1752,44.9398],[-87.1717,44.9315],[-87.1749,44.9277],[-87.1824,44.9263],[-87.1859,44.9256],[-87.1867,44.9255],[-87.188,44.9248],[-87.2042,44.9168],[-87.2158,44.9067],[-87.216,44.9066],[-87.2161,44.906],[-87.2161,44.9059],[-87.2161,44.9054],[-87.2172,44.898],[-87.2172,44.8978],[-87.2171,44.8978],[-87.2167,44.8973],[-87.2126,44.8928],[-87.2093,44.8892],[-87.2063,44.8859],[-87.2062,44.8853],[-87.2048,44.8772],[-87.2048,44.8772],[-87.2045,44.8756],[-87.2049,44.8754],[-87.2114,44.8725],[-87.2249,44.8663],[-87.2462,44.8566],[-87.2671,44.847],[-87.2674,44.8469],[-87.2676,44.8467],[-87.2748,44.8352],[-87.276,44.8332],[-87.2826,44.8147],[-87.2949,44.8091],[-87.3048,44.8046],[-87.3075,44.8014],[-87.3134,44.7942],[-87.3137,44.7938],[-87.3138,44.7938],[-87.3139,44.7936],[-87.3142,44.7931],[-87.3158,44.791],[-87.3204,44.785],[-87.3198,44.7792],[-87.3192,44.7731],[-87.319,44.7718],[-87.319,44.7716],[-87.319,44.7713],[-87.3199,44.7697],[-87.3209,44.768],[-87.3376,44.7378],[-87.3392,44.7328],[-87.3399,44.7305],[-87.3412,44.7264],[-87.3415,44.7255],[-87.3435,44.7192],[-87.3481,44.7115],[-87.3496,44.709],[-87.3538,44.7019],[-87.3542,44.7014],[-87.3542,44.7013],[-87.3611,44.6929],[-87.368,44.6845],[-87.3683,44.6841],[-87.3732,44.6756],[-87.3751,44.6756],[-87.7361,44.677]]]]}},{"type":"Feature","id":"55031","properties":{"name":"Douglas","fips":"55031"},"geometry":{"type":"Polygon","coordinates":[[[-92.2124,46.6499],[-92.2071,46.6519],[-92.2023,46.655],[-92.1971,46.6634],[-92.1915,46.6726],[-92.1911,46.6733],[-92.1876,46.6789],[-92.1878,46.6902],[-92.1934,46.6952],[-92.1941,46.6966],[-92.1946,46.6977],[-92.1966,46.7021],[-92.1964,46.7029],[-92.1963,46.704],[-92.1953,46.7096],[-92.1891,46.7175],[-92.173,46.7244],[-92.1704,46.7256],[-92.1166,46.7486],[-92.0895,46.7492],[-92.034,46.7089],[-92.0247,46.7056],[-92.0203,46.704],[-92.0153,46.7065],[-92.008,46.705],[-91.9879,46.6927],[-91.9734,46.6864],[-91.9619,46.6825],[-91.943,46.6799],[-91.9303,46.6823],[-91.887,46.6902],[-91.8787,46.6908],[-91.8774,46.6909],[-91.8762,46.691],[-91.8748,46.6911],[-91.8666,46.6917],[-91.8645,46.6919],[-91.8575,46.6924],[-91.8403,46.6897],[-91.8314,46.6899],[-91.82,46.6902],[-91.8172,46.6906],[-91.8171,46.6906],[-91.8147,46.691],[-91.8,46.6932],[-91.7985,46.6934],[-91.7905,46.6946],[-91.7901,46.6947],[-91.7819,46.6976],[-91.7586,46.7059],[-91.7497,46.7091],[-91.7488,46.7093],[-91.7356,46.7126],[-91.677,46.727],[-91.6756,46.7273],[-91.6675,46.7293],[-91.6624,46.7306],[-91.6607,46.731],[-91.6587,46.7315],[-91.6529,46.7329],[-91.6461,46.7346],[-91.6455,46.7347],[-91.6369,46.7378],[-91.636,46.7381],[-91.636,46.7381],[-91.6352,46.7384],[-91.6351,46.7384],[-91.6254,46.7419],[-91.5934,46.7533],[-91.5927,46.7536],[-91.5922,46.7538],[-91.5907,46.7543],[-91.5766,46.757],[-91.5743,46.7575],[-91.574,46.7575],[-91.5714,46.7573],[-91.5691,46.7571],[-91.5575,46.7562],[-91.5514,46.7557],[-91.5514,46.7557],[-91.5513,46.157],[-92.0496,46.1576],[-92.2937,46.1573],[-92.2937,46.1668],[-92.2939,46.1801],[-92.2936,46.2246],[-92.2936,46.244],[-92.2931,46.2951],[-92.293,46.298],[-92.2928,46.3043],[-92.2928,46.3071],[-92.2929,46.3138],[-92.2928,46.3146],[-92.2928,46.3193],[-92.293,46.3219],[-92.2929,46.4172],[-92.2928,46.4209],[-92.2927,46.432],[-92.2925,46.4788],[-92.2924,46.4956],[-92.2916,46.6046],[-92.2916,46.6249],[-92.2922,46.6632],[-92.2772,46.6556],[-92.2764,46.6552],[-92.2745,46.6542],[-92.2699,46.6519],[-92.2645,46.6514],[-92.2625,46.6512],[-92.2567,46.6506],[-92.2544,46.6504],[-92.2509,46.6501],[-92.2425,46.6492],[-92.2348,46.6494],[-92.2326,46.6495],[-92.2319,46.6495],[-92.2282,46.6496],[-92.2223,46.6497],[-92.2217,46.6497],[-92.2124,46.6499]]]}},{"type":"Feature","id":"55033","properties":{"name":"Dunn","fips":"55033"},"geometry":{"type":"Polygon","coordinates":[[[-92.1363,44.8578],[-92.1361,45.1214],[-92.1565,45.2096],[-91.6656,45.208],[-91.6505,44.856],[-91.6504,44.6836],[-92.1352,44.6844],[-92.1363,44.8578]]]}},{"type":"Feature","id":"55035","properties":{"name":"Eau Claire","fips":"55035"},"geometry":{"type":"Polygon","coordinates":[[[-91.1656,44.597],[-91.5291,44.5962],[-91.6502,44.5966],[-91.6503,44.623],[-91.6505,44.625],[-91.6504,44.6836],[-91.6505,44.856],[-90.9222,44.8573],[-90.9223,44.5963],[-91.1656,44.597]]]}},{"type":"Feature","id":"55037","properties":{"name":"Florence","fips":"55037"},"geometry":{"type":"Polygon","coordinates":[[[-88.4253,45.7224],[-88.676,45.7228],[-88.6832,46.0146],[-88.6791,46.0135],[-88.6746,46.0106],[-88.6701,46.0],[-88.6709,46.0],[-88.6661,45.9882],[-88.6375,45.985],[-88.6164,45.9877],[-88.6131,45.9906],[-88.5324,46.0212],[-88.5072,46.0183],[-88.5001,46.0005],[-88.4974,45.9951],[-88.4896,45.9914],[-88.4234,45.9819],[-88.3764,45.9895],[-88.2956,45.9515],[-88.2501,45.9631],[-88.2445,45.9521],[-88.2397,45.949],[-88.2112,45.9445],[-88.2022,45.9496],[-88.1755,45.9449],[-88.1394,45.9299],[-88.1185,45.9186],[-88.1026,45.9099],[-88.0739,45.8756],[-88.0731,45.872],[-88.0888,45.8559],[-88.1066,45.8411],[-88.1143,45.8379],[-88.1336,45.8231],[-88.1361,45.819],[-88.1304,45.81],[-88.094,45.7857],[-88.0721,45.7803],[-88.0583,45.7807],[-88.0592,45.7131],[-88.4253,45.7224]]]}},{"type":"Feature","id":"55039","properties":{"name":"Fond du Lac","fips":"55039"},"geometry":{"type":"Polygon","coordinates":[[[-88.4676,43.8934],[-88.4032,43.893],[-88.4042,43.9382],[-88.3149,43.9377],[-88.1617,43.9377],[-88.1623,43.8915],[-88.1609,43.5429],[-88.4004,43.5435],[-88.401,43.6309],[-88.8861,43.6335],[-88.8857,43.8952],[-88.4676,43.8934]]]}},{"type":"Feature","id":"55041","properties":{"name":"Forest","fips":"55041"},"geometry":{"type":"Polygon","coordinates":[[[-89.0463,45.4648],[-89.0468,45.6375],[-89.0472,45.6408],[-89.0475,45.8954],[-89.0476,45.9822],[-88.9336,45.9821],[-88.9326,46.0736],[-88.8503,46.0403],[-88.8485,46.0389],[-88.8406,46.0311],[-88.8156,46.0223],[-88.7697,46.019],[-88.74,46.0273],[-88.7307,46.0265],[-88.6832,46.0146],[-88.676,45.7228],[-88.4253,45.7224],[-88.4281,45.377],[-88.6778,45.3787],[-88.926,45.3786],[-88.9231,45.4651],[-89.0463,45.4648]]]}},{"type":"Feature","id":"55043","properties":{"name":"Grant","fips":"55043"},"geometry":{"type":"Polygon","coordinates":[[[-90.9492,42.6856],[-90.9763,42.696],[-91.0537,42.7382],[-91.0649,42.7573],[-91.0695,42.7696],[-91.0776,42.8038],[-91.1006,42.8831],[-91.1174,42.8958],[-91.1434,42.9047],[-91.1456,42.908],[-91.1631,42.9868],[-91.0653,42.9921],[-90.8457,43.0776],[-90.6668,43.1718],[-90.5454,43.2115],[-90.4298,43.2009],[-90.4269,42.8129],[-90.4264,42.5071],[-90.437,42.5071],[-90.475,42.5075],[-90.4794,42.5074],[-90.4917,42.5076],[-90.5323,42.5076],[-90.5443,42.5077],[-90.5448,42.5077],[-90.5512,42.5077],[-90.5559,42.5075],[-90.5654,42.5076],[-90.6146,42.5081],[-90.6177,42.5081],[-90.6409,42.5083],[-90.6369,42.5132],[-90.6367,42.5187],[-90.6456,42.5441],[-90.7027,42.6308],[-90.7092,42.6361],[-90.7202,42.6408],[-90.7695,42.6514],[-90.8439,42.6631],[-90.897,42.6744],[-90.9492,42.6856]]]}},{"type":"Feature","id":"55045","properties":{"name":"Green","fips":"55045"},"geometry":{"type":"Polygon","coordinates":[[[-89.8382,42.8574],[-89.3691,42.8565],[-89.3691,42.845],[-89.366,42.5003],[-89.4014,42.5004],[-89.4014,42.5004],[-89.421,42.5006],[-89.4226,42.5007],[-89.4239,42.5008],[-89.4252,42.5007],[-89.4843,42.5014],[-89.4926,42.5015],[-89.4932,42.5015],[-89.5225,42.5019],[-89.5644,42.5026],[-89.5948,42.5035],[-89.6,42.5037],[-89.6035,42.5036],[-89.6134,42.5039],[-89.6442,42.5045],[-89.6503,42.5046],[-89.6676,42.505],[-89.6901,42.5052],[-89.6935,42.5051],[-89.7424,42.5054],[-89.7696,42.5053],[-89.7803,42.5053],[-89.794,42.5055],[-89.7997,42.5054],[-89.8019,42.5054],[-89.8376,42.5055],[-89.8384,42.8138],[-89.8382,42.8574]]]}},{"type":"Feature","id":"55047","properties":{"name":"Green Lake","fips":"55047"},"geometry":{"type":"Polygon","coordinates":[[[-89.0068,43.633],[-89.2454,43.6431],[-89.2455,43.7664],[-89.1983,43.8127],[-89.1686,43.9828],[-88.8862,43.9832],[-88.8857,43.8952],[-88.8861,43.6335],[-89.0068,43.633]]]}},{"type":"Feature","id":"55049","properties":{"name":"Iowa","fips":"55049"},"geometry":{"type":"Polygon","coordinates":[[[-89.8384,42.8138],[-90.4269,42.8129],[-90.4298,43.2009],[-90.2925,43.2069],[-90.1938,43.1645],[-89.8381,43.2061],[-89.8382,42.8574],[-89.8384,42.8138]]]}},{"type":"Feature","id":"55051","properties":{"name":"Iron","fips":"55051"},"geometry":{"type":"Polygon","coordinates":[[[-90.5496,46.5841],[-90.5383,46.5812],[-90.538,46.5811],[-90.5378,46.5811],[-90.5278,46.5859],[-90.5258,46.5868],[-90.5255,46.5869],[-90.5253,46.5869],[-90.5227,46.5873],[-90.5191,46.5878],[-90.519,46.5878],[-90.5185,46.5879],[-90.5059,46.5896],[-90.4974,46.5855],[-90.4788,46.5766],[-90.4785,46.5764],[-90.4765,46.5755],[-90.4763,46.5754],[-90.476,46.5753],[-90.4738,46.5742],[-90.4725,46.5737],[-90.4401,46.5624],[-90.4382,46.5617],[-90.4376,46.5615],[-90.4375,46.5615],[-90.4365,46.5617],[-90.4363,46.5618],[-90.4348,46.5622],[-90.4334,46.5625],[-90.4181,46.5661],[-90.4146,46.5573],[-90.4145,46.5573],[-90.4004,46.5444],[-90.4,46.5444],[-90.3745,46.5392],[-90.3577,46.5403],[-90.3139,46.5162],[-90.3138,46.5162],[-90.3077,46.5184],[-90.2845,46.5187],[-90.2046,46.479],[-90.1779,46.4405],[-90.1669,46.4399],[-90.1669,46.4393],[-90.1347,46.375],[-90.1347,46.3749],[-90.1198,46.3597],[-90.1197,46.3598],[-90.1205,46.3369],[-89.9291,46.3001],[-89.9288,45.982],[-90.044,45.9819],[-90.3021,45.9813],[-90.3031,46.1548],[-90.4263,46.154],[-90.426,46.2405],[-90.5522,46.2409],[-90.5496,46.5841]]]}},{"type":"Feature","id":"55053","properties":{"name":"Jackson","fips":"55053"},"geometry":{"type":"Polygon","coordinates":[[[-91.1518,44.0797],[-91.1658,44.2474],[-91.1656,44.597],[-90.9223,44.5963],[-90.9231,44.5098],[-90.8019,44.5096],[-90.8019,44.4223],[-90.3161,44.4247],[-90.312,44.2488],[-90.3126,44.2409],[-90.3126,44.1553],[-90.9062,44.1583],[-90.9728,44.0708],[-91.1518,44.0797]]]}},{"type":"Feature","id":"55055","properties":{"name":"Jefferson","fips":"55055"},"geometry":{"type":"Polygon","coordinates":[[[-88.5396,43.1076],[-88.542,42.9309],[-88.5415,42.843],[-88.6593,42.8425],[-88.708,42.8427],[-88.7717,42.8428],[-88.7771,42.8427],[-89.0135,42.8473],[-89.0089,43.1977],[-88.8321,43.1979],[-88.5358,43.196],[-88.5396,43.1076]]]}},{"type":"Feature","id":"55057","properties":{"name":"Juneau","fips":"55057"},"geometry":{"type":"Polygon","coordinates":[[[-89.7858,43.641],[-89.8234,43.641],[-89.8244,43.6411],[-89.8259,43.641],[-89.8318,43.6411],[-89.8356,43.6409],[-89.8381,43.6409],[-90.3124,43.641],[-90.3122,43.7313],[-90.3126,44.1553],[-90.3126,44.2409],[-90.312,44.2488],[-89.9026,44.2495],[-89.9258,44.1927],[-89.9033,44.1787],[-90.0288,44.0902],[-89.9689,43.9941],[-89.9581,43.8599],[-89.8655,43.7832],[-89.7858,43.641]]]}},{"type":"Feature","id":"55059","properties":{"name":"Kenosha","fips":"55059"},"geometry":{"type":"Polygon","coordinates":[[[-87.8126,42.5476],[-87.8123,42.5298],[-87.8097,42.5148],[-87.8005,42.4919],[-87.8006,42.4919],[-87.8159,42.4919],[-87.8436,42.4923],[-87.9002,42.493],[-87.9713,42.494],[-87.9902,42.4945],[-88.0498,42.4953],[-88.1995,42.496],[-88.2002,42.496],[-88.2169,42.4959],[-88.2717,42.4948],[-88.3047,42.4948],[-88.3059,42.6108],[-88.1882,42.6115],[-88.1883,42.6697],[-87.8058,42.6681],[-87.8071,42.6646],[-87.8099,42.657],[-87.8099,42.657],[-87.8114,42.653],[-87.8134,42.6473],[-87.8147,42.644],[-87.8194,42.6173],[-87.8197,42.6158],[-87.8194,42.6066],[-87.8157,42.596],[-87.8151,42.5941],[-87.8109,42.5873],[-87.8116,42.5848],[-87.8129,42.5806],[-87.8133,42.5792],[-87.8132,42.5768],[-87.8131,42.5728],[-87.8131,42.5724],[-87.8129,42.5584],[-87.8127,42.5521],[-87.8126,42.5476]]]}},{"type":"Feature","id":"55061","properties":{"name":"Kewaunee","fips":"55061"},"geometry":{"type":"Polygon","coordinates":[[[-87.3732,44.6756],[-87.3785,44.6665],[-87.3868,44.6522],[-87.3935,44.6407],[-87.4016,44.6312],[-87.4037,44.629],[-87.4054,44.6272],[-87.418,44.6209],[-87.4358,44.6065],[-87.4375,44.6051],[-87.4378,44.6046],[-87.447,44.5863],[-87.4671,44.5536],[-87.4672,44.5534],[-87.4674,44.5531],[-87.4681,44.5519],[-87.4729,44.5393],[-87.4819,44.5161],[-87.4837,44.5114],[-87.4839,44.5057],[-87.4839,44.5044],[-87.484,44.5039],[-87.4868,44.4915],[-87.49,44.4772],[-87.4923,44.4728],[-87.4947,44.4683],[-87.4952,44.4674],[-87.4953,44.4672],[-87.4987,44.4607],[-87.4989,44.4597],[-87.4989,44.4597],[-87.4989,44.4594],[-87.4993,44.4574],[-87.4997,44.4558],[-87.4997,44.4556],[-87.5023,44.4432],[-87.5064,44.4238],[-87.5077,44.4214],[-87.5114,44.4145],[-87.5116,44.414],[-87.5123,44.4119],[-87.5129,44.4102],[-87.5155,44.4021],[-87.518,44.3944],[-87.5179,44.3901],[-87.5176,44.3757],[-87.5177,44.3754],[-87.5181,44.3745],[-87.5191,44.3721],[-87.521,44.3675],[-87.5217,44.3667],[-87.5336,44.3511],[-87.5336,44.3511],[-87.5415,44.3311],[-87.543,44.3275],[-87.7662,44.3272],[-87.7624,44.6445],[-87.756,44.6491],[-87.756,44.6491],[-87.7509,44.6562],[-87.7491,44.6641],[-87.7484,44.6671],[-87.7361,44.677],[-87.3751,44.6756],[-87.3732,44.6756]]]}},{"type":"Feature","id":"55063","properties":{"name":"La Crosse","fips":"55063"},"geometry":{"type":"Polygon","coordinates":[[[-91.1518,44.0797],[-90.9728,44.0708],[-90.9129,44.0715],[-90.9105,43.7253],[-91.2682,43.7266],[-91.2624,43.7922],[-91.2841,43.8471],[-91.2988,43.8566],[-91.311,43.8674],[-91.3632,43.9266],[-91.4201,43.9842],[-91.3221,43.9845],[-91.3373,44.0375],[-91.1518,44.0797]]]}},{"type":"Feature","id":"55065","properties":{"name":"Lafayette","fips":"55065"},"geometry":{"type":"Polygon","coordinates":[[[-90.4269,42.8129],[-89.8384,42.8138],[-89.8376,42.5055],[-89.9262,42.5058],[-89.9264,42.5058],[-89.9265,42.5058],[-89.9851,42.5065],[-89.9856,42.5064],[-89.9972,42.5068],[-89.9993,42.5069],[-90.017,42.5071],[-90.0187,42.5073],[-90.093,42.5082],[-90.095,42.5079],[-90.1429,42.5082],[-90.1644,42.5083],[-90.1816,42.5081],[-90.2061,42.5077],[-90.2232,42.5078],[-90.2506,42.5075],[-90.2531,42.5073],[-90.2671,42.5076],[-90.2693,42.5077],[-90.2729,42.5075],[-90.3038,42.5075],[-90.3627,42.507],[-90.3679,42.5071],[-90.3707,42.5071],[-90.4059,42.5069],[-90.4264,42.5071],[-90.4269,42.8129]]]}},{"type":"Feature","id":"55067","properties":{"name":"Langlade","fips":"55067"},"geometry":{"type":"Polygon","coordinates":[[[-88.9817,45.0289],[-89.1021,45.0295],[-89.2238,45.0292],[-89.2242,45.1186],[-89.426,45.1191],[-89.4248,45.4673],[-89.364,45.4699],[-89.0463,45.4648],[-88.9231,45.4651],[-88.926,45.3786],[-88.6778,45.3787],[-88.6801,45.205],[-88.6412,45.1173],[-88.9822,45.1177],[-88.9817,45.0289]]]}},{"type":"Feature","id":"55069","properties":{"name":"Lincoln","fips":"55069"},"geometry":{"type":"Polygon","coordinates":[[[-90.0434,45.5551],[-89.4283,45.5554],[-89.4248,45.4673],[-89.426,45.1191],[-90.0437,45.1202],[-90.0461,45.3403],[-90.0423,45.3819],[-90.0434,45.5551]]]}},{"type":"Feature","id":"55071","properties":{"name":"Manitowoc","fips":"55071"},"geometry":{"type":"Polygon","coordinates":[[[-87.543,44.3275],[-87.5454,44.3214],[-87.5447,44.3071],[-87.5447,44.3069],[-87.5447,44.3067],[-87.5414,44.294],[-87.5413,44.2936],[-87.5412,44.2931],[-87.5412,44.2931],[-87.5411,44.293],[-87.5265,44.268],[-87.5264,44.2679],[-87.5262,44.2676],[-87.5258,44.2669],[-87.5258,44.2669],[-87.5257,44.2667],[-87.5256,44.2666],[-87.5255,44.2663],[-87.5255,44.2663],[-87.5253,44.266],[-87.5252,44.2659],[-87.5247,44.265],[-87.5245,44.2646],[-87.5242,44.2641],[-87.5232,44.2624],[-87.5228,44.2618],[-87.5226,44.2613],[-87.5219,44.2601],[-87.5218,44.26],[-87.5213,44.259],[-87.5213,44.259],[-87.5154,44.2455],[-87.5154,44.2455],[-87.5153,44.2453],[-87.5085,44.2298],[-87.5084,44.2297],[-87.5084,44.2295],[-87.5074,44.2108],[-87.5129,44.1928],[-87.5197,44.1799],[-87.5399,44.1597],[-87.5501,44.1529],[-87.5632,44.1442],[-87.5636,44.1441],[-87.567,44.1429],[-87.5678,44.1427],[-87.5705,44.1418],[-87.5967,44.1331],[-87.5979,44.1327],[-87.5991,44.1323],[-87.6009,44.1317],[-87.6036,44.1304],[-87.6211,44.1219],[-87.6458,44.1052],[-87.6466,44.1047],[-87.6467,44.1043],[-87.6476,44.1021],[-87.6476,44.102],[-87.6515,44.0916],[-87.6549,44.0826],[-87.6552,44.0819],[-87.6535,44.0672],[-87.6537,44.066],[-87.6561,44.0519],[-87.6561,44.0518],[-87.6713,44.0374],[-87.6834,44.0201],[-87.6864,44.0125],[-87.6915,43.9997],[-87.6951,43.9907],[-87.6955,43.9896],[-87.6955,43.9895],[-87.6989,43.9659],[-87.699,43.9657],[-87.7001,43.9637],[-87.7003,43.9634],[-87.7027,43.9589],[-87.7027,43.9589],[-87.704,43.9567],[-87.7047,43.9559],[-87.7067,43.9538],[-87.7095,43.9507],[-87.716,43.9437],[-87.7182,43.9395],[-87.719,43.9378],[-87.719,43.9378],[-87.7192,43.9371],[-87.7201,43.933],[-87.7204,43.9318],[-87.7207,43.9302],[-87.7213,43.9278],[-87.7221,43.9241],[-87.7237,43.9169],[-87.7242,43.9146],[-87.7268,43.9033],[-87.7268,43.9031],[-87.7268,43.903],[-87.7285,43.8989],[-87.7289,43.8981],[-87.7306,43.8939],[-87.7306,43.8938],[-87.7313,43.8922],[-88.0418,43.8917],[-88.0432,44.241],[-87.8881,44.2405],[-87.8875,44.3276],[-87.7662,44.3272],[-87.543,44.3275]]]}},{"type":"Feature","id":"55073","properties":{"name":"Marathon","fips":"55073"},"geometry":{"type":"Polygon","coordinates":[[[-90.3163,44.6852],[-90.3162,44.8408],[-90.3159,44.8442],[-90.315,45.0338],[-90.1975,45.0336],[-90.1978,45.1206],[-90.0437,45.1202],[-89.426,45.1191],[-89.2242,45.1186],[-89.2238,45.0292],[-89.2237,44.6814],[-89.8449,44.6849],[-90.3163,44.6852]]]}},{"type":"Feature","id":"55075","properties":{"name":"Marinette","fips":"55075"},"geometry":{"type":"MultiPolygon","coordinates":[[[[-87.5001,45.0611],[-87.499,45.0612],[-87.4973,45.0613],[-87.4964,45.0611],[-87.4955,45.0607],[-87.4945,45.06],[-87.4934,45.0591],[-87.4929,45.0584],[-87.4929,45.0583],[-87.4927,45.0578],[-87.4927,45.0578],[-87.4926,45.0577],[-87.4926,45.0577],[-87.4925,45.0575],[-87.4925,45.0574],[-87.4924,45.0572],[-87.4923,45.0569],[-87.492,45.0565],[-87.4918,45.0563],[-87.4916,45.0562],[-87.4915,45.0561],[-87.4913,45.056],[-87.4902,45.0552],[-87.4902,45.055],[-87.4902,45.055],[-87.4903,45.0549],[-87.4909,45.055],[-87.4927,45.0558],[-87.4945,45.0565],[-87.4984,45.0577],[-87.4987,45.0578],[-87.4989,45.0578],[-87.5001,45.0582],[-87.5016,45.0586],[-87.5043,45.0592],[-87.505,45.0593],[-87.5061,45.0594],[-87.5061,45.0595],[-87.5062,45.0596],[-87.5061,45.0596],[-87.5061,45.0597],[-87.5045,45.06],[-87.5043,45.0601],[-87.5036,45.0603],[-87.5024,45.0607],[-87.5018,45.0608],[-87.5006,45.0611],[-87.5001,45.0611]]],[[[-87.5902,45.0953],[-87.5871,45.0895],[-87.588,45.0853],[-87.5916,45.0838],[-87.5947,45.0851],[-87.6018,45.0823],[-87.6104,45.0756],[-87.6257,45.0452],[-87.6247,45.0142],[-87.6303,44.9769],[-87.662,44.973],[-87.6965,44.9742],[-87.7626,44.9658],[-87.9444,44.9931],[-87.943,45.0204],[-88.1212,45.0236],[-88.1189,45.1102],[-88.1892,45.1118],[-88.1864,45.1979],[-88.3091,45.2016],[-88.3058,45.3746],[-88.4281,45.377],[-88.4253,45.7224],[-88.0592,45.7131],[-88.0583,45.7807],[-88.0506,45.781],[-88.0397,45.7896],[-87.9914,45.7954],[-87.8681,45.7495],[-87.8288,45.7228],[-87.8071,45.708],[-87.7808,45.6803],[-87.7816,45.6733],[-87.8237,45.6598],[-87.8241,45.6471],[-87.7959,45.6188],[-87.792,45.6168],[-87.7888,45.5659],[-87.7928,45.5],[-87.799,45.4851],[-87.8063,45.4723],[-87.813,45.4642],[-87.8203,45.4603],[-87.8604,45.4235],[-87.8881,45.3547],[-87.8852,45.3517],[-87.8501,45.3404],[-87.8381,45.3451],[-87.8353,45.351],[-87.8326,45.3522],[-87.7903,45.3534],[-87.7714,45.3512],[-87.7515,45.3518],[-87.7189,45.3775],[-87.694,45.3899],[-87.6859,45.3887],[-87.675,45.3825],[-87.6573,45.3688],[-87.6477,45.3507],[-87.6481,45.3394],[-87.7091,45.2603],[-87.7078,45.2583],[-87.7117,45.2435],[-87.7317,45.2068],[-87.7395,45.2021],[-87.7417,45.1982],[-87.7353,45.1766],[-87.7314,45.171],[-87.66,45.1075],[-87.5902,45.0953]]]]}},{"type":"Feature","id":"55077","properties":{"name":"Marquette","fips":"55077"},"geometry":{"type":"Polygon","coordinates":[[[-89.6,43.6426],[-89.5995,43.6445],[-89.5979,43.9821],[-89.1686,43.9828],[-89.1983,43.8127],[-89.2455,43.7664],[-89.2454,43.6431],[-89.6,43.6426]]]}},{"type":"Feature","id":"55078","properties":{"name":"Menominee","fips":"55078"},"geometry":{"type":"Polygon","coordinates":[[[-88.6412,45.1173],[-88.4837,45.1169],[-88.4891,44.8554],[-88.7362,44.8564],[-88.7355,44.9432],[-88.9814,44.9428],[-88.9817,45.0289],[-88.9822,45.1177],[-88.6412,45.1173]]]}},{"type":"Feature","id":"55079","properties":{"name":"Milwaukee","fips":"55079"},"geometry":{"type":"Polygon","coordinates":[[[-87.8921,43.192],[-87.8886,43.1878],[-87.8876,43.1866],[-87.8863,43.1834],[-87.8849,43.1799],[-87.8849,43.1799],[-87.8848,43.1797],[-87.8811,43.1706],[-87.8864,43.1603],[-87.8888,43.1554],[-87.8893,43.1545],[-87.8894,43.1544],[-87.8896,43.1539],[-87.8911,43.1511],[-87.8923,43.1487],[-87.896,43.1434],[-87.8981,43.1404],[-87.899,43.1391],[-87.9003,43.1373],[-87.9013,43.1334],[-87.9014,43.1332],[-87.9014,43.133],[-87.9005,43.126],[-87.9005,43.1259],[-87.9005,43.1259],[-87.8932,43.114],[-87.8792,43.1017],[-87.8779,43.1006],[-87.8761,43.099],[-87.8725,43.0898],[-87.8724,43.0895],[-87.8724,43.0894],[-87.8723,43.0892],[-87.8719,43.0884],[-87.8705,43.0846],[-87.8665,43.0744],[-87.8665,43.0744],[-87.8702,43.0644],[-87.8702,43.0644],[-87.8755,43.0585],[-87.8763,43.0575],[-87.8819,43.0513],[-87.8821,43.0511],[-87.8821,43.0511],[-87.8899,43.0458],[-87.8948,43.0425],[-87.895,43.0424],[-87.8951,43.0423],[-87.8951,43.0422],[-87.8962,43.038],[-87.8966,43.0366],[-87.8982,43.0307],[-87.8987,43.0288],[-87.8968,43.0205],[-87.8966,43.0197],[-87.8964,43.0186],[-87.8962,43.0175],[-87.8958,43.0158],[-87.8935,43.0115],[-87.8893,43.0036],[-87.8891,43.0032],[-87.8888,43.0026],[-87.8878,43.0007],[-87.8877,43.0006],[-87.8877,43.0005],[-87.8787,42.9924],[-87.8572,42.978],[-87.8452,42.962],[-87.8447,42.9588],[-87.8438,42.9524],[-87.8436,42.9505],[-87.8428,42.9449],[-87.8428,42.9447],[-87.8427,42.9441],[-87.8446,42.9237],[-87.8467,42.9008],[-87.8477,42.8896],[-87.8478,42.8892],[-87.8458,42.8843],[-87.8349,42.8567],[-87.8312,42.8499],[-87.827,42.8422],[-88.0699,42.8433],[-88.0692,42.9591],[-88.0691,42.9664],[-88.069,42.9674],[-88.0688,42.9728],[-88.0689,42.9737],[-88.0686,42.9798],[-88.0686,42.981],[-88.0634,43.1921],[-87.9943,43.1925],[-87.9176,43.1921],[-87.9145,43.1922],[-87.9048,43.1921],[-87.8994,43.1922],[-87.8929,43.192],[-87.8921,43.192]]]}},{"type":"Feature","id":"55081","properties":{"name":"Monroe","fips":"55081"},"geometry":{"type":"Polygon","coordinates":[[[-90.9728,44.0708],[-90.9062,44.1583],[-90.3126,44.1553],[-90.3122,43.7313],[-90.9105,43.7253],[-90.9129,44.0715],[-90.9728,44.0708]]]}},{"type":"Feature","id":"55083","properties":{"name":"Oconto","fips":"55083"},"geometry":{"type":"Polygon","coordinates":[[[-87.7626,44.9658],[-87.7627,44.9658],[-87.7628,44.9658],[-87.7661,44.9654],[-87.7669,44.9653],[-87.7813,44.9617],[-87.7815,44.9617],[-87.789,44.9599],[-87.7899,44.9596],[-87.7914,44.9593],[-87.792,44.9591],[-87.7923,44.959],[-87.8126,44.9541],[-87.813,44.954],[-87.8133,44.9539],[-87.8139,44.9536],[-87.8151,44.9531],[-87.8162,44.9526],[-87.8173,44.9521],[-87.8176,44.952],[-87.8177,44.9519],[-87.8179,44.9518],[-87.8181,44.9517],[-87.8193,44.9512],[-87.8194,44.9512],[-87.8195,44.9511],[-87.8203,44.9504],[-87.8208,44.9498],[-87.821,44.9496],[-87.8215,44.9492],[-87.822,44.9487],[-87.8222,44.9485],[-87.8376,44.9331],[-87.839,44.9317],[-87.8434,44.9244],[-87.8443,44.9185],[-87.8428,44.9126],[-87.8427,44.9121],[-87.8426,44.9119],[-87.8424,44.9114],[-87.8404,44.9073],[-87.8396,44.9056],[-87.837,44.9025],[-87.8367,44.9022],[-87.8361,44.9014],[-87.8343,44.8992],[-87.8337,44.8985],[-87.8335,44.8983],[-87.8321,44.8966],[-87.8278,44.8912],[-87.8328,44.8809],[-87.8355,44.8775],[-87.8369,44.8758],[-87.8384,44.874],[-87.8476,44.8707],[-87.8483,44.8704],[-87.8491,44.8694],[-87.8528,44.8649],[-87.8542,44.8596],[-87.8547,44.8578],[-87.8549,44.8574],[-87.856,44.8559],[-87.8571,44.8541],[-87.8575,44.8536],[-87.8659,44.841],[-87.8662,44.8405],[-87.8717,44.8398],[-87.8782,44.839],[-87.8857,44.8352],[-87.8926,44.8317],[-87.8958,44.8301],[-87.8979,44.829],[-87.8998,44.8281],[-87.9011,44.8274],[-87.9018,44.8256],[-87.9022,44.8247],[-87.9034,44.8215],[-87.9038,44.8204],[-87.9043,44.8192],[-87.9045,44.8187],[-87.9054,44.817],[-87.9066,44.8149],[-87.9114,44.8063],[-87.9189,44.7928],[-87.9236,44.7844],[-87.9258,44.7803],[-87.9268,44.7786],[-87.9415,44.7561],[-87.9516,44.7531],[-87.9568,44.7493],[-87.9647,44.7436],[-87.9727,44.7337],[-87.9831,44.7207],[-87.9835,44.7202],[-87.9839,44.7178],[-87.9839,44.7177],[-87.9841,44.717],[-87.9842,44.7161],[-87.9844,44.7153],[-87.9861,44.7064],[-87.9861,44.7059],[-87.9873,44.6997],[-87.9874,44.699],[-87.9887,44.6923],[-87.9892,44.6891],[-87.9893,44.6886],[-87.9894,44.6884],[-87.9895,44.6879],[-87.9897,44.6866],[-87.9899,44.6776],[-88.2427,44.6796],[-88.2482,44.8527],[-88.4891,44.8554],[-88.4837,45.1169],[-88.6412,45.1173],[-88.6801,45.205],[-88.6778,45.3787],[-88.4281,45.377],[-88.3058,45.3746],[-88.3091,45.2016],[-88.1864,45.1979],[-88.1892,45.1118],[-88.1189,45.1102],[-88.1212,45.0236],[-87.943,45.0204],[-87.9444,44.9931],[-87.7626,44.9658]]]}},{"type":"Feature","id":"55085","properties":{"name":"Oneida","fips":"55085"},"geometry":{"type":"Polygon","coordinates":[[[-90.0434,45.5551],[-90.0433,45.7301],[-90.0444,45.75],[-90.0429,45.8972],[-89.3006,45.9015],[-89.3008,45.8609],[-89.1752,45.8566],[-89.1783,45.8994],[-89.0475,45.8954],[-89.0472,45.6408],[-89.0468,45.6375],[-89.0463,45.4648],[-89.364,45.4699],[-89.4248,45.4673],[-89.4283,45.5554],[-90.0434,45.5551]]]}},{"type":"Feature","id":"55087","properties":{"name":"Outagamie","fips":"55087"},"geometry":{"type":"Polygon","coordinates":[[[-88.3463,44.2437],[-88.3513,44.2438],[-88.3545,44.2439],[-88.4041,44.2441],[-88.7398,44.2433],[-88.7368,44.5906],[-88.6061,44.5905],[-88.5772,44.5906],[-88.2452,44.5847],[-88.1906,44.5868],[-88.1926,44.2419],[-88.304,44.2433],[-88.3463,44.2437]]]}},{"type":"Feature","id":"55089","properties":{"name":"Ozaukee","fips":"55089"},"geometry":{"type":"Polygon","coordinates":[[[-87.9115,43.2481],[-87.9102,43.2366],[-87.9101,43.2359],[-87.8973,43.2],[-87.8973,43.2],[-87.8973,43.2],[-87.8971,43.1995],[-87.8963,43.1971],[-87.8956,43.1962],[-87.8921,43.192],[-87.8929,43.192],[-87.8994,43.1922],[-87.9048,43.1921],[-87.9145,43.1922],[-87.9176,43.1921],[-87.9943,43.1925],[-88.0634,43.1921],[-88.0405,43.5424],[-87.7943,43.543],[-87.7976,43.5273],[-87.7973,43.5106],[-87.7932,43.4928],[-87.8078,43.4611],[-87.8273,43.4348],[-87.8556,43.4054],[-87.865,43.3936],[-87.8675,43.3892],[-87.8691,43.3863],[-87.8725,43.3802],[-87.8774,43.3692],[-87.8824,43.3521],[-87.8881,43.3147],[-87.8883,43.3135],[-87.8883,43.3135],[-87.8883,43.3134],[-87.8883,43.3133],[-87.8883,43.3133],[-87.8892,43.3077],[-87.8978,43.2916],[-87.9003,43.2871],[-87.9018,43.2841],[-87.903,43.2803],[-87.9031,43.2799],[-87.9031,43.2797],[-87.9035,43.2787],[-87.9043,43.276],[-87.9065,43.2685],[-87.9065,43.2684],[-87.9065,43.2683],[-87.9066,43.2681],[-87.9066,43.2681],[-87.9066,43.268],[-87.9066,43.268],[-87.9066,43.268],[-87.9073,43.2657],[-87.9073,43.2657],[-87.9073,43.2656],[-87.9091,43.2597],[-87.9103,43.2553],[-87.9118,43.2504],[-87.9115,43.2481]]]}},{"type":"Feature","id":"55091","properties":{"name":"Pepin","fips":"55091"},"geometry":{"type":"Polygon","coordinates":[[[-91.6504,44.6836],[-91.6505,44.625],[-91.6503,44.623],[-91.6502,44.5966],[-92.0292,44.5863],[-92.0839,44.4062],[-92.1153,44.4161],[-92.2211,44.4404],[-92.2339,44.4463],[-92.242,44.4543],[-92.2768,44.4736],[-92.291,44.4855],[-92.3022,44.5003],[-92.303,44.5186],[-92.3141,44.538],[-92.3164,44.5408],[-92.1353,44.5396],[-92.1352,44.6844],[-91.6504,44.6836]]]}},{"type":"Feature","id":"55093","properties":{"name":"Pierce","fips":"55093"},"geometry":{"type":"Polygon","coordinates":[[[-92.7655,44.8362],[-92.7618,44.8609],[-92.7617,44.862],[-92.1363,44.8578],[-92.1352,44.6844],[-92.1353,44.5396],[-92.3164,44.5408],[-92.3199,44.5449],[-92.329,44.5509],[-92.3401,44.5553],[-92.3573,44.5585],[-92.4918,44.566],[-92.5342,44.5704],[-92.5497,44.576],[-92.6198,44.6292],[-92.6217,44.639],[-92.6321,44.649],[-92.732,44.7138],[-92.7373,44.7172],[-92.8024,44.7452],[-92.8022,44.7457],[-92.7844,44.794],[-92.7655,44.8362]]]}},{"type":"Feature","id":"55095","properties":{"name":"Polk","fips":"55095"},"geometry":{"type":"Polygon","coordinates":[[[-92.7326,45.3042],[-92.7048,45.3265],[-92.6641,45.3933],[-92.6802,45.4643],[-92.7262,45.5311],[-92.8034,45.5625],[-92.8233,45.5609],[-92.8711,45.5676],[-92.8837,45.5755],[-92.8864,45.5949],[-92.8881,45.6284],[-92.8857,45.6441],[-92.5291,45.6422],[-92.5282,45.7287],[-92.1544,45.7256],[-92.1549,45.6397],[-92.1565,45.2096],[-92.7659,45.2102],[-92.7606,45.2788],[-92.7517,45.2927],[-92.7461,45.296],[-92.7326,45.3042]]]}},{"type":"Feature","id":"55097","properties":{"name":"Portage","fips":"55097"},"geometry":{"type":"Polygon","coordinates":[[[-89.598,44.2457],[-89.7247,44.2477],[-89.7266,44.5112],[-89.8444,44.5115],[-89.8449,44.6849],[-89.2237,44.6814],[-89.2249,44.2435],[-89.598,44.2457]]]}},{"type":"Feature","id":"55099","properties":{"name":"Price","fips":"55099"},"geometry":{"type":"Polygon","coordinates":[[[-90.0433,45.7301],[-90.0434,45.5551],[-90.0423,45.3819],[-90.6787,45.3778],[-90.6787,45.6383],[-90.677,45.9816],[-90.3021,45.9813],[-90.044,45.9819],[-90.0429,45.8972],[-90.0444,45.75],[-90.0433,45.7301]]]}},{"type":"Feature","id":"55101","properties":{"name":"Racine","fips":"55101"},"geometry":{"type":"Polygon","coordinates":[[[-87.827,42.8422],[-87.8254,42.8391],[-87.824,42.8366],[-87.8233,42.8353],[-87.8223,42.8344],[-87.804,42.8162],[-87.8038,42.8159],[-87.7962,42.8084],[-87.794,42.8062],[-87.79,42.8037],[-87.7863,42.8014],[-87.7859,42.8012],[-87.7737,42.7935],[-87.7736,42.7934],[-87.7667,42.7849],[-87.7698,42.7737],[-87.7713,42.7717],[-87.7774,42.7638],[-87.7782,42.7628],[-87.7788,42.7606],[-87.7808,42.753],[-87.781,42.7521],[-87.7819,42.7486],[-87.7822,42.7477],[-87.7818,42.7458],[-87.7817,42.7447],[-87.7816,42.7447],[-87.7813,42.7429],[-87.7795,42.7325],[-87.7788,42.7284],[-87.7786,42.7273],[-87.7803,42.7187],[-87.782,42.71],[-87.7824,42.7082],[-87.7835,42.7052],[-87.784,42.7037],[-87.7851,42.7008],[-87.7868,42.7007],[-87.7949,42.6899],[-87.8024,42.6767],[-87.8029,42.6758],[-87.803,42.6756],[-87.803,42.6755],[-87.8031,42.6754],[-87.8031,42.6753],[-87.8054,42.6691],[-87.8058,42.6681],[-88.1883,42.6697],[-88.1882,42.6115],[-88.3059,42.6108],[-88.3064,42.8421],[-88.2455,42.8414],[-88.0699,42.8433],[-87.827,42.8422]]]}},{"type":"Feature","id":"55103","properties":{"name":"Richland","fips":"55103"},"geometry":{"type":"Polygon","coordinates":[[[-90.4298,43.2009],[-90.5454,43.2115],[-90.6668,43.1718],[-90.6686,43.423],[-90.6717,43.553],[-90.3111,43.554],[-90.192,43.555],[-90.1938,43.1645],[-90.2925,43.2069],[-90.4298,43.2009]]]}},{"type":"Feature","id":"55105","properties":{"name":"Rock","fips":"55105"},"geometry":{"type":"Polygon","coordinates":[[[-88.7771,42.8345],[-88.7765,42.494],[-88.9404,42.495],[-88.9404,42.495],[-88.9433,42.4951],[-88.9927,42.496],[-88.993,42.496],[-89.0137,42.4961],[-89.0138,42.4961],[-89.0429,42.4963],[-89.0711,42.4962],[-89.099,42.4965],[-89.1169,42.4969],[-89.1204,42.497],[-89.1251,42.497],[-89.1649,42.4973],[-89.1667,42.4973],[-89.2263,42.498],[-89.2283,42.498],[-89.247,42.4981],[-89.2508,42.498],[-89.2909,42.4989],[-89.3616,42.5],[-89.366,42.5003],[-89.3691,42.845],[-89.0135,42.8473],[-88.7771,42.8427],[-88.7771,42.8345]]]}},{"type":"Feature","id":"55107","properties":{"name":"Rusk","fips":"55107"},"geometry":{"type":"Polygon","coordinates":[[[-90.6787,45.6383],[-90.6787,45.3778],[-90.9252,45.3794],[-90.9252,45.292],[-91.5413,45.292],[-91.5403,45.6376],[-90.6787,45.6383]]]}},{"type":"Feature","id":"55111","properties":{"name":"Sauk","fips":"55111"},"geometry":{"type":"Polygon","coordinates":[[[-89.7168,43.3218],[-89.7272,43.3013],[-89.7203,43.2929],[-89.8381,43.2061],[-90.1938,43.1645],[-90.192,43.555],[-90.3111,43.554],[-90.3111,43.5651],[-90.311,43.5664],[-90.3124,43.641],[-89.8381,43.6409],[-89.8356,43.6409],[-89.8318,43.6411],[-89.8259,43.641],[-89.8244,43.6411],[-89.8234,43.641],[-89.7858,43.641],[-89.7322,43.5718],[-89.5994,43.558],[-89.6007,43.38],[-89.7168,43.3218]]]}},{"type":"Feature","id":"55113","properties":{"name":"Sawyer","fips":"55113"},"geometry":{"type":"Polygon","coordinates":[[[-90.9246,46.1546],[-90.9252,45.9811],[-90.677,45.9816],[-90.6787,45.6383],[-91.5403,45.6376],[-91.5513,46.157],[-90.9246,46.1546]]]}},{"type":"Feature","id":"55115","properties":{"name":"Shawano","fips":"55115"},"geometry":{"type":"Polygon","coordinates":[[[-89.2238,45.0292],[-89.1021,45.0295],[-88.9817,45.0289],[-88.9814,44.9428],[-88.7355,44.9432],[-88.7362,44.8564],[-88.4891,44.8554],[-88.2482,44.8527],[-88.2427,44.6796],[-88.2452,44.5847],[-88.5772,44.5906],[-88.6061,44.5905],[-88.6052,44.6783],[-89.2237,44.6814],[-89.2238,45.0292]]]}},{"type":"Feature","id":"55117","properties":{"name":"Sheboygan","fips":"55117"},"geometry":{"type":"Polygon","coordinates":[[[-87.7313,43.8922],[-87.7337,43.8863],[-87.7345,43.8846],[-87.7354,43.8822],[-87.7362,43.8804],[-87.736,43.8737],[-87.7349,43.8704],[-87.7287,43.8525],[-87.7287,43.8518],[-87.7292,43.8406],[-87.7296,43.8318],[-87.7277,43.819],[-87.7268,43.8129],[-87.7264,43.8105],[-87.7264,43.8104],[-87.7264,43.8104],[-87.7003,43.7674],[-87.7002,43.7671],[-87.7001,43.7616],[-87.7001,43.7614],[-87.703,43.7497],[-87.703,43.7496],[-87.7046,43.7463],[-87.7052,43.7451],[-87.7082,43.743],[-87.7083,43.7429],[-87.7083,43.7427],[-87.7099,43.7358],[-87.7082,43.7229],[-87.7079,43.7221],[-87.7031,43.7069],[-87.703,43.7064],[-87.7027,43.6876],[-87.7037,43.6853],[-87.7062,43.6795],[-87.7062,43.6795],[-87.7265,43.6505],[-87.7336,43.6402],[-87.7343,43.6392],[-87.7351,43.6382],[-87.7355,43.6377],[-87.736,43.637],[-87.7361,43.6368],[-87.7379,43.6346],[-87.7386,43.6336],[-87.7425,43.6286],[-87.7425,43.6286],[-87.7802,43.5799],[-87.7813,43.5785],[-87.7823,43.5767],[-87.7891,43.5648],[-87.7901,43.5631],[-87.7903,43.5624],[-87.7931,43.549],[-87.7943,43.543],[-88.0405,43.5424],[-88.1609,43.5429],[-88.1623,43.8915],[-88.0418,43.8917],[-87.7313,43.8922]]]}},{"type":"Feature","id":"55109","properties":{"name":"St. Croix","fips":"55109"},"geometry":{"type":"Polygon","coordinates":[[[-92.7659,45.2102],[-92.1565,45.2096],[-92.1361,45.1214],[-92.1363,44.8578],[-92.7617,44.862],[-92.7506,44.9373],[-92.7686,45.008],[-92.7912,45.0457],[-92.7929,45.0785],[-92.7671,45.1942],[-92.7659,45.2102]]]}},{"type":"Feature","id":"55119","properties":{"name":"Taylor","fips":"55119"},"geometry":{"type":"Polygon","coordinates":[[[-90.6787,45.3778],[-90.0423,45.3819],[-90.0461,45.3403],[-90.0437,45.1202],[-90.1978,45.1206],[-90.1975,45.0336],[-90.315,45.0338],[-90.9234,45.0311],[-90.9252,45.292],[-90.9252,45.3794],[-90.6787,45.3778]]]}},{"type":"Feature","id":"55121","properties":{"name":"Trempealeau","fips":"55121"},"geometry":{"type":"Polygon","coordinates":[[[-91.1656,44.597],[-91.1658,44.2474],[-91.1518,44.0797],[-91.3373,44.0375],[-91.3221,43.9845],[-91.4201,43.9842],[-91.4325,43.9968],[-91.4374,44.0],[-91.4635,44.009],[-91.5059,44.0187],[-91.547,44.0222],[-91.5592,44.024],[-91.5342,44.096],[-91.613,44.1726],[-91.5297,44.2468],[-91.5291,44.5962],[-91.1656,44.597]]]}},{"type":"Feature","id":"55123","properties":{"name":"Vernon","fips":"55123"},"geometry":{"type":"Polygon","coordinates":[[[-90.3124,43.641],[-90.311,43.5664],[-90.3111,43.5651],[-90.3111,43.554],[-90.6717,43.553],[-90.6686,43.423],[-91.2056,43.4229],[-91.2177,43.5005],[-91.2651,43.61],[-91.2687,43.6153],[-91.2733,43.6683],[-91.2682,43.7266],[-90.9105,43.7253],[-90.3122,43.7313],[-90.3124,43.641]]]}},{"type":"Feature","id":"55125","properties":{"name":"Vilas","fips":"55125"},"geometry":{"type":"Polygon","coordinates":[[[-88.9908,46.0973],[-88.9487,46.0802],[-88.9433,46.0779],[-88.9326,46.0736],[-88.9336,45.9821],[-89.0476,45.9822],[-89.0475,45.8954],[-89.1783,45.8994],[-89.1752,45.8566],[-89.3008,45.8609],[-89.3006,45.9015],[-90.0429,45.8972],[-90.044,45.9819],[-89.9288,45.982],[-89.9291,46.3001],[-89.9099,46.2964],[-89.9082,46.296],[-89.2769,46.1741],[-89.2765,46.174],[-89.22,46.1633],[-89.2182,46.163],[-89.2057,46.1604],[-89.2033,46.16],[-89.2013,46.1594],[-89.1945,46.1579],[-89.1669,46.1529],[-89.1618,46.1518],[-89.1251,46.1445],[-89.0587,46.125],[-88.9909,46.0973],[-88.9908,46.0973]]]}},{"type":"Feature","id":"55127","properties":{"name":"Walworth","fips":"55127"},"geometry":{"type":"Polygon","coordinates":[[[-88.708,42.8427],[-88.6593,42.8425],[-88.5415,42.843],[-88.5312,42.8427],[-88.3064,42.8421],[-88.3059,42.6108],[-88.3047,42.4948],[-88.4174,42.4946],[-88.4614,42.4946],[-88.4706,42.4947],[-88.5069,42.4949],[-88.7074,42.4936],[-88.7074,42.4936],[-88.7765,42.494],[-88.7771,42.8345],[-88.7771,42.8427],[-88.7717,42.8428],[-88.708,42.8427]]]}},{"type":"Feature","id":"55129","properties":{"name":"Washburn","fips":"55129"},"geometry":{"type":"Polygon","coordinates":[[[-91.5403,45.6376],[-92.0314,45.6399],[-92.0334,45.9839],[-92.0496,46.1576],[-91.5513,46.157],[-91.5403,45.6376]]]}},{"type":"Feature","id":"55131","properties":{"name":"Washington","fips":"55131"},"geometry":{"type":"Polygon","coordinates":[[[-88.0405,43.5424],[-88.0634,43.1921],[-88.418,43.1947],[-88.4004,43.5435],[-88.1609,43.5429],[-88.0405,43.5424]]]}},{"type":"Feature","id":"55133","properties":{"name":"Waukesha","fips":"55133"},"geometry":{"type":"Polygon","coordinates":[[[-88.542,42.9309],[-88.5396,43.1076],[-88.5358,43.196],[-88.418,43.1947],[-88.0634,43.1921],[-88.0686,42.981],[-88.0686,42.9798],[-88.0689,42.9737],[-88.0688,42.9728],[-88.069,42.9674],[-88.0691,42.9664],[-88.0692,42.9591],[-88.0699,42.8433],[-88.2455,42.8414],[-88.3064,42.8421],[-88.5312,42.8427],[-88.5415,42.843],[-88.542,42.9309]]]}},{"type":"Feature","id":"55135","properties":{"name":"Waupaca","fips":"55135"},"geometry":{"type":"Polygon","coordinates":[[[-88.6061,44.5905],[-88.7368,44.5906],[-88.7398,44.2433],[-88.8867,44.2426],[-89.2249,44.2435],[-89.2237,44.6814],[-88.6052,44.6783],[-88.6061,44.5905]]]}},{"type":"Feature","id":"55137","properties":{"name":"Waushara","fips":"55137"},"geometry":{"type":"Polygon","coordinates":[[[-88.8867,44.2426],[-88.8862,43.9832],[-89.1686,43.9828],[-89.5979,43.9821],[-89.598,44.2457],[-89.2249,44.2435],[-88.8867,44.2426]]]}},{"type":"Feature","id":"55139","properties":{"name":"Winnebago","fips":"55139"},"geometry":{"type":"Polygon","coordinates":[[[-88.404,44.2269],[-88.4044,44.2093],[-88.4042,43.9382],[-88.4032,43.893],[-88.4676,43.8934],[-88.8857,43.8952],[-88.8862,43.9832],[-88.8867,44.2426],[-88.7398,44.2433],[-88.4041,44.2441],[-88.404,44.2269]]]}},{"type":"Feature","id":"55141","properties":{"name":"Wood","fips":"55141"},"geometry":{"type":"Polygon","coordinates":[[[-89.9026,44.2495],[-90.312,44.2488],[-90.3161,44.4247],[-90.3163,44.6852],[-89.8449,44.6849],[-89.8444,44.5115],[-89.7266,44.5112],[-89.7247,44.2477],[-89.7262,44.2479],[-89.9026,44.2495]]]}}]}