{"type":"FeatureCollection","features":[{"type":"Feature","id":"54001","properties":{"name":"Barbour","fips":"54001"},"geometry":{"type":"Polygon","coordinates":[[[-80.1664,39.2423],[-80.0234,39.2479],[-79.8955,39.2996],[-79.8097,39.2305],[-79.8251,39.1158],[-79.8961,38.9734],[-80.0851,38.9472],[-80.0558,39.0372],[-80.1282,39.0378],[-80.2272,39.1128],[-80.2247,39.171],[-80.1664,39.2423]]]}},{"type":"Feature","id":"54003","properties":{"name":"Berkeley","fips":"54003"},"geometry":{"type":"Polygon","coordinates":[[[-78.2288,39.3912],[-78.1389,39.5938],[-78.0234,39.6199],[-78.01,39.6029],[-77.9464,39.5849],[-77.9026,39.5878],[-77.8845,39.5682],[-77.8861,39.5604],[-77.8889,39.556],[-77.8654,39.5165],[-77.8451,39.4983],[-77.8254,39.494],[-77.967,39.3672],[-78.0332,39.2646],[-78.2288,39.3912]]]}},{"type":"Feature","id":"54005","properties":{"name":"Boone","fips":"54005"},"geometry":{"type":"Polygon","coordinates":[[[-81.4566,37.9873],[-81.5713,37.9281],[-81.5142,37.7912],[-81.6075,37.7887],[-81.7221,37.8095],[-81.7856,37.9364],[-81.9797,37.9914],[-81.9325,38.0254],[-81.9276,38.1525],[-81.8335,38.2096],[-81.6437,38.2204],[-81.5158,38.1124],[-81.4566,37.9873]]]}},{"type":"Feature","id":"54007","properties":{"name":"Braxton","fips":"54007"},"geometry":{"type":"Polygon","coordinates":[[[-80.8812,38.507],[-81.0317,38.6678],[-80.9849,38.7179],[-80.7018,38.8789],[-80.6058,38.9042],[-80.4461,38.7775],[-80.4573,38.7392],[-80.5087,38.6456],[-80.6508,38.5266],[-80.7852,38.5576],[-80.8812,38.507]]]}},{"type":"Feature","id":"54009","properties":{"name":"Brooke","fips":"54009"},"geometry":{"type":"Polygon","coordinates":[[[-80.518,40.3996],[-80.518,40.3989],[-80.5191,40.1728],[-80.5191,40.1727],[-80.5191,40.1597],[-80.6854,40.1876],[-80.6521,40.245],[-80.6446,40.2513],[-80.6372,40.2551],[-80.6167,40.2803],[-80.6029,40.3071],[-80.5999,40.3177],[-80.6093,40.3605],[-80.6192,40.3818],[-80.6173,40.396],[-80.5738,40.3998],[-80.518,40.3996]]]}},{"type":"Feature","id":"54011","properties":{"name":"Cabell","fips":"54011"},"geometry":{"type":"Polygon","coordinates":[[[-82.0471,38.3744],[-82.1768,38.3396],[-82.2648,38.2292],[-82.2979,38.3274],[-82.3439,38.3052],[-82.5067,38.4101],[-82.3406,38.4409],[-82.3303,38.4445],[-82.324,38.4493],[-82.3202,38.4545],[-82.3139,38.4681],[-82.2956,38.5398],[-82.2933,38.5603],[-82.2939,38.5727],[-82.2913,38.579],[-82.2871,38.5826],[-82.2743,38.5937],[-82.2621,38.5982],[-82.246,38.5985],[-82.219,38.5917],[-82.0551,38.4745],[-82.0471,38.3744]]]}},{"type":"Feature","id":"54013","properties":{"name":"Calhoun","fips":"54013"},"geometry":{"type":"Polygon","coordinates":[[[-80.9849,38.7179],[-81.0317,38.6678],[-81.0837,38.612],[-81.1588,38.6445],[-81.1718,38.7398],[-81.2784,38.9149],[-81.1625,39.0306],[-81.0336,39.0096],[-81.0028,38.846],[-81.0567,38.7933],[-80.9849,38.7179]]]}},{"type":"Feature","id":"54015","properties":{"name":"Clay","fips":"54015"},"geometry":{"type":"Polygon","coordinates":[[[-81.2314,38.2637],[-81.2839,38.472],[-81.1941,38.5276],[-81.1308,38.5659],[-81.0837,38.612],[-81.0317,38.6678],[-80.8812,38.507],[-80.8174,38.4786],[-80.9114,38.4148],[-81.2314,38.2637]]]}},{"type":"Feature","id":"54017","properties":{"name":"Doddridge","fips":"54017"},"geometry":{"type":"Polygon","coordinates":[[[-80.5445,39.4291],[-80.5318,39.3601],[-80.6037,39.291],[-80.5257,39.2094],[-80.5961,39.1671],[-80.7283,39.0957],[-80.7492,39.0998],[-80.813,39.1094],[-80.9138,39.2729],[-80.8887,39.2943],[-80.6186,39.4504],[-80.5445,39.4291]]]}},{"type":"Feature","id":"54019","properties":{"name":"Fayette","fips":"54019"},"geometry":{"type":"Polygon","coordinates":[[[-81.2316,38.2635],[-81.0705,38.2101],[-80.9835,38.2225],[-80.8822,38.1035],[-80.7699,37.9853],[-80.8063,37.8689],[-80.9451,37.8191],[-81.091,37.8497],[-81.0732,37.8759],[-81.2951,37.8893],[-81.2966,37.944],[-81.3808,37.9691],[-81.3315,38.1676],[-81.2316,38.2635]]]}},{"type":"Feature","id":"54021","properties":{"name":"Gilmer","fips":"54021"},"geometry":{"type":"Polygon","coordinates":[[[-80.6058,38.9042],[-80.7018,38.8789],[-80.9849,38.7179],[-81.0567,38.7933],[-81.0028,38.846],[-81.0336,39.0096],[-80.813,39.1094],[-80.7492,39.0998],[-80.7283,39.0957],[-80.7168,39.0084],[-80.6058,38.9042]]]}},{"type":"Feature","id":"54023","properties":{"name":"Grant","fips":"54023"},"geometry":{"type":"Polygon","coordinates":[[[-78.9799,39.2376],[-79.0897,39.0382],[-79.046,38.9287],[-79.1343,38.8133],[-79.3499,38.9575],[-79.3496,38.9587],[-79.3577,38.9645],[-79.2982,39.0732],[-79.3555,39.0865],[-79.2893,39.1897],[-79.4872,39.1949],[-79.4869,39.206],[-79.4029,39.2501],[-79.3787,39.2719],[-79.28,39.3401],[-79.1345,39.3125],[-78.9799,39.2376]]]}},{"type":"Feature","id":"54025","properties":{"name":"Greenbrier","fips":"54025"},"geometry":{"type":"Polygon","coordinates":[[[-80.8822,38.1035],[-80.712,38.0791],[-80.4365,38.2673],[-80.36,38.2258],[-80.3633,38.1143],[-80.2647,38.0466],[-80.1692,38.0361],[-79.9598,38.0637],[-79.9784,38.0291],[-80.0025,37.9928],[-80.0553,37.9517],[-80.1305,37.8932],[-80.1461,37.8845],[-80.1473,37.8859],[-80.149,37.8861],[-80.1622,37.8751],[-80.2271,37.7989],[-80.2316,37.7926],[-80.2574,37.7561],[-80.2628,37.7383],[-80.2603,37.7335],[-80.2593,37.7312],[-80.2639,37.7191],[-80.2871,37.6964],[-80.2961,37.6918],[-80.4507,37.6839],[-80.6633,37.7317],[-80.8063,37.8689],[-80.7699,37.9853],[-80.8822,38.1035]]]}},{"type":"Feature","id":"54027","properties":{"name":"Hampshire","fips":"54027"},"geometry":{"type":"Polygon","coordinates":[[[-78.5081,39.0886],[-78.8997,39.1991],[-78.9799,39.2376],[-78.8507,39.3311],[-78.7674,39.4472],[-78.6573,39.5351],[-78.656,39.5347],[-78.5659,39.5194],[-78.4686,39.5168],[-78.3471,39.466],[-78.3623,39.3578],[-78.3405,39.3535],[-78.3589,39.3195],[-78.36,39.3178],[-78.3998,39.2441],[-78.3997,39.2439],[-78.424,39.212],[-78.4279,39.2086],[-78.4298,39.207],[-78.4312,39.2057],[-78.4321,39.2047],[-78.4371,39.1998],[-78.4387,39.198],[-78.4267,39.1889],[-78.4107,39.172],[-78.4184,39.1567],[-78.4394,39.1321],[-78.4599,39.1134],[-78.5081,39.0886]]]}},{"type":"Feature","id":"54029","properties":{"name":"Hancock","fips":"54029"},"geometry":{"type":"Polygon","coordinates":[[[-80.5191,40.5179],[-80.5187,40.4774],[-80.518,40.3996],[-80.5738,40.3998],[-80.6173,40.396],[-80.6123,40.4349],[-80.5992,40.4826],[-80.6103,40.491],[-80.6669,40.5737],[-80.668,40.5825],[-80.6659,40.5877],[-80.6344,40.6161],[-80.6272,40.6199],[-80.6015,40.6254],[-80.5941,40.6237],[-80.589,40.6201],[-80.5607,40.6237],[-80.519,40.6388],[-80.519,40.6164],[-80.5191,40.6164],[-80.5191,40.5902],[-80.5191,40.5902],[-80.5191,40.5179],[-80.5191,40.5179]]]}},{"type":"Feature","id":"54031","properties":{"name":"Hardy","fips":"54031"},"geometry":{"type":"Polygon","coordinates":[[[-78.5719,39.032],[-78.5658,39.0263],[-78.5542,39.0197],[-78.5576,39.0132],[-78.6017,38.9646],[-78.7109,38.9102],[-78.7141,38.9112],[-78.717,38.9163],[-78.7198,38.9221],[-78.7198,38.9226],[-78.7573,38.9032],[-78.7792,38.8923],[-78.788,38.8851],[-78.8082,38.8562],[-78.8352,38.8115],[-78.8693,38.763],[-78.994,38.8501],[-78.9998,38.8462],[-79.0554,38.7822],[-79.0573,38.7614],[-79.1343,38.8133],[-79.046,38.9287],[-79.0897,39.0382],[-78.9799,39.2376],[-78.8997,39.1991],[-78.5081,39.0886],[-78.5441,39.0567],[-78.5719,39.032]]]}},{"type":"Feature","id":"54033","properties":{"name":"Harrison","fips":"54033"},"geometry":{"type":"Polygon","coordinates":[[[-80.5445,39.4291],[-80.5156,39.4377],[-80.5127,39.4586],[-80.494,39.4611],[-80.4941,39.4696],[-80.2937,39.4343],[-80.1973,39.3932],[-80.1664,39.2423],[-80.2247,39.171],[-80.2272,39.1128],[-80.2404,39.1131],[-80.2488,39.1008],[-80.3002,39.1039],[-80.5961,39.1671],[-80.5257,39.2094],[-80.6037,39.291],[-80.5318,39.3601],[-80.5445,39.4291]]]}},{"type":"Feature","id":"54035","properties":{"name":"Jackson","fips":"54035"},"geometry":{"type":"Polygon","coordinates":[[[-81.5222,38.6127],[-81.6328,38.5544],[-81.6963,38.6264],[-81.7477,38.6841],[-81.7728,38.6808],[-81.9086,38.8785],[-81.8749,38.8812],[-81.76,38.9258],[-81.7561,38.9335],[-81.7643,39.0153],[-81.7729,39.0262],[-81.7933,39.0404],[-81.8034,39.0477],[-81.8117,39.0596],[-81.8142,39.0735],[-81.8124,39.0821],[-81.7473,39.0954],[-81.7473,39.0954],[-81.5814,39.0262],[-81.5026,38.9179],[-81.5466,38.6724],[-81.5222,38.6127]]]}},{"type":"Feature","id":"54037","properties":{"name":"Jefferson","fips":"54037"},"geometry":{"type":"Polygon","coordinates":[[[-77.8078,39.4902],[-77.7654,39.4286],[-77.7392,39.3857],[-77.7604,39.3442],[-77.7606,39.3389],[-77.7558,39.3339],[-77.7274,39.3217],[-77.719,39.3211],[-77.7503,39.2893],[-77.7534,39.2803],[-77.7531,39.278],[-77.7531,39.2773],[-77.7552,39.2752],[-77.7557,39.2746],[-77.7584,39.2692],[-77.7587,39.2681],[-77.7612,39.2637],[-77.7618,39.263],[-77.768,39.2577],[-77.769,39.2564],[-77.7673,39.2494],[-77.7714,39.2368],[-77.8222,39.14],[-77.8282,39.1323],[-78.0328,39.2644],[-78.0332,39.2646],[-78.0332,39.2646],[-77.967,39.3672],[-77.8254,39.494],[-77.8078,39.4902]]]}},{"type":"Feature","id":"54039","properties":{"name":"Kanawha","fips":"54039"},"geometry":{"type":"Polygon","coordinates":[[[-81.5222,38.6127],[-81.4654,38.5499],[-81.1941,38.5276],[-81.2839,38.472],[-81.2314,38.2637],[-81.2316,38.2635],[-81.3315,38.1676],[-81.3808,37.9691],[-81.4143,37.9735],[-81.4385,37.968],[-81.4566,37.9873],[-81.5158,38.1124],[-81.6437,38.2204],[-81.8335,38.2096],[-81.8182,38.3168],[-81.9152,38.3256],[-81.9002,38.3986],[-81.7258,38.4666],[-81.7505,38.591],[-81.6963,38.6264],[-81.6328,38.5544],[-81.5222,38.6127]]]}},{"type":"Feature","id":"54041","properties":{"name":"Lewis","fips":"54041"},"geometry":{"type":"Polygon","coordinates":[[[-80.4573,38.7392],[-80.4461,38.7775],[-80.6058,38.9042],[-80.7168,39.0084],[-80.7283,39.0957],[-80.5961,39.1671],[-80.3002,39.1039],[-80.3175,38.9586],[-80.387,38.8748],[-80.3931,38.7276],[-80.4047,38.7234],[-80.4266,38.731],[-80.4447,38.7267],[-80.4573,38.7392]]]}},{"type":"Feature","id":"54043","properties":{"name":"Lincoln","fips":"54043"},"geometry":{"type":"Polygon","coordinates":[[[-81.9152,38.3256],[-81.8182,38.3168],[-81.8335,38.2096],[-81.9276,38.1525],[-81.9325,38.0254],[-82.1907,37.9748],[-82.3064,37.9436],[-82.2039,38.0236],[-82.2833,38.1419],[-82.2648,38.2292],[-82.1768,38.3396],[-82.0471,38.3744],[-82.0486,38.2901],[-81.9918,38.2691],[-81.9152,38.3256]]]}},{"type":"Feature","id":"54045","properties":{"name":"Logan","fips":"54045"},"geometry":{"type":"Polygon","coordinates":[[[-81.8029,37.6605],[-81.9302,37.682],[-81.9917,37.6427],[-82.0826,37.7016],[-82.1124,37.854],[-82.1907,37.9748],[-81.9325,38.0254],[-81.9797,37.9914],[-81.7856,37.9364],[-81.7221,37.8095],[-81.6075,37.7887],[-81.7647,37.7521],[-81.7017,37.7014],[-81.8029,37.6605]]]}},{"type":"Feature","id":"54049","properties":{"name":"Marion","fips":"54049"},"geometry":{"type":"Polygon","coordinates":[[[-80.4941,39.4696],[-80.4982,39.5633],[-80.3958,39.6373],[-80.1535,39.6104],[-79.9389,39.4525],[-80.0868,39.3865],[-80.1973,39.3932],[-80.2937,39.4343],[-80.4941,39.4696]]]}},{"type":"Feature","id":"54051","properties":{"name":"Marshall","fips":"54051"},"geometry":{"type":"Polygon","coordinates":[[[-80.8286,39.7208],[-80.8123,39.8488],[-80.8062,39.8973],[-80.8096,39.9056],[-80.8087,39.9126],[-80.806,39.9171],[-80.7595,39.9582],[-80.7432,39.9691],[-80.7401,39.9708],[-80.7321,40.0332],[-80.5191,40.0164],[-80.5192,39.9634],[-80.5192,39.9624],[-80.5192,39.9622],[-80.5192,39.9594],[-80.5192,39.9566],[-80.5191,39.9392],[-80.5192,39.937],[-80.5193,39.7214],[-80.8286,39.7208]]]}},{"type":"Feature","id":"54053","properties":{"name":"Mason","fips":"54053"},"geometry":{"type":"Polygon","coordinates":[[[-81.7728,38.6808],[-81.9558,38.6574],[-82.0646,38.608],[-82.0551,38.4745],[-82.219,38.5917],[-82.1938,38.5931],[-82.182,38.5994],[-82.1773,38.6038],[-82.1752,38.6085],[-82.1721,38.6193],[-82.1721,38.626],[-82.1825,38.7088],[-82.1883,38.7341],[-82.1989,38.7577],[-82.2204,38.7737],[-82.2216,38.7872],[-82.2158,38.7975],[-82.1912,38.8151],[-82.1844,38.8165],[-82.1393,38.8664],[-82.0988,38.9583],[-82.0932,38.971],[-82.0516,38.9944],[-82.0457,39.0038],[-82.0416,39.0179],[-82.036,39.0255],[-82.0176,39.0301],[-82.0023,39.0279],[-81.9356,38.9895],[-81.9198,38.9685],[-81.9006,38.9377],[-81.8985,38.9296],[-81.9009,38.9243],[-81.9267,38.9013],[-81.9284,38.8954],[-81.927,38.8916],[-81.9086,38.8785],[-81.7728,38.6808]]]}},{"type":"Feature","id":"54047","properties":{"name":"McDowell","fips":"54047"},"geometry":{"type":"Polygon","coordinates":[[[-81.8559,37.5489],[-81.7294,37.4946],[-81.6544,37.5233],[-81.4658,37.4847],[-81.3112,37.4245],[-81.3622,37.3377],[-81.3663,37.3359],[-81.3671,37.3345],[-81.3681,37.3324],[-81.3694,37.3318],[-81.3676,37.3276],[-81.3713,37.3241],[-81.3773,37.3184],[-81.3802,37.3178],[-81.3841,37.3186],[-81.3849,37.3188],[-81.3858,37.3201],[-81.3867,37.3205],[-81.3881,37.3199],[-81.4092,37.2861],[-81.4097,37.2848],[-81.5042,37.2501],[-81.5049,37.2477],[-81.5073,37.2338],[-81.5573,37.2077],[-81.5584,37.2081],[-81.5606,37.2067],[-81.6786,37.2025],[-81.6835,37.2115],[-81.7282,37.2398],[-81.7333,37.2381],[-81.7384,37.2409],[-81.7443,37.2442],[-81.7434,37.2459],[-81.7435,37.2476],[-81.7477,37.2643],[-81.7513,37.2651],[-81.7521,37.2656],[-81.7529,37.2666],[-81.755,37.2677],[-81.7575,37.27],[-81.7577,37.2711],[-81.7577,37.2719],[-81.7576,37.274],[-81.7602,37.2753],[-81.7618,37.2757],[-81.7628,37.2754],[-81.7638,37.2752],[-81.7652,37.2751],[-81.7678,37.2742],[-81.7747,37.2748],[-81.7747,37.2748],[-81.7934,37.2817],[-81.7936,37.2822],[-81.8092,37.283],[-81.8106,37.283],[-81.8423,37.2856],[-81.8432,37.2856],[-81.8541,37.2914],[-81.8535,37.2948],[-81.8545,37.2999],[-81.854,37.3004],[-81.8648,37.3084],[-81.8652,37.3088],[-81.8732,37.3251],[-81.8783,37.3288],[-81.8787,37.3318],[-81.8796,37.3321],[-81.8809,37.3311],[-81.8851,37.3307],[-81.887,37.3307],[-81.8877,37.3312],[-81.8929,37.3301],[-81.8938,37.3301],[-81.8948,37.3314],[-81.8948,37.332],[-81.8955,37.332],[-81.896,37.332],[-81.8995,37.3403],[-81.8995,37.3411],[-81.903,37.3423],[-81.9038,37.343],[-81.9059,37.3428],[-81.9064,37.3428],[-81.9073,37.3431],[-81.9079,37.3438],[-81.9109,37.3487],[-81.9115,37.3488],[-81.9207,37.3554],[-81.9216,37.3564],[-81.9256,37.3573],[-81.9266,37.3589],[-81.9299,37.3666],[-81.9302,37.3667],[-81.9339,37.3727],[-81.9275,37.4133],[-81.9356,37.4384],[-81.9494,37.4457],[-81.9688,37.4515],[-81.987,37.4549],[-81.9923,37.4609],[-81.9966,37.4767],[-81.9929,37.483],[-81.9426,37.5088],[-81.9279,37.5121],[-81.9226,37.5119],[-81.9128,37.5204],[-81.9094,37.527],[-81.898,37.5244],[-81.8892,37.5284],[-81.886,37.5367],[-81.8829,37.5382],[-81.8694,37.5378],[-81.8652,37.5436],[-81.8559,37.5489]]]}},{"type":"Feature","id":"54055","properties":{"name":"Mercer","fips":"54055"},"geometry":{"type":"Polygon","coordinates":[[[-81.2221,37.5104],[-81.1993,37.5745],[-81.0946,37.5887],[-80.8596,37.4296],[-80.8628,37.4118],[-80.8726,37.3723],[-80.8495,37.3469],[-80.9005,37.315],[-80.9193,37.3062],[-80.9479,37.2959],[-80.9666,37.2922],[-80.9739,37.2914],[-80.98,37.2931],[-80.9813,37.2935],[-81.0347,37.2908],[-81.084,37.2844],[-81.1126,37.2785],[-81.167,37.2629],[-81.2048,37.243],[-81.2251,37.2349],[-81.3201,37.2993],[-81.3622,37.3377],[-81.3112,37.4245],[-81.2221,37.5104]]]}},{"type":"Feature","id":"54057","properties":{"name":"Mineral","fips":"54057"},"geometry":{"type":"Polygon","coordinates":[[[-78.9799,39.2376],[-79.1345,39.3125],[-79.28,39.3401],[-79.2569,39.3561],[-79.2132,39.3679],[-79.2017,39.3797],[-79.0845,39.4714],[-79.0671,39.4747],[-79.0424,39.4793],[-79.0257,39.4655],[-78.969,39.4415],[-78.8747,39.5226],[-78.8248,39.5902],[-78.7875,39.6275],[-78.7605,39.61],[-78.769,39.5999],[-78.772,39.5938],[-78.7675,39.5875],[-78.7602,39.5822],[-78.6895,39.5458],[-78.6762,39.5406],[-78.6573,39.5351],[-78.7674,39.4472],[-78.8507,39.3311],[-78.9799,39.2376]]]}},{"type":"Feature","id":"54059","properties":{"name":"Mingo","fips":"54059"},"geometry":{"type":"Polygon","coordinates":[[[-81.8029,37.6605],[-81.8559,37.5489],[-81.8652,37.5436],[-81.8694,37.5378],[-81.8829,37.5382],[-81.886,37.5367],[-81.8892,37.5284],[-81.898,37.5244],[-81.9094,37.527],[-81.9128,37.5204],[-81.9226,37.5119],[-81.9279,37.5121],[-81.9683,37.5378],[-81.9982,37.5431],[-81.9998,37.5426],[-82.0083,37.5334],[-82.0485,37.5311],[-82.1166,37.5596],[-82.1259,37.574],[-82.1256,37.579],[-82.1418,37.5951],[-82.2197,37.643],[-82.2503,37.6578],[-82.297,37.6873],[-82.3072,37.7077],[-82.3257,37.7358],[-82.3264,37.7408],[-82.319,37.7589],[-82.3299,37.7759],[-82.4002,37.8518],[-82.3064,37.9436],[-82.1907,37.9748],[-82.1124,37.854],[-82.0826,37.7016],[-81.9917,37.6427],[-81.9302,37.682],[-81.8029,37.6605]]]}},{"type":"Feature","id":"54061","properties":{"name":"Monongalia","fips":"54061"},"geometry":{"type":"Polygon","coordinates":[[[-80.3958,39.6373],[-80.4214,39.7212],[-80.3095,39.7213],[-80.3087,39.7213],[-79.9163,39.7208],[-79.8531,39.7207],[-79.8529,39.7207],[-79.7638,39.7208],[-79.7893,39.6238],[-79.8997,39.4819],[-79.8947,39.4356],[-79.9389,39.4525],[-80.1535,39.6104],[-80.3958,39.6373]]]}},{"type":"Feature","id":"54063","properties":{"name":"Monroe","fips":"54063"},"geometry":{"type":"Polygon","coordinates":[[[-80.6633,37.7317],[-80.4507,37.6839],[-80.2961,37.6918],[-80.2923,37.684],[-80.2923,37.6837],[-80.2703,37.649],[-80.2704,37.6489],[-80.2675,37.6461],[-80.2672,37.646],[-80.2649,37.6455],[-80.2648,37.6455],[-80.2633,37.6451],[-80.2633,37.6451],[-80.2545,37.6423],[-80.2544,37.6424],[-80.2393,37.6377],[-80.221,37.6278],[-80.2234,37.6232],[-80.2403,37.607],[-80.2888,37.582],[-80.3124,37.5462],[-80.3303,37.5362],[-80.3148,37.5009],[-80.3206,37.4989],[-80.4257,37.4499],[-80.443,37.4381],[-80.4648,37.4261],[-80.4756,37.4229],[-80.4949,37.4351],[-80.5114,37.4817],[-80.6227,37.4333],[-80.7701,37.3724],[-80.7766,37.3837],[-80.7768,37.3841],[-80.7989,37.3958],[-80.8116,37.4075],[-80.8584,37.4282],[-80.8585,37.4283],[-80.6604,37.7146],[-80.6633,37.7317]]]}},{"type":"Feature","id":"54065","properties":{"name":"Morgan","fips":"54065"},"geometry":{"type":"Polygon","coordinates":[[[-78.3471,39.466],[-78.4686,39.5168],[-78.4369,39.539],[-78.432,39.5611],[-78.4502,39.5709],[-78.4544,39.5743],[-78.4585,39.5812],[-78.4572,39.5874],[-78.4303,39.6233],[-78.3552,39.6406],[-78.334,39.6358],[-78.313,39.631],[-78.283,39.6205],[-78.2711,39.6196],[-78.2243,39.6633],[-78.1911,39.6903],[-78.1828,39.6951],[-78.1766,39.696],[-78.1435,39.6904],[-78.1078,39.6821],[-78.0746,39.6667],[-78.036,39.6357],[-78.0234,39.6199],[-78.1389,39.5938],[-78.2288,39.3912],[-78.3471,39.466]]]}},{"type":"Feature","id":"54067","properties":{"name":"Nicholas","fips":"54067"},"geometry":{"type":"Polygon","coordinates":[[[-81.2316,38.2635],[-81.2314,38.2637],[-80.9114,38.4148],[-80.8174,38.4786],[-80.8812,38.507],[-80.7852,38.5576],[-80.6508,38.5266],[-80.6783,38.5035],[-80.6094,38.3586],[-80.4365,38.2673],[-80.712,38.0791],[-80.8822,38.1035],[-80.9835,38.2225],[-81.0705,38.2101],[-81.2316,38.2635]]]}},{"type":"Feature","id":"54069","properties":{"name":"Ohio","fips":"54069"},"geometry":{"type":"Polygon","coordinates":[[[-80.7055,40.153],[-80.7031,40.1572],[-80.6854,40.1876],[-80.5191,40.1597],[-80.519,40.0781],[-80.519,40.077],[-80.5191,40.0164],[-80.7321,40.0332],[-80.7315,40.0375],[-80.7309,40.0492],[-80.7331,40.0588],[-80.7265,40.0891],[-80.7055,40.153]]]}},{"type":"Feature","id":"54071","properties":{"name":"Pendleton","fips":"54071"},"geometry":{"type":"Polygon","coordinates":[[[-79.1343,38.8133],[-79.0573,38.7614],[-79.0926,38.7001],[-79.0923,38.6992],[-79.1355,38.6441],[-79.1355,38.6437],[-79.1364,38.6424],[-79.137,38.6407],[-79.1467,38.6258],[-79.147,38.6256],[-79.1745,38.5665],[-79.1749,38.5663],[-79.2079,38.5004],[-79.2079,38.5001],[-79.2097,38.4956],[-79.21,38.4943],[-79.21,38.4942],[-79.2258,38.4794],[-79.2316,38.474],[-79.2344,38.473],[-79.2401,38.4698],[-79.242,38.4643],[-79.2629,38.4446],[-79.2634,38.4438],[-79.2653,38.4418],[-79.2674,38.4383],[-79.2827,38.431],[-79.2803,38.4255],[-79.2905,38.4208],[-79.2918,38.4196],[-79.2957,38.4181],[-79.2978,38.4164],[-79.3123,38.4119],[-79.4766,38.4572],[-79.5215,38.5339],[-79.5369,38.5509],[-79.5555,38.5602],[-79.598,38.5728],[-79.6491,38.5915],[-79.6268,38.6642],[-79.5101,38.7807],[-79.5391,38.8414],[-79.4555,38.9299],[-79.3499,38.9575],[-79.1343,38.8133]]]}},{"type":"Feature","id":"54073","properties":{"name":"Pleasants","fips":"54073"},"geometry":{"type":"Polygon","coordinates":[[[-81.2395,39.2683],[-81.3713,39.3421],[-81.3569,39.3432],[-81.3476,39.3458],[-81.2954,39.3753],[-81.2707,39.3859],[-81.2491,39.39],[-81.2236,39.3861],[-81.2156,39.3886],[-81.1277,39.4649],[-81.0293,39.4674],[-81.0078,39.3509],[-81.2395,39.2683]]]}},{"type":"Feature","id":"54075","properties":{"name":"Pocahontas","fips":"54075"},"geometry":{"type":"Polygon","coordinates":[[[-80.2455,38.3885],[-80.1169,38.474],[-80.0292,38.4592],[-79.8632,38.5508],[-79.7818,38.7369],[-79.7392,38.6796],[-79.6268,38.6642],[-79.6491,38.5915],[-79.6691,38.511],[-79.6691,38.5109],[-79.6956,38.4778],[-79.699,38.4751],[-79.6882,38.4505],[-79.689,38.4495],[-79.6895,38.4425],[-79.6914,38.4396],[-79.7317,38.3741],[-79.8087,38.3094],[-79.8101,38.305],[-79.7889,38.2687],[-79.7901,38.2677],[-79.7946,38.2649],[-79.892,38.2034],[-79.8923,38.2024],[-79.9162,38.1844],[-79.9171,38.1837],[-79.9212,38.1804],[-79.921,38.18],[-79.9253,38.1505],[-79.9255,38.1502],[-79.9287,38.1449],[-79.9287,38.1444],[-79.9338,38.1355],[-79.9384,38.1306],[-79.931,38.1014],[-79.9339,38.0992],[-79.9598,38.0637],[-80.1692,38.0361],[-80.2647,38.0466],[-80.3633,38.1143],[-80.36,38.2258],[-80.3522,38.3453],[-80.2455,38.3885]]]}},{"type":"Feature","id":"54077","properties":{"name":"Preston","fips":"54077"},"geometry":{"type":"Polygon","coordinates":[[[-79.8955,39.2996],[-79.8947,39.4356],[-79.8997,39.4819],[-79.7893,39.6238],[-79.7638,39.7208],[-79.6106,39.7212],[-79.6082,39.7212],[-79.4767,39.7211],[-79.4789,39.5317],[-79.4824,39.5247],[-79.4826,39.5214],[-79.4877,39.2799],[-79.4867,39.2781],[-79.4862,39.265],[-79.4859,39.2649],[-79.4869,39.206],[-79.4872,39.1949],[-79.6873,39.2714],[-79.8097,39.2305],[-79.8955,39.2996]]]}},{"type":"Feature","id":"54079","properties":{"name":"Putnam","fips":"54079"},"geometry":{"type":"Polygon","coordinates":[[[-81.6963,38.6264],[-81.7505,38.591],[-81.7258,38.4666],[-81.9002,38.3986],[-81.9152,38.3256],[-81.9918,38.2691],[-82.0486,38.2901],[-82.0471,38.3744],[-82.0551,38.4745],[-82.0646,38.608],[-81.9558,38.6574],[-81.7728,38.6808],[-81.7477,38.6841],[-81.6963,38.6264]]]}},{"type":"Feature","id":"54081","properties":{"name":"Raleigh","fips":"54081"},"geometry":{"type":"Polygon","coordinates":[[[-81.4566,37.9873],[-81.4385,37.968],[-81.4143,37.9735],[-81.3808,37.9691],[-81.2966,37.944],[-81.2951,37.8893],[-81.0732,37.8759],[-81.091,37.8497],[-80.9451,37.8191],[-80.8823,37.6808],[-80.947,37.7154],[-81.0946,37.5887],[-81.1993,37.5745],[-81.2221,37.5104],[-81.3041,37.5466],[-81.4278,37.7494],[-81.5142,37.7912],[-81.5713,37.9281],[-81.4566,37.9873]]]}},{"type":"Feature","id":"54083","properties":{"name":"Randolph","fips":"54083"},"geometry":{"type":"Polygon","coordinates":[[[-79.8251,39.1158],[-79.7857,39.0374],[-79.5088,38.9752],[-79.3577,38.9645],[-79.3496,38.9587],[-79.3499,38.9575],[-79.4555,38.9299],[-79.5391,38.8414],[-79.5101,38.7807],[-79.6268,38.6642],[-79.7392,38.6796],[-79.7818,38.7369],[-79.8632,38.5508],[-80.0292,38.4592],[-80.1169,38.474],[-80.2455,38.3885],[-80.1839,38.5254],[-80.2801,38.6949],[-80.2368,38.7438],[-80.1261,38.7458],[-80.0851,38.9472],[-79.8961,38.9734],[-79.8251,39.1158]]]}},{"type":"Feature","id":"54085","properties":{"name":"Ritchie","fips":"54085"},"geometry":{"type":"Polygon","coordinates":[[[-81.298,39.1856],[-81.2395,39.2683],[-81.0078,39.3509],[-80.9321,39.3891],[-80.8887,39.2943],[-80.9138,39.2729],[-80.813,39.1094],[-81.0336,39.0096],[-81.1625,39.0306],[-81.2503,39.0351],[-81.3288,39.1526],[-81.298,39.1856]]]}},{"type":"Feature","id":"54087","properties":{"name":"Roane","fips":"54087"},"geometry":{"type":"Polygon","coordinates":[[[-81.5222,38.6127],[-81.5466,38.6724],[-81.5026,38.9179],[-81.4481,38.9416],[-81.3439,38.8956],[-81.2784,38.9149],[-81.1718,38.7398],[-81.1588,38.6445],[-81.0837,38.612],[-81.1308,38.5659],[-81.1941,38.5276],[-81.4654,38.5499],[-81.5222,38.6127]]]}},{"type":"Feature","id":"54089","properties":{"name":"Summers","fips":"54089"},"geometry":{"type":"Polygon","coordinates":[[[-80.9451,37.8191],[-80.8063,37.8689],[-80.6633,37.7317],[-80.6604,37.7146],[-80.8585,37.4283],[-80.8596,37.4296],[-80.8596,37.4296],[-81.0946,37.5887],[-80.947,37.7154],[-80.8823,37.6808],[-80.9451,37.8191]]]}},{"type":"Feature","id":"54091","properties":{"name":"Taylor","fips":"54091"},"geometry":{"type":"Polygon","coordinates":[[[-79.9389,39.4525],[-79.8947,39.4356],[-79.8955,39.2996],[-80.0234,39.2479],[-80.1664,39.2423],[-80.1973,39.3932],[-80.0868,39.3865],[-79.9389,39.4525]]]}},{"type":"Feature","id":"54093","properties":{"name":"Tucker","fips":"54093"},"geometry":{"type":"Polygon","coordinates":[[[-79.8097,39.2305],[-79.6873,39.2714],[-79.4872,39.1949],[-79.2893,39.1897],[-79.3555,39.0865],[-79.2982,39.0732],[-79.3577,38.9645],[-79.5088,38.9752],[-79.7857,39.0374],[-79.8251,39.1158],[-79.8097,39.2305]]]}},{"type":"Feature","id":"54095","properties":{"name":"Tyler","fips":"54095"},"geometry":{"type":"Polygon","coordinates":[[[-80.8887,39.2943],[-80.9321,39.3891],[-81.0078,39.3509],[-81.0293,39.4674],[-81.1277,39.4649],[-81.0636,39.5205],[-81.0387,39.5405],[-81.0201,39.5554],[-80.9438,39.6069],[-80.8522,39.602],[-80.7205,39.4812],[-80.6186,39.4504],[-80.8887,39.2943]]]}},{"type":"Feature","id":"54097","properties":{"name":"Upshur","fips":"54097"},"geometry":{"type":"Polygon","coordinates":[[[-80.3002,39.1039],[-80.2488,39.1008],[-80.2404,39.1131],[-80.2272,39.1128],[-80.1282,39.0378],[-80.0558,39.0372],[-80.0851,38.9472],[-80.1261,38.7458],[-80.2368,38.7438],[-80.2801,38.6949],[-80.3931,38.7276],[-80.387,38.8748],[-80.3175,38.9586],[-80.3002,39.1039]]]}},{"type":"Feature","id":"54099","properties":{"name":"Wayne","fips":"54099"},"geometry":{"type":"Polygon","coordinates":[[[-82.2648,38.2292],[-82.2833,38.1419],[-82.2039,38.0236],[-82.3064,37.9436],[-82.4002,37.8518],[-82.4177,37.8707],[-82.4747,37.9104],[-82.5004,37.9365],[-82.4974,37.9453],[-82.4973,37.9455],[-82.465,37.9769],[-82.4641,37.9824],[-82.4655,37.9848],[-82.4877,37.9983],[-82.5098,38.0012],[-82.5197,38.0085],[-82.5391,38.0391],[-82.5473,38.0611],[-82.6001,38.1174],[-82.6026,38.1183],[-82.6212,38.1232],[-82.6365,38.1379],[-82.6447,38.1655],[-82.6042,38.2473],[-82.595,38.2455],[-82.584,38.2464],[-82.5783,38.2548],[-82.5747,38.2639],[-82.5719,38.3158],[-82.593,38.3751],[-82.5954,38.3827],[-82.5954,38.3827],[-82.5971,38.4129],[-82.5963,38.4177],[-82.5937,38.4218],[-82.5607,38.4043],[-82.5202,38.4076],[-82.5067,38.4101],[-82.3439,38.3052],[-82.2979,38.3274],[-82.2648,38.2292]]]}},{"type":"Feature","id":"54101","properties":{"name":"Webster","fips":"54101"},"geometry":{"type":"Polygon","coordinates":[[[-80.4365,38.2673],[-80.6094,38.3586],[-80.6783,38.5035],[-80.6508,38.5266],[-80.5087,38.6456],[-80.4573,38.7392],[-80.4447,38.7267],[-80.4266,38.731],[-80.4047,38.7234],[-80.3931,38.7276],[-80.2801,38.6949],[-80.1839,38.5254],[-80.2455,38.3885],[-80.3522,38.3453],[-80.36,38.2258],[-80.4365,38.2673]]]}},{"type":"Feature","id":"54103","properties":{"name":"Wetzel","fips":"54103"},"geometry":{"type":"Polygon","coordinates":[[[-80.4941,39.4696],[-80.494,39.4611],[-80.5127,39.4586],[-80.5156,39.4377],[-80.5445,39.4291],[-80.6186,39.4504],[-80.7205,39.4812],[-80.8522,39.602],[-80.9438,39.6069],[-80.8922,39.6168],[-80.8804,39.6207],[-80.8319,39.7057],[-80.8298,39.7118],[-80.8286,39.7208],[-80.5193,39.7214],[-80.4214,39.7212],[-80.3958,39.6373],[-80.4982,39.5633],[-80.4941,39.4696]]]}},{"type":"Feature","id":"54105","properties":{"name":"Wirt","fips":"54105"},"geometry":{"type":"Polygon","coordinates":[[[-81.5026,38.9179],[-81.5814,39.0262],[-81.4249,39.1357],[-81.298,39.1856],[-81.3288,39.1526],[-81.2503,39.0351],[-81.1625,39.0306],[-81.2784,38.9149],[-81.3439,38.8956],[-81.4481,38.9416],[-81.5026,38.9179]]]}},{"type":"Feature","id":"54107","properties":{"name":"Wood","fips":"54107"},"geometry":{"type":"Polygon","coordinates":[[[-81.7473,39.0954],[-81.7497,39.1807],[-81.7499,39.1865],[-81.7401,39.1907],[-81.7216,39.2124],[-81.6957,39.2429],[-81.6058,39.2759],[-81.5423,39.3529],[-81.4677,39.4038],[-81.4561,39.4093],[-81.4465,39.4104],[-81.4356,39.4085],[-81.4127,39.3946],[-81.4067,39.3881],[-81.3938,39.3517],[-81.3846,39.3434],[-81.376,39.3417],[-81.3713,39.3421],[-81.2395,39.2683],[-81.298,39.1856],[-81.4249,39.1357],[-81.5814,39.0262],[-81.7473,39.0954]]]}},{"type":"Feature","id":"54109","properties":{"name":"Wyoming","fips":"54109"},"geometry":{"type":"Polygon","coordinates":[[[-81.5142,37.7912],[-81.4278,37.7494],[-81.3041,37.5466],[-81.2221,37.5104],[-81.3112,37.4245],[-81.4658,37.4847],[-81.6544,37.5233],[-81.7294,37.4946],[-81.8559,37.5489],[-81.8029,37.6605],[-81.7017,37.7014],[-81.7647,37.7521],[-81.6075,37.7887],[-81.5142,37.7912]]]}}]}