{"type":"FeatureCollection","features":[{"type":"Feature","id":"56001","properties":{"name":"Albany","fips":"56001"},"geometry":{"type":"Polygon","coordinates":[[[-105.2839,42.4314],[-105.2738,42.0888],[-105.2782,41.6567],[-105.2769,40.9982],[-105.2771,40.9982],[-105.7248,40.9969],[-105.7304,40.9969],[-106.0612,40.997],[-106.1906,40.9981],[-106.3212,40.9991],[-106.3229,41.3951],[-106.0684,41.395],[-106.0749,42.1264],[-106.0734,42.4332],[-105.556,42.4306],[-105.6139,42.3045],[-105.3755,42.2901],[-105.3326,42.4311],[-105.2839,42.4314]]]}},{"type":"Feature","id":"56003","properties":{"name":"Big Horn","fips":"56003"},"geometry":{"type":"Polygon","coordinates":[[[-107.1468,44.1657],[-108.5506,44.1685],[-108.5738,44.1685],[-108.5734,44.5208],[-108.5925,44.5209],[-108.5923,44.8714],[-108.6213,45.0004],[-108.5785,45.0005],[-108.5659,45.0006],[-108.2493,44.9995],[-108.1257,45.001],[-107.9115,45.0009],[-107.8323,44.7902],[-107.7415,44.7144],[-107.6159,44.7013],[-107.3696,44.5598],[-107.3043,44.4638],[-107.2001,44.442],[-107.145,44.324],[-107.1468,44.1657]]]}},{"type":"Feature","id":"56005","properties":{"name":"Campbell","fips":"56005"},"geometry":{"type":"Polygon","coordinates":[[[-105.0766,45.0003],[-105.0822,44.1762],[-105.0793,44.1762],[-105.0798,43.4984],[-106.0174,43.495],[-106.0092,43.8216],[-106.0165,44.1697],[-106.0097,44.564],[-106.0248,44.9937],[-105.9282,44.9936],[-105.919,44.9978],[-105.8481,45.0004],[-105.0766,45.0003]]]}},{"type":"Feature","id":"56007","properties":{"name":"Carbon","fips":"56007"},"geometry":{"type":"Polygon","coordinates":[[[-107.0006,41.0034],[-107.3178,41.003],[-107.9184,41.002],[-107.9297,41.6596],[-107.5097,41.6575],[-107.5038,42.088],[-107.5227,42.2618],[-107.5229,42.4344],[-106.6548,42.4311],[-106.0759,42.4332],[-106.0734,42.4332],[-106.0749,42.1264],[-106.0684,41.395],[-106.3229,41.3951],[-106.3212,40.9991],[-106.3864,41.0011],[-106.3919,41.0012],[-106.4309,41.0018],[-106.4374,41.0018],[-106.4396,41.002],[-106.4539,41.0021],[-106.8578,41.0031],[-107.0006,41.0034]]]}},{"type":"Feature","id":"56009","properties":{"name":"Converse","fips":"56009"},"geometry":{"type":"Polygon","coordinates":[[[-105.0798,43.4984],[-104.8999,43.4996],[-104.8924,42.6089],[-105.2865,42.6058],[-105.2839,42.4314],[-105.3326,42.4311],[-105.3755,42.2901],[-105.6139,42.3045],[-105.556,42.4306],[-106.0734,42.4332],[-106.0759,42.4332],[-106.0727,42.7782],[-106.0781,43.4945],[-106.0506,43.4948],[-106.0174,43.495],[-105.0798,43.4984]]]}},{"type":"Feature","id":"56011","properties":{"name":"Crook","fips":"56011"},"geometry":{"type":"Polygon","coordinates":[[[-104.0558,44.6913],[-104.0559,44.571],[-104.0559,44.5433],[-104.0559,44.5177],[-104.0545,44.1804],[-105.0793,44.1762],[-105.0822,44.1762],[-105.0766,45.0003],[-105.0384,45.0003],[-105.0253,45.0003],[-105.0193,45.0003],[-105.0182,45.0004],[-104.7651,44.9992],[-104.7599,44.9991],[-104.6652,44.9986],[-104.6639,44.9989],[-104.4704,44.9985],[-104.4701,44.9985],[-104.0577,44.9974],[-104.056,44.7682],[-104.056,44.768],[-104.0559,44.7237],[-104.0559,44.7234],[-104.0558,44.7005],[-104.0559,44.6939],[-104.0558,44.6913]]]}},{"type":"Feature","id":"56013","properties":{"name":"Fremont","fips":"56013"},"geometry":{"type":"Polygon","coordinates":[[[-109.0439,42.2637],[-109.0438,42.4336],[-109.0695,42.4335],[-109.0729,42.6935],[-109.3154,42.8561],[-109.3707,42.9457],[-109.5526,43.0125],[-109.5605,43.0835],[-109.6515,43.167],[-109.6927,43.265],[-109.6949,43.3662],[-109.7545,43.3659],[-109.7547,43.4632],[-110.0516,43.4648],[-110.0532,44.008],[-109.9901,43.9491],[-109.8588,43.958],[-109.8162,43.882],[-109.8435,43.8199],[-109.7899,43.8033],[-109.6659,43.8457],[-109.6418,43.9228],[-109.5423,43.9614],[-109.3129,43.8133],[-109.1714,43.6992],[-109.1716,43.6198],[-108.9341,43.6192],[-108.8143,43.6053],[-108.8143,43.5756],[-108.6947,43.5758],[-108.6951,43.5323],[-108.5762,43.5326],[-108.5762,43.5033],[-108.457,43.5032],[-108.457,43.4743],[-108.3379,43.4598],[-107.5951,43.4723],[-107.5951,43.5014],[-107.5349,43.5014],[-107.535,43.4728],[-107.517,43.4727],[-107.5167,43.128],[-107.5023,43.1281],[-107.5014,42.7815],[-107.5435,42.7816],[-107.542,42.4344],[-107.5229,42.4344],[-107.5227,42.2618],[-108.3757,42.2637],[-109.0439,42.2637]]]}},{"type":"Feature","id":"56015","properties":{"name":"Goshen","fips":"56015"},"geometry":{"type":"Polygon","coordinates":[[[-104.0528,41.7334],[-104.0528,41.698],[-104.0529,41.6452],[-104.0529,41.6382],[-104.053,41.6229],[-104.0527,41.6137],[-104.0529,41.5923],[-104.0525,41.5643],[-104.653,41.565],[-104.6533,41.653],[-104.655,42.2168],[-104.6556,42.6095],[-104.6124,42.6088],[-104.0528,42.6118],[-104.0528,42.6116],[-104.0528,42.6108],[-104.0528,42.2582],[-104.0528,42.25],[-104.0528,42.1703],[-104.0525,42.1668],[-104.053,42.1373],[-104.0527,42.1338],[-104.0526,42.125],[-104.053,42.0891],[-104.053,42.075],[-104.0529,42.0218],[-104.0527,42.0163],[-104.0527,42.0017],[-104.0527,41.9987],[-104.0528,41.995],[-104.0528,41.9946],[-104.0529,41.976],[-104.0527,41.973],[-104.053,41.915],[-104.0529,41.9061],[-104.053,41.8855],[-104.0528,41.7334]]]}},{"type":"Feature","id":"56017","properties":{"name":"Hot Springs","fips":"56017"},"geometry":{"type":"Polygon","coordinates":[[[-108.5508,44.0794],[-108.4903,44.0798],[-108.4894,43.9919],[-108.4271,43.9921],[-108.4296,43.9034],[-108.3094,43.9033],[-108.3097,43.8466],[-108.1853,43.8483],[-108.1749,43.819],[-107.9564,43.8187],[-107.9566,43.7334],[-107.7159,43.7333],[-107.7162,43.6458],[-107.5952,43.6464],[-107.5951,43.5014],[-107.5951,43.4723],[-108.3379,43.4598],[-108.457,43.4743],[-108.457,43.5032],[-108.5762,43.5033],[-108.5762,43.5326],[-108.6951,43.5323],[-108.6947,43.5758],[-108.8143,43.5756],[-108.8143,43.6053],[-108.9341,43.6192],[-109.1716,43.6198],[-109.1714,43.6992],[-109.3129,43.8133],[-109.0936,43.8176],[-109.0929,43.9045],[-108.9128,43.9048],[-108.916,43.9909],[-108.7918,43.9911],[-108.7923,44.0796],[-108.5508,44.0794]]]}},{"type":"Feature","id":"56019","properties":{"name":"Johnson","fips":"56019"},"geometry":{"type":"Polygon","coordinates":[[[-106.0781,43.4945],[-107.1109,43.4924],[-107.1107,43.5003],[-107.1286,44.1657],[-107.1468,44.1657],[-107.145,44.324],[-107.2001,44.442],[-107.3043,44.4638],[-107.3696,44.5598],[-106.4289,44.5568],[-106.0097,44.564],[-106.0165,44.1697],[-106.0092,43.8216],[-106.0174,43.495],[-106.0506,43.4948],[-106.0781,43.4945]]]}},{"type":"Feature","id":"56021","properties":{"name":"Laramie","fips":"56021"},"geometry":{"type":"Polygon","coordinates":[[[-104.6533,41.653],[-104.653,41.565],[-104.0525,41.5643],[-104.0525,41.5527],[-104.0526,41.5526],[-104.0527,41.5412],[-104.0527,41.5391],[-104.0525,41.5223],[-104.0525,41.5158],[-104.0523,41.4179],[-104.0522,41.4077],[-104.0523,41.3933],[-104.0523,41.3932],[-104.0523,41.3211],[-104.0525,41.321],[-104.0526,41.3162],[-104.0525,41.2782],[-104.0526,41.278],[-104.0527,41.2753],[-104.0531,41.1145],[-104.0531,41.105],[-104.053,41.0903],[-104.0532,41.0897],[-104.0531,41.018],[-104.0532,41.0168],[-104.0532,41.0014],[-104.067,41.0015],[-104.0861,41.0016],[-104.1046,41.0015],[-104.1236,41.0016],[-104.2115,41.0016],[-104.2142,41.0016],[-104.2147,41.0017],[-104.4971,41.0018],[-104.4971,41.0018],[-104.8825,40.9982],[-104.9434,40.9982],[-105.2548,40.9982],[-105.2565,40.9982],[-105.2769,40.9982],[-105.2782,41.6567],[-104.6533,41.653]]]}},{"type":"Feature","id":"56023","properties":{"name":"Lincoln","fips":"56023"},"geometry":{"type":"Polygon","coordinates":[[[-110.5787,43.2352],[-110.588,43.1261],[-110.5877,42.7792],[-110.6235,42.7102],[-110.5901,42.7101],[-110.5416,42.2775],[-110.0537,42.2707],[-110.048,41.578],[-110.0628,41.5775],[-111.0464,41.5798],[-111.0467,42.0016],[-111.0471,42.1425],[-111.0471,42.149],[-111.0471,42.1827],[-111.0471,42.1948],[-111.0471,42.2808],[-111.0471,42.3494],[-111.0462,42.5131],[-111.044,42.9644],[-111.044,42.9695],[-111.0439,42.9751],[-111.0441,43.0187],[-111.0442,43.0201],[-111.0442,43.0226],[-111.044,43.0246],[-111.044,43.0248],[-111.044,43.0264],[-111.0441,43.0293],[-111.044,43.0414],[-111.0441,43.0446],[-111.0441,43.0463],[-111.0441,43.0548],[-111.0441,43.0603],[-111.0442,43.0662],[-111.0442,43.0682],[-111.0441,43.0724],[-111.0442,43.1771],[-111.0443,43.1772],[-111.0442,43.1844],[-111.0442,43.1892],[-111.0442,43.1956],[-111.0446,43.3157],[-110.814,43.3159],[-110.814,43.2352],[-110.5787,43.2352]]]}},{"type":"Feature","id":"56025","properties":{"name":"Natrona","fips":"56025"},"geometry":{"type":"Polygon","coordinates":[[[-106.0759,42.4332],[-106.6548,42.4311],[-107.5229,42.4344],[-107.542,42.4344],[-107.5435,42.7816],[-107.5014,42.7815],[-107.5023,43.1281],[-107.5167,43.128],[-107.517,43.4727],[-107.535,43.4728],[-107.5349,43.5014],[-107.1107,43.5003],[-107.1109,43.4924],[-106.0781,43.4945],[-106.0727,42.7782],[-106.0759,42.4332]]]}},{"type":"Feature","id":"56027","properties":{"name":"Niobrara","fips":"56027"},"geometry":{"type":"Polygon","coordinates":[[[-104.6556,42.6095],[-104.8924,42.6089],[-104.8999,43.4996],[-104.0548,43.5033],[-104.0548,43.5031],[-104.0548,43.4778],[-104.0548,43.4289],[-104.0546,43.3909],[-104.0544,43.3259],[-104.0542,43.3044],[-104.0539,43.297],[-104.0539,43.2898],[-104.0531,43.0006],[-104.0529,42.7546],[-104.0528,42.75],[-104.0526,42.6501],[-104.0527,42.634],[-104.0526,42.6309],[-104.0528,42.6118],[-104.6124,42.6088],[-104.6556,42.6095]]]}},{"type":"Feature","id":"56029","properties":{"name":"Park","fips":"56029"},"geometry":{"type":"Polygon","coordinates":[[[-110.0532,44.008],[-110.0534,44.1326],[-110.1192,44.1326],[-110.1113,44.1994],[-110.1511,44.2925],[-110.2966,44.4313],[-110.2948,44.5469],[-110.3753,44.583],[-110.6679,44.5828],[-110.6679,44.6663],[-111.0555,44.6663],[-111.0569,44.8667],[-111.0556,44.9336],[-111.0562,44.9359],[-111.0443,45.0013],[-110.8758,45.0021],[-110.7508,44.9979],[-110.7053,44.9923],[-110.5524,44.9922],[-110.5472,44.9925],[-110.2213,44.9962],[-110.1101,45.0039],[-110.0263,45.0037],[-110.0255,45.0036],[-109.7987,45.0022],[-109.2693,45.0053],[-109.2634,45.0053],[-109.1034,45.0059],[-109.083,44.9996],[-109.0623,44.9996],[-108.6213,45.0004],[-108.5923,44.8714],[-108.5925,44.5209],[-108.5734,44.5208],[-108.5738,44.1685],[-108.5506,44.1685],[-108.5508,44.0794],[-108.7923,44.0796],[-108.7918,43.9911],[-108.916,43.9909],[-108.9128,43.9048],[-109.0929,43.9045],[-109.0936,43.8176],[-109.3129,43.8133],[-109.5423,43.9614],[-109.6418,43.9228],[-109.6659,43.8457],[-109.7899,43.8033],[-109.8435,43.8199],[-109.8162,43.882],[-109.8588,43.958],[-109.9901,43.9491],[-110.0532,44.008]]]}},{"type":"Feature","id":"56031","properties":{"name":"Platte","fips":"56031"},"geometry":{"type":"Polygon","coordinates":[[[-104.6533,41.653],[-105.2782,41.6567],[-105.2738,42.0888],[-105.2839,42.4314],[-105.2865,42.6058],[-104.8924,42.6089],[-104.6556,42.6095],[-104.655,42.2168],[-104.6533,41.653]]]}},{"type":"Feature","id":"56033","properties":{"name":"Sheridan","fips":"56033"},"geometry":{"type":"Polygon","coordinates":[[[-106.0097,44.564],[-106.4289,44.5568],[-107.3696,44.5598],[-107.6159,44.7013],[-107.7415,44.7144],[-107.8323,44.7902],[-107.9115,45.0009],[-107.6089,45.0009],[-107.6078,45.0009],[-107.1342,45.0001],[-107.0806,44.9968],[-106.8929,44.9959],[-106.8888,44.9959],[-106.2636,44.9938],[-106.0248,44.9937],[-106.0097,44.564]]]}},{"type":"Feature","id":"56035","properties":{"name":"Sublette","fips":"56035"},"geometry":{"type":"Polygon","coordinates":[[[-110.0516,43.4648],[-109.7547,43.4632],[-109.7545,43.3659],[-109.6949,43.3662],[-109.6927,43.265],[-109.6515,43.167],[-109.5605,43.0835],[-109.5526,43.0125],[-109.3707,42.9457],[-109.3154,42.8561],[-109.0729,42.6935],[-109.0695,42.4335],[-109.0438,42.4336],[-109.0439,42.2637],[-109.4967,42.2633],[-110.0537,42.2707],[-110.5416,42.2775],[-110.5901,42.7101],[-110.6235,42.7102],[-110.5877,42.7792],[-110.588,43.1261],[-110.5787,43.2352],[-110.5784,43.2916],[-110.344,43.2912],[-110.3442,43.3779],[-110.0573,43.3778],[-110.0516,43.4648]]]}},{"type":"Feature","id":"56037","properties":{"name":"Sweetwater","fips":"56037"},"geometry":{"type":"Polygon","coordinates":[[[-110.048,41.578],[-110.0537,42.2707],[-109.4967,42.2633],[-109.0439,42.2637],[-108.3757,42.2637],[-107.5227,42.2618],[-107.5038,42.088],[-107.5097,41.6575],[-107.9297,41.6596],[-107.9184,41.002],[-108.2506,41.0001],[-109.0501,41.0007],[-109.2074,41.0015],[-109.6764,40.9984],[-109.7139,40.9983],[-109.7154,40.9982],[-109.8543,40.9977],[-109.8553,40.9976],[-109.9998,40.9973],[-110.0007,40.9974],[-110.0485,40.9971],[-110.048,41.578]]]}},{"type":"Feature","id":"56039","properties":{"name":"Teton","fips":"56039"},"geometry":{"type":"Polygon","coordinates":[[[-111.0488,44.0604],[-111.0488,44.0608],[-111.0486,44.0629],[-111.0492,44.4358],[-111.0492,44.4381],[-111.049,44.4741],[-111.0552,44.6249],[-111.0555,44.6663],[-110.6679,44.6663],[-110.6679,44.5828],[-110.3753,44.583],[-110.2948,44.5469],[-110.2966,44.4313],[-110.1511,44.2925],[-110.1113,44.1994],[-110.1192,44.1326],[-110.0534,44.1326],[-110.0532,44.008],[-110.0516,43.4648],[-110.0573,43.3778],[-110.3442,43.3779],[-110.344,43.2912],[-110.5784,43.2916],[-110.5787,43.2352],[-110.814,43.2352],[-110.814,43.3159],[-111.0446,43.3157],[-111.0452,43.5011],[-111.0457,43.6591],[-111.0459,43.681],[-111.0461,43.6849],[-111.0461,43.6858],[-111.0461,43.6878],[-111.0464,43.7221],[-111.0464,43.7265],[-111.0463,43.727],[-111.0467,43.8158],[-111.0481,43.9831],[-111.0488,44.0604]]]}},{"type":"Feature","id":"56041","properties":{"name":"Uinta","fips":"56041"},"geometry":{"type":"Polygon","coordinates":[[[-111.0464,41.5798],[-110.0628,41.5775],[-110.048,41.578],[-110.0485,40.9971],[-110.5007,40.9947],[-111.0467,40.998],[-111.0466,41.2517],[-111.0466,41.3607],[-111.0463,41.3777],[-111.0464,41.5798]]]}},{"type":"Feature","id":"56043","properties":{"name":"Washakie","fips":"56043"},"geometry":{"type":"Polygon","coordinates":[[[-108.5508,44.0794],[-108.5506,44.1685],[-107.1468,44.1657],[-107.1286,44.1657],[-107.1107,43.5003],[-107.5349,43.5014],[-107.5951,43.5014],[-107.5952,43.6464],[-107.7162,43.6458],[-107.7159,43.7333],[-107.9566,43.7334],[-107.9564,43.8187],[-108.1749,43.819],[-108.1853,43.8483],[-108.3097,43.8466],[-108.3094,43.9033],[-108.4296,43.9034],[-108.4271,43.9921],[-108.4894,43.9919],[-108.4903,44.0798],[-108.5508,44.0794]]]}},{"type":"Feature","id":"56045","properties":{"name":"Weston","fips":"56045"},"geometry":{"type":"Polygon","coordinates":[[[-104.0551,43.9365],[-104.0551,43.8535],[-104.0551,43.7504],[-104.0551,43.7471],[-104.0549,43.5839],[-104.0549,43.5835],[-104.0548,43.5794],[-104.055,43.5586],[-104.0548,43.5033],[-104.8999,43.4996],[-105.0798,43.4984],[-105.0793,44.1762],[-104.0545,44.1804],[-104.0546,44.1411],[-104.055,43.9381],[-104.0551,43.9365]]]}}]}